store_name,store_number,address,address2,city,state,zip_code,country,phone_number,latitude,longitude,store_hours,other_fields,coming_soon
DESETTA GARDEN SHOP & NURSERY INC,,144 Franklin Place,,Woodmere,NY,11598,United States,(516) 295-1866,40.7127837,-74.0059413,Sunday:11:00 AM - 5:00 PM;Monday:8:00 AM - 6:00 PM;Tuesday:8:00 AM - 6:00 PM;Wednesday:8:00 AM - 6:00 PM;Thursday:8:00 AM - 6:00 PM;Friday:8:00 AM - 6:00 PM;Saturday:7:00 AM - 6:00 PM;,,0
CARDINAL GARDEN CENTER,,272 Milltown Road,,Springfield,NJ,07081,United States,(516) 295-1866,40.7127837,-74.0059413,Sunday:11:00 AM - 5:00 PM;Monday:8:00 AM - 6:00 PM;Tuesday:8:00 AM - 6:00 PM;Wednesday:8:00 AM - 6:00 PM;Thursday:8:00 AM - 6:00 PM;Friday:8:00 AM - 6:00 PM;Saturday:7:00 AM - 6:00 PM;,,0
NORTH HALEDON GENERAL STORE,,20 Manchester Avenue,,North Haledon,NJ,07508,United States,(516) 295-1866,40.7127837,-74.0059413,Sunday:8:00 AM - 2:00 PM;Monday:8:00 AM - 6:00 PM;Tuesday:8:00 AM - 6:00 PM;Wednesday:8:00 AM - 6:00 PM;Thursday:8:00 AM - 6:00 PM;Friday:8:00 AM - 6:00 PM;Saturday:8:00 AM - 6:00 PM;,,0
D & D Nursery,,25 Tuckahoe Road,,Yonkers,NY,10710,United States,(516) 295-1866,40.7127837,-74.0059413,,,0
WESTWOOD SEED AND FEED,,515 Broadway,,Westwood,NJ,07675,United States,(516) 295-1866,40.7127837,-74.0059413,Sunday:11:00 AM - 5:00 PM;Monday:8:00 AM - 6:00 PM;Tuesday:8:00 AM - 6:00 PM;Wednesday:8:00 AM - 6:00 PM;Thursday:8:00 AM - 6:00 PM;Friday:8:00 AM - 6:00 PM;Saturday:7:00 AM - 6:00 PM;,,0
Morristown Agway Store,,176 Ridgedale Ave,,Morristown,NJ,07960,United States,(516) 295-1866,40.7127837,-74.0059413,,,0
Chestnut Vale Feed,,150 Duffy Ave,,Hicksville,NY,11801,United States,(516) 295-1866,40.7127837,-74.0059413,Sunday:Closed;Monday:8:00 AM - 5:00 PM;Tuesday:8:00 AM - 5:00 PM;Wednesday:8:00 AM - 5:00 PM;Thursday:8:00 AM - 5:00 PM;Friday:8:00 AM - 5:00 PM;Saturday:8:00 AM - 3:00 PM;,,0
PET NUTRITION CENTER,,115 East Route 59,,Nanuet,NY,10954,United States,(516) 295-1866,40.7127837,-74.0059413,Sunday:11:00 AM - 5:00 PM;Monday:8:00 AM - 6:00 PM;Tuesday:8:00 AM - 6:00 PM;Wednesday:8:00 AM - 6:00 PM;Thursday:8:00 AM - 6:00 PM;Friday:8:00 AM - 6:00 PM;Saturday:7:00 AM - 6:00 PM;,,0
Bardy Farms,,149 Washington Valley Rd,,Warren,NJ,07059,United States,(516) 295-1866,40.7127837,-74.0059413,Sunday:7:00 AM - 6:00 PM;Monday:7:00 AM - 6:00 PM;Tuesday:7:00 AM - 6:00 PM;Wednesday:7:00 AM - 6:00 PM;Thursday:7:00 AM - 6:00 PM;Friday:7:00 AM - 6:00 PM;Saturday:7:00 AM - 6:00 PM;,,0
GLENWILD GARDENS INC,,104 Glenwild Ave,,Bloomingdale,NJ,07403,United States,(516) 295-1866,40.7127837,-74.0059413,Sunday:11:00 AM - 5:00 PM;Monday:8:00 AM - 6:00 PM;Tuesday:8:00 AM - 6:00 PM;Wednesday:8:00 AM - 6:00 PM;Thursday:8:00 AM - 6:00 PM;Friday:8:00 AM - 6:00 PM;Saturday:7:00 AM - 6:00 PM;,,0
M F A INC,,201 Ray Young Dr,,Columbia,MO,65201,United States,(618) 997-6974,34.0522342,-118.2436849,Sunday:Closed;Monday:8:00 AM - 5:00 PM;Tuesday:8:00 AM - 5:00 PM;Wednesday:8:00 AM - 5:00 PM;Thursday:8:00 AM - 5:00 PM;Friday:8:00 AM - 5:00 PM;Saturday:8:00 AM - 12:00 PM;,,0
McKinney's Western Store,,802 Halfway Road,,Marion,IL,62659,United States,(618) 997-6974,34.0522342,-118.2436849,Sunday:Closed;Monday:8:00 AM - 5:00 PM;Tuesday:8:00 AM - 5:00 PM;Wednesday:8:00 AM - 5:00 PM;Thursday:8:00 AM - 5:00 PM;Friday:8:00 AM - 5:00 PM;Saturday:8:00 AM - 12:00 PM;,,0
Marshall County Soil Improvement Assoc.,,501 Poplar Street,,Benton,KY,42025,United States,(618) 997-6974,34.0522342,-118.2436849,Sunday:Closed;Monday:8:00 AM - 5:00 PM;Tuesday:8:00 AM - 5:00 PM;Wednesday:8:00 AM - 5:00 PM;Thursday:8:00 AM - 5:00 PM;Friday:8:00 AM - 5:00 PM;Saturday:8:00 AM - 12:00 PM;,,0
Posey Co Farm Bureau,,817 West Fourth St,,Mt. Vernon,IN,47620,United States,(618) 997-6974,34.0522342,-118.2436849,Sunday:Closed;Monday:8:00 AM - 5:00 PM;Tuesday:8:00 AM - 5:00 PM;Wednesday:8:00 AM - 5:00 PM;Thursday:8:00 AM - 5:00 PM;Friday:8:00 AM - 5:00 PM;Saturday:8:00 AM - 12:00 PM;,,0
Calhoun Feed Service,,515 Nebo Road,,Madisonville,KY,42431,United States,(618) 997-6974,34.0522342,-118.2436849,Sunday:Closed;Monday:8:00 AM - 5:00 PM;Tuesday:8:00 AM - 5:00 PM;Wednesday:8:00 AM - 5:00 PM;Thursday:8:00 AM - 5:00 PM;Friday:8:00 AM - 5:00 PM;Saturday:8:00 AM - 12:00 PM;,,0
"Fayette Ag Services, Inc.",,245 County Road 26 S,,Fayette,AL,35555,United States,(618) 997-6974,34.0522342,-118.2436849,Sunday:Closed;Monday:8:00 AM - 5:00 PM;Tuesday:8:00 AM - 5:00 PM;Wednesday:8:00 AM - 5:00 PM;Thursday:8:00 AM - 5:00 PM;Friday:8:00 AM - 5:00 PM;Saturday:8:00 AM - 12:00 PM;,,0
Superior Ag - Crisney,,511 N Main Street,,Chrisney,IN,47611,United States,(618) 997-6974,34.0522342,-118.2436849,Sunday:Closed;Monday:8:00 AM - 5:00 PM;Tuesday:8:00 AM - 5:00 PM;Wednesday:8:00 AM - 5:00 PM;Thursday:8:00 AM - 5:00 PM;Friday:8:00 AM - 5:00 PM;Saturday:8:00 AM - 12:00 PM;,,0
"Superior Ag Resources Coop, Inc.",,901 N Main St Po Box 420,,Huntingburg,IN,47542,United States,(618) 997-6974,34.0522342,-118.2436849,Sunday:Closed;Monday:8:00 AM - 5:00 PM;Tuesday:8:00 AM - 5:00 PM;Wednesday:8:00 AM - 5:00 PM;Thursday:8:00 AM - 5:00 PM;Friday:8:00 AM - 5:00 PM;Saturday:8:00 AM - 12:00 PM;,,0
Pleasant View Milling Co.,,2605 Church St,,Pleasant View,TN,37146,United States,(618) 997-6974,34.0522342,-118.2436849,Sunday:Closed;Monday:8:00 AM - 5:00 PM;Tuesday:8:00 AM - 5:00 PM;Wednesday:8:00 AM - 5:00 PM;Thursday:8:00 AM - 5:00 PM;Friday:8:00 AM - 5:00 PM;Saturday:8:00 AM - 12:00 PM;,,0
Greensboro Farmers Coop,,9701 Hwy 14 West,,Greensboro,AL,36744,United States,(618) 997-6974,34.0522342,-118.2436849,Sunday:Closed;Monday:8:00 AM - 5:00 PM;Tuesday:8:00 AM - 5:00 PM;Wednesday:8:00 AM - 5:00 PM;Thursday:8:00 AM - 5:00 PM;Friday:8:00 AM - 5:00 PM;Saturday:8:00 AM - 12:00 PM;,,0
McKinney's Western Store,,802 Halfway Road,,Marion,IL,62659,United States,(618) 997-6974,41.8781136,-87.6297982,Sunday:Closed;Monday:8:00 AM - 5:00 PM;Tuesday:8:00 AM - 5:00 PM;Wednesday:8:00 AM - 5:00 PM;Thursday:8:00 AM - 5:00 PM;Friday:8:00 AM - 5:00 PM;Saturday:8:00 AM - 12:00 PM;,,0
MERCER LANDMARK INC - ST HENRY,,218 W Main St,,St Henry,OH,45883-0309,United States,(618) 997-6974,41.8781136,-87.6297982,Sunday:Closed;Monday:8:00 AM - 5:00 PM;Tuesday:8:00 AM - 5:00 PM;Wednesday:8:00 AM - 5:00 PM;Thursday:8:00 AM - 5:00 PM;Friday:8:00 AM - 5:00 PM;Saturday:8:00 AM - 12:00 PM;,,0
MERCER LANDMARK INC,,409 E Main St,,New Weston,OH,45348,United States,(618) 997-6974,41.8781136,-87.6297982,Sunday:Closed;Monday:8:00 AM - 5:00 PM;Tuesday:8:00 AM - 5:00 PM;Wednesday:8:00 AM - 5:00 PM;Thursday:8:00 AM - 5:00 PM;Friday:8:00 AM - 5:00 PM;Saturday:8:00 AM - 12:00 PM;,,0
MERCER LANDMARK INC - CHCKASAW,,State Rt 274,,Chickasaw,OH,45826-0055,United States,(618) 997-6974,41.8781136,-87.6297982,Sunday:Closed;Monday:8:00 AM - 5:00 PM;Tuesday:8:00 AM - 5:00 PM;Wednesday:8:00 AM - 5:00 PM;Thursday:8:00 AM - 5:00 PM;Friday:8:00 AM - 5:00 PM;Saturday:8:00 AM - 12:00 PM;,,0
Riegel Feed & Grain,,307 N Washington St,,New Paris,OH,45347,United States,(618) 997-6974,41.8781136,-87.6297982,,,0
UNION COUNTY COOP,,101 West Campbell Street,,Liberty,IN,47353,United States,(618) 997-6974,41.8781136,-87.6297982,Sunday:Closed;Monday:8:00 AM - 5:00 PM;Tuesday:8:00 AM - 5:00 PM;Wednesday:8:00 AM - 5:00 PM;Thursday:8:00 AM - 5:00 PM;Friday:8:00 AM - 5:00 PM;Saturday:8:00 AM - 12:00 PM;,,0
Swan Creek Farm Supply,,2904 Swan Creek Rd,,Jonesville,NC,48642,United States,(618) 997-6974,41.8781136,-87.6297982,Sunday:Closed;Monday:8:00 AM - 5:00 PM;Tuesday:8:00 AM - 5:00 PM;Wednesday:8:00 AM - 5:00 PM;Thursday:8:00 AM - 5:00 PM;Friday:8:00 AM - 5:00 PM;Saturday:8:00 AM - 12:00 PM;,,0
BRUBAKER GRAIN & CHEMICAL,,2918 Quaker Trace Rd,,West Alexandria,OH,45381,United States,(618) 997-6974,41.8781136,-87.6297982,Sunday:Closed;Monday:8:00 AM - 5:00 PM;Tuesday:8:00 AM - 5:00 PM;Wednesday:8:00 AM - 5:00 PM;Thursday:8:00 AM - 5:00 PM;Friday:8:00 AM - 5:00 PM;Saturday:8:00 AM - 12:00 PM;,,0
"Bundy Bros. & Sons, Inc.",,3 North Davis St.,,Medora,IN,47260,United States,(618) 997-6974,41.8781136,-87.6297982,Sunday:Closed;Monday:8:00 AM - 5:00 PM;Tuesday:8:00 AM - 5:00 PM;Wednesday:8:00 AM - 5:00 PM;Thursday:8:00 AM - 5:00 PM;Friday:8:00 AM - 5:00 PM;Saturday:8:00 AM - 12:00 PM;,,0
"LAUGHERY VALLEY AG COOP INC - OSGOOD, IN",,336 North Buckeye St,,Osgood,IN,47037,United States,(618) 997-6974,41.8781136,-87.6297982,Sunday:Closed;Monday:8:00 AM - 5:00 PM;Tuesday:8:00 AM - 5:00 PM;Wednesday:8:00 AM - 5:00 PM;Thursday:8:00 AM - 5:00 PM;Friday:8:00 AM - 5:00 PM;Saturday:8:00 AM - 12:00 PM;,,0
BARNES FEED STORE INC,,5619 Hwy 29 N,,Molino,FL,32577,United States,(334) 624-8351,29.7604267,-95.3698028,Sunday:Closed;Monday:9:00 AM - 6:00 PM;Tuesday:9:00 AM - 6:00 PM;Wednesday:9:00 AM - 6:00 PM;Thursday:9:00 AM - 6:00 PM;Friday:9:00 AM - 6:00 PM;Saturday:9:00 AM - 5:00 PM;,,0
BARNES FEED STORE INC,,8650 North Palafox Hwy,,Pensacola,FL,32534,United States,(334) 624-8351,29.7604267,-95.3698028,Sunday:Closed;Monday:8:00 AM - 6:00 PM;Tuesday:8:00 AM - 6:00 PM;Wednesday:8:00 AM - 6:00 PM;Thursday:8:00 AM - 6:00 PM;Friday:8:00 AM - 6:00 PM;Saturday:8:00 AM - 6:00 PM;,,0
Greensboro Farmers Coop,,9701 Hwy 14 West,,Greensboro,AL,36744,United States,(334) 624-8351,29.7604267,-95.3698028,Sunday:Closed;Monday:8:00 AM - 5:00 PM;Tuesday:8:00 AM - 5:00 PM;Wednesday:8:00 AM - 5:00 PM;Thursday:8:00 AM - 5:00 PM;Friday:8:00 AM - 5:00 PM;Saturday:8:00 AM - 12:00 PM;,,0
"B & D Feed of NWF, Inc.",,8441 Hwy 875,,Milton,FL,32583,United States,(334) 624-8351,29.7604267,-95.3698028,Sunday:Closed;Monday:8:00 AM - 5:00 PM;Tuesday:8:00 AM - 5:00 PM;Wednesday:8:00 AM - 5:00 PM;Thursday:8:00 AM - 5:00 PM;Friday:8:00 AM - 5:00 PM;Saturday:8:00 AM - 12:00 PM;,,0
"Fayette Ag Services, Inc.",,245 County Road 26 S,,Fayette,AL,35555,United States,(334) 624-8351,29.7604267,-95.3698028,Sunday:Closed;Monday:8:00 AM - 5:00 PM;Tuesday:8:00 AM - 5:00 PM;Wednesday:8:00 AM - 5:00 PM;Thursday:8:00 AM - 5:00 PM;Friday:8:00 AM - 5:00 PM;Saturday:8:00 AM - 12:00 PM;,,0
CASEY FEED L L C,,4631 County Rd 37 South,,Hope Hull,AL,36043,United States,(334) 624-8351,29.7604267,-95.3698028,Sunday:Closed;Monday:8:00 AM - 5:00 PM;Tuesday:8:00 AM - 5:00 PM;Wednesday:8:00 AM - 5:00 PM;Thursday:8:00 AM - 5:00 PM;Friday:8:00 AM - 5:00 PM;Saturday:8:00 AM - 12:00 PM;,,0
"Jasper Feed & Seed Supply, Inc.",,1506 9th Avenue,,Jasper,AL,35501,United States,(334) 624-8351,29.7604267,-95.3698028,Sunday:Closed;Monday:8:00 AM - 5:00 PM;Tuesday:8:00 AM - 5:00 PM;Wednesday:8:00 AM - 5:00 PM;Thursday:8:00 AM - 5:00 PM;Friday:8:00 AM - 5:00 PM;Saturday:8:00 AM - 12:00 PM;,,0
Riverchase Lawn Equipment,,3992 Lorna Road,,Birmingham,AL,35244,United States,(334) 624-8351,29.7604267,-95.3698028,Sunday:Closed;Monday:8:00 AM - 5:00 PM;Tuesday:8:00 AM - 5:00 PM;Wednesday:8:00 AM - 5:00 PM;Thursday:8:00 AM - 5:00 PM;Friday:8:00 AM - 5:00 PM;Saturday:8:00 AM - 12:00 PM;,,0
"Rusty's Feed & Seed, LLC",,505 Alabama Hwy 203,,Elba,AL,36323,United States,(334) 624-8351,29.7604267,-95.3698028,Sunday:Closed;Monday:8:00 AM - 5:00 PM;Tuesday:8:00 AM - 5:00 PM;Wednesday:8:00 AM - 5:00 PM;Thursday:8:00 AM - 5:00 PM;Friday:8:00 AM - 5:00 PM;Saturday:8:00 AM - 12:00 PM;,,0
Harris Farm Supply,,3302 Creek Road,,Vernon,FL,32462,United States,(334) 624-8351,29.7604267,-95.3698028,Sunday:Closed;Monday:8:00 AM - 5:00 PM;Tuesday:8:00 AM - 5:00 PM;Wednesday:8:00 AM - 5:00 PM;Thursday:8:00 AM - 5:00 PM;Friday:8:00 AM - 5:00 PM;Saturday:8:00 AM - 12:00 PM;,,0
WEAVERS WAY COOPERATIVE ASSOCIATION,,610 Carpenter Lane,,Philadelphia,PA,19119,United States,(215) 843-2350,39.9525839,-75.1652215,Sunday:11:00 AM - 5:00 PM;Monday:8:00 AM - 6:00 PM;Tuesday:8:00 AM - 6:00 PM;Wednesday:8:00 AM - 6:00 PM;Thursday:8:00 AM - 6:00 PM;Friday:8:00 AM - 6:00 PM;Saturday:7:00 AM - 6:00 PM;,,0
Primex Garden Center,,435 W Glenside Avenue,,Glenside,PA,19038,United States,(215) 843-2350,39.9525839,-75.1652215,,,0
Berlin Agway,,216 Crosskeys Road,,Berlin,NJ,08009,United States,(215) 843-2350,39.9525839,-75.1652215,,,0
Collegeville Do It Best,,3851 Ridge Pike,,Collegeville,PA,19426,United States,(215) 843-2350,39.9525839,-75.1652215,,,0
West Chester Mattia's,,956 S Matlack Street,,West Chester,PA,19382,United States,(215) 843-2350,39.9525839,-75.1652215,,,0
ALLEN'S FEED AND PET SUPPLIES,,204 Carranza Road,,Tabernacle,NJ,08088,United States,(215) 843-2350,39.9525839,-75.1652215,Sunday:11:00 AM - 5:00 PM;Monday:8:00 AM - 6:00 PM;Tuesday:8:00 AM - 6:00 PM;Wednesday:8:00 AM - 6:00 PM;Thursday:8:00 AM - 6:00 PM;Friday:8:00 AM - 6:00 PM;Saturday:7:00 AM - 6:00 PM;,,0
HARLEYSVILLE FEED INC,,519 Sumneytown Pike,,Harleysville,PA,19438,United States,(215) 843-2350,39.9525839,-75.1652215,Sunday:Closed;Monday:8:00 AM - 5:00 PM;Tuesday:8:00 AM - 5:00 PM;Wednesday:8:00 AM - 5:00 PM;Thursday:8:00 AM - 5:00 PM;Friday:8:00 AM - 5:00 PM;Saturday:8:00 AM - 4:00 PM;,,0
"Wurster Farm & Garden, Inc.",,10 N Route 313,,Dublin,PA,18917,United States,(215) 843-2350,39.9525839,-75.1652215,Sunday:9:00 AM - 5:00 PM;Monday:8:00 AM - 8:00 PM;Tuesday:8:00 AM - 8:00 PM;Wednesday:8:00 AM - 8:00 PM;Thursday:8:00 AM - 8:00 PM;Friday:8:00 AM - 8:00 PM;Saturday:8:00 AM - 7:00 PM;,,0
Pughtown Farm Center Inc.,,819 Pughtown Rd & Rt 100,,Spring City,PA,19475,United States,(215) 843-2350,39.9525839,-75.1652215,,,0
JOHN HART FARMS LLC DBA ROSEDALE MILLS,,101 Route 31 North,,Pennington,NJ,08534,United States,(215) 843-2350,39.9525839,-75.1652215,Sunday:11:00 AM - 5:00 PM;Monday:8:00 AM - 6:00 PM;Tuesday:8:00 AM - 6:00 PM;Wednesday:8:00 AM - 6:00 PM;Thursday:8:00 AM - 6:00 PM;Friday:8:00 AM - 6:00 PM;Saturday:7:00 AM - 6:00 PM;,,0
M F A INC,,201 Ray Young Dr,,Columbia,MO,65201,United States,(618) 997-6974,33.4483771,-112.0740373,Sunday:Closed;Monday:8:00 AM - 5:00 PM;Tuesday:8:00 AM - 5:00 PM;Wednesday:8:00 AM - 5:00 PM;Thursday:8:00 AM - 5:00 PM;Friday:8:00 AM - 5:00 PM;Saturday:8:00 AM - 12:00 PM;,,0
McKinney's Western Store,,802 Halfway Road,,Marion,IL,62659,United States,(618) 997-6974,33.4483771,-112.0740373,Sunday:Closed;Monday:8:00 AM - 5:00 PM;Tuesday:8:00 AM - 5:00 PM;Wednesday:8:00 AM - 5:00 PM;Thursday:8:00 AM - 5:00 PM;Friday:8:00 AM - 5:00 PM;Saturday:8:00 AM - 12:00 PM;,,0
Marshall County Soil Improvement Assoc.,,501 Poplar Street,,Benton,KY,42025,United States,(618) 997-6974,33.4483771,-112.0740373,Sunday:Closed;Monday:8:00 AM - 5:00 PM;Tuesday:8:00 AM - 5:00 PM;Wednesday:8:00 AM - 5:00 PM;Thursday:8:00 AM - 5:00 PM;Friday:8:00 AM - 5:00 PM;Saturday:8:00 AM - 12:00 PM;,,0
Posey Co Farm Bureau,,817 West Fourth St,,Mt. Vernon,IN,47620,United States,(618) 997-6974,33.4483771,-112.0740373,Sunday:Closed;Monday:8:00 AM - 5:00 PM;Tuesday:8:00 AM - 5:00 PM;Wednesday:8:00 AM - 5:00 PM;Thursday:8:00 AM - 5:00 PM;Friday:8:00 AM - 5:00 PM;Saturday:8:00 AM - 12:00 PM;,,0
"Fayette Ag Services, Inc.",,245 County Road 26 S,,Fayette,AL,35555,United States,(618) 997-6974,33.4483771,-112.0740373,Sunday:Closed;Monday:8:00 AM - 5:00 PM;Tuesday:8:00 AM - 5:00 PM;Wednesday:8:00 AM - 5:00 PM;Thursday:8:00 AM - 5:00 PM;Friday:8:00 AM - 5:00 PM;Saturday:8:00 AM - 12:00 PM;,,0
Calhoun Feed Service,,515 Nebo Road,,Madisonville,KY,42431,United States,(618) 997-6974,33.4483771,-112.0740373,Sunday:Closed;Monday:8:00 AM - 5:00 PM;Tuesday:8:00 AM - 5:00 PM;Wednesday:8:00 AM - 5:00 PM;Thursday:8:00 AM - 5:00 PM;Friday:8:00 AM - 5:00 PM;Saturday:8:00 AM - 12:00 PM;,,0
Greensboro Farmers Coop,,9701 Hwy 14 West,,Greensboro,AL,36744,United States,(618) 997-6974,33.4483771,-112.0740373,Sunday:Closed;Monday:8:00 AM - 5:00 PM;Tuesday:8:00 AM - 5:00 PM;Wednesday:8:00 AM - 5:00 PM;Thursday:8:00 AM - 5:00 PM;Friday:8:00 AM - 5:00 PM;Saturday:8:00 AM - 12:00 PM;,,0
"Jasper Feed & Seed Supply, Inc.",,1506 9th Avenue,,Jasper,AL,35501,United States,(618) 997-6974,33.4483771,-112.0740373,Sunday:Closed;Monday:8:00 AM - 5:00 PM;Tuesday:8:00 AM - 5:00 PM;Wednesday:8:00 AM - 5:00 PM;Thursday:8:00 AM - 5:00 PM;Friday:8:00 AM - 5:00 PM;Saturday:8:00 AM - 12:00 PM;,,0
Pleasant View Milling Co.,,2605 Church St,,Pleasant View,TN,37146,United States,(618) 997-6974,33.4483771,-112.0740373,Sunday:Closed;Monday:8:00 AM - 5:00 PM;Tuesday:8:00 AM - 5:00 PM;Wednesday:8:00 AM - 5:00 PM;Thursday:8:00 AM - 5:00 PM;Friday:8:00 AM - 5:00 PM;Saturday:8:00 AM - 12:00 PM;,,0
Superior Ag - Crisney,,511 N Main Street,,Chrisney,IN,47611,United States,(618) 997-6974,33.4483771,-112.0740373,Sunday:Closed;Monday:8:00 AM - 5:00 PM;Tuesday:8:00 AM - 5:00 PM;Wednesday:8:00 AM - 5:00 PM;Thursday:8:00 AM - 5:00 PM;Friday:8:00 AM - 5:00 PM;Saturday:8:00 AM - 12:00 PM;,,0
BARNES FEED STORE INC,,5619 Hwy 29 N,,Molino,FL,32577,United States,(334) 624-8351,29.4241219,-98.4936282,Sunday:Closed;Monday:9:00 AM - 6:00 PM;Tuesday:9:00 AM - 6:00 PM;Wednesday:9:00 AM - 6:00 PM;Thursday:9:00 AM - 6:00 PM;Friday:9:00 AM - 6:00 PM;Saturday:9:00 AM - 5:00 PM;,,0
BARNES FEED STORE INC,,8650 North Palafox Hwy,,Pensacola,FL,32534,United States,(334) 624-8351,29.4241219,-98.4936282,Sunday:Closed;Monday:8:00 AM - 6:00 PM;Tuesday:8:00 AM - 6:00 PM;Wednesday:8:00 AM - 6:00 PM;Thursday:8:00 AM - 6:00 PM;Friday:8:00 AM - 6:00 PM;Saturday:8:00 AM - 6:00 PM;,,0
Greensboro Farmers Coop,,9701 Hwy 14 West,,Greensboro,AL,36744,United States,(334) 624-8351,29.4241219,-98.4936282,Sunday:Closed;Monday:8:00 AM - 5:00 PM;Tuesday:8:00 AM - 5:00 PM;Wednesday:8:00 AM - 5:00 PM;Thursday:8:00 AM - 5:00 PM;Friday:8:00 AM - 5:00 PM;Saturday:8:00 AM - 12:00 PM;,,0
"B & D Feed of NWF, Inc.",,8441 Hwy 875,,Milton,FL,32583,United States,(334) 624-8351,29.4241219,-98.4936282,Sunday:Closed;Monday:8:00 AM - 5:00 PM;Tuesday:8:00 AM - 5:00 PM;Wednesday:8:00 AM - 5:00 PM;Thursday:8:00 AM - 5:00 PM;Friday:8:00 AM - 5:00 PM;Saturday:8:00 AM - 12:00 PM;,,0
"Fayette Ag Services, Inc.",,245 County Road 26 S,,Fayette,AL,35555,United States,(334) 624-8351,29.4241219,-98.4936282,Sunday:Closed;Monday:8:00 AM - 5:00 PM;Tuesday:8:00 AM - 5:00 PM;Wednesday:8:00 AM - 5:00 PM;Thursday:8:00 AM - 5:00 PM;Friday:8:00 AM - 5:00 PM;Saturday:8:00 AM - 12:00 PM;,,0
"Jasper Feed & Seed Supply, Inc.",,1506 9th Avenue,,Jasper,AL,35501,United States,(334) 624-8351,29.4241219,-98.4936282,Sunday:Closed;Monday:8:00 AM - 5:00 PM;Tuesday:8:00 AM - 5:00 PM;Wednesday:8:00 AM - 5:00 PM;Thursday:8:00 AM - 5:00 PM;Friday:8:00 AM - 5:00 PM;Saturday:8:00 AM - 12:00 PM;,,0
CASEY FEED L L C,,4631 County Rd 37 South,,Hope Hull,AL,36043,United States,(334) 624-8351,29.4241219,-98.4936282,Sunday:Closed;Monday:8:00 AM - 5:00 PM;Tuesday:8:00 AM - 5:00 PM;Wednesday:8:00 AM - 5:00 PM;Thursday:8:00 AM - 5:00 PM;Friday:8:00 AM - 5:00 PM;Saturday:8:00 AM - 12:00 PM;,,0
Riverchase Lawn Equipment,,3992 Lorna Road,,Birmingham,AL,35244,United States,(334) 624-8351,29.4241219,-98.4936282,Sunday:Closed;Monday:8:00 AM - 5:00 PM;Tuesday:8:00 AM - 5:00 PM;Wednesday:8:00 AM - 5:00 PM;Thursday:8:00 AM - 5:00 PM;Friday:8:00 AM - 5:00 PM;Saturday:8:00 AM - 12:00 PM;,,0
M F A INC,,201 Ray Young Dr,,Columbia,MO,65201,United States,(334) 624-8351,29.4241219,-98.4936282,Sunday:Closed;Monday:8:00 AM - 5:00 PM;Tuesday:8:00 AM - 5:00 PM;Wednesday:8:00 AM - 5:00 PM;Thursday:8:00 AM - 5:00 PM;Friday:8:00 AM - 5:00 PM;Saturday:8:00 AM - 12:00 PM;,,0
"Rusty's Feed & Seed, LLC",,505 Alabama Hwy 203,,Elba,AL,36323,United States,(334) 624-8351,29.4241219,-98.4936282,Sunday:Closed;Monday:8:00 AM - 5:00 PM;Tuesday:8:00 AM - 5:00 PM;Wednesday:8:00 AM - 5:00 PM;Thursday:8:00 AM - 5:00 PM;Friday:8:00 AM - 5:00 PM;Saturday:8:00 AM - 12:00 PM;,,0
M F A INC,,201 Ray Young Dr,,Columbia,MO,65201,United States,(618) 997-6974,37.3382082,-121.8863286,Sunday:Closed;Monday:8:00 AM - 5:00 PM;Tuesday:8:00 AM - 5:00 PM;Wednesday:8:00 AM - 5:00 PM;Thursday:8:00 AM - 5:00 PM;Friday:8:00 AM - 5:00 PM;Saturday:8:00 AM - 12:00 PM;,,0
McKinney's Western Store,,802 Halfway Road,,Marion,IL,62659,United States,(618) 997-6974,37.3382082,-121.8863286,Sunday:Closed;Monday:8:00 AM - 5:00 PM;Tuesday:8:00 AM - 5:00 PM;Wednesday:8:00 AM - 5:00 PM;Thursday:8:00 AM - 5:00 PM;Friday:8:00 AM - 5:00 PM;Saturday:8:00 AM - 12:00 PM;,,0
Marshall County Soil Improvement Assoc.,,501 Poplar Street,,Benton,KY,42025,United States,(618) 997-6974,37.3382082,-121.8863286,Sunday:Closed;Monday:8:00 AM - 5:00 PM;Tuesday:8:00 AM - 5:00 PM;Wednesday:8:00 AM - 5:00 PM;Thursday:8:00 AM - 5:00 PM;Friday:8:00 AM - 5:00 PM;Saturday:8:00 AM - 12:00 PM;,,0
Posey Co Farm Bureau,,817 West Fourth St,,Mt. Vernon,IN,47620,United States,(618) 997-6974,37.3382082,-121.8863286,Sunday:Closed;Monday:8:00 AM - 5:00 PM;Tuesday:8:00 AM - 5:00 PM;Wednesday:8:00 AM - 5:00 PM;Thursday:8:00 AM - 5:00 PM;Friday:8:00 AM - 5:00 PM;Saturday:8:00 AM - 12:00 PM;,,0
Calhoun Feed Service,,515 Nebo Road,,Madisonville,KY,42431,United States,(618) 997-6974,37.3382082,-121.8863286,Sunday:Closed;Monday:8:00 AM - 5:00 PM;Tuesday:8:00 AM - 5:00 PM;Wednesday:8:00 AM - 5:00 PM;Thursday:8:00 AM - 5:00 PM;Friday:8:00 AM - 5:00 PM;Saturday:8:00 AM - 12:00 PM;,,0
Superior Ag - Crisney,,511 N Main Street,,Chrisney,IN,47611,United States,(618) 997-6974,37.3382082,-121.8863286,Sunday:Closed;Monday:8:00 AM - 5:00 PM;Tuesday:8:00 AM - 5:00 PM;Wednesday:8:00 AM - 5:00 PM;Thursday:8:00 AM - 5:00 PM;Friday:8:00 AM - 5:00 PM;Saturday:8:00 AM - 12:00 PM;,,0
"Superior Ag Resources Coop, Inc.",,901 N Main St Po Box 420,,Huntingburg,IN,47542,United States,(618) 997-6974,37.3382082,-121.8863286,Sunday:Closed;Monday:8:00 AM - 5:00 PM;Tuesday:8:00 AM - 5:00 PM;Wednesday:8:00 AM - 5:00 PM;Thursday:8:00 AM - 5:00 PM;Friday:8:00 AM - 5:00 PM;Saturday:8:00 AM - 12:00 PM;,,0
Pleasant View Milling Co.,,2605 Church St,,Pleasant View,TN,37146,United States,(618) 997-6974,37.3382082,-121.8863286,Sunday:Closed;Monday:8:00 AM - 5:00 PM;Tuesday:8:00 AM - 5:00 PM;Wednesday:8:00 AM - 5:00 PM;Thursday:8:00 AM - 5:00 PM;Friday:8:00 AM - 5:00 PM;Saturday:8:00 AM - 12:00 PM;,,0
"Fayette Ag Services, Inc.",,245 County Road 26 S,,Fayette,AL,35555,United States,(618) 997-6974,37.3382082,-121.8863286,Sunday:Closed;Monday:8:00 AM - 5:00 PM;Tuesday:8:00 AM - 5:00 PM;Wednesday:8:00 AM - 5:00 PM;Thursday:8:00 AM - 5:00 PM;Friday:8:00 AM - 5:00 PM;Saturday:8:00 AM - 12:00 PM;,,0
"Bundy Bros. & Sons, Inc.",,3 North Davis St.,,Medora,IN,47260,United States,(618) 997-6974,37.3382082,-121.8863286,Sunday:Closed;Monday:8:00 AM - 5:00 PM;Tuesday:8:00 AM - 5:00 PM;Wednesday:8:00 AM - 5:00 PM;Thursday:8:00 AM - 5:00 PM;Friday:8:00 AM - 5:00 PM;Saturday:8:00 AM - 12:00 PM;,,0
M F A INC,,201 Ray Young Dr,,Columbia,MO,65201,United States,(205) 932-5298,32.7766642,-96.7969879,Sunday:Closed;Monday:8:00 AM - 5:00 PM;Tuesday:8:00 AM - 5:00 PM;Wednesday:8:00 AM - 5:00 PM;Thursday:8:00 AM - 5:00 PM;Friday:8:00 AM - 5:00 PM;Saturday:8:00 AM - 12:00 PM;,,0
"Fayette Ag Services, Inc.",,245 County Road 26 S,,Fayette,AL,35555,United States,(205) 932-5298,32.7766642,-96.7969879,Sunday:Closed;Monday:8:00 AM - 5:00 PM;Tuesday:8:00 AM - 5:00 PM;Wednesday:8:00 AM - 5:00 PM;Thursday:8:00 AM - 5:00 PM;Friday:8:00 AM - 5:00 PM;Saturday:8:00 AM - 12:00 PM;,,0
Greensboro Farmers Coop,,9701 Hwy 14 West,,Greensboro,AL,36744,United States,(205) 932-5298,32.7766642,-96.7969879,Sunday:Closed;Monday:8:00 AM - 5:00 PM;Tuesday:8:00 AM - 5:00 PM;Wednesday:8:00 AM - 5:00 PM;Thursday:8:00 AM - 5:00 PM;Friday:8:00 AM - 5:00 PM;Saturday:8:00 AM - 12:00 PM;,,0
"Jasper Feed & Seed Supply, Inc.",,1506 9th Avenue,,Jasper,AL,35501,United States,(205) 932-5298,32.7766642,-96.7969879,Sunday:Closed;Monday:8:00 AM - 5:00 PM;Tuesday:8:00 AM - 5:00 PM;Wednesday:8:00 AM - 5:00 PM;Thursday:8:00 AM - 5:00 PM;Friday:8:00 AM - 5:00 PM;Saturday:8:00 AM - 12:00 PM;,,0
Marshall County Soil Improvement Assoc.,,501 Poplar Street,,Benton,KY,42025,United States,(205) 932-5298,32.7766642,-96.7969879,Sunday:Closed;Monday:8:00 AM - 5:00 PM;Tuesday:8:00 AM - 5:00 PM;Wednesday:8:00 AM - 5:00 PM;Thursday:8:00 AM - 5:00 PM;Friday:8:00 AM - 5:00 PM;Saturday:8:00 AM - 12:00 PM;,,0
BARNES FEED STORE INC,,5619 Hwy 29 N,,Molino,FL,32577,United States,(205) 932-5298,32.7766642,-96.7969879,Sunday:Closed;Monday:9:00 AM - 6:00 PM;Tuesday:9:00 AM - 6:00 PM;Wednesday:9:00 AM - 6:00 PM;Thursday:9:00 AM - 6:00 PM;Friday:9:00 AM - 6:00 PM;Saturday:9:00 AM - 5:00 PM;,,0
Riverchase Lawn Equipment,,3992 Lorna Road,,Birmingham,AL,35244,United States,(205) 932-5298,32.7766642,-96.7969879,Sunday:Closed;Monday:8:00 AM - 5:00 PM;Tuesday:8:00 AM - 5:00 PM;Wednesday:8:00 AM - 5:00 PM;Thursday:8:00 AM - 5:00 PM;Friday:8:00 AM - 5:00 PM;Saturday:8:00 AM - 12:00 PM;,,0
BARNES FEED STORE INC,,8650 North Palafox Hwy,,Pensacola,FL,32534,United States,(205) 932-5298,32.7766642,-96.7969879,Sunday:Closed;Monday:8:00 AM - 6:00 PM;Tuesday:8:00 AM - 6:00 PM;Wednesday:8:00 AM - 6:00 PM;Thursday:8:00 AM - 6:00 PM;Friday:8:00 AM - 6:00 PM;Saturday:8:00 AM - 6:00 PM;,,0
"B & D Feed of NWF, Inc.",,8441 Hwy 875,,Milton,FL,32583,United States,(205) 932-5298,32.7766642,-96.7969879,Sunday:Closed;Monday:8:00 AM - 5:00 PM;Tuesday:8:00 AM - 5:00 PM;Wednesday:8:00 AM - 5:00 PM;Thursday:8:00 AM - 5:00 PM;Friday:8:00 AM - 5:00 PM;Saturday:8:00 AM - 12:00 PM;,,0
CASEY FEED L L C,,4631 County Rd 37 South,,Hope Hull,AL,36043,United States,(205) 932-5298,32.7766642,-96.7969879,Sunday:Closed;Monday:8:00 AM - 5:00 PM;Tuesday:8:00 AM - 5:00 PM;Wednesday:8:00 AM - 5:00 PM;Thursday:8:00 AM - 5:00 PM;Friday:8:00 AM - 5:00 PM;Saturday:8:00 AM - 12:00 PM;,,0
Greensboro Farmers Coop,,9701 Hwy 14 West,,Greensboro,AL,36744,United States,(334) 624-8351,30.267153,-97.7430608,Sunday:Closed;Monday:8:00 AM - 5:00 PM;Tuesday:8:00 AM - 5:00 PM;Wednesday:8:00 AM - 5:00 PM;Thursday:8:00 AM - 5:00 PM;Friday:8:00 AM - 5:00 PM;Saturday:8:00 AM - 12:00 PM;,,0
BARNES FEED STORE INC,,5619 Hwy 29 N,,Molino,FL,32577,United States,(334) 624-8351,30.267153,-97.7430608,Sunday:Closed;Monday:9:00 AM - 6:00 PM;Tuesday:9:00 AM - 6:00 PM;Wednesday:9:00 AM - 6:00 PM;Thursday:9:00 AM - 6:00 PM;Friday:9:00 AM - 6:00 PM;Saturday:9:00 AM - 5:00 PM;,,0
BARNES FEED STORE INC,,8650 North Palafox Hwy,,Pensacola,FL,32534,United States,(334) 624-8351,30.267153,-97.7430608,Sunday:Closed;Monday:8:00 AM - 6:00 PM;Tuesday:8:00 AM - 6:00 PM;Wednesday:8:00 AM - 6:00 PM;Thursday:8:00 AM - 6:00 PM;Friday:8:00 AM - 6:00 PM;Saturday:8:00 AM - 6:00 PM;,,0
"Fayette Ag Services, Inc.",,245 County Road 26 S,,Fayette,AL,35555,United States,(334) 624-8351,30.267153,-97.7430608,Sunday:Closed;Monday:8:00 AM - 5:00 PM;Tuesday:8:00 AM - 5:00 PM;Wednesday:8:00 AM - 5:00 PM;Thursday:8:00 AM - 5:00 PM;Friday:8:00 AM - 5:00 PM;Saturday:8:00 AM - 12:00 PM;,,0
"B & D Feed of NWF, Inc.",,8441 Hwy 875,,Milton,FL,32583,United States,(334) 624-8351,30.267153,-97.7430608,Sunday:Closed;Monday:8:00 AM - 5:00 PM;Tuesday:8:00 AM - 5:00 PM;Wednesday:8:00 AM - 5:00 PM;Thursday:8:00 AM - 5:00 PM;Friday:8:00 AM - 5:00 PM;Saturday:8:00 AM - 12:00 PM;,,0
"Jasper Feed & Seed Supply, Inc.",,1506 9th Avenue,,Jasper,AL,35501,United States,(334) 624-8351,30.267153,-97.7430608,Sunday:Closed;Monday:8:00 AM - 5:00 PM;Tuesday:8:00 AM - 5:00 PM;Wednesday:8:00 AM - 5:00 PM;Thursday:8:00 AM - 5:00 PM;Friday:8:00 AM - 5:00 PM;Saturday:8:00 AM - 12:00 PM;,,0
M F A INC,,201 Ray Young Dr,,Columbia,MO,65201,United States,(334) 624-8351,30.267153,-97.7430608,Sunday:Closed;Monday:8:00 AM - 5:00 PM;Tuesday:8:00 AM - 5:00 PM;Wednesday:8:00 AM - 5:00 PM;Thursday:8:00 AM - 5:00 PM;Friday:8:00 AM - 5:00 PM;Saturday:8:00 AM - 12:00 PM;,,0
Riverchase Lawn Equipment,,3992 Lorna Road,,Birmingham,AL,35244,United States,(334) 624-8351,30.267153,-97.7430608,Sunday:Closed;Monday:8:00 AM - 5:00 PM;Tuesday:8:00 AM - 5:00 PM;Wednesday:8:00 AM - 5:00 PM;Thursday:8:00 AM - 5:00 PM;Friday:8:00 AM - 5:00 PM;Saturday:8:00 AM - 12:00 PM;,,0
CASEY FEED L L C,,4631 County Rd 37 South,,Hope Hull,AL,36043,United States,(334) 624-8351,30.267153,-97.7430608,Sunday:Closed;Monday:8:00 AM - 5:00 PM;Tuesday:8:00 AM - 5:00 PM;Wednesday:8:00 AM - 5:00 PM;Thursday:8:00 AM - 5:00 PM;Friday:8:00 AM - 5:00 PM;Saturday:8:00 AM - 12:00 PM;,,0
"Rusty's Feed & Seed, LLC",,505 Alabama Hwy 203,,Elba,AL,36323,United States,(334) 624-8351,30.267153,-97.7430608,Sunday:Closed;Monday:8:00 AM - 5:00 PM;Tuesday:8:00 AM - 5:00 PM;Wednesday:8:00 AM - 5:00 PM;Thursday:8:00 AM - 5:00 PM;Friday:8:00 AM - 5:00 PM;Saturday:8:00 AM - 12:00 PM;,,0
"LAUGHERY VALLEY AG COOP INC - OSGOOD, IN",,336 North Buckeye St,,Osgood,IN,47037,United States,(812) 966-2551,39.768403,-86.158068,Sunday:Closed;Monday:8:00 AM - 5:00 PM;Tuesday:8:00 AM - 5:00 PM;Wednesday:8:00 AM - 5:00 PM;Thursday:8:00 AM - 5:00 PM;Friday:8:00 AM - 5:00 PM;Saturday:8:00 AM - 12:00 PM;,,0
"Bundy Bros. & Sons, Inc.",,3 North Davis St.,,Medora,IN,47260,United States,(812) 966-2551,39.768403,-86.158068,Sunday:Closed;Monday:8:00 AM - 5:00 PM;Tuesday:8:00 AM - 5:00 PM;Wednesday:8:00 AM - 5:00 PM;Thursday:8:00 AM - 5:00 PM;Friday:8:00 AM - 5:00 PM;Saturday:8:00 AM - 12:00 PM;,,0
UNION COUNTY COOP,,101 West Campbell Street,,Liberty,IN,47353,United States,(812) 966-2551,39.768403,-86.158068,Sunday:Closed;Monday:8:00 AM - 5:00 PM;Tuesday:8:00 AM - 5:00 PM;Wednesday:8:00 AM - 5:00 PM;Thursday:8:00 AM - 5:00 PM;Friday:8:00 AM - 5:00 PM;Saturday:8:00 AM - 12:00 PM;,,0
LAUGHERY VALLEY AG COOP INC-VERSAILLES,,3994 S Us 421,,Versailles,IN,47042,United States,(812) 966-2551,39.768403,-86.158068,Sunday:Closed;Monday:8:00 AM - 5:00 PM;Tuesday:8:00 AM - 5:00 PM;Wednesday:8:00 AM - 5:00 PM;Thursday:8:00 AM - 5:00 PM;Friday:8:00 AM - 5:00 PM;Saturday:8:00 AM - 12:00 PM;,,0
Riegel Feed & Grain,,307 N Washington St,,New Paris,OH,45347,United States,(812) 966-2551,39.768403,-86.158068,,,0
LAUGHERY VALLEY AG COOP INC  DILLSBORO,,11016 Us Hwy 50,,Dillsboro,IN,47018,United States,(812) 966-2551,39.768403,-86.158068,Sunday:Closed;Monday:8:00 AM - 5:00 PM;Tuesday:8:00 AM - 5:00 PM;Wednesday:8:00 AM - 5:00 PM;Thursday:8:00 AM - 5:00 PM;Friday:8:00 AM - 5:00 PM;Saturday:8:00 AM - 12:00 PM;,,0
Neff Family Fertilizer,,6658 West State Road 56,,Salem,IN,47167,United States,(812) 966-2551,39.768403,-86.158068,Sunday:Closed;Monday:8:00 AM - 5:00 PM;Tuesday:8:00 AM - 5:00 PM;Wednesday:8:00 AM - 5:00 PM;Thursday:8:00 AM - 5:00 PM;Friday:8:00 AM - 5:00 PM;Saturday:8:00 AM - 12:00 PM;,,0
BRUBAKER GRAIN & CHEMICAL,,2918 Quaker Trace Rd,,West Alexandria,OH,45381,United States,(812) 966-2551,39.768403,-86.158068,Sunday:Closed;Monday:8:00 AM - 5:00 PM;Tuesday:8:00 AM - 5:00 PM;Wednesday:8:00 AM - 5:00 PM;Thursday:8:00 AM - 5:00 PM;Friday:8:00 AM - 5:00 PM;Saturday:8:00 AM - 12:00 PM;,,0
Sullivan Feed Mill,,80 S Grove St,,Pekin,IN,47165,United States,(812) 966-2551,39.768403,-86.158068,Sunday:Closed;Monday:8:00 AM - 5:00 PM;Tuesday:8:00 AM - 5:00 PM;Wednesday:8:00 AM - 5:00 PM;Thursday:8:00 AM - 5:00 PM;Friday:8:00 AM - 5:00 PM;Saturday:8:00 AM - 12:00 PM;,,0
MERCER LANDMARK INC,,409 E Main St,,New Weston,OH,45348,United States,(812) 966-2551,39.768403,-86.158068,Sunday:Closed;Monday:8:00 AM - 5:00 PM;Tuesday:8:00 AM - 5:00 PM;Wednesday:8:00 AM - 5:00 PM;Thursday:8:00 AM - 5:00 PM;Friday:8:00 AM - 5:00 PM;Saturday:8:00 AM - 12:00 PM;,,0
Black Hammock Island Farm LLC,,15860 Sawpit Rd,,Jacksonville,FL,32226,United States,(904) 757-3526,30.3321838,-81.655651,Sunday:Closed;Monday:8:00 AM - 5:00 PM;Tuesday:8:00 AM - 5:00 PM;Wednesday:8:00 AM - 5:00 PM;Thursday:8:00 AM - 5:00 PM;Friday:8:00 AM - 5:00 PM;Saturday:8:00 AM - 12:00 PM;,,0
BLACK HAMMOCK ISLAND FARM LLC,,1860 Sawpit Rd,,Jacksonville,FL,32226,United States,(904) 757-3526,30.3321838,-81.655651,Sunday:11:00 AM - 5:00 PM;Monday:8:00 AM - 6:00 PM;Tuesday:8:00 AM - 6:00 PM;Wednesday:8:00 AM - 6:00 PM;Thursday:8:00 AM - 6:00 PM;Friday:8:00 AM - 6:00 PM;Saturday:7:00 AM - 6:00 PM;,,0
"Eason's Feed & Western Wear, Inc.",,618367 Dr. Martin Luther King Jr. Ave.,,Callahan,FL,32011,United States,(904) 757-3526,30.3321838,-81.655651,Sunday:Closed;Monday:8:00 AM - 5:00 PM;Tuesday:8:00 AM - 5:00 PM;Wednesday:8:00 AM - 5:00 PM;Thursday:8:00 AM - 5:00 PM;Friday:8:00 AM - 5:00 PM;Saturday:8:00 AM - 12:00 PM;,,0
"Russell's Feed & Farm Supply, Inc.",,4479 Cr 218,,Middleburg,FL,32068,United States,(904) 757-3526,30.3321838,-81.655651,Sunday:Closed;Monday:8:00 AM - 5:00 PM;Tuesday:8:00 AM - 5:00 PM;Wednesday:8:00 AM - 5:00 PM;Thursday:8:00 AM - 5:00 PM;Friday:8:00 AM - 5:00 PM;Saturday:8:00 AM - 12:00 PM;,,0
"Lisa's Feed & Pet Depot, Inc.",,2905 Blanding Blvd.,,Middleburg,FL,32068,United States,(904) 757-3526,30.3321838,-81.655651,Sunday:Closed;Monday:8:00 AM - 5:00 PM;Tuesday:8:00 AM - 5:00 PM;Wednesday:8:00 AM - 5:00 PM;Thursday:8:00 AM - 5:00 PM;Friday:8:00 AM - 5:00 PM;Saturday:8:00 AM - 12:00 PM;,,0
D & E Hardware Co.,,2800 N Us Hwy 1,,Mims,FL,32754,United States,(904) 757-3526,30.3321838,-81.655651,Sunday:Closed;Monday:8:00 AM - 5:00 PM;Tuesday:8:00 AM - 5:00 PM;Wednesday:8:00 AM - 5:00 PM;Thursday:8:00 AM - 5:00 PM;Friday:8:00 AM - 5:00 PM;Saturday:8:00 AM - 12:00 PM;,,0
"One Stop Feed & Seed, LLC",,101 Magnolia Ave,,Florahome,FL,32140,United States,(904) 757-3526,30.3321838,-81.655651,Sunday:Closed;Monday:8:00 AM - 5:00 PM;Tuesday:8:00 AM - 5:00 PM;Wednesday:8:00 AM - 5:00 PM;Thursday:8:00 AM - 5:00 PM;Friday:8:00 AM - 5:00 PM;Saturday:8:00 AM - 12:00 PM;,,0
LAZY JS INC,,5217 2nd St N,,Folkston,GA,31537,United States,(904) 757-3526,30.3321838,-81.655651,Sunday:11:00 AM - 5:00 PM;Monday:8:00 AM - 6:00 PM;Tuesday:8:00 AM - 6:00 PM;Wednesday:8:00 AM - 6:00 PM;Thursday:8:00 AM - 6:00 PM;Friday:8:00 AM - 6:00 PM;Saturday:7:00 AM - 6:00 PM;,,0
"Hillandale Farms of Florida, Inc.",,Hwy 121 South,,Lake Butler,FL,32054,United States,(904) 757-3526,30.3321838,-81.655651,Sunday:Closed;Monday:8:00 AM - 5:00 PM;Tuesday:8:00 AM - 5:00 PM;Wednesday:8:00 AM - 5:00 PM;Thursday:8:00 AM - 5:00 PM;Friday:8:00 AM - 5:00 PM;Saturday:8:00 AM - 12:00 PM;,,0
TAIT LAWN PRODUCTS INC,,1320 New Castle St,,Brunswick,GA,31520,United States,(904) 757-3526,30.3321838,-81.655651,Sunday:11:00 AM - 5:00 PM;Monday:8:00 AM - 6:00 PM;Tuesday:8:00 AM - 6:00 PM;Wednesday:8:00 AM - 6:00 PM;Thursday:8:00 AM - 6:00 PM;Friday:8:00 AM - 6:00 PM;Saturday:7:00 AM - 6:00 PM;,,0
M F A INC,,201 Ray Young Dr,,Columbia,MO,65201,United States,(618) 997-6974,37.7749295,-122.4194155,Sunday:Closed;Monday:8:00 AM - 5:00 PM;Tuesday:8:00 AM - 5:00 PM;Wednesday:8:00 AM - 5:00 PM;Thursday:8:00 AM - 5:00 PM;Friday:8:00 AM - 5:00 PM;Saturday:8:00 AM - 12:00 PM;,,0
McKinney's Western Store,,802 Halfway Road,,Marion,IL,62659,United States,(618) 997-6974,37.7749295,-122.4194155,Sunday:Closed;Monday:8:00 AM - 5:00 PM;Tuesday:8:00 AM - 5:00 PM;Wednesday:8:00 AM - 5:00 PM;Thursday:8:00 AM - 5:00 PM;Friday:8:00 AM - 5:00 PM;Saturday:8:00 AM - 12:00 PM;,,0
Marshall County Soil Improvement Assoc.,,501 Poplar Street,,Benton,KY,42025,United States,(618) 997-6974,37.7749295,-122.4194155,Sunday:Closed;Monday:8:00 AM - 5:00 PM;Tuesday:8:00 AM - 5:00 PM;Wednesday:8:00 AM - 5:00 PM;Thursday:8:00 AM - 5:00 PM;Friday:8:00 AM - 5:00 PM;Saturday:8:00 AM - 12:00 PM;,,0
Posey Co Farm Bureau,,817 West Fourth St,,Mt. Vernon,IN,47620,United States,(618) 997-6974,37.7749295,-122.4194155,Sunday:Closed;Monday:8:00 AM - 5:00 PM;Tuesday:8:00 AM - 5:00 PM;Wednesday:8:00 AM - 5:00 PM;Thursday:8:00 AM - 5:00 PM;Friday:8:00 AM - 5:00 PM;Saturday:8:00 AM - 12:00 PM;,,0
Calhoun Feed Service,,515 Nebo Road,,Madisonville,KY,42431,United States,(618) 997-6974,37.7749295,-122.4194155,Sunday:Closed;Monday:8:00 AM - 5:00 PM;Tuesday:8:00 AM - 5:00 PM;Wednesday:8:00 AM - 5:00 PM;Thursday:8:00 AM - 5:00 PM;Friday:8:00 AM - 5:00 PM;Saturday:8:00 AM - 12:00 PM;,,0
Superior Ag - Crisney,,511 N Main Street,,Chrisney,IN,47611,United States,(618) 997-6974,37.7749295,-122.4194155,Sunday:Closed;Monday:8:00 AM - 5:00 PM;Tuesday:8:00 AM - 5:00 PM;Wednesday:8:00 AM - 5:00 PM;Thursday:8:00 AM - 5:00 PM;Friday:8:00 AM - 5:00 PM;Saturday:8:00 AM - 12:00 PM;,,0
"Superior Ag Resources Coop, Inc.",,901 N Main St Po Box 420,,Huntingburg,IN,47542,United States,(618) 997-6974,37.7749295,-122.4194155,Sunday:Closed;Monday:8:00 AM - 5:00 PM;Tuesday:8:00 AM - 5:00 PM;Wednesday:8:00 AM - 5:00 PM;Thursday:8:00 AM - 5:00 PM;Friday:8:00 AM - 5:00 PM;Saturday:8:00 AM - 12:00 PM;,,0
Pleasant View Milling Co.,,2605 Church St,,Pleasant View,TN,37146,United States,(618) 997-6974,37.7749295,-122.4194155,Sunday:Closed;Monday:8:00 AM - 5:00 PM;Tuesday:8:00 AM - 5:00 PM;Wednesday:8:00 AM - 5:00 PM;Thursday:8:00 AM - 5:00 PM;Friday:8:00 AM - 5:00 PM;Saturday:8:00 AM - 12:00 PM;,,0
"Fayette Ag Services, Inc.",,245 County Road 26 S,,Fayette,AL,35555,United States,(618) 997-6974,37.7749295,-122.4194155,Sunday:Closed;Monday:8:00 AM - 5:00 PM;Tuesday:8:00 AM - 5:00 PM;Wednesday:8:00 AM - 5:00 PM;Thursday:8:00 AM - 5:00 PM;Friday:8:00 AM - 5:00 PM;Saturday:8:00 AM - 12:00 PM;,,0
"Bundy Bros. & Sons, Inc.",,3 North Davis St.,,Medora,IN,47260,United States,(618) 997-6974,37.7749295,-122.4194155,Sunday:Closed;Monday:8:00 AM - 5:00 PM;Tuesday:8:00 AM - 5:00 PM;Wednesday:8:00 AM - 5:00 PM;Thursday:8:00 AM - 5:00 PM;Friday:8:00 AM - 5:00 PM;Saturday:8:00 AM - 12:00 PM;,,0
United Landmark LLC - Lancaster Br.,,2045 Cincinnati-zanesville Road,,Lancaster,OH,43130,United States,(740) 653-2161,39.9611755,-82.9987942,Sunday:Closed;Monday:8:00 AM - 5:00 PM;Tuesday:8:00 AM - 5:00 PM;Wednesday:8:00 AM - 5:00 PM;Thursday:8:00 AM - 5:00 PM;Friday:8:00 AM - 5:00 PM;Saturday:8:00 AM - 12:00 PM;,,0
Champaign Landmark - Richwood Br.,,"Richwood Retail, 252 N. Franklin St.",,Richwood,OH,43344,United States,(740) 653-2161,39.9611755,-82.9987942,Sunday:Closed;Monday:8:00 AM - 5:00 PM;Tuesday:8:00 AM - 5:00 PM;Wednesday:8:00 AM - 5:00 PM;Thursday:8:00 AM - 5:00 PM;Friday:8:00 AM - 5:00 PM;Saturday:8:00 AM - 12:00 PM;,,0
Champaign Landmark,,304 Bloomfield Ave,,Urbana,OH,43078,United States,(740) 653-2161,39.9611755,-82.9987942,Sunday:Closed;Monday:8:00 AM - 5:00 PM;Tuesday:8:00 AM - 5:00 PM;Wednesday:8:00 AM - 5:00 PM;Thursday:8:00 AM - 5:00 PM;Friday:8:00 AM - 5:00 PM;Saturday:8:00 AM - 12:00 PM;,,0
Zane Feed & Supply,,975 Malinda St,,Zanesville,OH,43701,United States,(740) 653-2161,39.9611755,-82.9987942,Sunday:Closed;Monday:8:00 AM - 5:00 PM;Tuesday:8:00 AM - 5:00 PM;Wednesday:8:00 AM - 5:00 PM;Thursday:8:00 AM - 5:00 PM;Friday:8:00 AM - 5:00 PM;Saturday:8:00 AM - 12:00 PM;,,0
"Southwest Landmark / Trupointe, Inc",,415 Bellbrook,,Xenia,OH,45385,United States,(740) 653-2161,39.9611755,-82.9987942,Sunday:Closed;Monday:8:00 AM - 5:00 PM;Tuesday:8:00 AM - 5:00 PM;Wednesday:8:00 AM - 5:00 PM;Thursday:8:00 AM - 5:00 PM;Friday:8:00 AM - 5:00 PM;Saturday:8:00 AM - 12:00 PM;,,0
Southwest Landmark - Wilmington Br.,,State Route 3 Box 512,,Wilmington,OH,45177,United States,(740) 653-2161,39.9611755,-82.9987942,Sunday:Closed;Monday:8:00 AM - 5:00 PM;Tuesday:8:00 AM - 5:00 PM;Wednesday:8:00 AM - 5:00 PM;Thursday:8:00 AM - 5:00 PM;Friday:8:00 AM - 5:00 PM;Saturday:8:00 AM - 12:00 PM;,,0
Lerches Barnlot Equipment,,7851 S R 73 Nw,,Hillsboro,OH,45133,United States,(740) 653-2161,39.9611755,-82.9987942,Sunday:Closed;Monday:8:00 AM - 5:00 PM;Tuesday:8:00 AM - 5:00 PM;Wednesday:8:00 AM - 5:00 PM;Thursday:8:00 AM - 5:00 PM;Friday:8:00 AM - 5:00 PM;Saturday:8:00 AM - 12:00 PM;,,0
WHITT FEED AND SUPPLY LLC,,5449 Beaver Pike,,Beaver,OH,45613,United States,(740) 653-2161,39.9611755,-82.9987942,Sunday:11:00 AM - 5:00 PM;Monday:8:00 AM - 6:00 PM;Tuesday:8:00 AM - 6:00 PM;Wednesday:8:00 AM - 6:00 PM;Thursday:8:00 AM - 6:00 PM;Friday:8:00 AM - 6:00 PM;Saturday:7:00 AM - 6:00 PM;,,0
AGLAND CO-OP; FRESNO BRANCH,,23917 State Rt 93,,Fresno,OH,43824,United States,(740) 653-2161,39.9611755,-82.9987942,Sunday:Closed;Monday:8:00 AM - 5:00 PM;Tuesday:8:00 AM - 5:00 PM;Wednesday:8:00 AM - 5:00 PM;Thursday:8:00 AM - 5:00 PM;Friday:8:00 AM - 5:00 PM;Saturday:8:00 AM - 12:00 PM;,,0
TOWN AND COUNTRY CO OP INC,,813 Clark Ave,,Ashland,OH,44805,United States,(740) 653-2161,39.9611755,-82.9987942,Sunday:11:00 AM - 5:00 PM;Monday:8:00 AM - 6:00 PM;Tuesday:8:00 AM - 6:00 PM;Wednesday:8:00 AM - 6:00 PM;Thursday:8:00 AM - 6:00 PM;Friday:8:00 AM - 6:00 PM;Saturday:7:00 AM - 6:00 PM;,,0
"A. B. Poe, Company, Inc.",,322 South Cherry,,Rock Hill,SC,29732,United States,(803) 324-2925,35.2270869,-80.8431267,Sunday:Closed;Monday:8:00 AM - 6:00 PM;Tuesday:8:00 AM - 6:00 PM;Wednesday:8:00 AM - 6:00 PM;Thursday:8:00 AM - 6:00 PM;Friday:8:00 AM - 6:00 PM;Saturday:8:00 AM - 5:00 PM;,,0
DUAN FARM SUPPLY INC,,1244 Prison Cp Rd,,Newton,NC,28658,United States,(803) 324-2925,35.2270869,-80.8431267,Sunday:11:00 AM - 5:00 PM;Monday:8:00 AM - 6:00 PM;Tuesday:8:00 AM - 6:00 PM;Wednesday:8:00 AM - 6:00 PM;Thursday:8:00 AM - 6:00 PM;Friday:8:00 AM - 6:00 PM;Saturday:7:00 AM - 6:00 PM;,,0
Carolina Farm & Garden Center,,12367 Hwy 52 South,,Norwood,NC,28128,United States,(803) 324-2925,35.2270869,-80.8431267,Sunday:Closed;Monday:8:00 AM - 5:00 PM;Tuesday:8:00 AM - 5:00 PM;Wednesday:8:00 AM - 5:00 PM;Thursday:8:00 AM - 5:00 PM;Friday:8:00 AM - 5:00 PM;Saturday:8:00 AM - 12:00 PM;,,0
George H. Lutz,,5709 West N C Highway 10,,Hickory,NC,28602,United States,(803) 324-2925,35.2270869,-80.8431267,Sunday:Closed;Monday:8:00 AM - 5:00 PM;Tuesday:8:00 AM - 5:00 PM;Wednesday:8:00 AM - 5:00 PM;Thursday:8:00 AM - 5:00 PM;Friday:8:00 AM - 5:00 PM;Saturday:8:00 AM - 12:00 PM;,,0
"Southern Farm Supply, Inc.",,2335 West Memorial Highway,,Union Grove,NC,28689,United States,(803) 324-2925,35.2270869,-80.8431267,Sunday:Closed;Monday:8:00 AM - 5:00 PM;Tuesday:8:00 AM - 5:00 PM;Wednesday:8:00 AM - 5:00 PM;Thursday:8:00 AM - 5:00 PM;Friday:8:00 AM - 5:00 PM;Saturday:8:00 AM - 12:00 PM;,,0
Cook's Farm Supply,,2408 Battleground Road,,Cowpens,SC,29330,United States,(803) 324-2925,35.2270869,-80.8431267,Sunday:Closed;Monday:8:00 AM - 5:00 PM;Tuesday:8:00 AM - 5:00 PM;Wednesday:8:00 AM - 5:00 PM;Thursday:8:00 AM - 5:00 PM;Friday:8:00 AM - 5:00 PM;Saturday:8:00 AM - 12:00 PM;,,0
"Oakland Feed & Seed, Inc.",,770 Oakland Rd,,Spindale,NC,28160,United States,(803) 324-2925,35.2270869,-80.8431267,Sunday:Closed;Monday:8:00 AM - 5:00 PM;Tuesday:8:00 AM - 5:00 PM;Wednesday:8:00 AM - 5:00 PM;Thursday:8:00 AM - 5:00 PM;Friday:8:00 AM - 5:00 PM;Saturday:8:00 AM - 12:00 PM;,,0
L & K Supply,,101 North Main Street,,Bethune,SC,29009,United States,(803) 324-2925,35.2270869,-80.8431267,Sunday:Closed;Monday:8:00 AM - 5:00 PM;Tuesday:8:00 AM - 5:00 PM;Wednesday:8:00 AM - 5:00 PM;Thursday:8:00 AM - 5:00 PM;Friday:8:00 AM - 5:00 PM;Saturday:8:00 AM - 12:00 PM;,,0
Belle Farms,,3851 Kathy Road,,Morganton,NC,28665,United States,(803) 324-2925,35.2270869,-80.8431267,Sunday:Closed;Monday:8:00 AM - 5:00 PM;Tuesday:8:00 AM - 5:00 PM;Wednesday:8:00 AM - 5:00 PM;Thursday:8:00 AM - 5:00 PM;Friday:8:00 AM - 5:00 PM;Saturday:8:00 AM - 12:00 PM;,,0
CFR Farm Supply,,748 North Main Street,,Patrick,SC,29584,United States,(803) 324-2925,35.2270869,-80.8431267,Sunday:Closed;Monday:8:00 AM - 5:00 PM;Tuesday:8:00 AM - 5:00 PM;Wednesday:8:00 AM - 5:00 PM;Thursday:8:00 AM - 5:00 PM;Friday:8:00 AM - 5:00 PM;Saturday:8:00 AM - 12:00 PM;,,0
M F A INC,,201 Ray Young Dr,,Columbia,MO,65201,United States,(205) 932-5298,32.7554883,-97.3307658,Sunday:Closed;Monday:8:00 AM - 5:00 PM;Tuesday:8:00 AM - 5:00 PM;Wednesday:8:00 AM - 5:00 PM;Thursday:8:00 AM - 5:00 PM;Friday:8:00 AM - 5:00 PM;Saturday:8:00 AM - 12:00 PM;,,0
"Fayette Ag Services, Inc.",,245 County Road 26 S,,Fayette,AL,35555,United States,(205) 932-5298,32.7554883,-97.3307658,Sunday:Closed;Monday:8:00 AM - 5:00 PM;Tuesday:8:00 AM - 5:00 PM;Wednesday:8:00 AM - 5:00 PM;Thursday:8:00 AM - 5:00 PM;Friday:8:00 AM - 5:00 PM;Saturday:8:00 AM - 12:00 PM;,,0
Greensboro Farmers Coop,,9701 Hwy 14 West,,Greensboro,AL,36744,United States,(205) 932-5298,32.7554883,-97.3307658,Sunday:Closed;Monday:8:00 AM - 5:00 PM;Tuesday:8:00 AM - 5:00 PM;Wednesday:8:00 AM - 5:00 PM;Thursday:8:00 AM - 5:00 PM;Friday:8:00 AM - 5:00 PM;Saturday:8:00 AM - 12:00 PM;,,0
Marshall County Soil Improvement Assoc.,,501 Poplar Street,,Benton,KY,42025,United States,(205) 932-5298,32.7554883,-97.3307658,Sunday:Closed;Monday:8:00 AM - 5:00 PM;Tuesday:8:00 AM - 5:00 PM;Wednesday:8:00 AM - 5:00 PM;Thursday:8:00 AM - 5:00 PM;Friday:8:00 AM - 5:00 PM;Saturday:8:00 AM - 12:00 PM;,,0
"Jasper Feed & Seed Supply, Inc.",,1506 9th Avenue,,Jasper,AL,35501,United States,(205) 932-5298,32.7554883,-97.3307658,Sunday:Closed;Monday:8:00 AM - 5:00 PM;Tuesday:8:00 AM - 5:00 PM;Wednesday:8:00 AM - 5:00 PM;Thursday:8:00 AM - 5:00 PM;Friday:8:00 AM - 5:00 PM;Saturday:8:00 AM - 12:00 PM;,,0
BARNES FEED STORE INC,,5619 Hwy 29 N,,Molino,FL,32577,United States,(205) 932-5298,32.7554883,-97.3307658,Sunday:Closed;Monday:9:00 AM - 6:00 PM;Tuesday:9:00 AM - 6:00 PM;Wednesday:9:00 AM - 6:00 PM;Thursday:9:00 AM - 6:00 PM;Friday:9:00 AM - 6:00 PM;Saturday:9:00 AM - 5:00 PM;,,0
BARNES FEED STORE INC,,8650 North Palafox Hwy,,Pensacola,FL,32534,United States,(205) 932-5298,32.7554883,-97.3307658,Sunday:Closed;Monday:8:00 AM - 6:00 PM;Tuesday:8:00 AM - 6:00 PM;Wednesday:8:00 AM - 6:00 PM;Thursday:8:00 AM - 6:00 PM;Friday:8:00 AM - 6:00 PM;Saturday:8:00 AM - 6:00 PM;,,0
Riverchase Lawn Equipment,,3992 Lorna Road,,Birmingham,AL,35244,United States,(205) 932-5298,32.7554883,-97.3307658,Sunday:Closed;Monday:8:00 AM - 5:00 PM;Tuesday:8:00 AM - 5:00 PM;Wednesday:8:00 AM - 5:00 PM;Thursday:8:00 AM - 5:00 PM;Friday:8:00 AM - 5:00 PM;Saturday:8:00 AM - 12:00 PM;,,0
"B & D Feed of NWF, Inc.",,8441 Hwy 875,,Milton,FL,32583,United States,(205) 932-5298,32.7554883,-97.3307658,Sunday:Closed;Monday:8:00 AM - 5:00 PM;Tuesday:8:00 AM - 5:00 PM;Wednesday:8:00 AM - 5:00 PM;Thursday:8:00 AM - 5:00 PM;Friday:8:00 AM - 5:00 PM;Saturday:8:00 AM - 12:00 PM;,,0
CASEY FEED L L C,,4631 County Rd 37 South,,Hope Hull,AL,36043,United States,(205) 932-5298,32.7554883,-97.3307658,Sunday:Closed;Monday:8:00 AM - 5:00 PM;Tuesday:8:00 AM - 5:00 PM;Wednesday:8:00 AM - 5:00 PM;Thursday:8:00 AM - 5:00 PM;Friday:8:00 AM - 5:00 PM;Saturday:8:00 AM - 12:00 PM;,,0
"Sunrise Cooperative, Inc. - Clyde Br.",,1100 Burkholder Rd,,Clyde,OH,43410,United States,(419) 332-6468,42.331427,-83.0457538,Sunday:Closed;Monday:8:00 AM - 5:00 PM;Tuesday:8:00 AM - 5:00 PM;Wednesday:8:00 AM - 5:00 PM;Thursday:8:00 AM - 5:00 PM;Friday:8:00 AM - 5:00 PM;Saturday:8:00 AM - 12:00 PM;,,0
Miller Landscape & Gardens,,4352 Sand Rd,,Norwalk,OH,44857,United States,(419) 332-6468,42.331427,-83.0457538,Sunday:Closed;Monday:8:00 AM - 5:00 PM;Tuesday:8:00 AM - 5:00 PM;Wednesday:8:00 AM - 5:00 PM;Thursday:8:00 AM - 5:00 PM;Friday:8:00 AM - 5:00 PM;Saturday:8:00 AM - 12:00 PM;,,0
TOWN AND COUNTRY CO OP INC - GRAFTON,,717 Erie Street,,Grafton,OH,44044,United States,(419) 332-6468,42.331427,-83.0457538,Sunday:11:00 AM - 5:00 PM;Monday:8:00 AM - 6:00 PM;Tuesday:8:00 AM - 6:00 PM;Wednesday:8:00 AM - 6:00 PM;Thursday:8:00 AM - 6:00 PM;Friday:8:00 AM - 6:00 PM;Saturday:7:00 AM - 6:00 PM;,,0
LANDMARK LAWN & GARDEN SUPPLY,,12701 Prospect Rd,,Strongsville,OH,44149,United States,(419) 332-6468,42.331427,-83.0457538,Sunday:Closed;Monday:8:00 AM - 5:00 PM;Tuesday:8:00 AM - 5:00 PM;Wednesday:8:00 AM - 5:00 PM;Thursday:8:00 AM - 5:00 PM;Friday:8:00 AM - 5:00 PM;Saturday:8:00 AM - 12:00 PM;,,0
TOWN AND COUNTRY CO OP INC - MEDINA,,6701 Wooster Pike,,Medina,OH,44256,United States,(419) 332-6468,42.331427,-83.0457538,Sunday:11:00 AM - 5:00 PM;Monday:8:00 AM - 6:00 PM;Tuesday:8:00 AM - 6:00 PM;Wednesday:8:00 AM - 6:00 PM;Thursday:8:00 AM - 6:00 PM;Friday:8:00 AM - 6:00 PM;Saturday:7:00 AM - 6:00 PM;,,0
TOWN AND COUNTRY CO OP INC,,813 Clark Ave,,Ashland,OH,44805,United States,(419) 332-6468,42.331427,-83.0457538,Sunday:11:00 AM - 5:00 PM;Monday:8:00 AM - 6:00 PM;Tuesday:8:00 AM - 6:00 PM;Wednesday:8:00 AM - 6:00 PM;Thursday:8:00 AM - 6:00 PM;Friday:8:00 AM - 6:00 PM;Saturday:7:00 AM - 6:00 PM;,,0
Western Reserve Farm Coop - CHARDON,,312 Park Ave,,Chardon,OH,44024,United States,(419) 332-6468,42.331427,-83.0457538,Sunday:Closed;Monday:8:00 AM - 5:00 PM;Tuesday:8:00 AM - 5:00 PM;Wednesday:8:00 AM - 5:00 PM;Thursday:8:00 AM - 5:00 PM;Friday:8:00 AM - 5:00 PM;Saturday:8:00 AM - 12:00 PM;,,0
Swan Creek Farm Supply,,2904 Swan Creek Rd,,Jonesville,NC,48642,United States,(419) 332-6468,42.331427,-83.0457538,Sunday:Closed;Monday:8:00 AM - 5:00 PM;Tuesday:8:00 AM - 5:00 PM;Wednesday:8:00 AM - 5:00 PM;Thursday:8:00 AM - 5:00 PM;Friday:8:00 AM - 5:00 PM;Saturday:8:00 AM - 12:00 PM;,,0
GREEN FIELD FARMS CO OP,,6464 Fredericksburg Rd,,Wooster,OH,44691,United States,(419) 332-6468,42.331427,-83.0457538,Sunday:11:00 AM - 5:00 PM;Monday:8:00 AM - 6:00 PM;Tuesday:8:00 AM - 6:00 PM;Wednesday:8:00 AM - 6:00 PM;Thursday:8:00 AM - 6:00 PM;Friday:8:00 AM - 6:00 PM;Saturday:7:00 AM - 6:00 PM;,,0
TOWN AND COUNTRY CO OP INC - WOOSTER,,427 W Henry St,,Wooster,OH,44691,United States,(419) 332-6468,42.331427,-83.0457538,Sunday:11:00 AM - 5:00 PM;Monday:8:00 AM - 6:00 PM;Tuesday:8:00 AM - 6:00 PM;Wednesday:8:00 AM - 6:00 PM;Thursday:8:00 AM - 6:00 PM;Friday:8:00 AM - 6:00 PM;Saturday:7:00 AM - 6:00 PM;,,0
M F A INC,,201 Ray Young Dr,,Columbia,MO,65201,United States,(618) 997-6974,31.7775757,-106.4424559,Sunday:Closed;Monday:8:00 AM - 5:00 PM;Tuesday:8:00 AM - 5:00 PM;Wednesday:8:00 AM - 5:00 PM;Thursday:8:00 AM - 5:00 PM;Friday:8:00 AM - 5:00 PM;Saturday:8:00 AM - 12:00 PM;,,0
McKinney's Western Store,,802 Halfway Road,,Marion,IL,62659,United States,(618) 997-6974,31.7775757,-106.4424559,Sunday:Closed;Monday:8:00 AM - 5:00 PM;Tuesday:8:00 AM - 5:00 PM;Wednesday:8:00 AM - 5:00 PM;Thursday:8:00 AM - 5:00 PM;Friday:8:00 AM - 5:00 PM;Saturday:8:00 AM - 12:00 PM;,,0
Marshall County Soil Improvement Assoc.,,501 Poplar Street,,Benton,KY,42025,United States,(618) 997-6974,31.7775757,-106.4424559,Sunday:Closed;Monday:8:00 AM - 5:00 PM;Tuesday:8:00 AM - 5:00 PM;Wednesday:8:00 AM - 5:00 PM;Thursday:8:00 AM - 5:00 PM;Friday:8:00 AM - 5:00 PM;Saturday:8:00 AM - 12:00 PM;,,0
"Fayette Ag Services, Inc.",,245 County Road 26 S,,Fayette,AL,35555,United States,(618) 997-6974,31.7775757,-106.4424559,Sunday:Closed;Monday:8:00 AM - 5:00 PM;Tuesday:8:00 AM - 5:00 PM;Wednesday:8:00 AM - 5:00 PM;Thursday:8:00 AM - 5:00 PM;Friday:8:00 AM - 5:00 PM;Saturday:8:00 AM - 12:00 PM;,,0
Greensboro Farmers Coop,,9701 Hwy 14 West,,Greensboro,AL,36744,United States,(618) 997-6974,31.7775757,-106.4424559,Sunday:Closed;Monday:8:00 AM - 5:00 PM;Tuesday:8:00 AM - 5:00 PM;Wednesday:8:00 AM - 5:00 PM;Thursday:8:00 AM - 5:00 PM;Friday:8:00 AM - 5:00 PM;Saturday:8:00 AM - 12:00 PM;,,0
"Jasper Feed & Seed Supply, Inc.",,1506 9th Avenue,,Jasper,AL,35501,United States,(618) 997-6974,31.7775757,-106.4424559,Sunday:Closed;Monday:8:00 AM - 5:00 PM;Tuesday:8:00 AM - 5:00 PM;Wednesday:8:00 AM - 5:00 PM;Thursday:8:00 AM - 5:00 PM;Friday:8:00 AM - 5:00 PM;Saturday:8:00 AM - 12:00 PM;,,0
BARNES FEED STORE INC,,5619 Hwy 29 N,,Molino,FL,32577,United States,(618) 997-6974,31.7775757,-106.4424559,Sunday:Closed;Monday:9:00 AM - 6:00 PM;Tuesday:9:00 AM - 6:00 PM;Wednesday:9:00 AM - 6:00 PM;Thursday:9:00 AM - 6:00 PM;Friday:9:00 AM - 6:00 PM;Saturday:9:00 AM - 5:00 PM;,,0
Posey Co Farm Bureau,,817 West Fourth St,,Mt. Vernon,IN,47620,United States,(618) 997-6974,31.7775757,-106.4424559,Sunday:Closed;Monday:8:00 AM - 5:00 PM;Tuesday:8:00 AM - 5:00 PM;Wednesday:8:00 AM - 5:00 PM;Thursday:8:00 AM - 5:00 PM;Friday:8:00 AM - 5:00 PM;Saturday:8:00 AM - 12:00 PM;,,0
BARNES FEED STORE INC,,8650 North Palafox Hwy,,Pensacola,FL,32534,United States,(618) 997-6974,31.7775757,-106.4424559,Sunday:Closed;Monday:8:00 AM - 6:00 PM;Tuesday:8:00 AM - 6:00 PM;Wednesday:8:00 AM - 6:00 PM;Thursday:8:00 AM - 6:00 PM;Friday:8:00 AM - 6:00 PM;Saturday:8:00 AM - 6:00 PM;,,0
Calhoun Feed Service,,515 Nebo Road,,Madisonville,KY,42431,United States,(618) 997-6974,31.7775757,-106.4424559,Sunday:Closed;Monday:8:00 AM - 5:00 PM;Tuesday:8:00 AM - 5:00 PM;Wednesday:8:00 AM - 5:00 PM;Thursday:8:00 AM - 5:00 PM;Friday:8:00 AM - 5:00 PM;Saturday:8:00 AM - 12:00 PM;,,0
Marshall County Soil Improvement Assoc.,,501 Poplar Street,,Benton,KY,42025,United States,(270) 527-1323,35.1495343,-90.0489801,Sunday:Closed;Monday:8:00 AM - 5:00 PM;Tuesday:8:00 AM - 5:00 PM;Wednesday:8:00 AM - 5:00 PM;Thursday:8:00 AM - 5:00 PM;Friday:8:00 AM - 5:00 PM;Saturday:8:00 AM - 12:00 PM;,,0
"Fayette Ag Services, Inc.",,245 County Road 26 S,,Fayette,AL,35555,United States,(270) 527-1323,35.1495343,-90.0489801,Sunday:Closed;Monday:8:00 AM - 5:00 PM;Tuesday:8:00 AM - 5:00 PM;Wednesday:8:00 AM - 5:00 PM;Thursday:8:00 AM - 5:00 PM;Friday:8:00 AM - 5:00 PM;Saturday:8:00 AM - 12:00 PM;,,0
"Jasper Feed & Seed Supply, Inc.",,1506 9th Avenue,,Jasper,AL,35501,United States,(270) 527-1323,35.1495343,-90.0489801,Sunday:Closed;Monday:8:00 AM - 5:00 PM;Tuesday:8:00 AM - 5:00 PM;Wednesday:8:00 AM - 5:00 PM;Thursday:8:00 AM - 5:00 PM;Friday:8:00 AM - 5:00 PM;Saturday:8:00 AM - 12:00 PM;,,0
Pleasant View Milling Co.,,2605 Church St,,Pleasant View,TN,37146,United States,(270) 527-1323,35.1495343,-90.0489801,Sunday:Closed;Monday:8:00 AM - 5:00 PM;Tuesday:8:00 AM - 5:00 PM;Wednesday:8:00 AM - 5:00 PM;Thursday:8:00 AM - 5:00 PM;Friday:8:00 AM - 5:00 PM;Saturday:8:00 AM - 12:00 PM;,,0
Bonnie's Barnyard,,8415 Horton Hwy,,College Grove,TN,37046,United States,(270) 527-1323,35.1495343,-90.0489801,Sunday:Closed;Monday:8:00 AM - 5:00 PM;Tuesday:8:00 AM - 5:00 PM;Wednesday:8:00 AM - 5:00 PM;Thursday:8:00 AM - 5:00 PM;Friday:8:00 AM - 5:00 PM;Saturday:8:00 AM - 12:00 PM;,,0
Calhoun Feed Service,,515 Nebo Road,,Madisonville,KY,42431,United States,(270) 527-1323,35.1495343,-90.0489801,Sunday:Closed;Monday:8:00 AM - 5:00 PM;Tuesday:8:00 AM - 5:00 PM;Wednesday:8:00 AM - 5:00 PM;Thursday:8:00 AM - 5:00 PM;Friday:8:00 AM - 5:00 PM;Saturday:8:00 AM - 12:00 PM;,,0
Greensboro Farmers Coop,,9701 Hwy 14 West,,Greensboro,AL,36744,United States,(270) 527-1323,35.1495343,-90.0489801,Sunday:Closed;Monday:8:00 AM - 5:00 PM;Tuesday:8:00 AM - 5:00 PM;Wednesday:8:00 AM - 5:00 PM;Thursday:8:00 AM - 5:00 PM;Friday:8:00 AM - 5:00 PM;Saturday:8:00 AM - 12:00 PM;,,0
Riverchase Lawn Equipment,,3992 Lorna Road,,Birmingham,AL,35244,United States,(270) 527-1323,35.1495343,-90.0489801,Sunday:Closed;Monday:8:00 AM - 5:00 PM;Tuesday:8:00 AM - 5:00 PM;Wednesday:8:00 AM - 5:00 PM;Thursday:8:00 AM - 5:00 PM;Friday:8:00 AM - 5:00 PM;Saturday:8:00 AM - 12:00 PM;,,0
Posey Co Farm Bureau,,817 West Fourth St,,Mt. Vernon,IN,47620,United States,(270) 527-1323,35.1495343,-90.0489801,Sunday:Closed;Monday:8:00 AM - 5:00 PM;Tuesday:8:00 AM - 5:00 PM;Wednesday:8:00 AM - 5:00 PM;Thursday:8:00 AM - 5:00 PM;Friday:8:00 AM - 5:00 PM;Saturday:8:00 AM - 12:00 PM;,,0
Dean Farm Supply,,28739 Us Hwy 72,,Hollywood,AL,35752,United States,(270) 527-1323,35.1495343,-90.0489801,Sunday:Closed;Monday:8:00 AM - 5:00 PM;Tuesday:8:00 AM - 5:00 PM;Wednesday:8:00 AM - 5:00 PM;Thursday:8:00 AM - 5:00 PM;Friday:8:00 AM - 5:00 PM;Saturday:8:00 AM - 12:00 PM;,,0
M F A INC,,201 Ray Young Dr,,Columbia,MO,65201,United States,(618) 997-6974,47.6062095,-122.3320708,Sunday:Closed;Monday:8:00 AM - 5:00 PM;Tuesday:8:00 AM - 5:00 PM;Wednesday:8:00 AM - 5:00 PM;Thursday:8:00 AM - 5:00 PM;Friday:8:00 AM - 5:00 PM;Saturday:8:00 AM - 12:00 PM;,,0
McKinney's Western Store,,802 Halfway Road,,Marion,IL,62659,United States,(618) 997-6974,47.6062095,-122.3320708,Sunday:Closed;Monday:8:00 AM - 5:00 PM;Tuesday:8:00 AM - 5:00 PM;Wednesday:8:00 AM - 5:00 PM;Thursday:8:00 AM - 5:00 PM;Friday:8:00 AM - 5:00 PM;Saturday:8:00 AM - 12:00 PM;,,0
Swan Creek Farm Supply,,2904 Swan Creek Rd,,Jonesville,NC,48642,United States,(618) 997-6974,47.6062095,-122.3320708,Sunday:Closed;Monday:8:00 AM - 5:00 PM;Tuesday:8:00 AM - 5:00 PM;Wednesday:8:00 AM - 5:00 PM;Thursday:8:00 AM - 5:00 PM;Friday:8:00 AM - 5:00 PM;Saturday:8:00 AM - 12:00 PM;,,0
Posey Co Farm Bureau,,817 West Fourth St,,Mt. Vernon,IN,47620,United States,(618) 997-6974,47.6062095,-122.3320708,Sunday:Closed;Monday:8:00 AM - 5:00 PM;Tuesday:8:00 AM - 5:00 PM;Wednesday:8:00 AM - 5:00 PM;Thursday:8:00 AM - 5:00 PM;Friday:8:00 AM - 5:00 PM;Saturday:8:00 AM - 12:00 PM;,,0
Marshall County Soil Improvement Assoc.,,501 Poplar Street,,Benton,KY,42025,United States,(618) 997-6974,47.6062095,-122.3320708,Sunday:Closed;Monday:8:00 AM - 5:00 PM;Tuesday:8:00 AM - 5:00 PM;Wednesday:8:00 AM - 5:00 PM;Thursday:8:00 AM - 5:00 PM;Friday:8:00 AM - 5:00 PM;Saturday:8:00 AM - 12:00 PM;,,0
"Superior Ag Resources Coop, Inc.",,901 N Main St Po Box 420,,Huntingburg,IN,47542,United States,(618) 997-6974,47.6062095,-122.3320708,Sunday:Closed;Monday:8:00 AM - 5:00 PM;Tuesday:8:00 AM - 5:00 PM;Wednesday:8:00 AM - 5:00 PM;Thursday:8:00 AM - 5:00 PM;Friday:8:00 AM - 5:00 PM;Saturday:8:00 AM - 12:00 PM;,,0
Superior Ag - Crisney,,511 N Main Street,,Chrisney,IN,47611,United States,(618) 997-6974,47.6062095,-122.3320708,Sunday:Closed;Monday:8:00 AM - 5:00 PM;Tuesday:8:00 AM - 5:00 PM;Wednesday:8:00 AM - 5:00 PM;Thursday:8:00 AM - 5:00 PM;Friday:8:00 AM - 5:00 PM;Saturday:8:00 AM - 12:00 PM;,,0
Calhoun Feed Service,,515 Nebo Road,,Madisonville,KY,42431,United States,(618) 997-6974,47.6062095,-122.3320708,Sunday:Closed;Monday:8:00 AM - 5:00 PM;Tuesday:8:00 AM - 5:00 PM;Wednesday:8:00 AM - 5:00 PM;Thursday:8:00 AM - 5:00 PM;Friday:8:00 AM - 5:00 PM;Saturday:8:00 AM - 12:00 PM;,,0
"Bundy Bros. & Sons, Inc.",,3 North Davis St.,,Medora,IN,47260,United States,(618) 997-6974,47.6062095,-122.3320708,Sunday:Closed;Monday:8:00 AM - 5:00 PM;Tuesday:8:00 AM - 5:00 PM;Wednesday:8:00 AM - 5:00 PM;Thursday:8:00 AM - 5:00 PM;Friday:8:00 AM - 5:00 PM;Saturday:8:00 AM - 12:00 PM;,,0
Neff Family Fertilizer,,6658 West State Road 56,,Salem,IN,47167,United States,(618) 997-6974,47.6062095,-122.3320708,Sunday:Closed;Monday:8:00 AM - 5:00 PM;Tuesday:8:00 AM - 5:00 PM;Wednesday:8:00 AM - 5:00 PM;Thursday:8:00 AM - 5:00 PM;Friday:8:00 AM - 5:00 PM;Saturday:8:00 AM - 12:00 PM;,,0
