store_name,store_number,address,address2,city,state,zip_code,country,phone_number,latitude,longitude,store_hours,other_fields,coming_soon
Cranston,,220 Hillside Road,,Cranston,RI,02920,United States,(401) 943-1601,41.7590084,-71.45873010000003,Sunday - Thursday: 11:30 AM - 10:00 PM;Friday - Saturday: 11:30 AM - 11:00 PM;,,0
Blue Bell,,990 Dekalb Pike,,Blue Bell,PA,19422,United States,,40.1654671,-75.29148529999998,,,0
Cranberry,,"2045 Mackenzie Way,",,Cranberry,PA,16066,United States,(724) 742-1212,40.6870527,-80.08926459999998,Friday - Saturday: 11:30 AM - 11:00 PM;,,0
Exton,,123 East Swedesford Road,,Exton,PA,19341,United States,(610) 594-1900,40.0330664,-75.6312805,Friday & Saturday: 11:30 AM - 11:00 PM;,,0
Horsham,,100 Welsh Road,,Horsham,PA,19044,United States,(215) 657-1113,40.15866479999999,-75.14333959999999,Friday & Saturday: 11:30 AM - 11:00 PM;,,0
McMurray,,102 McDowell Lane,,McMurray,PA,15317,United States,(724) 941-4900,40.27004489999999,-80.12932849999999,Friday & Saturday: 11:30 AM - 11:00 PM;,,0
Monroeville,,2740 Stroschein Road,,Monroeville,PA,15146,United States,(412) 373-0700,40.43796749999999,-79.7688971,Friday - Saturday: 11:30 AM - 11:00 PM;,,0
Settlers Ridge,,1810 Settlers Ridge Center Dr,,Robinson Township,PA,15205,United States,(412) 787-3434,40.4380379,-80.1464626,Friday - Saturday: 11:30 AM - 11:00 PM;,,0
Trexlertown,,750 North Krocks Road,,Allentown,PA,18106,United States,(610) 366-9701,40.56423729999999,-75.5640252,Friday - Saturday: 11:30 AM - 11:00 PM;,,0
Wayne,,321 East Lancaster Avenue,,Wayne,PA,19087‎,United States,(484) 580-8022,40.0444421,-75.3793422,Friday - Saturday: 11:30 AM - 11:00 PM;,,0
Wynnewood,,50 East Wynnewood Road,,Wynnewood,PA,19096,United States,(610) 645-5453,40.00172250000001,-75.2737507,Friday - Saturday: 11:30 AM - 11:00 PM;,,0
Wyomissing,,2733 Papermill Road,,Wyomissing,PA,19610,United States,(610) 816-5722,40.35359,-75.98122999999998,Friday - Saturday: 11:30 AM - 11:00 PM;,,0
Bohemia,,4180 Veterans Memorial Highway,,Bohemia,NY,11716,United States,(631) 647-2625,40.7820095,-73.09809480000001,Sunday - Thursday: 11:30 AM - 10:00 PM;,,0
Carle Place,,137 Old Country Rd,,Carle Place,NY,11514,United States,(516) 877-7750,40.7436967,-73.617614,Friday - Saturday: 11:30 AM - 11:00 PM;,,0
Commack,,6401 Jericho Turnpike,,Commack,NY,11725,United States,(631) 858-2625,40.843737,-73.2945219,Friday - Saturday: 11:30 AM - 11:00 PM;,,0
Farmingdale,,1280 Broadhollow Road,,Farmingdale,NY,11735,United States,(631) 420-0407,40.734553,-73.42403890000003,Friday - Saturday: 11:30 AM - 11:00 PM;,,0
Great Neck,,420 Northern Blvd,,Great Neck,NY,11021,United States,(516) 482-0400,40.77933599999999,-73.72193399999998,Friday & Saturday: 11:30 AM - 11:00 PM;,,0
Stony Brook,,2302B Nesconset Highway,,Stony Brook,NY,11790,United States,,40.87499700000001,-73.12232649999999,,,0
Wantagh,,3430 Sunrise Highway,,Wantagh,NY,11793,United States,(516) 679-2625,40.6724786,-73.50474350000002,Friday - Saturday: 11:30 AM - 11:00 PM;,,0
White Plains,,264 Main Street,,White Plains,NY,10601‎,United States,(914) 358-9702,41.0334256,-73.7638058,Friday - Saturday: 11:30 AM - 11:00 PM;,,0
Woodbury,,8063 Jericho Turnpike,,Woodbury,NY,11797‎,United States,(516) 367-2625,40.8158558,-73.47408200000001,Friday - Saturday: 11:30 AM - 11:00 PM;,,0
Clifton,,852 State Rt 3,,Clifton,NJ,07012‎,United States,(973) 471-2625,40.8394723,-74.15536020000002,Friday - Saturday: 11:30 AM - 11:00 PM;,,0
Edison,,80 Parsonage Road,,Edison,NJ,08837,United States,(732) 744-1500,40.5504413,-74.33395109999998,Friday - Saturday: 11:30 AM - 11:00 PM;,,0
Englewood,,10 Sterling Blvd,,Englewood,NJ,07631,United States,(201) 431-9404,40.88109849999999,-73.98918689999999,Friday - Saturday: 11:00 AM - 11:00 PM;,,0
Fair Lawn,,2101 Promenade Blvd,,Fair Lawn,NJ,07410,United States,(201) 796-2625,40.9431688,-74.13006000000001,Friday & Saturday: 11:30 AM - 11:00 PM;,,0
Livingston,,8119 Town Center Way,,Livingston,NJ,07039,United States,(973) 992-2625,40.79642130000001,-74.31398969999998,Friday - Saturday: 11:30 AM - 11:00 PM;,,0
Marlboro,,98 US Highway 9,,Englishtown,NJ,07726,United States,(732) 780-2625,40.3513676,-74.3052179,Friday & Saturday: 11:30 AM - 11:00 PM;,,0
Mount Laurel,,7000 Midlantic Drive,,Mount Laurel,NJ,08054,United States,(856) 234-2725,39.9653362,-74.91980230000001,Friday - Saturday: 11:30 AM - 11:00 PM;,,0
Ramsey,,984 State Rt 17,,Ramsey,NJ,07446‎,United States,(201) 818-2625,41.0663098,-74.13154800000001,Friday - Saturday: 11:30 AM - 11:00 PM;,,0
Wayne,,1600 Route 23 North,,Wayne,NJ,07470,United States,(973) 872-2625,40.939058593460196,-74.26898678834323,Friday - Saturday: 11:30 AM - 11:00 PM;,,0
Littleton,,201 Constitution Avenue,,Littleton,MA,01460,United States,(978) 486-4124,42.55139,-71.47769599999998,Friday - Saturday : 11:30 AM - 11:00 PM;,,0
Newton,,180 Needham Street,,Newton,MA,02464,United States,(617) 467-4250,42.311571,-71.21306199999998,Friday - Saturday 11:30 AM - 11:00 PM;,,0
Northborough,,10002 Shops Way,,Northborough,MA,01532,United States,(508) 466-2050,42.2855716,-71.66931629999999,Friday-Saturday: 11:30 am-11:00 pm;,,0
Reading,,48 Walkers Brook Drive,,Reading,MA,01867,United States,(781) 944-8454,42.5196525,-71.0922946,Friday - Saturday: 11:30 AM - 11:00 PM;,,0
Westwood,,119 University Avenue,,Westwood,MA,02090,United States,(781) 329-3339,42.2078658,-71.15200959999999,Friday - Saturday: 11:30 AM - 11:00 PM;,,0
Kildeer,,Kildeer Village Square,,Kildeer,IL,60074,United States,,42.15990759999999,-88.04808459999998,,,0
Lombard,,757 E. Butterfield Road,,Lombard,IL,60148,United States,,41.8398605,-87.99828550000001,,,0
Orland Park,,14205 S. La Grange Road #5B,,Orland Park,IL,60462,United States,,41.6322813,-87.85348859999999,,,0
Altamonte Springs,,420 East Altamonte Drive,,Altamonte Springs,FL,32701,United States,(407) 260-2625,28.6632089,-81.37739169999998,Friday & Saturday: 11:30 AM - 11:00 PM;,,0
Aventura,,17901 Biscayne Blvd,,Aventura,FL,33160,United States,(305) 830-2625,25.9414629,-80.14774499999999,Friday & Saturday: 11:30 AM - 11:00 PM;,,0
Boca Raton East,,851 S. Federal Hwy,,Boca Raton,FL,33432,United States,(561) 338-3028,26.3423672,-80.08653240000001,,,0
Boca Raton West,,21065 Powerline Rd,,Boca Raton,FL,33433,United States,(561) 218-6600,26.362244,-80.15310210000001,,,0
Brandon,,1912 West Brandon Boulevard,,Brandon,FL,33510,United States,(813) 409-3830,27.9382447,-82.31605739999998,Friday: 11:00 AM - 11:00 PM;Saturday: 11:30 AM - 11:00 PM;,,0
Carrollwood,,13020 North Dale Mabry Highway,,Tampa,FL,33618,United States,(813) 265-2625,28.064491,-82.50602529999998,Friday - Saturday: 11:30 AM - 11:00 PM;,,0
Clearwater,,2532 N McMullen Booth Rd,,Clearwater,FL,33761,United States,(727) 797-0929,28.0136461,-82.70994239999999,Friday - Saturday: 11:30 AM - 11:00 PM;,,0
Coral Gables,,2626 Ponce De Leon Blvd,,Coral Gables,FL,33134,United States,(786) 456-9200,25.7472561,-80.25885260000001,Friday - Saturday: 11:30 AM - 11:00 PM;,,0
Coral Springs,,9521 Westview Drive,,Coral Springs,FL,33076,United States,(954) 340-2625,26.297991,-80.25368100000003,Friday - Saturday: 11:30 AM - 10:30 PM;,,0
Delray Beach,,115 Northeast 6th Avenue,,Delray Beach,FL,33483‎,United States,(561) 278-7911,26.4637515,-80.06681320000001,Friday - Saturday: 11:30 AM - 11:00 PM;,,0
Doral,,2801 Northwest 87th Avenue,,Doral,FL,33172,United States,(305) 718-8499,25.8004533,-80.3363933,Friday: 11:00 AM - 11:30 PM;Saturday: 11:30 AM - 11:30 PM;,,0
Fort Lauderdale,,2203 South Federal Highway,,Fort Lauderdale,FL,33316,United States,(954) 462-5555,26.0943762,-80.13701750000001,Sunday: 12:00 PM - 10:00 PM;,,0
Kendall,,12502 North Kendall Drive,,Kendall,FL,33186,United States,(305) 273-8020,25.685612,-80.39827639999999,Friday & Saturday: 11:30 AM - 11:30 PM;,,0
Miami Lakes,,15492 Northwest 77th Court,,Miami Lakes,FL,33016,United States,(305) 558-3950,25.9153043,-80.32701589999999,Friday & Saturday: 11:30 AM - 11:00 PM;,,0
Miramar,,3111 SW 160th Avenue,,Miramar,FL,33027,United States,(954) 392-3811,25.9814582,-80.35671259999998,Friday & Saturday: 11:30 AM - 11:00 PM;,,0
North Fort Lauderdale,,1580 North Federal Highway,,Fort Lauderdale,FL,33304,United States,(954) 563-2625,26.1481603,-80.1199047,Friday & Saturday: 11:30 AM - 11:00 PM;,,0
North Miami,,1835 NE 123rd Street,,North Miami,FL,33181,United States,(305) 899-8887,25.8900766,-80.16139479999998,Friday - Saturday: 11:30 AM - 11:00 PM;,,0
Orlando (Sand Lake),,8031 Turkey Lake Road,,Orlando,FL,32819,United States,(407) 363-9466,28.44704123527969,-81.47616301163941,Friday - Saturday: 11:30 AM - 11:00 PM;,,0
Palm Beach Gardens,,2680 PGA Boulevard,,Palm Beach Gardens,FL,33410,United States,(561) 804-7777,26.8442932,-80.07571159999998,,,0
Pembroke Pines,,11037 Pines Blvd,,Pembroke Pines,FL,33026,United States,(954) 443-6610,26.007915,-80.29403909999996,Friday - Saturday: 11:30 AM - 11:00 PM;,,0
Pinecrest,,10205 S Dixie Hwy,,Pinecrest,FL,33156‎,United States,(305) 740-5800,25.6753315,-80.3187087,Friday - Saturday: 11:30 AM - 11:30 PM;,,0
Plantation,,512 North Pine Island Road,,Plantation,FL,33324,United States,(954) 474-3311,26.1268637,-80.26249239999999,,,0
Pompano Beach,,1203 South Federal Highway,,Pompano Beach,FL,33062,United States,(954) 942-5550,26.2151872,-80.1064227,,,0
South Tampa,,1901 South Dale Mabry Highway,,Tampa,FL,33629,United States,(813) 258-2625 ‎,27.9271566,-82.50630089999999,Friday - Saturday: 11:30 AM - 11:00 PM;,,0
Stuart,,2343 Southeast Federal Highway,,Stuart,FL,34994‎,United States,(772) 287-7741,27.1764731,-80.23518790000003,,,0
Wellington,,1000 S. State Road 7,,Wellington,FL,33414‎,United States,(561) 615-1255,26.6638122,-80.2021838,Friday - Saturday: 11:30 AM - 10:30 PM;,,0
Weston,,4527 Weston Road,,Weston,FL,33331‎,United States,(954) 358-2625,26.0635961,-80.36237470000003,Friday - Saturday: 11:30 AM - 10:30 PM;,,0
Pike Creek,,4805 Limestone Road,,Pike Creek,DE,19808,United States,(302) 635-7013,39.74289539999999,-75.69239140000002,Friday - Saturday: 11:30 AM - 11:00 PM;,,0
Wilmington,,5611 Concord Pike,,Wilmington,DE,19803,United States,(302) 477-1488,39.8334559,-75.54292229999999,Friday - Saturday: 11:30 AM - 11:00 PM;,,0
