store_name,store_number,address,address2,city,state,zip_code,country,phone_number,latitude,longitude,store_hours,other_fields,coming_soon
Lille Marcq,,7 rue de la Briqueterie,,Marcq-en-Baroeul,,59700,France,03 20 21 12 03,50.667852,3.077331,sunday:11:00-23:00;monday:11:00-23:00;tuesday:11:00-23:00;wednesday:11:00-23:00;thursday:11:00-23:00;friday:11:00-00:00;saturday:11:00-00:00;,,0
Angers Espace Anjou,,Shopping Center Espace Anjou,,Angers,,49100,France,02 41 22 12 90,47.467587,-0.526971,sunday:11:00-23:00;monday:11:00-23:00;tuesday:11:00-23:00;wednesday:11:00-23:00;thursday:11:00-23:00;friday:11:00-00:00;saturday:11:00-00:00;,,0
Vitrolles Grand Vitrolles,,Avenue Denis Padovani,,Vitrolles,,13127,France,04 42 46 11 46,43.432897970556,5.2640570084824,sunday:11:00-23:30;monday:11:00-23:30;tuesday:11:00-23:30;wednesday:11:00-23:30;thursday:11:00-23:30;friday:11:00-23:30;saturday:11:00-23:30;,,0
Toulon La Seyne,,Play Play ZAC,,La-Seyne-Sur-Mer,,83500,France,04 94 64 04 29,43.108757017183,5.8567590010203,sunday:11:00-00:00;monday:11:00-00:00;tuesday:11:00-00:00;wednesday:11:00-00:00;thursday:11:00-00:00;friday:11:00-01:00;saturday:11:00-01:00;,,0
Paris Barbès,,3 boulevard Barbès,,Paris,,75018,France,01 82 73 25 90 ,48.884164962826,2.3493969783836,sunday:07:30-23:00;monday:07:30-23:00;tuesday:07:30-23:00;wednesday:07:30-23:00;thursday:07:30-23:00;friday:07:30-23:00;saturday:07:30-23:00;,,0
Toulouse Fenouillet,,2 rue des factories,,Fenouillet,,31150,France,05 62 75 38 86,43.68814900067,1.4039780352765,sunday:11:00-23:00;monday:11:00-23:00;tuesday:11:00-23:00;wednesday:11:00-23:00;thursday:11:00-23:00;friday:11:00-23:00;saturday:11:00-23:00;,,0
Hénin-Beaumont Maison Plus,,376 Boulevard Eugène Thomas,,Henin-Beaumont,,62110,France,03 21 40 13 27,50.3969242,2.9713027,sunday:11:00-22:30;monday:11:00-22:30;tuesday:11:00-22:30;wednesday:11:00-22:30;thursday:11:00-22:30;friday:11:00-23:30;saturday:11:00-23:00;,,0
Thonon Anthy,,29 CROSSING ROAD AND IMPERIAL ROAD,,ANTHY SUR LEMAN,,74200,France,04 80 74 00 48,46.352781018402,6.439178980867,sunday:11:00-23:00;monday:11:00-23:00;tuesday:11:00-23:00;wednesday:11:00-23:00;thursday:11:00-23:00;friday:11:00-23:00;saturday:11:00-23:00;,,0
Bourgoin-Jallieu L'isle Abeau,,ZAC SAINT HUBERT - 22 RUE DES SAYES,,L'ISLE D'ABEAU,,38080,France,,45.613008021028,5.2288379929822,sunday:11:00-00:00;monday:11:00-00:00;tuesday:11:00-00:00;wednesday:11:00-00:00;thursday:11:00-00:00;friday:11:00-00:00;saturday:11:00-00:00;,,0
Bordeaux Mérignac,,AVENUE DU PRESIDENT JF KENNEDY,,MERIGNAC,,33700,France,05 56 47 97 76,44.833629994632,-0.66645994399356,sunday:11:00-23:00;monday:11:00-23:00;tuesday:11:00-23:00;wednesday:11:00-23:00;thursday:11:00-23:00;friday:11:00-01:00;saturday:11:00-01:00;,,0
Fontainebleau Varennes,,C. Cial du Breau,,Varennes-sur-seine,,77130,France,01 60 70 54 12,48.361681007675,2.9505430514074,sunday:11:00-23:00;monday:11:00-23:00;tuesday:11:00-23:00;wednesday:11:00-23:00;thursday:11:00-23:00;friday:11:00-23:00;saturday:11:00-23:00;,,0
Cagnes Villeneuve-Loubet,,622 seaside road,,Villeneuve-Loubet,,06270,France,04 22 02 00 43,43.63931,7.137619,sunday:11:00-00:00;monday:11:00-00:00;tuesday:11:00-00:00;wednesday:11:00-00:00;thursday:11:00-00:00;friday:11:00-00:00;saturday:11:00-00:00;,,0
Tours Jean Jaurès,,23 Place Jean Jaurès,,Tours,,37000,France,02 47 66 06 51,47.3885398,0.68928,sunday:11:00-23:00;monday:11:00-23:00;tuesday:11:00-23:00;wednesday:11:00-23:00;thursday:11:00-23:00;friday:11:00-00:00;saturday:11:00-00:00;,,0
Orleans Plaines de Beauce A10,,Plains of Beauce area,,Fresnay - The Bishop,,28310,France,,48.275343,1.855535,sunday:08:00-22:30;monday:08:00-22:30;tuesday:08:00-22:30;wednesday:08:00-22:30;thursday:08:00-22:30;friday:08:00-01:30;saturday:08:00-01:30;,,0
Lyon Limonest,,Place-dit tuileries,,Limonest,,69760,France,04 78 83 28 99,45.82212097,4.766683039,sunday:11:00-23:00;monday:11:00-23:00;tuesday:11:00-23:00;wednesday:11:00-23:00;thursday:11:00-23:00;friday:11:00-23:00;saturday:11:00-23:00;,,0
Paris North Station,,25 rue de Dunkerque,,Paris,,75010,France,01 82 73 25 79,48.87970698,2.354424008,sunday:10:00-00:00;monday:10:00-00:00;tuesday:10:00-00:00;wednesday:10:00-00:00;thursday:10:00-00:00;friday:10:00-00:00;saturday:10:00-00:00;,,0
Béziers,,ZAC de Montimaran,,Béziers,,34500,France,,43.340673,3.26382495,sunday:11:00-22:00;monday:11:00-22:00;tuesday:11:00-22:00;wednesday:11:00-22:00;thursday:11:00-22:00;friday:11:00-22:00;saturday:11:00-22:00;,,0
Tarbes Stadium,,6 President Kennedy Boulevard,,Tarbes,,65000,France,05 82 68 00 05,43.21908497,0.08000803109,sunday:11:00-23:00;monday:11:00-23:00;tuesday:11:00-23:00;wednesday:11:00-23:00;thursday:11:00-23:00;friday:11:00-23:00;saturday:11:00-23:00;,,0
Evreux,,C.Cial Carrefour 52 Rue Roland Moreno,,Evreux,,27000,France,02 78 53 00 04,49.01447197,1.171025972,sunday:11:00-23:00;monday:11:00-23:00;tuesday:11:00-23:00;wednesday:11:00-23:00;thursday:11:00-23:00;friday:11:00-23:00;saturday:11:00-23:00;,,0
Reims Murigny,,Street Jacqueline VERNIER,,Murigny,,51100,France,,49.220823,4.020508,sunday:11:00-23:00;monday:11:00-23:00;tuesday:11:00-23:00;wednesday:11:00-23:00;thursday:11:00-23:00;friday:11:00-23:00;saturday:11:00-23:00;,,0
Bordeaux Begles,,Street of the Lumière brothers,,Bègles,,33130,France,,44.79472402,-0.5351750378,sunday:11:00-23:00;monday:11:00-23:00;tuesday:11:00-23:00;wednesday:11:00-23:00;thursday:11:00-23:00;friday:11:00-23:00;saturday:11:00-23:00;,,0
Valenciennes Little Fôret,,C. Cial Auchan,,Petite Fôret,,59494,France,03 27 28 92 02,50.37663697,3.473285023,sunday:11:00-23:00;monday:11:00-23:00;tuesday:11:00-23:00;wednesday:11:00-23:00;thursday:11:00-23:00;friday:11:00-23:00;saturday:11:00-23:00;,,0
Lyon Bron,,ZAC Door of the Alps,,Source,,69500,France,04 82 25 04 58 ,45.722432991954,4.9197710005017,sunday:11:00-00:00;monday:11:00-00:00;tuesday:11:00-00:00;wednesday:11:00-00:00;thursday:11:00-00:00;friday:11:00-01:00;saturday:11:00-01:00;,,0
Montargis Amilly,,753 rue de Saint-Firmin des Vignes,,Amilly,,45200,France,02 38 89 35 50,47.977765984841,2.7347669949138    ,sunday:11:00-00:00;monday:11:00-00:00;tuesday:11:00-00:00;wednesday:11:00-00:00;thursday:11:00-00:00;friday:11:00-00:00;saturday:11:00-00:00;,,0
Marseille The Joliette,,11 Place De La Joliette,,Marseille,,13002,France,,43.3045032,5.3658564,sunday:08:00-23:00;monday:08:00-23:00;tuesday:08:00-23:00;wednesday:08:00-23:00;thursday:08:00-23:00;friday:08:00-23:00;saturday:08:00-23:00;,,0
Bordeaux Saint-Eulalie,,Shopping Area Grand Tour 2,,St. Eulalie,,33560,France,05 35 14 01 96,44.908247,-0.487073,sunday:11:00-00:00;monday:11:00-00:00;tuesday:11:00-00:00;wednesday:11:00-00:00;thursday:11:00-00:00;friday:11:00-02:00;saturday:11:00-02:00;,,0
La Rochelle the Minimes,,Avenue Henri Becquerel,,La Rochelle hotels,,17000,France,05 79 53 00 31,46.146858,-1.15373,sunday:11:00-00:00;monday:11:00-00:00;tuesday:11:00-00:00;wednesday:11:00-00:00;thursday:11:00-00:00;friday:11:00-00:00;saturday:11:00-00:00;,,0
Lyon Vénissieux,,C. Cial Vénissieux,,Vénissieux,,69633,France,04 82 25 04 56 ,45.7164776,4.8750807,sunday:11:00-01:00;monday:11:00-00:00;tuesday:11:00-00:00;wednesday:11:00-00:00;thursday:11:00-00:00;friday:11:00-01:00;saturday:11:00-01:00;,,0
Ancenis Saint-Géréon,,Boulevard de l'Atlantique Space 23,,Saint-Géréon,,44150,France,02 85 02 00 16,47.371923,-1.198347,sunday:11:00-23:00;monday:11:00-23:00;tuesday:11:00-23:00;wednesday:11:00-23:00;thursday:11:00-23:00;friday:11:00-00:00;saturday:11:00-00:00;,,0
Narbonne Good Source,,ZAC Good Source,,Narbonne,,11100,France,04 11 51 00 62,43.18099201,3.029358984,sunday:10:30-23:00;monday:10:30-23:00;tuesday:10:30-23:00;wednesday:10:30-23:00;thursday:10:30-23:00;friday:10:30-23:00;saturday:10:30-23:00;,,0
Rivesaltes,,C.Cial Roussillon North Coast,,Rivesaltes,,66600,France,04 11 60 00 66,42.77680904,2.910542968,sunday:11:00-23:00;monday:11:00-23:00;tuesday:11:00-23:00;wednesday:11:00-23:00;thursday:11:00-23:00;friday:11:00-23:00;saturday:11:00-23:00;,,0
Portet-Sur-Garonne,,7 boulevard de l'Europe,,Portet-Sur-Garonne,,31120,France,05 82 60 03 17,43.530522,1.403023062,sunday:11:00-22:00;monday:11:00-22:00;tuesday:11:00-22:00;wednesday:11:00-22:00;thursday:11:00-22:00;friday:11:00-23:00;saturday:11:00-23:00;,,0
Rochefort Quatre Anes,,Route of La Rochelle,,Rochefort,,17300,France,05 79 52 00 13,45.9603,-0.97823,sunday:11:00-22:30;monday:11:00-22:30;tuesday:11:00-22:30;wednesday:11:00-22:30;thursday:11:00-22:30;friday:11:00-22:30;saturday:11:00-22:30;,,0
Nantes Saint-Herblain,,299 route de Vannes,,Saint-Herblain,,44800,France,02 85 05 01 99 ,47.245305,-1.602033972,sunday:11:00-23:00;monday:11:00-23:00;tuesday:11:00-23:00;wednesday:11:00-23:00;thursday:11:00-23:00;friday:11:00-23:00;saturday:11:00-23:00;,,0
Dunkirk Grand Synthe,,CC Auchan Dunkirk Grande-Synthe,,Grande-Synthe,,59760,France,03 66 46 00 25,51.005508967213,2.284987062,sunday:11:00-22:00;monday:11:00-22:00;tuesday:11:00-22:00;wednesday:11:00-22:00;thursday:11:00-22:00;friday:11:00-23:00;saturday:11:00-23:00;,,0
Nîmes Beaucaire,,173 bis road of Beaucaire,,Nîmes,,30000,France,04 11 54 00 70,43.83716896,4.388808023,sunday:11:00-22:00;monday:11:00-22:00;tuesday:11:00-22:00;wednesday:11:00-22:00;thursday:11:00-22:00;friday:11:00-22:00;saturday:11:00-22:00;,,0
Lyon Saint-Priest,,2 rue Champ Dolin,,Saint-Priest,,69800,France,04 82 25 04 54 ,45.71339402,4.967758971,sunday:11:00-01:00;monday:11:00-00:00;tuesday:11:00-00:00;wednesday:11:00-00:00;thursday:11:00-00:00;friday:11:00-01:00;saturday:11:00-01:00;,,0
Tours les Atlantes,,C.Cial The Atlanteans,,Saint-Pierre-des-Corps,,37700,France,,47.380390566357,0.71550813602475,sunday:11:00-22:30;monday:09:00-22:30;tuesday:09:00-22:30;wednesday:09:00-22:30;thursday:09:00-22:30;friday:09:00-23:00;saturday:09:00-23:00;,,0
Valencia Flowers,,ZAC The Couleurs,,Valence,,26000,France,04 82 19 00 28,44.95213503,4.93033105,sunday:11:00-23:00;monday:11:00-23:00;tuesday:11:00-23:00;wednesday:11:00-23:00;thursday:11:00-23:00;friday:11:00-23:00;saturday:11:00-23:00;,,0
Frouard,,2 rue de Nerbevaux,,Frouard,,54390,France,03 57 93 00 77,48.74235802,6.150829986,sunday:11:00-23:00;monday:11:00-23:00;tuesday:11:00-23:00;wednesday:11:00-23:00;thursday:11:00-23:00;friday:11:00-00:00;saturday:11:00-00:00;,,0
Villeneuve d'Ascq,,Centre Commercial V2,,Villeneuve d'Ascq,,59650,France,03 66 48 03 78,50.61695672,3.130454106,sunday:11:00-22:00;monday:11:00-22:00;tuesday:11:00-22:00;wednesday:10:00-22:00;thursday:11:00-22:00;friday:11:00-22:00;saturday:11:00-22:00;,,0
The Ulis 2,,Shopping Center Ulis 2 Porte 3,,The Ulis,,91940,France,01 82 95 00 10 ,48.677004003942,2.1700229508102,sunday:11:00-22:00;monday:11:00-22:00;tuesday:11:00-22:00;wednesday:11:00-22:00;thursday:11:00-22:00;friday:11:00-22:00;saturday:11:00-22:00;,,0
Vannes Ploeren,,ZC Luscanen,,PLOEREN,,56880,France,02 30 78 00 26 ,47.661907995404,-2.7968690060225,sunday:11:00-23:00;monday:11:00-23:00;tuesday:11:00-23:00;wednesday:11:00-23:00;thursday:11:00-23:00;friday:11:00-23:00;saturday:11:00-23:00;,,0
New York City,,19 Quai des Belges,,Marseille,,13000,France,04 84 08 01 65 ,43.29522504,5.374511044,sunday:10:00-00:00;monday:10:00-00:00;tuesday:10:00-00:00;wednesday:10:00-00:00;thursday:10:00-00:00;friday:10:00-00:00;saturday:10:00-00:00;,,0
Arras,,ZAC Val de Scarpe - Sector of the Slaughterhouses,,Arras,,62000,France,03 66 51 00 29,50.29688603,2.782372997,sunday:11:00-22:30;monday:11:00-22:30;tuesday:11:00-22:30;wednesday:11:00-22:30;thursday:11:00-22:30;friday:11:00-23:30;saturday:11:00-23:30;,,0
Chambery Nord,,1433 avenue des Landiers,,Chambery,,73000,France,04 80 68 00 31,45.593970959482     ,5.8986390391306 ,sunday:11:00-01:00;monday:11:00-00:00;tuesday:11:00-00:00;wednesday:11:00-00:00;thursday:11:00-00:00;friday:11:00-01:00;saturday:11:00-01:00;,,0
Saint-Brieuc Langueux,,C. Cial Carrefour,,Langueux,,22360,France,02 30 62 00 07,48.496298004385,-2.725435,sunday:11:00-00:00;monday:11:00-00:00;tuesday:11:00-00:00;wednesday:11:00-00:00;thursday:11:00-00:00;friday:11:00-00:00;saturday:11:00-00:00;,,0
Arles Fourchon,,Commercial area Fourchon,,Arles,,13200,France,04 90 52 21 51,43.667168990262,4.6349789707598,sunday:11:00-22:00;monday:11:00-22:00;tuesday:11:00-22:00;wednesday:11:00-22:00;thursday:11:00-22:00;friday:11:00-23:00;saturday:11:00-23:00;,,0
Annecy Cran-Gevrier,,26 avenue du pont nine,,Cran-Gevrier,,74960,France,04 80 73 00 05     ,45.89676702,6.112037,sunday:11:00-00:00;monday:11:00-00:00;tuesday:11:00-00:00;wednesday:11:00-00:00;thursday:11:00-00:00;friday:11:00-00:00;saturday:11:00-00:00;,,0
Aire de Chartres Bois-Paris - Motorway A11,,Aire de Chartres Bois-Paris - Motorway A11,,Gasville-Oisème,,28300,France,0237316241,48.467257,1.57954,sunday:08:00-23:00;monday:08:00-23:00;tuesday:08:00-23:00;wednesday:08:00-23:00;thursday:08:00-23:00;friday:08:00-23:00;saturday:08:00-23:00;,,0
Paris Wagram,,7 Avenue de Wagram,,Paris,,75017,France,01 82 73 24 54,48.875297,2.295694,sunday:07:30-02:00;monday:07:30-02:00;tuesday:07:30-02:00;wednesday:07:30-02:00;thursday:07:30-02:00;friday:07:30-02:00;saturday:07:30-02:00;,,0
Grenoble Victor Hugo,,2 place Victor Hugo,,Grenoble,,38000,France,04 80 61 00 70,45.189456002064,5.7237779988157,sunday:11:00-00:30;monday:11:00-00:30;tuesday:11:00-00:30;wednesday:11:00-00:30;thursday:11:00-00:30;friday:11:00-01:00;saturday:11:00-01:00;,,0
Mantes Gate of Normandy,,7 rue Jean Ferrat,,Mantes-la-ville,,78711,France,01 82 85 00 02,48.980186,1.693109,sunday:11:00-23:00;monday:11:00-23:00;tuesday:11:00-23:00;wednesday:11:00-23:00;thursday:11:00-23:00;friday:11:00-23:00;saturday:11:00-23:00;,,0
Pontault-Combault The Pave,,Le Pavé of Pontault / RN4,,Pontault-Combault,,77340,France,01 82 74 00 24,48.7758643,2.602358063,sunday:11:00-00:00;monday:11:00-00:00;tuesday:11:00-00:00;wednesday:11:00-00:00;thursday:11:00-00:00;friday:11:00-01:00;saturday:11:00-01:00;,,0
Taverny,,CC The Doors of Taverny / ZAC de Boissy street Jean-Baptiste Clément,,Taverny,,95150,France,01 39 95 94 85,49.015565,2.223521,sunday:11:00-23:00;monday:11:00-23:00;tuesday:11:00-23:00;wednesday:11:00-23:00;thursday:11:00-23:00;friday:11:00-23:00;saturday:11:00-00:00;,,0
Berck,,Place-dit La Mollière / Angle of boulevard de Paris and RD 940,,Berck-sur-Mer,,62600,France,03 66 55 00 07,50.403224,1.595196,sunday:11:00-22:30;monday:11:00-22:30;tuesday:11:00-22:30;wednesday:11:00-22:30;thursday:11:00-22:30;friday:11:00-23:30;saturday:11:00-23:30;,,0
Dieppe,,ZAC Of The Belvedere,,Dieppe,,76200,France,02 35 84 83 50,49.910917033786,1.0774760213671,sunday:11:00-23:00;monday:11:00-23:00;tuesday:11:00-23:00;wednesday:11:00-23:00;thursday:11:00-23:00;friday:11:00-00:00;saturday:11:00-00:00;,,0
London Hotels,,23 Place de la Republique,,Paris,,75003,France,01 82 73 24 23,48.867806020505,2.3623760702385,sunday:11:00-00:00;monday:11:00-00:00;tuesday:11:00-00:00;wednesday:11:00-00:00;thursday:11:00-00:00;friday:11:00-02:00;saturday:11:00-02:00;,,0
Annemasse,,2 Route of Livron,,Annemasse,,74100,France,04 80 74 00 45,46.190907,6.250778,sunday:11:00-00:00;monday:11:00-00:00;tuesday:11:00-00:00;wednesday:11:00-00:00;thursday:11:00-00:00;friday:11:00-00:00;saturday:11:00-00:00;,,0
Bethune Bruay-La-Buissiere,,Park of the North Gate / Rue de la Libération,,Bruay La Buissiere,,62700,France,,50.492132,2.575099,sunday:11:00-23:00;monday:11:00-23:00;tuesday:11:00-23:00;wednesday:11:00-23:00;thursday:11:00-23:00;friday:11:00-00:00;saturday:11:00-00:00;,,0
Aix La Pioline,,Commercial Area La Pioline / RD9,,Aix en Provence,,13546,France,04 84 04 00 52 ,43.505126,5.396481,sunday:11:00-23:00;monday:11:00-23:00;tuesday:11:00-23:00;wednesday:11:00-23:00;thursday:11:00-23:00;friday:11:00-23:00;saturday:11:00-23:00;,,0
Caen Mondeville,,7 Chemin de la Cavée,,Mondeville,,14120,France,02 31 82 44 72,49.169634,-0.321841,sunday:11:00-23:00;monday:11:00-23:00;tuesday:11:00-23:00;wednesday:11:00-23:00;thursday:11:00-23:00;friday:11:00-00:00;saturday:11:00-00:00;,,0
Epinal,,ZAC Le Closel / Route de Reuxey (D46),,Epinal,,88000,France,03 72 06 00 17,48.195731004374,6.466310069561,sunday:11:00-11:00;monday:11:00-23:00;tuesday:11:00-23:00;wednesday:11:00-23:00;thursday:11:00-23:00;friday:11:00-00:00;saturday:11:00-00:00;,,0
Paris East Train Station,,93 boulevard de Strasbourg,,Paris,,75010,France,01 82 73 24 27,48.87613004,2.357705968,sunday:07:30-00:00;monday:07:30-00:00;tuesday:07:30-00:00;wednesday:07:30-00:00;thursday:07:30-00:00;friday:07:30-01:00;saturday:07:30-01:00;,,0
Marseille The Valentine,,Avenue Saint Menet / Crossing the Sablière,,Marseille,,13011,France,04 84 08 01 72,43.28978097,5.48013203,sunday:11:00-00:00;monday:11:00-00:00;tuesday:11:00-00:00;wednesday:11:00-00:00;thursday:11:00-00:00;friday:11:00-02:00;saturday:11:00-02:00;,,0
Antibes,,36 avenue Weisweiller / Angle route de Grasse,,Antibes,,06600,France,04 93 33 31 30,43.59881803,7.085841983,sunday:11:00-00:00;monday:11:00-00:00;tuesday:11:00-00:00;wednesday:11:00-00:00;thursday:11:00-00:00;friday:11:00-01:00;saturday:11:00-01:00;,,0
Pleasure,,"C.Cial Grand Pleasure, Avenue de Saint-Germain",,Pleasure,,78370,France,01 82 84 00 22 ,48.827079,1.957816035,sunday:11:00-23:00;monday:11:00-23:00;tuesday:11:00-23:00;wednesday:11:00-23:00;thursday:11:00-23:00;friday:11:00-00:00;saturday:11:00-00:00;,,0
Paris Bastille,,20 rue de la Roquette,,Paris,,75011,France,01 82 73 24 09,48.85380896,2.371030945,sunday:11:00-00:00;monday:11:00-00:00;tuesday:11:00-00:00;wednesday:11:00-00:00;thursday:11:00-02:00;friday:11:00-02:00;saturday:11:00-02:00;,,0
Tours Chambray,,36 rue de Joue,,Chambray-lès-Tours,,37170,France,02 45 93 00 42,47.33847402,0.7046800265,sunday:11:00-23:00;monday:11:00-23:00;tuesday:11:00-23:00;wednesday:11:00-23:00;thursday:11:00-23:00;friday:11:00-00:00;saturday:11:00-00:00;,,0
Torcy Bay 2,,Bay 2 Regional Shopping Center,,schoolboy,,77090,France,01 60 17 19 22,48.839058,2.66179,sunday:11:00-23:00;monday:11:00-23:00;tuesday:11:00-23:00;wednesday:11:00-23:00;thursday:11:00-23:00;friday:11:00-23:00;saturday:11:00-23:00;,,0
Toulon La Garde,,ZAC Saint Michel,,The guard,,83130,France,01 60 17 19 22,43.1387977,6.0189015,sunday:11:00-00:00;monday:11:00-00:00;tuesday:11:00-00:00;wednesday:11:00-00:00;thursday:11:00-00:00;friday:11:00-01:00;saturday:11:00-01:00;,,0
Lyon Croix-Rousse,,8 place de la Croix-Rousse,,Lyon,,69004,France,04 82 25 04 34,45.77593297,4.832152063,sunday:10:30-02:00;monday:10:30-01:00;tuesday:10:30-01:00;wednesday:10:30-01:00;thursday:10:30-01:00;friday:10:30-02:00;saturday:10:30-02:00;,,0
Evry 2,,172 places of the Terraces of Agora,,Evry,,91022,France,01 82 93 00 31,48.628452,2.428884,sunday:11:00-23:00;monday:11:00-23:00;tuesday:11:00-23:00;wednesday:11:00-23:00;thursday:11:00-23:00;friday:11:00-00:00;saturday:11:00-00:00;,,0
Soissons,,Archer roundabout,,Soissons,,02200,France,03 65 49 00 14,49.364856,3.310771,sunday:11:00-23:00;monday:11:00-23:00;tuesday:11:00-23:00;wednesday:11:00-23:00;thursday:11:00-23:00;friday:11:00-00:00;saturday:11:00-00:00;,,0
Trappes,,16 avenue Paul Vaillant Couturier,,Trappes,,78190,France, 01 82 84 01 35,48.7792752,2.0092494,sunday:11:00-01:00;monday:11:00-00:00;tuesday:11:00-00:00;wednesday:11:00-00:00;thursday:11:00-00:00;friday:11:00-01:00;saturday:11:00-01:00;,,0
Saint-Amand-les-Eaux,,Leclerc Shopping Center / North Rocade - Bas du Mont des Bruyères,,Saint-Amand-les-Eaux,,59230,France,03 66 50 00 41 ,50.43603104,3.440255059,sunday:11:00-00:00;monday:11:00-23:00;tuesday:11:00-23:00;wednesday:11:00-23:00;thursday:11:00-23:00;friday:11:00-00:00;saturday:11:00-00:00;,,0
Cholet,,169 rue de Lorraine,,Cholet,,49300,France,02 85 10 00 38,47.05552399,-0.8597580178,sunday:11:00-23:00;monday:11:00-23:00;tuesday:11:00-23:00;wednesday:11:00-23:00;thursday:11:00-23:00;friday:11:00-23:00;saturday:11:00-23:00;,,0
Paris Gold Door,,279 Avenue Daumesnil,,Paris,,75012,France,01 82 73 24 08 ,48.83572504,2.406611941,sunday:11:00-00:00;monday:11:00-00:00;tuesday:11:00-00:00;wednesday:11:00-00:00;thursday:11:00-00:00;friday:11:00-00:00;saturday:11:00-00:00;,,0
Saint-Etienne Monthieu,,DC Giant / Quarter Monthieu,,Saint Etienne,,42100,France,04 82 24 00 37,45.44289102,4.4194330343956 ,sunday:11:00-23:00;monday:11:00-23:00;tuesday:11:00-23:00;wednesday:11:00-23:00;thursday:11:00-23:00;friday:11:00-23:00;saturday:11:00-23:00;,,0
Carcassonne,,Place-dit La Treille / Red Bridge,,Carcassonne,,11000,France,04 11 48 00 49,43.234536978271,2.367188012115,sunday:11:00-23:00;monday:11:00-23:00;tuesday:11:00-23:00;wednesday:11:00-23:00;thursday:11:00-23:00;friday:11:00-23:00;saturday:11:00-23:00;,,0
Schweighouse,,Industrial Area Sand Area / 1 Place du Kleinfeld,,Schweighouse-sur-Moder,,67590,France,03 68 92 00 16,48.83188904,7.744338968,sunday:11:00-23:00;monday:11:00-23:00;tuesday:11:00-23:00;wednesday:11:00-23:00;thursday:11:00-23:00;friday:11:00-00:00;saturday:11:00-00:00;,,0
Limoges Feytiat,,ZI of Ponteix / Avenue of the Doors of Feytiat,,Feytiat,,87220,France,05 19 55 00 27,45.81767603,1.29519095,sunday:10:30-22:30;monday:10:30-22:30;tuesday:10:30-22:30;wednesday:10:30-22:30;thursday:10:30-22:30;friday:10:30-23:30;saturday:10:30-23:30;,,0
Dunkirk Flower Quay,,Flower Quay,,Dunkerque,,59240,France,03 66 46 00 23,51.03278398,2.393071057,sunday:11:00-23:00;monday:11:00-23:00;tuesday:11:00-23:00;wednesday:11:00-23:00;thursday:11:00-23:00;friday:11:00-00:00;saturday:11:00-00:00;,,0
Avrainville,,Rue Calmette and Guerin - Exchanger N20 / D19 / Lieu-dit Chemin des Postes,,Avrainville,,91630,France,01 82 92 00 11,48.574031528963,2.238878713297,sunday:11:00-23:00;monday:11:00-23:00;tuesday:11:00-23:00;wednesday:11:00-23:00;thursday:11:00-23:00;friday:11:00-00:00;saturday:11:00-00:00;,,0
Manosque,,63 rue des artisans,,Manosque,,04100,France,04 84 01 00 04,43.82218303,5.792693028,sunday:11:00-23:00;monday:11:00-23:00;tuesday:11:00-23:00;wednesday:11:00-23:00;thursday:11:00-23:00;friday:11:00-23:00;saturday:11:00-23:00;,,0
Sarrebourg Buhl-Lorraine,,Avenue de Gerome,,Buhl-Lorraine,,57400,France,03 72 03 00 06,48.736898,7.076071,sunday:10:30-23:00;monday:10:30-23:00;tuesday:10:30-23:00;wednesday:10:30-23:00;thursday:10:30-23:00;friday:10:30-00:00;saturday:10:30-00:00;,,0
Rennes Saint-Grégoire,,ZAC of the Auge de Pierre,,St. Gregory,,35760,France,02 30 71 00 70,48.134637995396,-1.6929029948818,sunday:11:00-23:00;monday:11:00-23:00;tuesday:11:00-23:00;wednesday:11:00-23:00;thursday:11:00-23:00;friday:11:00-23:30;saturday:11:00-23:30;,,0
Perpignan Cabestany,,1 James Watt Street,,Cabestany,,66330,France,04 11 60 00 57,42.6889146,2.9242028,sunday:11:00-00:00;monday:11:00-00:00;tuesday:11:00-00:00;wednesday:11:00-00:00;thursday:11:00-00:00;friday:11:00-00:00;saturday:11:00-00:00;,,0
Metz Technopole,,10 Boulevard de la solidarité,,Metz,,57070,France,03 72 00 00 56 ,49.1057352,6.2271962,sunday:11:00-23:00;monday:11:00-23:00;tuesday:11:00-23:00;wednesday:11:00-23:00;thursday:11:00-23:00;friday:11:00-00:00;saturday:11:00-00:00;,,0
Montpellier Saint-Aunès,,Ecoparc ZAC of Saint Antoine / 200 avenue of the Tamaris,,Saint-Aunès,,34130,France,04 11 57 01 76,43.651336022066,3.9832919559153,sunday:11:00-23:00;monday:11:00-23:00;tuesday:11:00-23:00;wednesday:11:00-23:00;thursday:11:00-23:00;friday:11:00-00:00;saturday:11:00-00:00;,,0
Lyon Pierre-Bénite,,Path of the mulberry trees,,Pierre-Benite,,69310,France,04 78 51 47 01,45.694899,4.825272,sunday:11:00-00:00;monday:11:00-00:00;tuesday:11:00-00:00;wednesday:11:00-00:00;thursday:11:00-00:00;friday:11:00-02:00;saturday:11:00-02:00;,,0
Grenoble Meylan,,51 rue de Carronnerie,,Meylan,,38240,France,04 76 18 02 95,45.200295,5.760167,sunday:11:00-02:00;monday:11:00-00:00;tuesday:11:00-00:00;wednesday:11:00-00:00;thursday:11:00-00:00;friday:11:00-02:00;saturday:11:00-02:00;,,0
Toulouse Labège,,Street Magellan,,Labège,,31670,France,05 82 60 02 87,43.548916,1.502738,sunday:10:30-23:00;monday:10:30-23:00;tuesday:10:30-23:00;wednesday:10:30-23:00;thursday:10:30-23:00;friday:10:30-23:00;saturday:10:30-23:00;,,0
Avignon Mistral 7,,Shopping Center Mistral 7/160 rue Eric Rohmer,,Montfavet,,84140,France,04 84 09 00 39 ,43.92175,4.861293,sunday:11:00-23:00;monday:11:00-23:00;tuesday:11:00-23:00;wednesday:11:00-23:00;thursday:11:00-23:00;friday:11:00-00:00;saturday:11:00-00:00;,,0
Istres,,Zac De Trigance / Allée Passe Pierre,,Istres,,13800,France,04 84 07 00 04,43.500798,4.96802,sunday:11:00-23:00;monday:11:00-23:00;tuesday:11:00-23:00;wednesday:11:00-23:00;thursday:11:00-23:00;friday:11:00-00:00;saturday:11:00-00:00;,,0
Boulogne Saint Martin,,Mont Joy Shopping,,Saint-Martin-Boulogne,,62280,France,03 66 53 00 12 ,50.72913,1.642263,sunday:11:00-23:00;monday:11:00-23:00;tuesday:11:00-23:00;wednesday:11:00-23:00;thursday:11:00-23:00;friday:11:00-00:00;saturday:11:00-00:00;,,0
Orléans Saran,,36 allée de Bel Air,,Saran,,45770,France,02 38 73 35 56 ,47.938288,1.893314,sunday:11:00-23:00;monday:11:00-23:00;tuesday:11:00-23:00;wednesday:11:00-23:00;thursday:11:00-23:00;friday:11:00-23:00;saturday:11:00-23:00;,,0
The Pecq,,"21, avenue Charle De Gaulle",,The Pecq,,78230,France,01 39 16 80 11,48.888726,2.103679,sunday:11:00-23:00;monday:11:00-23:00;tuesday:11:00-23:00;wednesday:11:00-23:00;thursday:11:00-23:00;friday:11:00-00:00;saturday:11:00-00:00;,,0
Montpellier Castelnau,,145 rue Alphonse Beau de Rochas,,Castelnau Le Lez,,34170,France,04 67 40 88 70,43.638142,3.929095,sunday:11:00-23:00;monday:11:00-23:00;tuesday:11:00-23:00;wednesday:11:00-23:00;thursday:11:00-23:00;friday:11:00-23:00;saturday:11:00-23:00;,,0
Lille Bondues,,Ravenna Roundabout,,Bondues,,59910,France,03 66 48 03 47 ,50.722941,3.127081,sunday:11:00-23:00;monday:11:00-23:00;tuesday:11:00-23:00;wednesday:11:00-23:00;thursday:11:00-23:00;friday:11:00-00:00;saturday:11:00-00:00;,,0
Blois,,Aire de Blois / Highway 10,,Villerbon,,41000,France,02 54 46 54 93,47.665191,1.386665,sunday:08:00-23:00;monday:08:00-22:30;tuesday:08:00-22:30;wednesday:08:00-22:30;thursday:08:00-22:30;friday:08:00-23:00;saturday:08:00-23:00;,,0
Avignon Courtine,,ZAC of Courtine / 435 rue Jean-marie Tjibaou,,Avignon,,84000,France,04 90 82 62 95,43.927121,4.790771,sunday:11:00-22:00;monday:11:00-22:00;tuesday:11:00-22:00;wednesday:11:00-22:00;thursday:11:00-22:00;friday:11:00-22:00;saturday:11:00-22:00;,,0
Lille Leers,,CC. Auchan / Avenue of Europe,,Leers,,59115,France,03 66 48 03 46 ,50.681388,3.224993,sunday:11:00-23:00;monday:11:00-23:00;tuesday:11:00-23:00;wednesday:11:00-23:00;thursday:11:00-23:00;friday:11:00-00:00;saturday:11:00-00:00;,,0
Epinay CGR,,Parking Cinema Mega CGR 5 avenue Joffre,,Epinay-sur-Seine,,93800,France,01 82 98 01 70,48.95671,2.302828,sunday:11:00-23:30;monday:11:00-23:30;tuesday:11:00-23:30;wednesday:11:00-23:30;thursday:11:00-23:30;friday:11:00-23:30;saturday:11:00-23:30;,,0
Nice Saint Isidore,,53 Boulevard des Jardiniers,,Nice,,06200,France,04 93 18 10 13,43.702094,7.189906,sunday:11:00-00:00;monday:11:00-00:00;tuesday:11:00-00:00;wednesday:11:00-00:00;thursday:11:00-00:00;friday:11:00-00:00;saturday:11:00-00:00;,,0
Paris Porte de Clichy,,187 avenue de Clichy,,Paris,,75017,France,01 42 29 24 02,48.894108,2.313621,sunday:11:00-23:30;monday:11:00-23:30;tuesday:11:00-23:30;wednesday:11:00-23:30;thursday:11:00-23:30;friday:11:00-23:30;saturday:11:00-23:30;,,0
Paris Opera Italy,,36 boulevard des Italiens,,Paris,,75009,France,01 82 73 01 75,48.871279,2.334972,sunday:11:00-00:00;monday:11:00-00:00;tuesday:11:00-00:00;wednesday:11:00-00:00;thursday:11:00-00:00;friday:11:05-02:00;saturday:11:00-02:00;,,0
O'Parinor,,The Top of Galy,,Aulnay sous Bois,,93600,France,01 82 99 00 72,48.95685,2.475203,sunday:11:00-23:00;monday:11:00-23:00;tuesday:11:00-23:00;wednesday:11:00-23:00;thursday:11:00-23:00;friday:11:00-00:00;saturday:11:00-00:00;,,0
Nevers dream,,The Aviation Field / 57 route de Fourchambault,,dreams,,58180,France,03 73 00 00 08,46.999718,3.105758,sunday:11:00-23:00;monday:11:00-23:00;tuesday:11:00-23:00;wednesday:11:00-23:00;thursday:11:00-23:00;friday:11:00-23:00;saturday:11:00-23:00;,,0
Vichy Bellerive sur Allier,,ZAC Champs Navarre - 2 Rue Rhin and Danube,,Bellerive Sur Allier,,03700,France,04 15 19 00 04,46.1142239,3.41618130000006,sunday:-;monday:-;tuesday:-;wednesday:-;thursday:-;friday:-;saturday:-;,,0
Nemours Ash,,Aire de Nemours - Motorway A6,,Nemours,,77140,France,01 64 78 51 70,48.262157806824,2.72197582429498,sunday:10:00-00:00;monday:10:00-23:00;tuesday:10:00-23:00;wednesday:10:00-23:00;thursday:10:00-23:00;friday:10:00-00:00;saturday:10:00-00:00;,,0
Chemin de Marennes,,Area of ​​Saint Léger A10,,SAINT LEGER,,17800,France,05 46 91 95 30 ,45.61318043,-0.603465493,sunday:08:00-22:00;monday:08:00-22:00;tuesday:08:00-22:00;wednesday:08:00-22:00;thursday:08:00-22:00;friday:08:00-22:00;saturday:08:00-22:00;,,0
Compiègne Mercières,,Zac des Mercières - 2 rue Henri Adnot,,Compiègne,,60200,France,03 65 52 00 62,49.38749,2.787235,sunday:11:00-23:00;monday:11:00-23:00;tuesday:11:00-23:00;wednesday:11:00-23:00;thursday:11:00-23:00;friday:11:00-23:00;saturday:11:00-23:00;,,0
Moulins Doors of L'Allier,,The Portes de l'Allier,,Avermes,,03000,France,04 15 18 00 03,46.590664,3.322858,sunday:11:00-23:00;monday:11:00-23:00;tuesday:11:00-23:00;wednesday:11:00-23:00;thursday:11:00-23:00;friday:11:00-23:00;saturday:11:00-23:00;,,0
Montpellier Odysseum,,Odysseum Shopping Center - 2 Lisbon Square,,Montpellier,,34000,France,04 11 57 01 37,43.6031952,3.9153439,sunday:11:00-23:00;monday:11:00-23:00;tuesday:11:00-23:00;wednesday:11:00-23:00;thursday:11:00-23:00;friday:11:00-23:00;saturday:11:00-23:00;,,0
Vinassan,,Lime kiln road,,Vinassan,,11110,France,04 68 58 12 30,43.202888,3.074201,sunday:11:00-22:00;monday:11:00-22:00;tuesday:11:00-22:00;wednesday:11:00-22:00;thursday:11:00-22:00;friday:11:00-22:00;saturday:11:00-22:00;,,0
Bordeaux Sainte-Catherine,,170-180 rue Sainte Catherine,,Bordeaux,,33000,France,05 35 14 01 83,44.83555,-0.5733308,sunday:11:00-00:00;monday:11:00-00:00;tuesday:11:00-00:00;wednesday:11:00-00:00;thursday:11:00-00:00;friday:11:00-02:00;saturday:11:00-02:00;,,0
Granville,,21 rue du Mesnil,,Granville,,50400,France,02 61 23 00 26,48.8381609,-1.56644989999995,sunday:11:00-22:00;monday:11:00-22:00;tuesday:11:00-22:00;wednesday:11:00-22:00;thursday:11:00-22:00;friday:11:00-23:00;saturday:11:00-23:00;,,0
Cormeilles en Parisis,,2 alley of the coudré,,Cormeilles-en-Parisis,,95240,France,01 83 04 00 51,48.950091,2.204840,sunday:11:00-23:00;monday:11:00-23:00;tuesday:11:00-23:00;wednesday:11:00-23:00;thursday:11:00-23:00;friday:11:00-00:00;saturday:11:00-00:00;,,0
Mareuil-lès-Meaux,,ZAC the High Borne,,Mareuil-lès-Meaux,,77100,France,01 82 78 00 09,48.927228,2.85968,sunday:11:00-23:00;monday:11:00-23:00;tuesday:11:00-23:00;wednesday:11:00-23:00;thursday:11:00-23:00;friday:11:00-23:00;saturday:11:00-23:00;,,0
Nancy Saint-Dizier,,36 rue Saint Dizier,,Nancy,,54000,France,03 57 93 00 72,48.6903328,6.1823288,sunday:11:00-23:00;monday:10:30-23:00;tuesday:10:30-23:00;wednesday:10:30-23:00;thursday:10:30-23:00;friday:10:30-00:00;saturday:10:30-00:00;,,0
Toulouse Saint Orens,,CC St Orens - 2 allée des Champs Pinsons,,St Orens de Gameville,,31650,France,05 82 60 02 54,43.5630718,1.5193214,sunday:10:30-23:00;monday:10:30-23:00;tuesday:10:30-23:00;wednesday:10:30-23:00;thursday:10:30-23:00;friday:10:30-23:00;saturday:10:30-23:00;,,0
Seclin,,ZAC de l'Epinette - Angle of avenue de l'Epinette and rue de l'industrie,,Seclin,,59113,France,03 66 48 03 14,50.54969431,3.051377535,sunday:11:00-22:30;monday:11:00-22:30;tuesday:11:00-22:30;wednesday:11:00-22:30;thursday:11:00-22:30;friday:11:00-23:30;saturday:11:00-23:30;,,0
Rouen Barentin,,241 rue de la Liberté,,Barentin,,76360,France,02 78 65 00 40,49.5370047,0.9632102,sunday:10:30-22:00;monday:10:30-22:00;tuesday:10:30-22:00;wednesday:10:30-22:00;thursday:10:30-22:00;friday:10:30-23:00;saturday:10:30-23:00;,,0
Metz Semécourt,,Shopping center Auchan Sémécourt - rue du Pres des Meuniers,,Semecourt,,57280,France,03 72 00 00 54,49.195194,6.1463569,sunday:11:00-23:00;monday:11:00-23:00;tuesday:11:00-23:00;wednesday:11:00-23:00;thursday:11:00-23:00;friday:11:00-00:00;saturday:11:00-00:00;,,0
Nîmes Cap Costière,,Cap Costières Shopping Center - Vignoles Mas ZAC,,Nîmes,,30000,France,04 11 54 00 12,43.8124349,4.361956,sunday:11:00-23:00;monday:11:00-23:00;tuesday:11:00-23:00;wednesday:11:00-23:00;thursday:11:00-23:00;friday:11:00-00:00;saturday:11:00-00:00;,,0
Space Saint Quentin,,Shopping center espace St Quentin - Passage Georges Melies,,Montigny le bretonneux,,78180,France,01 82 84 01 02,48.782651,2.0426319,sunday:10:00-22:00;monday:10:00-22:00;tuesday:10:00-22:00;wednesday:10:00-22:00;thursday:10:00-22:00;friday:10:00-23:00;saturday:10:00-23:00;,,0
Nice Lingostière,,Nice Lingostière Shopping Center - 604 boulevard du Mercantour,,Nice,,06200,France,04 22 02 01 48,43.72758957,7.188524437,sunday:09:00-00:00;monday:09:00-00:00;tuesday:09:00-00:00;wednesday:09:00-00:00;thursday:09:00-00:00;friday:09:00-00:00;saturday:09:00-00:00;,,0
Douai,,Place dit Le Raquet - national road,,Lambres lez Douai,,59552,France,03 27 91 29 93,50.34779986,3.090473843,sunday:11:00-23:00;monday:11:00-23:00;tuesday:11:00-23:00;wednesday:11:00-23:00;thursday:11:00-23:00;friday:11:00-23:00;saturday:11:00-23:00;,,0
Strasbourg Train Station,,20 Station Square,,Strasbourg,,67000,France,03 67 02 00 78,48.5844573,7.73399814,sunday:10:00-23:00;monday:10:00-23:00;tuesday:10:00-23:00;wednesday:10:00-23:00;thursday:10:00-23:00;friday:10:00-23:00;saturday:10:00-23:00;,,0
Nantes Atlantis,,Centre commercial Atlantis - Porte d'Atlantis,,St Herblain,,44800,France,02 85 05 00 17,47.22515689,-1.63237631,sunday:11:00-23:00;monday:11:00-23:00;tuesday:11:00-23:00;wednesday:11:00-23:00;thursday:11:00-23:00;friday:11:00-00:00;saturday:11:00-00:00;,,0
Paris Montparnasse,,84 Boulevard du Montparnasse,,Paris,,75014,France,01 82 73 13 86,48.8427853,2.32633569,sunday:11:00-00:00;monday:11:00-00:00;tuesday:11:00-00:00;wednesday:11:00-00:30;thursday:11:00-00:30;friday:11:00-02:00;saturday:11:00-02:00;,,0
Saint Nazaire,,Street of the Chateau de Beauregard,,St Nazaire,,44600,France,02 85 07 00 03,47.2855485,-2.2597273,sunday:11:00-23:00;monday:11:00-23:00;tuesday:11:00-23:00;wednesday:11:00-23:00;thursday:11:00-23:00;friday:11:00-00:00;saturday:11:00-00:00;,,0
Ajaccio,,RN 194 - ZI de Baleone,,Sarrola Carcopino,,20167,France,04 20 09 00 09,41.955431,8.796033,sunday:11:00-23:00;monday:11:00-23:00;tuesday:11:00-23:00;wednesday:11:00-23:00;thursday:11:00-23:00;friday:11:00-00:00;saturday:11:00-00:00;,,0
Poitiers,,Shopping center Géant Beaulieu - 2 avenue de Lafayette,,Poitiers,,86000,France,05 79 65 00 24,46.5751232,0.371407,sunday:11:00-00:00;monday:11:00-00:00;tuesday:11:00-00:00;wednesday:11:00-00:00;thursday:11:00-00:00;friday:11:00-00:00;saturday:11:00-00:00;,,0
Toulon Mayol,,Mayol Shopping Center - Place Georges Pompidou,,Toulon,,83000,France,04 22 07 00 79,43.120508,5.93770399999994,sunday:11:00-23:00;monday:11:00-23:00;tuesday:11:00-23:00;wednesday:11:00-23:00;thursday:11:00-23:00;friday:11:00-00:00;saturday:11:00-00:00;,,0
Cormontreuil,,62 rue du commerce,,Cormontreuil,,51350,France,03 52 38 00 65,49.2171469,4.0609118,sunday:11:30-23:00;monday:11:00-23:00;tuesday:11:00-23:00;wednesday:11:00-23:00;thursday:11:00-23:00;friday:11:00-23:00;saturday:11:00-23:00;,,0
Troyes Saint Parres at Tertres,,1 rue des Perrières,,St Parres aux Tertres,,10410,France,03 52 35 00 29,48.2950776,4.1337718,sunday:11:00-23:00;monday:11:00-23:00;tuesday:11:00-23:00;wednesday:11:00-23:00;thursday:11:00-23:00;friday:11:00-23:00;saturday:11:00-23:00;,,0
Liévin,,11/13 rue François Courtin,,Liévin,,62800,France,03 66 54 00 66,50.4234905,2.7775153000000046,sunday:11:00-22:30;monday:11:00-22:30;tuesday:11:00-22:30;wednesday:11:00-22:30;thursday:11:00-22:30;friday:11:00-00:00;saturday:11:00-00:00;,,0
Aubervilliers,,Le Millénaire shopping center - ZAC du Canal Porte d'Aubervilliers,,Aubervilliers,,93300,France,01 82 98 01 29,48.9030079,2.3761955,sunday:10:00-22:00;monday:10:00-22:00;tuesday:10:00-22:00;wednesday:10:00-22:00;thursday:10:00-22:00;friday:10:00-22:00;saturday:10:00-22:00;,,0
Strasbourg La Vigie,,Commercial Zone of La Vigie - Rue du fort,,Geispolsheim,,67118,France,03 67 02 00 69,48.5254688,7.6894869,sunday:11:00-23:30;monday:11:00-23:30;tuesday:11:00-23:30;wednesday:11:00-23:30;thursday:11:00-23:30;friday:11:00-00:30;saturday:11:00-00:30;,,0
Creil Saint Maximin,,251 rue Louis Saint Just,,Saint Maximin,,60740,France,03 65 53 00 60,49.2440802,2.4706246000000647,sunday:11:00-23:00;monday:11:00-23:00;tuesday:11:00-23:00;wednesday:11:00-23:00;thursday:11:00-23:00;friday:11:00-23:00;saturday:11:00-23:00;,,0
Paris Accommodation,,15 Defense Parvis.,,Paris Accommodation,,92092,France,01 82 97 05 65,48.8910793,2.2391156,sunday:10:00-23:00;monday:10:00-23:00;tuesday:10:00-23:00;wednesday:10:00-23:00;thursday:10:00-23:00;friday:10:00-23:00;saturday:10:00-23:00;,,0
Euralille,,100 centre commercial EURALILLE,,Little,,59800,France,03 66 48 02 40,50.637431,3.074541,sunday:11:00-11:00;monday:11:00-11:00;tuesday:11:00-11:00;wednesday:11:00-11:00;thursday:11:00-11:00;friday:11:00-00:00;saturday:11:00-00:00;,,0
Neuilly Sur Seine,,107 Avenue Charles de Gaulle,,Neuilly Sur Seine,,92200,France,01 82 97 05 31,48.8810577,2.2707375999999613,sunday:11:00-01:30;monday:11:00-01:30;tuesday:11:00-01:30;wednesday:11:00-01:30;thursday:11:00-01:30;friday:11:00-02:00;saturday:11:00-02:00;,,0
Taponas,,Motorway A6 - Taponas area (south-north direction),,Taponas,,69220,France,04 74 66 19 80,46.121761,4.767245,sunday:08:00-23:00;monday:08:00-23:00;tuesday:08:00-23:00;wednesday:08:00-23:00;thursday:08:00-23:00;friday:08:00-01:00;saturday:08:00-01:00;,,0
Lyon Confluence,,"Shopping Center Lyon Confluence, 112 Cours Charlemagne - DRC Tramway",,Lyon,,69002,France,04 82 25 02 95,45.7408777,4.8189547,sunday:10:00-23:00;monday:10:00-23:00;tuesday:10:00-23:00;wednesday:10:00-23:00;thursday:10:00-23:00;friday:10:00-23:00;saturday:10:00-23:00;,,0
Troyes Sainte Savine,,CC The Escapade - 4 boulevard de l'Ouest,,Sainte Savine,,10300,France,03 52 35 00 21,48.3046528,4.0287724,sunday:11:00-23:00;monday:11:00-23:00;tuesday:11:00-23:00;wednesday:11:00-23:00;thursday:11:00-23:00;friday:11:00-23:00;saturday:11:00-23:00;,,0
Lyon Part Dieu,,Shopping Center Lyon Part Dieu - 17 Rue du Docteur Bouchut,,Lyon,,69003,France,04 82 25 02 97,45.7598702,4.8557707,sunday:09:00-23:30;monday:09:00-23:30;tuesday:09:00-23:30;wednesday:09:00-23:30;thursday:09:00-23:30;friday:09:00-23:30;saturday:09:00-23:30;,,0
Brest,,65 Rue Jean Jaurès,,Brest,,29200,France,01 82 97 05 32,48.39342120000001,-4.480781699999966,sunday:11:00-00:00;monday:11:00-00:00;tuesday:11:00-00:00;wednesday:11:00-00:00;thursday:11:00-00:00;friday:11:00-00:00;saturday:11:00-00:00;,,0
Le Mans,,9 rue des petits marnières,,St Saturnin,,72650,France,02 85 20 00 48,48.0479942,0.1691944000000376,sunday:11:00-23:00;monday:11:00-23:00;tuesday:11:00-23:00;wednesday:11:00-23:00;thursday:11:00-23:00;friday:11:00-00:00;saturday:11:00-00:00;,,0
Rosny 2,,Avenue of the General de Gaulle,,Rosny sous Bois,,93117,France,01 82 98 01 16,48.880609,2.4771393,sunday:10:00-00:00;monday:10:00-00:00;tuesday:10:00-00:00;wednesday:10:00-00:00;thursday:10:00-00:00;friday:10:00-00:00;saturday:10:00-00:00;,,0
Bonneuil,,8 avenue des Vingt-huit Arpents,,Bonneuil sur marne,,94380,France,01 83 01 02 18,48.7648285,2.476756900000055,sunday:11:00-23:00;monday:11:00-23:00;tuesday:11:00-23:00;wednesday:11:00-23:00;thursday:11:00-23:00;friday:11:00-23:30;saturday:11:00-23:30;,,0
Paris City of Science,,"City of Science-La Villette 30, Avenue Corentin Cariou",,Paris,,75019,France,01 82 73 13 75,48.895595,2.387915,sunday:11:00-21:00;monday:-;tuesday:11:00-18:00;wednesday:11:00-18:00;thursday:11:00-18:00;friday:11:00-18:00;saturday:11:00-21:00;,,0
Paris Alésia,,78/80 avenue du Général Leclerc,,Paris,,75014,France,01 82 73 14 96,48.8291002,2.3274802999999338,sunday:11:00-00:00;monday:11:00-00:00;tuesday:11:00-00:00;wednesday:11:00-00:00;thursday:11:00-00:00;friday:11:00-02:00;saturday:11:00-02:00;,,0
Creteil Sun,,"Shopping center Créteil Soleil, 101 avenue du Général de Gaulle",,Créteil,,94000,France,01 83 01 00 66,48.7798853,2.456227600000034,sunday:11:00-23:00;monday:11:00-23:00;tuesday:11:00-23:00;wednesday:11:00-23:00;thursday:11:00-23:00;friday:11:00-23:00;saturday:11:00-23:00;,,0
Paris Boétie,,124 rue de la Boétie,,Paris,,75008,France,01 82 73 05 21,48.8711576,2.306220499999995,sunday:10:00-00:00;monday:10:00-00:00;tuesday:10:00-00:00;wednesday:10:00-00:00;thursday:10:00-00:00;friday:10:00-02:00;saturday:10:00-02:00;,,0
Reims City Center,,82 Place d'Erlon  ,,Reims,,51100,France,03 26 82 82 82,49.25670969999999,4.026674200000002,sunday:12:00-23:00;monday:11:00-23:00;tuesday:11:00-23:00;wednesday:11:00-23:00;thursday:11:00-00:00;friday:11:00-01:00;saturday:11:00-01:00;,,0
Marseilles Grand Littoral,,"Shopping Center Grand Littoral, 11 Avenue de Saint-Antoine",,Marseille Cedex 16,,13464,France,04 86 80 18 01,43.3639679,5.3494929999999385,sunday:-;monday:10:00-21:30;tuesday:10:00-21:30;wednesday:10:00-21:30;thursday:10:00-21:30;friday:10:00-21:30;saturday:10:00-21:30;,,0
Beaune A6,,"A6, Aire Beaune-Merceuil (South-North direction), Aire Beaune-Tailly (North-South direction)",,Merceuil,,21190,France,03 80 26 32 48,46.962388,4.8356111,sunday:10:00-01:00;monday:10:00-23:00;tuesday:10:00-23:00;wednesday:10:00-23:00;thursday:10:00-23:00;friday:10:00-01:00;saturday:10:00-01:00;,,0
Marseille-Marignane,,"Hall 1 - Public area, Marseille Provence Airport",,Marignane,,13700,France,04 42 14 29 80,43.433974 ,5.22034,sunday:10:00-23:30;monday:10:00-23:00;tuesday:10:00-23:00;wednesday:10:00-23:00;thursday:10:00-23:00;friday:10:00-23:30;saturday:10:00-23:30;,,0
Reims Ach,,"Aire de Reims, A4 Motorway, Eastern Highway",,The Little Lodges,,51400,France,03 26 08 15 28,49.1199722,4.2435555,sunday:08:00-23:00;monday:08:00-22:30;tuesday:08:00-22:30;wednesday:08:00-22:30;thursday:08:00-22:30;friday:08:00-23:00;saturday:08:00-23:00;,,0
Paris Saint-Lazare Train Station,,"Saint Lazare train station, 11 rue d'Amsterdam",,Paris,,75009,France,01 43 87 65 78,48.8768218,2.3266149,sunday:10:00-23:00;monday:10:00-23:00;tuesday:10:00-23:00;wednesday:10:00-23:00;thursday:10:00-23:00;friday:10:00-23:00;saturday:10:00-23:00;,,0
Calais Eurotunnel,,"Eurotunnel, Coquelles <br/> Bonded area",,Coquelles,,62231,France,03 21 97 22 62,50.9380219,1.8095029999999497,sunday:10:00-22:00;monday:10:00-22:00;tuesday:10:00-22:00;wednesday:10:00-22:00;thursday:10:00-22:00;friday:10:00-23:00;saturday:10:00-23:00;,,0
