store_name,store_number,address,address2,city,state,zip_code,country,phone_number,latitude,longitude,store_hours,other_fields,coming_soon
Woodlands Exchange,37,"30 Woodlands Ave 2, Woodlands MRT Station, #01-19/20/21/24/25 Singapore 738343",,WOODLANDS EXCHANGE,,,Singapore,6269 6413,1.436837,103.786231,sun:07:00:00-02:00:00;0;0;;mon:07:00:00-02:00:00;0;0;;tue:07:00:00-02:00:00;0;0;;wed:07:00:00-02:00:00;0;0;;thu:07:00:00-02:00:00;0;0;;fri:07:00:00-02:00:00;0;0;;sat:07:00:00-02:00:00;0;0;;,,0
Toa Payoh,33,530 Lorong 6 Toa Payoh #01-05 Singapore 310530,,TOA PAYOH,,,Singapore,6354 4825,1.332117,103.847408,sun:07:30:00-23:00:00;0;0;;mon:07:30:00-23:00:00;0;0;;tue:07:30:00-23:00:00;0;0;;wed:07:30:00-23:00:00;0;0;;thu:07:30:00-23:00:00;0;0;;fri:07:30:00-23:30:00;0;0;;sat:07:30:00-23:30:00;0;0;;,,0
VIVA,34,750A Chai Chee Road #01-02 Viva Business Park,,VIVA BUSINESS PARK,,,Singapore,6636 4592,1.322815,103.922161,sun:08:00:00-22:00:00;0;0;;mon:08:00:00-22:00:00;0;0;;tue:08:00:00-22:00:00;0;0;;wed:08:00:00-22:00:00;0;0;;thu:08:00:00-22:00:00;0;0;;fri:08:00:00-22:00:00;0;0;;sat:08:00:00-22:00:00;0;0;;,,0
Vivo City,35,"1 Harbourfront Walk, #02-80/81 Singapore 098585",,VIVO CITY,,,Singapore,6376 9291,1.263802,103.821603,sun:08:00:00-22:00:00;0;0;;mon:10:00:00-22:00:00;0;0;;tue:10:00:00-22:00:00;0;0;;wed:10:00:00-22:00:00;0;0;;thu:10:00:00-22:00:00;0;0;;fri:10:00:00-22:00:00;0;0;;sat:08:00:00-22:00:00;0;0;;,,0
WEST COAST COMMUNITY CLUB,36,"2 CLEMENTI WEST STREET 2 , #01-01",,WEST COAST COMMUNITY CLUB,,,Singapore,,1.302580,103.764937,sun:08:00:00-22:00:00;0;0;;mon:08:00:00-22:00:00;0;0;;tue:08:00:00-22:00:00;0;0;;wed:08:00:00-22:00:00;0;0;;thu:08:00:00-22:00:00;0;0;;fri:08:00:00-22:00:00;0;0;;sat:08:00:00-22:00:00;0;0;;,,0
Singapore Expo,29,1 Expo Drive Singapore Expo #01-13 Singapore 486150,,SINGAPORE EXPO,,,Singapore,6787 2514,1.334334,103.959367,sun:11:00:00-20:00:00;0;0;;mon:11:00:00-20:00:00;0;0;;tue:11:00:00-20:00:00;0;0;;wed:11:00:00-20:00:00;0;0;;thu:11:00:00-20:00:00;0;0;;fri:11:00:00-20:00:00;0;0;;sat:11:00:00-20:00:00;0;0;;,,0
Suntec City Mall,30,"3 Temasek Boulevard #03-371 Suntec City Mall, Singapore 038983",,SUNTEC CITY MALL,,,Singapore,6238 0384,1.295900,103.858341,sun:08:00:00-22:00:00;0;0;;mon:08:00:00-22:00:00;0;0;;tue:08:00:00-22:00:00;0;0;;wed:08:00:00-22:00:00;0;0;;thu:08:00:00-22:00:00;0;0;;fri:10:00:00-23:00:00;0;0;;sat:08:00:00-23:00:00;0;0;;,,0
Tampines Mall,31,"Tampines Mall, 4 Tampines Central 5, #01-47 Singapore 529510",,TAMPINES MALL,,,Singapore,6784 6436,1.352538,103.944800,sun:08:00:00-23:00:00;0;0;;mon:08:00:00-23:00:00;0;0;;tue:08:00:00-23:00:00;0;0;;wed:08:00:00-23:00:00;0;0;;thu:08:00:00-23:00:00;0;0;;fri:08:00:00-00:00:00;0;0;;sat:08:00:00-00:00:00;0;0;;,,0
Tampines North Community Club,32,"Tampines North Community Club Management Committee-2, Tampines ST.41, #01-02 Singapore 529204",,TAMPINES NORTH COMMUNITY CLUB,,,Singapore,6789 7082,1.357078,103.946634,sun:08:00:00-22:00:00;0;0;;mon:11:00:00-22:00:00;0;0;;tue:11:00:00-22:00:00;0;0;;wed:11:00:00-22:00:00;0;0;;thu:11:00:00-22:00:00;0;0;;fri:08:00:00-22:00:00;0;0;;sat:08:00:00-22:00:00;0;0;;,,0
Novena Square,25,"Novena Square, 238 Thomson Road, #01-08/09 Singapore 307683",,NOVENA SQUARE,,,Singapore,6253 1953,1.320239,103.843408,sun:07:30:00-22:00:00;0;0;;mon:07:00:00-22:00:00;0;0;;tue:07:00:00-22:00:00;0;0;;wed:07:00:00-22:00:00;0;0;;thu:07:00:00-22:00:00;0;0;;fri:07:00:00-22:00:00;0;0;;sat:07:30:00-22:00:00;0;0;;,,0
Paya Lebar Square,26,"60 Paya Lebar Road, #01-40/41/42/43, Paya Lebar Square, Singapore 409051",,PAYA LEBAR SQUARE,,,Singapore,6341 6217,1.318896,103.892571,sun:08:00:00-23:00:00;0;0;;mon:08:00:00-23:00:00;0;0;;tue:08:00:00-23:00:00;0;0;;wed:08:00:00-23:00:00;0;0;;thu:08:00:00-23:00:00;0;0;;fri:08:00:00-23:00:00;0;0;;sat:08:00:00-23:00:00;0;0;;,,0
Plaza Singapura,27,"Plaza Singapura, 68 Orchard Road #B1-11 Singapore 238839",,PLAZA SINGAPURA,,,Singapore,6238 1367,1.300581,103.845132,sun:08:30:00-22:30:00;0;0;;mon:08:30:00-22:30:00;0;0;;tue:08:30:00-22:30:00;0;0;;wed:08:30:00-22:30:00;0;0;;thu:08:30:00-22:30:00;0;0;;fri:08:30:00-23:30:00;0;0;;sat:08:30:00-23:30:00;0;0;;,,0
Sembawang Shopping Centre,28,"604 Sembawang Road #01-01 , Sembawang Shopping Centre Singapore 758459",,SEMBAWANG SHOPPING CENTRE,,,Singapore,6483 0897,1.441872,103.824824,sun:08:30:00-22:30:00;0;0;;mon:08:30:00-22:30:00;0;0;;tue:08:30:00-22:30:00;0;0;;wed:08:30:00-22:30:00;0;0;;thu:08:30:00-22:30:00;0;0;;fri:08:30:00-22:30:00;0;0;;sat:08:30:00-22:30:00;0;0;;,,0
Kent Ridge Centre,21,"1 Lower Kent Ridge Road, #03-11 One@Kent Ridge, Singapore 119082",,KENT RIDGE CENTRE,,,Singapore,6659 7027,1.293829,103.780500,sun:07:00:00-22:00:00;0;0;;mon:07:00:00-22:00:00;0;0;;tue:07:00:00-22:00:00;0;0;;wed:07:00:00-22:00:00;0;0;;thu:07:00:00-22:00:00;0;0;;fri:07:00:00-22:00:00;0;0;;sat:07:00:00-22:00:00;0;0;;,,0
Kitchener Complex,22,"BLK 809 French Road, #01-31 , Kitchener Complex Singapore 200809",,KITCHENER COMPLEX,,,Singapore,6291 2372,1.307857,103.861131,sun:07:00:00-00:00:00;0;0;;mon:07:00:00-00:00:00;0;0;;tue:07:00:00-00:00:00;0;0;;wed:07:00:00-00:00:00;0;0;;thu:07:00:00-00:00:00;0;0;;fri:07:00:00-00:00:00;0;0;;sat:07:00:00-00:00:00;0;0;;,,0
LOYANG POINT,23,Blk 258 Pasir Ris Street 21 #01-23,,LOYANG,,,Singapore,6386 6235,1.366881,103.964894,sun:08:00:00-22:00:00;0;0;;mon:08:00:00-22:00:00;0;0;;tue:08:00:00-22:00:00;0;0;;wed:08:00:00-22:00:00;0;0;;thu:08:00:00-22:00:00;0;0;;fri:08:00:00-22:00:00;0;0;;sat:08:00:00-22:00:00;0;0;;,,0
MARINA BAY LINK MALL,24,"8A MARINA BOULEVARD #B2-03,  MARINA BAY LINK  MALL",,MARINA BAY LINK MALL,,,Singapore,6634 1530,1.279935,103.855504,sun:-;0;1;;mon:07:30:00-21:30:00;0;0;;tue:07:30:00-21:30:00;0;0;;wed:07:30:00-21:30:00;0;0;;thu:07:30:00-21:30:00;0;0;;fri:07:30:00-21:30:00;0;0;;sat:07:30:00-18:00:00;0;0;;,,0
Imm Building,17,2 Jurong East Street 21 #01-51 Singapore 609601,,IMM BUILDING,,,Singapore,6561 9249,1.335094,103.746238,sun:08:00:00-22:30:00;0;0;;mon:08:00:00-22:30:00;0;0;;tue:08:00:00-22:30:00;0;0;;wed:08:00:00-22:30:00;0;0;;thu:08:00:00-22:30:00;0;0;;fri:08:00:00-23:00:00;0;0;;sat:08:00:00-23:00:00;0;0;;,,0
JEM,18,"50 Jurong Gateway Road, JEM #B1-02, Singapore 608549",,JEM,,,Singapore,6734 5723,1.333025,103.743487,sun:08:00:00-22:00:00;0;0;;mon:10:00:00-22:00:00;0;0;;tue:10:00:00-22:00:00;0;0;;wed:10:00:00-22:00:00;0;0;;thu:10:00:00-22:00:00;0;0;;fri:10:00:00-22:00:00;0;0;;sat:08:00:00-22:00:00;0;0;;,,0
Jurong Point,19,"63 Jurong West Central 3, #B1-54/55 Jurong Point Shopping Centre Singapore 648331",,JURONG POINT,,,Singapore,6794 1736,1.338814,103.705244,sun:08:00:00-22:30:00;0;0;;mon:08:00:00-22:30:00;0;0;;tue:08:00:00-22:30:00;0;0;;wed:08:00:00-22:30:00;0;0;;thu:08:00:00-22:30:00;0;0;;fri:08:00:00-23:00:00;0;0;;sat:08:00:00-23:00:00;0;0;;,,0
Kallang Leisure Park,20,Kallang Leisure Park 5 Stadium Walk #01-57 Singapore 397693,,KALLANG LEISURE PARK,,,Singapore,6247 6198,1.302360,103.876444,sun:10:00:00-23:00:00;0;0;;mon:10:00:00-23:00:00;0;0;;tue:10:00:00-23:00:00;0;0;;wed:10:00:00-23:00:00;0;0;;thu:10:00:00-23:00:00;0;0;;fri:10:00:00-00:00:00;0;0;;sat:10:00:00-00:00:00;0;0;;,,0
Esplanade MRT,13,"90 Bras Basah Road, #B1-27/27A/28/28A Esplanade MRT Station Singapore 189562",,ESPLANADE MRT,,,Singapore,6336 5954,1.293235,103.855576,sun:08:00:00-22:30:00;0;0;;mon:08:00:00-22:30:00;0;0;;tue:08:00:00-22:30:00;0;0;;wed:08:00:00-22:30:00;0;0;;thu:08:00:00-22:30:00;0;0;;fri:08:00:00-23:00:00;0;0;;sat:08:00:00-23:00:00;0;0;;,,0
Fairprice Hub,14,"Fairprice Hub, 1 Joo Koon Circle #01-51 , Singapore 629117",,FAIRPRICE HUB,,,,6397 4381,1.327081,103.678492,sun:08:00:00-22:00:00;0;0;;mon:07:00:00-22:00:00;0;0;;tue:07:00:00-22:00:00;0;0;;wed:07:00:00-22:00:00;0;0;;thu:07:00:00-22:00:00;0;0;;fri:07:00:00-22:00:00;0;0;;sat:08:00:00-22:00:00;0;0;;,,0
FUCHUN COMMUNITY CLUB,15,"Fuchun Community Club
No.1 Woodlands Street 31 
#01-01
Singapore 738581",,FUCHUN COMMUNITY CLUB,,,Singapore,6362 2609,1.429579,103.775184,sun:08:00:00-22:00:00;0;0;;mon:10:00:00-22:00:00;0;0;;tue:10:00:00-22:00:00;0;0;;wed:10:00:00-22:00:00;0;0;;thu:10:00:00-22:00:00;0;0;;fri:10:00:00-22:00:00;0;0;;sat:08:00:00-22:00:00;0;0;;,,0
Hitachi Tower,16,Income At Raffles 16 Collyer Quay #01-01/02 Singapore 049318,,HITACHI TOWER,,,Singapore,6557 2845,1.284056,103.852559,sun:-;0;1;;mon:07:30:00-21:30:00;0;0;;tue:07:30:00-21:30:00;0;0;;wed:07:30:00-21:30:00;0;0;;thu:07:30:00-21:30:00;0;0;;fri:07:30:00-21:30:00;0;0;;sat:07:30:00-18:00:00;0;0;;,,0
Changi Airport Terminal 1 Transit West,9,"Terminal 1, Departure/ Transit Lounge West, Mezzanine Level, #03-02 Singapore Changi Airport Singapore 819642",,TERMINAL 1 TRANSIT WEST,,,Singapore,6542 2102,1.363813,103.989786,sun:00:00:00-00:00:00;0;0;;mon:00:00:00-00:00:00;0;0;;tue:00:00:00-00:00:00;0;0;;wed:00:00:00-00:00:00;0;0;;thu:00:00:00-00:00:00;0;0;;fri:00:00:00-00:00:00;0;0;;sat:00:00:00-00:00:00;0;0;;,,0
Changi Airport Terminal 3 Transit,10,"Terminal 3, Departure / Transit Lounge North, Mezzanine Level, #L03AF11, Singapore Changi Airport, 65 Airport Boulevard Singapore 819663",,TERMINAL 3 TRANSIT,,,Singapore,6542 1392,1.356091,103.986515,sun:00:00:00-00:00:00;0;0;;mon:00:00:00-00:00:00;0;0;;tue:00:00:00-00:00:00;0;0;;wed:00:00:00-00:00:00;0;0;;thu:00:00:00-00:00:00;0;0;;fri:00:00:00-00:00:00;0;0;;sat:00:00:00-00:00:00;0;0;;,,0
Cineleisure Orchard,11,"8 Grange Road, #01-07, Cathay Cineleisure Orchard Singapore 239695",,CINELEISURE ORCHARD,,,Singapore,6735 8462,1.301478,103.836488,sun:08:30:00-23:00:00;0;0;;mon:08:30:00-23:00:00;0;0;;tue:08:30:00-23:00:00;0;0;;wed:08:30:00-23:00:00;0;0;;thu:08:30:00-23:00:00;0;0;;fri:08:30:00-02:00:00;0;0;;sat:08:30:00-02:00:00;0;0;;,,0
COMPASS ONE,12,1 Sengkang Square #B1-14/14A,,COMPASS ONE,,,Singapore,6385 4178,1.392076,103.895152,sun:08:00:00-22:30:00;0;0;;mon:08:00:00-22:30:00;0;0;;tue:08:00:00-22:30:00;0;0;;wed:08:00:00-22:30:00;0;0;;thu:08:00:00-22:30:00;0;0;;fri:08:00:00-22:30:00;0;0;;sat:08:00:00-22:30:00;0;0;;,,0
Bukit Panjang Plaza,5,"Bukit Panjang Plaza, 1 Jelebu Road ,#01-28 Singapore 677743",,BUKIT PANJANG PLAZA,,,Singapore,6462 0417,1.379929,103.764310,sun:08:00:00-22:00:00;0;0;;mon:08:00:00-22:00:00;0;0;;tue:08:00:00-22:00:00;0;0;;wed:08:00:00-22:00:00;0;0;;thu:08:00:00-22:00:00;0;0;;fri:08:00:00-22:00:00;0;0;;sat:08:00:00-22:00:00;0;0;;,,0
Burlington Square,6,"175 Bencoolen Street #01-01, Burlington Square Singapore 189649",,BURLINGTON SQUARE,,,Singapore,6336 3435,1.302117,103.852712,sun:08:00:00-22:30:00;0;0;;mon:08:00:00-22:30:00;0;0;;tue:08:00:00-22:30:00;0;0;;wed:08:00:00-22:30:00;0;0;;thu:08:00:00-22:30:00;0;0;;fri:08:00:00-22:30:00;0;0;;sat:08:00:00-22:30:00;0;0;;,,0
Central,7,"The Central 6 Eu Tong Sen Street, #01-23 to 26 Singapore 059817",,CENTRAL,,,Singapore,6534 8364,1.289306,103.847026,sun:08:00:00-23:00:00;0;0;;mon:08:00:00-23:00:00;0;0;;tue:08:00:00-23:00:00;0;0;;wed:08:00:00-23:00:00;0;0;;thu:08:00:00-23:00:00;0;0;;fri:00:00:00-00:00:00;0;0;;sat:00:00:00-00:00:00;0;0;;,,0
Changi Airport Terminal 1,8,"80 Airport Boulevard, Arrival Meeting Hall East, #01-07, Terminal 1 Singapore 819642",,TERMINAL 1,,,Singapore,6214 9452,1.361626,103.990236,sun:00:00:00-00:00:00;0;0;;mon:00:00:00-00:00:00;0;0;;tue:00:00:00-00:00:00;0;0;;wed:00:00:00-00:00:00;0;0;;thu:00:00:00-00:00:00;0;0;;fri:00:00:00-00:00:00;0;0;;sat:00:00:00-00:00:00;0;0;;,,0
Alexandra Retail Centre,1,"460 Alexandra Road, #01-17 and #01-20, PSA Building (Alexandra Retail Centre) Singapore 119963",,ALEXANDRA RETAIL CENTRE,,,Singapore,6276 8487,1.273971,103.801276,sun:08:00:00-22:00:00;0;0;;mon:07:30:00-22:00:00;0;0;;tue:07:30:00-22:00:00;0;0;;wed:07:30:00-22:00:00;0;0;;thu:07:30:00-22:00:00;0;0;;fri:07:30:00-22:00:00;0;0;;sat:07:30:00-22:00:00;0;0;;,,0
Ang Mo Kio Hub,2,"53 Ang Mo Kio Avenue 3, #01-40 Amk Hub Singapore 569933",,ANG MO KIO HUB,,,Singapore,6481 8237,1.369458,103.848501,sun:07:00:00-01:00:00;0;0;;mon:07:00:00-01:00:00;0;0;;tue:07:00:00-01:00:00;0;0;;wed:07:00:00-01:00:00;0;0;;thu:07:00:00-01:00:00;0;0;;fri:00:00:00-00:00:00;0;0;;sat:00:00:00-00:00:00;0;0;;,,0
Bugis Village,3,"241/243 Victoria Street, Bugis Village Singapore 188030",,BUGIS VILLAGE,,,Singapore,6334 7125,1.300341,103.855286,sun:08:00:00-23:00:00;0;0;;mon:08:00:00-23:00:00;0;0;;tue:08:00:00-23:00:00;0;0;;wed:08:00:00-23:00:00;0;0;;thu:08:00:00-23:00:00;0;0;;fri:08:00:00-23:00:00;0;0;;sat:08:00:00-23:00:00;0;0;;,,0
BUKIT BATOK EAST COMMUNITY CLUB,4,"23 Bukit Batok East Avenue 4 #01-01, Bukit Batok East Community Club",,,,,Singapore,6266 3789,1.348959,103.758275,sun:08:00:00-22:00:00;0;0;;mon:08:00:00-22:00:00;0;0;;tue:08:00:00-22:00:00;0;0;;wed:08:00:00-22:00:00;0;0;;thu:08:00:00-22:00:00;0;0;;fri:08:00:00-22:00:00;0;0;;sat:08:00:00-22:00:00;0;0;;,,0
