store_name,store_number,address,address2,city,state,zip_code,country,phone_number,latitude,longitude,store_hours,other_fields,coming_soon
BK WAKAF BARU,57,"PETRONAS Service Station, 
Lot PT 36982, HS (M) 25510 ,
Wakaf Bharu, Mukim Kuala Nerus",,KUALA TERENGGANU,Terengganu,21300,Malaysia,,5.365210, 103.089416,8.00 a.m - 11.00 p.m,,0
BK PLAZA 333,58,"Lot 58/59 Ground Floor, Block G, 
Plaza 333, Lorong Plaza, 333-7",,PENAMPANG,Sabah,89500,Malaysia,,5.923509, 116.076990,10.00am - 10.00pm,,0
BK IMAGO,59,"Suite A, Lot 15-3.3rd Floor, Jalan Lintas, 
Block B  Lintas Square",,KOTA KINABALU,Sabah,88300,Malaysia,,5.970864, 116.066209,10.00 a.m - 10.00 p.m,,0
BK TESCO KOTA BHARU,60,"G11 & G12, Ground Floor,
Tesco Kota Bharu,
Lot 1828, Seksyen 17",,KOTA BHARU,Kelantan,15050,Malaysia,,6.115039, 102.231875,9.30 a.m - 10.30 p.m,,0
BK SEKINCHAN,53,"No. 2 & 2A, Jalan Indah 2/1, 
Taman Indah 2",,SEKINCHAN,Selangor,45400,Malaysia,,3.502205, 101.104496,"<br />
10.00a.m - 10.00p.m",,0
BK BESERAH KUANTAN,54,"Lot PT 59488, Jalan Beserah, 
Mukim Kuala Kuantan",,KUANTAN,Pahang,25000,Malaysia,,3.815797, 103.332832,8.00 a.m - 1.00 a.m,,0
BK INDERA MAHKOTA,55,"Lot A, One Suria, 
Jalan Sultan Ahmad Shah, 
Bandar Indera Mahkota",,KUANTAN,Pahang,25200,Malaysia,,3.817242, 103.329313,8.00 a.m - 11.00 p.m,,0
BK MESRA MALL,56,"Lot FF1 Ground Floor Mesra Mall, 
Jalan Kemaman Dungun",,KERTEH,Terengganu,24200,Malaysia,,4.441065, 103.447800,10.00a.m - 10.00p.m,,0
BK KG BARU SUNGAI BULOH,49,"58, Jalan Kati U19/F, 
Kampung Baru Sungai Buloh",,SUNGAI BULOH,Selangor,40160,Malaysia,,3.193981, 101.566542,8.00a.m - 10.00p.m,,0
BK WANGSA MAJU 2,50,"No 2, Lot 28055 PT 8613, Jalan Wangsa Delima,
Pusat Bandar Wangsa Maju,
Seksyen 5",,KUALA LUMPUR,Federal Territory of Kuala Lumpur,53300,Malaysia,,3.196343, 101.743276,8.00 a.m - 1.00 a.m,,0
BK SASARAN,51,"No. 19 (Ground Floor),
Jalan Dato Tan Teng Kuay 1, 
Sungai Buloh",,SUNGAI BULOH,Selangor,45800,Malaysia,,3.256206, 101.307682,8.00a.m - 10.00p.m,,0
BK BATANG BERJUNTAI,52,"No. 2, (Ground Floor), Jalan Aman Suria 1,
Taman Aman Suria",,BESTARI JAYA,Selangor,45600,Malaysia,,3.380071, 101.412776,8.00a.m - 11.00p.m,,0
BK SRI HARTAMAS,45,"Lot. No. 22 Ground Floor, 
Jalan 24/70A Desa Sri Hartamas",,KUALA LUMPUR,Federal Territory of Kuala Lumpur,50480,Malaysia,,3.163206, 101.651157,8.00 a.m - 11.00 p.m,,0
BK Shell Persiaran Sungai Buloh,46,"Shell Persiaran Sungai Buloh, 
1 Persiaran Sungai Buloh",,PETALING JAYA,Selangor,47810,Malaysia,,3.165795, 101.569510,8.00 am - 11.00 pm,,0
BK Damansara Perdana,47,"No. 1 (Ground Floor),
Jalan PJU 8/5H, Damansara Perdana,
Bukit Lanjan",,DAMANSARA,Selangor,47820,Malaysia,,3.166160, 101.607308,8.00 am - 11.00 pm,,0
BK R&R SUNGAI BULOH,48,"Lot R 2 Overhead Bridge Restaurant,
KM 458 Nort South Highway,
Between Sg. Buloh and Bukit Lanjan Interchange",,SUNGAI BULOH,Selangor,47000,Malaysia,,3.188570, 101.586392,8.00a.m - 11.00p.m,,0
BK BANDAR UTAMA 2,41,"Lot S348 2nd Floor,
1 Utama Shopping Center Phase 2A,
Bandar Utama Damansara",,DAMANSARA,Selangor,48000,Malaysia,,3.149710, 101.616180,10.00a.m - 10.00p.m,,0
 BK KOTA DAMANSARA,42,"Jln PJU 5/1327-1, Jalan PJU 5/13, 
Dataran Sunway, Kota Damansara",,DAMANSARA,Selangor,47810,Malaysia,,3.151667, 101.592495,8.00 a.m - 10.00 p.m,,0
BK SEMUA HOUSE,43,"Lot SWC1, Lot 19-C & Lot19-D, 
Ground floor Semua House, 
Jalan Bunus 6",,KUALA LUMPUR,Federal Territory of Kuala Lumpur,50100,Malaysia,,3.155068, 101.697309,8.00am - 11.00pm,,0
BK MUTIARA DAMANSARA,44,"No. 8, Jalan PJU 7/2,
Bandar Mutiara Damansara",,PETALING JAYA,Selangor,47800,Malaysia,,3.160200, 101.614251,8.00a.m - 10.00p.m,,0
BK MARKET HALL PUDU,37,"No G05, G06 & G07 (Ground Floor), 
Pusat Membeli Belah MH, 
No. 1, Jalan Pasar Baharu, Pudu",,KUALA LUMPUR,Selangor,55100,Malaysia,,3.134369, 101.714280,8.00 a.m - 11.00 p.m,,0
BK TROPICANA AVENUE,38,"P-G-30, Tropicana Avenue, 
Persiaran Tropicana, Tropicana Golf & Country Resort",,PETALING JAYA,Selangor,47410,Malaysia,,3.135908, 101.594890,8.00 a.m - 11.00 p.m,,0
BK MRR2,39,"Lot PT 8882 HS (D) 108175,
Jalan Lingkaran Tengah 2 (MRR2),
Mukim Ampang",,HULU LANGAT,Selangor,55100,Malaysia,,3.141365, 101.742464,8.00 a.m - 11.00 p.m,,0
BK MASJID JAMEK,40,No. 11 & 13 Jalan Tun Perak,,KUALA LUMPUR,Federal Territory of Kuala Lumpur,50150,Malaysia,,3.149031, 101.696602,8.00a.m - 11.00p.m,,0
BK SETIA ALAM,33,"Restoran No. 1 Lot. No. 2, 
Persiaran Setia Impian, 
Bandar Setia Alam Seksyen U13",,SHAH ALAM,Selangor,40170,Malaysia,,3.101722,101.444285,8.00 a.m - 11.00 p.m,,0
BK PARADIGM MALL,34,"2F-Second Floor Paradigm,
Jalan SS 7/26 A",,PETALING JAYA,Selangor,47301,Malaysia,,3.105681, 101.595884,10.00 a.m - 10.00 p.m,,0
BK BUKIT JELUTONG,35,"No. 15, Ground Floor, 
Jalan Pelapik BU 8/B, Seksyen U8, 
Bukit Jelutong",,SHAH ALAM,Selangor,40150,Malaysia,,3.114643, 101.526751,8.00am - 11.00pm,,0
BK KL SENTRAL,36,"DH 3A, Level 1 Departure Transit,
KL Sentral Station",,KUALA LUMPUR,Federal Territory of Kuala Lumpur,50470,Malaysia,,3.134053, 101.687287,7.00 a.m - 11.00 p.m,,0
BK SUNWAY PYRAMID ,29,"Lot F1. 10, F1. 10B, F1. 13 , 1st. Floor
Sunway Pyramid Shopping Mall,
No.3 Jalan PJS 11/15 Bandar Sunway",,PETALING JAYA,Selangor,46150,Malaysia,,3.073027, 101.607734,10.00 a.m - 10.00 p.m,,0
BK CALTEX CHERAS,30,"Lot 27681 & 27682,
Batu 6, Jalan Cheras",,KAJANG,Federal Territory of Kuala Lumpur,43000,Malaysia,,3.085738, 101.742245,8.00 a.m - 11.00 p.m,,0
BK SHAH ALAM,31,"No. 2 Extreme Sports Park
Jalan Lompat Pagar 13/37
Off Jalan Persiaran Sukan Seksyen 13",,SHAH ALAM,Selangor,40100,Malaysia,,3.086763, 101.542357,8.00a.m 1.00a.m,,0
BK TAMAN MULIA,32,"No. 11 (Ground Floor), 
Jalan Budiman 24, Taman Mulia",,CHERAS,Federal Territory of Kuala Lumpur,56000,Malaysia,,3.091011, 101.713705,8.00am - 11.00pm,,0
BK USJ Taipan,25,"No. 23 (Ground Floor), 
Jalan USJ 10/1F",,SUBANG JAYA,Selangor,47620,Malaysia,,3.048733, 101.583088,8.00a.m - 11.00p.m,,0
BK WISMA 99,26,"Ground Floor & M Floor, Wisma 99,
Lot P.T. 2811, Jalan Angsa, Taman Berkeley",,KLANG,Selangor,41150,Malaysia,,3.054980, 101.463542,8.00am - 10.00pm,,0
BK SUNWAY LAGOON,27,"Lot No.SB-R001 & SB-R002, 
Sunway Lagoon Theme Park, 11, 
Jalan PJS 8/11, Bandar Sunway",,PETALING JAYA,Selangor,46150,Malaysia,,3.068145, 101.609798,10.00 a.m - 6.00 p.m,,0
BK RANTAU PANJANG,28,"No. 5557 (Ground Floor), 
Jalan Rantau Panjang/KU 4, 
Kampung Rantau Panjang",,KLANG,Selangor,41200,Malaysia,,3.071977, 101.412579,8.00 a.m - 11.00 p.m,,0
BK OLIVE HILL,21,"No: 49 , Pusat Perniagaan Olive Hill, 
Jalan BS 1/3, Taman Bukit Serdang Section 1",,SERI KEMBANGAN,Selangor,43300,Malaysia,,3.013571, 101.697181,8.00 a.m - 10.00 p.m,,0
BK TAMAN SRI ANDALAS,22,"No. 42 (Ground Floor), 
Jalan Sri Sarawak 18, 
Taman Sri Andalas",,KLANG,Selangor,41200,Malaysia,,3.017814, 101.444100,8.00 a.m - 11.00 p.m,,0
BK THE 19 USJ CITY MALL,23,"Lot No. G-30 & EXT, 
The 19 USJ City Mall, 
Persiaran Kewajipan, USJ 19",,SUBANG JAYA,Selangor,47816,Malaysia,03-3362 6526,3.033405, 101.588760,10.00a.m - 10.00p.m,,0
BK PLAZA SERDANG RAYA,24,"Lot. G-18A, G-18B, G-19A & G-19B (GF),
Plaza Serdang Raya, Jln Serdang Raya,
Taman Serdang Raya, Seksyen 7",,SERI KEMBANGAN,Selangor,43300,Malaysia,,3.042855, 101.704482,8.00am - 11.00pm,,0
BK ALAMANDA,17,"Lot LG 28/29, Lower Ground Floor, 
Alamanda Shopping Complex Persint 1",,PUTRAJAYA WILAYAH PERSEKUTUAN,Federal Territory of Putrajaya,62000,Malaysia,,2.939726, 101.712072,10.00a.m - 10.00p.m,,0
BK SAUJANA PUTRA,18,"No.22, Ground Floor, Saujana Business Park,
Jalan SPU 1, Bandar Saujana Putr",,JENJAROM,Selangor,42610,Malaysia,,2.951807, 101.582066,8.00a.m - 11.00p.m,,0
BK TESCO BUKIT PUCHONG,19,"Lot No.G7, TESCO Bandar Bukit Puchong,
PT 80259, Jalan BP 7/1 Bandar Bukit Puchong",,PUCHONG,Selangor,47120,Malaysia,,2.982053, 101.617084,10.00 a.m - 10.00 p.m,,0
BK BUKIT TINGGI,20,"No. 107386 Jalan Batu Nilam, 
34/KS 6 Bandar Bukit Tinggi",,KLANG,Selangor,41200,Malaysia,,2.998812, 101.431667,8.00 a.m - 1.00 a.m,,0
BK KLIA 2,13,"L2M-25, Level 2,
Terminal KLIA 2,
KL International Airport,
Jalan KLIA 2/1",,SEPANG,Selangor,64000,Malaysia,,2.755132, 101.705294,24 Hours,,0
BK SEREMBAN RSA NORTHBOUND,14,"Lot D Faber Building, 
Kawasan Rehat & Rawat Seremban (Arah Utara), 
KM 272.2 Lebuhraya Kuala Lumpur - Seremban",,SEREMBAN,Negeri Sembilan,79000,Malaysia,,2.756622, 101.845972,8.00 a.m - 11.00 p.m,,0
BK CYBERJAYA,15,"Caf√© 1 @ No.1, Block 3545,
Jalan Teknokrat 6",,CYBERJAYA,Selangor,63000,Malaysia,,2.914150, 101.655502,8.00 a.m - 11.00 p.m,,0
BK BANGI GATEWAY,16,"Lot G-5, G-6 & G-7, 
Block A, Bangi Gateway Shopping Complex, 
Section 15, Bandar Baru Bangi",,BANGI,Selangor,43650,Malaysia,,2.933533, 101.765197,10.00 a.m - 10.00 p.m,,0
BK BUKIT PASIR,9,"PT 2308, HS(D) 2991,  
Jalan Bukit Pasir, 
Bandar Penggaram",,BATU PAHAT,Johor,83000,Malaysia,,1.866900, 102.939256,8.00 a.m - 10.00 p.m,,0
BK AEON MELAKA,10,"G91 AEON Bandaraya Melaka Shopping Center, 
Jalan Lagenda, Taman I - Lagenda",,MELAKA,Malacca,75400,Malaysia,,2.213830, 102.247412,"<br />
10.00 a.m - 10.00 p.m",,0
BK LUKUT,11,"59-60, Ground Floor, 
Bandar Dataran Segar, 
Jalan Ds 2/1, Lukut",,PORT DICKSON,Negeri Sembilan,71010,Malaysia,,2.559416, 101.818742,8.00 a.m - 10.00 p.m,,0
BK PALM MALL,12,"No.4, LG Floor, Palm Mall,
Kemayan Square, Jalan Sungai Ujong",,SEREMBAN,Negeri Sembilan,70200,Malaysia,,2.719600, 101.922859,10.00 a.m - 10.00 p.m,,0
BK SETIA TROPIKA,5,"Lot G1,Wisma SP Setia, 
Tropika Welcome Centre 
No.1 Jalan Setia Tropika, 
Taman Setia Tropika",,JOHOR BAHRU,Johor,81200,Malaysia,,1.548624, 103.717260,8.00 a.m - 11.00 p.m,,0
BK PONTIAN-SKUDAI HIGHWAY,6,"Lot 49987 Mukim Senai-Kulai, 
Pontian Highway (JB Bound)",,SKUDAI,Johor,81200,Malaysia,,1.551252, 103.649698,8.00 a.m - 1.00 a.m,,0
BK PLAZA MERDEKA ,7,"G-43-45, Ground Floor,
Plaza Merdeka Shopping Centre,
88 Pearl Street",,KUCHING,Sarawak,93000,Malaysia,,1.558499, 110.343741,10.00 a.m - 10.00 p.m,,0
BK SKUDAI,8,"Plot 10 Kawasan R&R PLUS, Skudai Arah Utara",,SKUDAI,Johor,83100,Malaysia,,1.579289, 103.650038,7.00a.m - 11.00p.m,,0
BK MEDINI MALL,1,"G14 Ground Floor,
Medini Lifestyle Mall",,NUSAJAYA,Johor,79000,Malaysia,,1.428854, 103.632986,10.00 a.m - 9.00 p.m,,0
BK JALAN TUN RAZAK JOHOR,2,"PTB 21742 Mukim Bandar Johor Bahru, Jalan Tun Abdul Razak",,JOHOR BAHRU,Johor,80200,Malaysia,,1.478881, 103.752919,8.00a.m - 11.00p.m,,0
BK SERI ALAM,3,"Restaurant 1, HS(D) 360166, 
PTD 174172, Mukim Plentong, 
Jalan Suria 1, Bandar Seri Alam",,JOHOR BAHRU,Johor,81750,Malaysia,,1.495960, 103.871230,8.00 a.m - 11.00p.m,,0
BK VIVA CITY MALL,4,"G-074 & G-074S, Ground Floor,
Vivacity Megamall",,KUCHING,Sarawak,93350,Malaysia,,1.527180, 110.369500,10.00 a.m - 12.00 p.m,,0
