store_name,store_number,address,address2,city,state,zip_code,country,phone_number,latitude,longitude,store_hours,other_fields,coming_soon
,,American Alley/Shabab Avenue,,Manama,,,Bahrain,,,,,,
,,146a Vulitsa Prytytskaha,,Minsk,,,Belarus,,,,,,
,,8 Kharuzhay Street,,Minsk,,,Belarus,,,,,,
,,91 praspiekt Dziarzynskaha,,Minsk,,,Belarus,,,,,,
,,Vulica Sviardlova 32,,Minsk,,,Belarus,,,,,,
,,"Prof. Cvetan Lazarov Blvd, agg. bl. 181",,Druzhba Sofia,,,Bulgaria,,,,,,
,,54 Ruski Blvd,,Plovdiv,,,Bulgaria,,,,,,
,,6 Slaveykov Square,,Sofia,,,Bulgaria,,,,,,
,,"Arena Zapad, 64 Todor Alexandrov Blvd",,Sofia,,,Bulgaria,,,,,,
,,4267 Lougheed Highway,,Burnaby,,,Canada,,,,,,
,,103-6591 Kingsway,,Burnaby British Columbia,,,Canada,,,,,,
,,200-1175 Johnson Street,,Coquitlam,,,Canada,,,,,,
,,5-555 North Road,,Coquitlam,,,Canada,,,,,,
,,120-9100 Blundell,,Richmond,,,Canada,,,,,,
,,185-3675 Westminister Highway,,Richmond,,,Canada,,,,,,
,,3883 Grand McConachie Way,,Richmond,,,Canada,,,,,,
,,Cambie Shopping Centre,,"Richmond, British Columbia",,,Canada,,,,,,
,,10542 King George Hwy.,,Surrey,,,Canada,,,,,,
,,1-14877 - 108th Avenue,,Surrey,,,Canada,,,,,,
,,"15318 Fraser Highway, 5",,Surrey,,,Canada,,,,,,
,,8434 120th Street,,Surrey,,,Canada,,,,,,
,,1171 St. Clair Avenue West,,Toronto,,,Canada,,,,,,
,,2304 E. Hastings Street,,Vancouver,,,Canada,,,,,,
,,2504 Kingsway & Slocan,,Vancouver,,,Canada,,,,,,
,,3425 Main Street,,Vancouver,,,Canada,,,,,,
,,5704 Fraser Street & 41st Street,,Vancouver,,,Canada,,,,,,
,,Caskora Street,,Catootje,,,Curacao,,,,,,
,,Sambil mall Curacao,,Curacao,,,Curacao,,,,,,
,,"77 Street, Emirate Gasoline Station",,Cairo,,,Egypt,,,,,,
,,259 El Haram Street,,"Giza, Giza",,,Egypt,,,,,,
,,1st Avenue and 3rd Street,,Bartica,,,Guyana,,,,,,
,,"Mobile Unit: at Rosignol Stelling / Rosignol Public Road,",,Bebice,,,Guyana,,,,,,
,,Lot 11 Strand & Trinity Streets,,Berbice,,,Guyana,,,,,,
,,Lot 67 A Rosehall Public Road,,"Corentyne Berbice, Guyana",,,Guyana,,,,,,
,,Liliendaal,,East Coast Demerara,,,Guyana,,,,,,
,,Lot 311 Parika,,"Essequibo Islands, West Demerara",,,Guyana,,,,,,
,,Stelling Road,,"Essequibo Islands, West Demerara",,,Guyana,,,,,,
,,"5 Avenue of the Republic and Robb Street, Robbstown",,Georgetown,,,Guyana,,,,,,
,,81-82 Robb and Camp Streets,,Georgetown,,,Guyana,,,,,,
,,Camp & Middle Street,,Georgetown,,,Guyana,,,,,,
,,Durban and Hill Streets,,Georgetown,,,Guyana,,,,,,
,,Regint & Hinck Street,,Georgetown,,,Guyana,,,,,,
,,#1 Co Po-Op Crescent,,Linden,,,Guyana,,,,,,
,,Lot 18 Public Road,,Mahaica,,,Guyana,,,,,,
,,"Mahagony Hotel, #78 Village Corriverton",,New Amsterdam,,,Guyana,,,,,,
,,Blvd. Hacia Pueto Corts,,Choloma,,,Honduras,,,,,,
,,Final Boulevard del Norte,,"Comayaguela, Fransisco Morazan",,,Honduras,,,,,,
,,Centro de La Ceiba Avenida San Isidro,,La Ceiba,,,Honduras,,,,,,
,,"3rd Street, 4th Avenue SW",,San Pedro Sula,,,Honduras,,,,,,
,,"Blvd. Del Norte, Salida a Pto. Cortes",,San Pedro Sula,,,Honduras,,,,,,
,,"Blvd. Morazan 1 a. Calle 15 & 16, Cortes",,San Pedro Sula,,,Honduras,,,,,,
,,Blvd. Salida Hacia La Lima,,San Pedro Sula,,,Honduras,,,,,,
,,"City Mall, Boulevard Circunvalacion",,San Pedro Sula,,,Honduras,,,,,,
,,"Centro, Puerto Cortes, Barrio El Centro",,Tegucigalpa,,,Honduras,,,,,,
,,"MetroMall, Boulevard Salida Hacia San Pedro Sula",,Tegucigalpa,,,Honduras,,,,,,
,,Multi-plaza Mall,,Tegucigalpa,,,Honduras,,,,,,
,,"Peatonal Tegucigalpa (CC13), Calle Peatonal",,Tegucigalpa,,,Honduras,,,,,,
,,"Plaza MiraFlores, Boulevard Centroamerica",,Tegucigalpa,,,Honduras,,,,,,
,,"Plaza Santa Monica, Boulevard Toncotin",,Tegucigalpa,,,Honduras,,,,,,
,,"Santa Fe, Comayaguela, Col. Santa Fe",,Tegucigalpa,,,Honduras,,,,,,
,,JL. Jend. Sudirman Mall Balikpapan Lt UG No. 21/23,,Balikpapan,,,Indonesia,,,,,,
,,"Bandung Indan Plaza, Lt. II. Jl. Merdeka No. 56",,Bandung,,,Indonesia,,,,,,
,,Dewi Sartika Bandung. JL. Dewi Sartika No. 44,,Bandung,,,Indonesia,,,,,,
,,Jalan Sunda No. 73,,Bandung,,,Indonesia,,,,,,
,,"Duta Mall, 1st Floor, JL Veteran - Jend Ahmad Yani KM2 Simpang Ulin",,Banjarmasin,,,Indonesia,,,,,,
,,"Mitra Plaza Benjarmasin. Ground & 2nd Floor, Jalan Pangeran Antasari No. 1",,Banjarmasin,,,Indonesia,,,,,,
,,"Posindo Plaza, Ground Floor, Jl. Lambung Mangkurat No. 1",,Banjarmasin,,,Indonesia,,,,,,
,,"1st Floor Plaza Top 100, Jalan Penuin-Baloi Centre",,Batam,,,Indonesia,,,,,,
,,"Bekasi Mall, Ground Floor, Unit # 30,31,32, Jalan Jendral Sudirman",,Bekasi,,,Indonesia,,,,,,
,,"Bekasi Trade Center, Jalan Raya HM Joyo Martono  -- RELO",,Bekasi,,,Indonesia,,,,,,
,,CitiMart Bitung. JL. Jend Yos Sudarso 6A,,Bitung,,,Indonesia,,,,,,
,,"Jambu Dua Plaza, Semi Basement, Jln A. Yani No. 1",,Bogor,,,Indonesia,,,,,,
,,Bukit Tinggi Plaza. JL A Yani No.1,,Bukkit Tinggi,,,Indonesia,,,,,,
,,Jalan Cikini Raya 60A,,Central Jakarta,,,Indonesia,,,,,,
,,"Ramayana Square. JI. M Yamin, GF, Samarinda Ulu",,East Kalimantan,,,Indonesia,,,,,,
,,Jl. Cimanuk 228,,"Garut, West Java",,,Indonesia,,,,,,
,,"Graha Plaza Cijantung  Jalan Raya Bogor, Komplek Kopasus 3rd Floor, Unit 5",,Jakarta,,,Indonesia,,,,,,
,,"Jalan Inspeksi Saluran Tarum Barat Blok E/N-4, Kalimalang",,Jakarta,,,Indonesia,,,,,,
,,"Jl. Raya Bogor Km 19 , Ground Floor 8 - 10 Jakarta Timur",,Jakarta,,,Indonesia,,,,,,
,,"Kalibata Mall Blok B8, Jalan Pahlawan, Kalibata",,Jakarta,,,Indonesia,,,,,,
,,"Plaza Slipi Jaya, Basement. Unit A-7 Jln. S. Parman KAV 17-18",,Jakarta,,,Indonesia,,,,,,
,,"Brylian Plaza Kendari.  JL. Sao-Sao No. 20, 2nd Floor",,Kendari,,,Indonesia,,,,,,
,,"JL. MT Haryono No 21-23, Kendari",,Kendari,,,Indonesia,,,,,,
,,"JL. MT. Haryono no 8-10, Kendari",,Kendari,,,Indonesia,,,,,,
,,JL AHAMAD YANI - GEDUNG Karebosi Link,,Makasar,,,Indonesia,,,,,,
,,"Panakukang Mall, 1st Floor. Panakukang Complex",,Makasar,,,Indonesia,,,,,,
,,Panakukkang Square. Ujung Pandang. JL Adyaksa No. 1,,"Makassar, South Sulawesi",,,Indonesia,,,,,,
,,"JL Bolevard Mega mall, Unit 5 Ground Floor, Mega MAS",,Manado,,,Indonesia,,,,,,
,,"Trade Center Pasar 45, Jalan Jenderal Sudirman No. 15",,Manado,,,Indonesia,,,,,,
,,Jl Merak Jingga. No. 8,,Medan,,,Indonesia,,,,,,
,,"Jl. Kapten Muslim No. 71, Medan Helvetia",,Medan,,,Indonesia,,,,,,
,,Binjai Supermall. JL. Sukarno Hatta No. 55,,"Medan, North Sumatra",,,Indonesia,,,,,,
,,"Epicentrum Boulevard, JL. Dr. Manysur, Medan",,"Medan, North Sumatra",,,Indonesia,,,,,,
,,Jalan Stasium Kereta Api,,"Medan, North Sumatra",,,Indonesia,,,,,,
,,"JI. Marelan Raya, Tanah Enam Ratus, Medan Marelan",,"Medan, North Sumatra",,,Indonesia,,,,,,
,,JL Sisimangaraja KM 5.5 NO 8 B Medan,,"Medan, North Sumatra",,,Indonesia,,,,,,
,,"Medan Fair Plaza A-2, First Floor, Jl. Gatot Subroto No. 1",,"Medan, North Sumatra",,,Indonesia,,,,,,
,,"Medan Mall, Lot 32 Lt.1, Jl. MT Haryono",,"Medan, North Sumatra",,,Indonesia,,,,,,
,,"Thamrin Plaza Blok 02 Lt., I Jl. Thamrin No. 75 R",,"Medan, North Sumatra",,,Indonesia,,,,,,
,,"Yuki Simpang Plaza, Jalan Sisingamangaraja No. 77, 3rd Floor",,"Medan, North Sumatra",,,Indonesia,,,,,,
,,"Paris Dept. Store Kotamobagu, 3rd Fl. Jl. A. Dampe Dolot No. 1, Kotamobagu",,North Sulawesi,,,Indonesia,,,,,,
,,"Sakura Mart LT3, Amurang, Jl. Trans Sulawesi",,North Sulawesi,,,Indonesia,,,,,,
,,Jalan Piere Tendean Blvd,,"North Sulawesi, Manado",,,Indonesia,,,,,,
,,Jl Gereja No. 40 Padang Sumatera Barat,,Padang,,,Indonesia,,,,,,
,,Payakumbuh Plaza JL. Jend Sudirman Pakakumbuh,,Padang,,,Indonesia,,,,,,
,,"International Plaza, Lt. Dasar, Jalan Sudirman 147",,Palembang,,,Indonesia,,,,,,
,,"Palembang Square, Jalan Angkatan 45, Kampus Pom IX",,Palembang,,,Indonesia,,,,,,
,,"Citra Plaza Lt. II, Jl. Pepaya No. 78",,Pekan Baru,,,Indonesia,,,,,,
,,Suzuya Plaza Bagan Batu Jl.Jend. Sudirman,,"Pekan Baru, Riau",,,Indonesia,,,,,,
,,"Ciputra Seraya Mall, Jl. Riau No. 45, Pekanbaru",,Pekanbaru,,,Indonesia,,,,,,
,,"Mal Pekanbaru, 3rd Level, Block A-1, No 5-6, Mal Pekanbaru  -- RELO",,Pekanbaru,,,Indonesia,,,,,,
,,"The Central Penkanbaru (Pekanbaru Square) JL. Jend. Ahmad Yani, Senapelan",,"Pekanbaru, Riau",,,Indonesia,,,,,,
,,"Ayani Mega Mall, Lt. Dasar, Unit B6-11, Jl. Ahmad Yani",,Pontianak,,,Indonesia,,,,,,
,,"Lot 17, 1st Floor, Matahari Mall. Jl. Urip Sumoharjo No. 1",,Pontianak,,,Indonesia,,,,,,
,,"Lembuswana Business Center, JI Prof Moch Yamin",,Samarinda,,,Indonesia,,,,,,
,,"Lembuswana Mall Samarinda, 2nd Floor. Jl. S. Parman, M. Yamin  -- RELO",,Samarinda,,,Indonesia,,,,,,
,,"Mesra Indah Mall, Ground Floor, Jl. KH. Abdul Kholid No. 42",,Samarinda,,,Indonesia,,,,,,
,,MAL SENTANI SQUARE JL. Kemiri RAYA No. 202,,Sentani City,,,Indonesia,,,,,,
,,"Duta Mall, 3rd Floor, Jl. A. Yani KM2, Banjarmasin",,South Kalimantan,,,Indonesia,,,,,,
,,"Plaza Surabaya, Jalan Pemuda No. 37",,Surabaya,,,Indonesia,,,,,,
,,Jl Puncak Indah Lintar B1.33,,"Surabaya, East Java",,,Indonesia,,,,,,
,,"Tunjungan Plaza 3, Lt 5, Jl. Basuki Rahmat 8 - 12",,"Surabaya, East Java",,,Indonesia,,,,,,
,,"Pasar Tanah Abang, Food Court Lantai 8 Tanah Abang Blok A",,Tanah Abang,,,Indonesia,,,,,,
,,"CBD Ciledug, JL Hos Cokroaminoto 94",,Tangerang,,,Indonesia,,,,,,
,,Jalan Raya Ciledug No. 1 Larangan Utara,,Tangerang,,,Indonesia,,,,,,
,,Plaza Asia Tasikmalaya 2nd Floor. JL Hz Mustofa 326,,Tasikmalaya,,,Indonesia,,,,,,
,,"Yogya Department Store, Food Court Level 3  Jalan HZ Mustofa No. 124",,Tasikmalaya,,,Indonesia,,,,,,
,,"Metropolitan Mall Lt II No. 47, Jl. Ujung Kalimalang,",,West Bekasi,,,Indonesia,,,,,,
,,"Dinar Street, Time Square Mall, Basra, Iraq",,Basra (Jubaila District),,,Iraq,,,,,,
,,Kro Road,,"Duhok, Kurdistan, Iraq",,,Iraq,,,,,,
,,Koya Road,,Erbil,,,Iraq,,,,,,
,,Royal Mall - Sheresh Street Corner 60 Meter Street,,"Erbil, Kurdistan",,,Iraq,,,,,,
,,Erbil,,Kurdistan,,,Iraq,,,,,,
,,"Kirkuk Street, Erbil",,Quardistan,,,Iraq,,,,,,
,,60 Meter Street,,"Sylumania, Kurdistan",,,Iraq,,,,,,
,,Al-Madina Street,,Amman,,,Jordan,,,,,,
,,Tabarbour Street,,Amman,,,Jordan,,,,,,
,,Irbid City Center Mall,,Irbid,,,Jordan,,,,,,
,,Irbid Street,,Irbid,,,Jordan,,,,,,
,,Ban Nongbone,,Vientiane,,,Laos,,,,,,
,,"No. LG-15, 16 & 17, Lower Ground Floor, 1st Avenue Mall, 182 Jalan Magazine 10300",,"Georgetown, Penang",,,Malaysia,,,,,,
,,No. 30 Jalan Tun Abd Aziz,,Kajang,,,Malaysia,,,,,,
,,"Lot G29, AEON Bukit Centre, Persiaran Bukit Nilam 1/KS 6, Bukit Tinggi 2",,"Klang, Selangor",,,Malaysia,,,,,,
,,"6th Fl, 190 Jalan Tuanku Abdul Rahman",,Kuala Lumpur,,,Malaysia,,,,,,
,,7 Jalan Hang Kasturi,,Kuala Lumpur,,,Malaysia,,,,,,
,,"Jalan Midah 2, Cheras",,Kuala Lumpur,,,Malaysia,,,,,,
,,"Jalan Peel, Maluri",,Kuala Lumpur,,,Malaysia,,,,,,
,,"Jalan Rimbunan Raya, Laman Rimbunan Raya, Kepong",,Kuala Lumpur,,,Malaysia,,,,,,
,,Linkaran Syed Putra,,Kuala Lumpur,,,Malaysia,,,,,,
,,"Lot 07 & 08, Ground floor, Medan Megal Melati (M3 Mall) Jalan Madrasah (Jalan 1/22A)",,Kuala Lumpur,,,Malaysia,,,,,,
,,"Lot G-65, Ground floor, KL Festival City Mall, Jalan Taman Ibu Kota, Taman Danau Ibu Kota",,Kuala Lumpur,,,Malaysia,,,,,,
,,"Lot No G-13A, Wangsa Walk Mall, Wangsa Ave, No 9 Jalan Wangsa Perdana 1, Bandar Wangsa Maju",,Kuala Lumpur,,,Malaysia,,,,,,
,,"Midpoint Shopping Mall, Jalan Pandan Indah 1/25",,Kuala Lumpur,,,Malaysia,,,,,,
,,Unit L1-46A,,"Kuala Lumpur, Wilayah Persekutuan",,,Malaysia,,,,,,
,,"Lots 1 & 2, Persiaran Pusat Bandar",,Nilai,,,Malaysia,,,,,,
,,"1G & 1M, Jalan SS21/1A, Damansara Utama",,Petaling Jaya,,,Malaysia,,,,,,
,,Jalan Rais 14/15,,Petaling Jaya,,,Malaysia,,,,,,
,,"Lot 2M-24, Jalan KLIA, Sepang",,Petaling Jaya,,,Malaysia,,,,,,
,,"20 Jalan Tengah, PJ New Town, 46200",,"Petaling Jaya, Selangor",,,Malaysia,,,,,,
,,"EV-G-01, Ground Fl, Evolve Concept Mall, Pacific Place @ Ara Damansara",,"Petaling Jaya, Selangor",,,Malaysia,,,,,,
,,"Lot OB3.LG2.1B, Oasis Blvd, No 3 PJS11/15",,"Petaling Jaya, Selangor",,,Malaysia,,,,,,
,,"Lot 05, Tesco Shopping Mall, No 35, Jalan Prima 1, Lukut Prima",,"Port Dickson, Negeri Sembilan",,,Malaysia,,,,,,
,,"No. 6G, Jalan Kenari 1, Bandar Puchong Jaya",,Puchong Selangor Darul Ehsan,,,Malaysia,,,,,,
,,"Lots L2-12 & L2-13, IOI Resort",,Putrajaya,,,Malaysia,,,,,,
,,"G60, Ground Floor, Klang Parade, KM2, 2112 Jalan Meru 41050 Klang, Selangor Darul Ehsan",,Selangor,,,Malaysia,,,,,,
,,"Lot No G5, No. 1, Jalan1/1, Taman Seri Jaromas, 42600 Jenjarom",,Selangor DarulEhsan,,,Malaysia,,,,,,
,,"Gerbang Gateway, off Jalan Sungai Ujong",,Seremban Gateway,,,Malaysia,,,,,,
,,"No. 2-1 & 2-2, Jalan18/33A, Taman Sri Serdang, 43000 Seri Kembangan",,"Seri Kembangan, Selangor",,,Malaysia,,,,,,
,,Jalan Kontractor U1/14,,Shah Alam,,,Malaysia,,,,,,
,,"G17, Tesco Setia Alam, No 2, Jalan SetiaPrima U13/S, Setia Alam",,Shah Alam Selangor,,,Malaysia,,,,,,
,,No 1 Jalan SGI/3,,Sri Gombak,,,Malaysia,,,,,,
,,"Jalan SS15/4G, SS15 Subang Jaya",,Subang Jaya,,,Malaysia,,,,,,
,,Jalan USJ 21/10,,Subang Jaya,,,Malaysia,,,,,,
,,"Lot no L1-05, Pusat Komersial Arena Bintang,  No 3, Jalan Zuhal U5/179",,Sungei Buloh,,,Malaysia,,,,,,
,,Blvd. De Los Rios,,Altamira,,,Mexico,,,,,,
,,Industrial 105,,Altamira Tamps,,,Mexico,,,,,,
,,Concordia Esq. E Sexta Col. STA. Isabel,,Apodaca,,,Mexico,,,,,,
,,Reforma #200 Locales A y B. Colonia Centro,,Apodaca,,,Mexico,,,,,,
,,Antigua Carretera Apodaca-Cd Juarez Km 59.8 #700 Centro,,"Benito, Juarez, N.L.",,,Mexico,,,,,,
,,Carretera Cadereyta Allende km 2,,Cadereyta,,,Mexico,,,,,,
,,"Av/ Pedro Sanz, Esq/ Jozquin Clousell",,Campeche,,,Mexico,,,,,,
,,"Av Uxmal # 31 SM4, Colonia Centro, Municipio Benito Juarez",,Cancun,,,Mexico,,,,,,
,,Av. 20 de noviembre,,Cancun,,,Mexico,,,,,,
,,"Calzada 1, Zaragoza #200 Col. Siete de Julio",,Ciudad de M?xico,,,Mexico,,,,,,
,,Terminal de Autobuses de Pasajeros de Oriente (TAPO) Ignacio Zaragoza #200. Col 7 de Julio,,Ciudad de M?xico,,,Mexico,,,,,,
,,"16 de Septiembre No. 229, Poniente",,Ciudad Juarez,,,Mexico,,,,,,
,,8 de Mayo y Lopez Mateos,,Ciudad Juarez,,,Mexico,,,,,,
,,Ave. Las Torres #2111,,Ciudad Juarez,,,Mexico,,,,,,
,,"Ciudad Mante, Juarez #901 Esq. con Guerrero",,Ciudad Mante,,,Mexico,,,,,,
,,"Blvd. Mexico Laredo #1303, Fraccionamiento Norte Residencial",,Ciudad Valles,,,Mexico,,,,,,
,,Ave. Colon #105 Entre: Hidalgo Y Juarez,,Ciudad Victoria,,,Mexico,,,,,,
,,"Boulevard Tamaulipas #1500 A, esq. Veracruz, Fracc. San Jose",,Ciudad Victoria,,,Mexico,,,,,,
,,"Via Jose Lopez Portillo #2, Colonia San Francisco",,Coacalco,,,Mexico,,,,,,
,,"Av. Raul Salinas #100-B, Fraccionamiento Puerta del Sol",,Escobedo,,,Mexico,,,,,,
,,Libramiento Noreste #985,,Escobedo,,,Mexico,,,,,,
,,"Sor Juana Ines de la Cruz # 1000, esq. Herberto Castillo Col. Las Arboledas",,"Garcia, N.L.",,,Mexico,,,,,,
,,Calle Grecia # 13 Esquina con Calle Morelos,,Guadalajara,,,Mexico,,,,,,
,,Ave. Chapultepec Esq. Con Arteaga,,Guadalupe,,,Mexico,,,,,,
,,"Prolongacion Avenida Ruiz Cortinez Oriente #450, Esquina Con Avenida de Guadalajara Colonia Valle So",,Guadalupe,,,Mexico,,,,,,
,,"Ave Pablo Livas 7500, Col. Jardines",,Guadalupe Nuevo Leon,,,Mexico,,,,,,
,,Blvd. Lopez Mateos Esq; Blvd Campestre,,Leon,,,Mexico,,,,,,
,,"Ave. Monterrey Esq. Pedro J. Mendez, Ampl Unidad Nacional",,Madero,,,Mexico,,,,,,
,,"Av. Constituyentes # 300, Franccionamiento Quinta Real",,Matamoros,,,Mexico,,,,,,
,,Ave. Del Nino #2011 - A Col. San Fernando,,Matamoros,,,Mexico,,,,,,
,,Avenida Prolongacion Gonzales #64 Esquina Santa Elena  -- RELO,,Matamoros,,,Mexico,,,,,,
,,Gonzalez (e) 5a y 6a,,Matamoros,,,Mexico,,,,,,
,,Lauro Villar y Mar Caribe,,Matamoros,,,Mexico,,,,,,
,,Plaza Fiesta Locales 1 y 2,,Matamoros,,,Mexico,,,,,,
,,Boulevard Los Guerra #1987,,Miguel Aleman,,,Mexico,,,,,,
,,Calle Hidalgo #333 Zona Centro,,Monclova,,,Mexico,,,,,,
,,Calle San Miguel No. 400 Zona Centro,,Monclova,,,Mexico,,,,,,
,,Carretera 30 Montclova - San Buebaventura #218 Col. Morelos,,Monclova,,,Mexico,,,,,,
,,Avenue Capitan Alonso De Leon #806,,Montemorelos,,,Mexico,,,,,,
,,Ave. Munich #100,,Monterrey,,,Mexico,,,,,,
,,"Avenida Lincoln, Entre Puerta de Hierro y Monte Everest",,Monterrey,,,Mexico,,,,,,
,,"Avenue Lincoln #5252, PTE. Col. Sta Cecilia",,Monterrey,,,Mexico,,,,,,
,,"Boulevard Gustavo Diaz Ordaz #108, Col. Los Trevino",,Monterrey,,,Mexico,,,,,,
,,Calzada Madero #3001,,Monterrey,,,Mexico,,,,,,
,,Blvd. P. Perez Ibarra & Ave. Tecnologico,,Nuevo Laredo,,,Mexico,,,,,,
,,"Blvd. Revoluci?n # 8540-A, Fraccionamiento Bosques del Sur",,Nuevo Laredo,,,Mexico,,,,,,
,,Carretera Anahuac #6903,,Nuevo Laredo,,,Mexico,,,,,,
,,Carretera Nac. KM 26  - C-STORE - NOT AGAINST DA.,,Nuevo Laredo,,,Mexico,,,,,,
,,Dr. Mier #2822,,Nuevo Laredo,,,Mexico,,,,,,
,,Gonazalez #5430,,Nuevo Laredo,,,Mexico,,,,,,
,,Guerrero #1945,,Nuevo Laredo,,,Mexico,,,,,,
,,Nuevo Leon 4053,,Nuevo Laredo,,,Mexico,,,,,,
,,"Roman Capeda # 806., Col. Las Fuentes",,Piedras Negras,,,Mexico,,,,,,
,,Boulevard Adolfo Ruiz Cortinez #1706 Col. Manuel Avila Camacho,,Poza Rica,,,Mexico,,,,,,
,,"Calle 12 OTE, S/N Local B5 Y B6 (C. Commercial Punto Plaza) Col. Obrera",,Poza Rica,,,Mexico,,,,,,
,,"Plaza Comercial de Puebla SA de CV, (CAPU) Boulevard Norte Heroes del 5 de Mayo # 4222",,Puebla,,,Mexico,,,,,,
,,"Puebla Kiosk, Blvd. Norte Heroes Del 5 de Mayo #4222, Colonia Las Cuartillas",,Puebla,,,Mexico,,,,,,
,,Carretera Nac. KM 10,,Puerto Vallarta,,,Mexico,,,,,,
,,Ave. 5 De Febrero #601 Col. Calindas Del Felipe Carrillio Puerto,,Queretaro,,,Mexico,,,,,,
,,Queretaro 4295,,Queretaro,,,Mexico,,,,,,
,,Plan de Guadalupe #276,,Ramos Arizpe,,,Mexico,,,,,,
,,"Blvd Lazaro Cardenas #700, esq. Peru",,Reynosa,,,Mexico,,,,,,
,,Blvd. Hidalgo y P. Balboa,,Reynosa,,,Mexico,,,,,,
,,Blvd. Morelos Y Blvd. Alvaro Obregon,,Reynosa,,,Mexico,,,,,,
,,"Boulevard Las Fuentes #210, Col. Las Fuentes",,Reynosa,,,Mexico,,,,,,
,,Guerrero #660 esq Hidalgo,,Reynosa,,,Mexico,,,,,,
,,Libramiento a Matamoros Esq. Loma Dorada Col. Jarachina,,Reynosa,,,Mexico,,,,,,
,,"M.M. De Juarez #106 Esq. H. de la Reforma, Colonia Benito Juarez",,Reynosa,,,Mexico,,,,,,
,,Rio Mante Esq. 5 de Mayo,,Reynosa,,,Mexico,,,,,,
,,Francisco I. Madero Esq. Ave Mexico,,Rio Bravo,,,Mexico,,,,,,
,,"Boulevard Paseo de Los Leones y h Farias, Col. Fundadores",,Sabinas Coha.,,,Mexico,,,,,,
,,Autopista Monterrey - Laredo KM 99  - C-STORE - NOT AGAINST DA.,,"Sabinas, N.L.",,,Mexico,,,,,,
,,"Sabinas I, Carretera Nacional #500",,"Sabinas, N.L.",,,Mexico,,,,,,
,,Calzada Emilio Carranza #782,,Saltillo,,,Mexico,,,,,,
,,"Carretera Los Gonzales #4809, Col. Jarndines de la Florida",,Saltillo,,,Mexico,,,,,,
,,Libramiento Oriente KM. 11.3 (Parador),,San Luis Potosi,,,Mexico,,,,,,
,,Plan de Guadalupe #276,,"San Nicol?s de los Garza, N.L.",,,Mexico,,,,,,
,,Ave. Acapulco #1500 Resid. Santa Fe,,San Nicolas de Los Garza,,,Mexico,,,,,,
,,Carretera a Laredo KM 101  - C-STORE,,San Nicolas de Los Garza,,,Mexico,,,,,,
,,"Av. Gomez Morin Esq. Rio Manzanarez, Col Del Valle",,"San Pedro Garza Garcia, N.L.",,,Mexico,,,,,,
,,Av. Alvaro Obregon No. 204,,Tampico,,,Mexico,,,,,,
,,Av. Prolongacion Hidalgo y Ave Aeropuerto,,Tampico,,,Mexico,,,,,,
,,Cesar Lopez de Lara #115,,Tampico,,,Mexico,,,,,,
,,Felix de J. Rougier E Hidalgo,,Tampico,,,Mexico,,,,,,
,,"Boulevard Indepdencia #1300 OTE. Local 119, Sector Centro,  Plaza Coateo Caminos, Centro Comercial C",,Torreon,,,Mexico,,,,,,
,,"Boulevard Independencia #557-B OTE, Col. Los Angeles",,Torreon,,,Mexico,,,,,,
,,Saltillo 400 #888-A,,Torreon,,,Mexico,,,,,,
,,Blvd. Jesus Reyes Heroles #61,,Tuxpan,,,Mexico,,,,,,
,,Avenue Lazaro Cardenas Esq. Madero S/N,,Valle Hermoso,,,Mexico,,,,,,
,,Carr. Mexico-Laredo Numero 306 Sur Esquina Con Zaragoza,,Zaragoza,,,Mexico,,,,,,
,,"301 Lincoln Road, Henderson",,Auckland,,,New Zealand,,,,,,
,,Great North Road,,Henderson,,,New Zealand,,,,,,
,,Corner of Great S. and Wiri Sta. Road,,Manukau,,,New Zealand,,,,,,
,,Sultan Qaboos Road,,Muscat,,,Oman,,,,,,
,,16M Abdul Haque Road,,Lahore,,,Pakistan,,,,,,
,,"State Road #115, Km 24.5      Barrio Asomante",,Aguada,,,Puerto Rico,,,,,,
,,"Aguadilla Shopping Center, Carr. 2 esq. Carr. 459",,Aguadilla,,,Puerto Rico,,,,,,
,,"Carr. No. 107, Barrio Borinquen",,Aguadilla,,,Puerto Rico,,,,,,
,,"PR - 2, Km. 129.6, Sector Monte Brujo Bo. Victoria",,Aguadilla,,,Puerto Rico,,,,,,
,,"Plaza Las Flores Shopping Center, Road PR 14",,Aibontio,,,Puerto Rico,,,,,,
,,"Bo. Quebrada Larga, Carretera #2K 141.5 Interseccion #110",,Anasco,,,Puerto Rico,,,,,,
,,"Arecibo Shopping Center, Carr. 2 esq. Ave.",,Arecibo,,,Puerto Rico,,,,,,
,,Plaza del Atlantico,,Arecibo,,,Puerto Rico,,,,,,
,,Road #129 KM 1.2,,Arecibo,,,Puerto Rico,,,,,,
,,"Road #2, KM 57.5",,Barceloneta,,,Puerto Rico,,,,,,
,,"Bayamon Sur Food Court, Avenida Los Millones",,Bayamon,,,Puerto Rico,,,,,,
,,"Carr. 167 esq. Calle 24, Urbanizacion Sierra",,Bayamon,,,Puerto Rico,,,,,,
,,"Pajaros Ward, State Road RP - 862 Corner with State Road PR - 86",,Bayamon,,,Puerto Rico,,,,,,
,,"Plaza del Sol, Calle #44, Lote 56 #3",,Bayamon,,,Puerto Rico,,,,,,
,,"Plaza Tropical, Inc. Lot B Carretera 167 KM 22.2",,Bayamon,,,Puerto Rico,,,,,,
,,"Rexville Plaza Shopping Center, Carr. 167 Km. 18.8",,Bayamon,,,Puerto Rico,,,,,,
,,"Rio Hondo, Rio Hondo Shopping Center",,Bayamon,,,Puerto Rico,,,,,,
,,State Road PR #830,,BAYAMON IX - INTERAMERICANA,,,Puerto Rico,,,,,,
,,P.R. Rd. # 100,,Cabo Rojo,,,Puerto Rico,,,,,,
,,"State Road #101, Km. 17.2",,Cabo Rojo,,,Puerto Rico,,,,,,
,,"Caguas Consolidated Mall, Calle Monsenor Berrios esq.",,Caguas,,,Puerto Rico,,,,,,
,,"Caguitas Mall, Carr. 1 Km. 34.5",,Caguas,,,Puerto Rico,,,,,,
,,Calle Luis Muniz Marin Solar #3,,Caguas,,,Puerto Rico,,,,,,
,,"Las Catalinas, Las Catalinas Mall, Road #156-Corner Hwy #52",,Caguas,,,Puerto Rico,,,,,,
,,"State Rd., # 30, Caguas Centro Mall",,Caguas,,,Puerto Rico,,,,,,
,,"State Road PR #1, Caguas",,Caguas,,,Puerto Rico,,,,,,
,,"Road No. 185, Corner P.R. Road #3",,Canovanas,,,Puerto Rico,,,,,,
,,"Aeropuerto Internacional Luis Munoz Marin, Ave. Baldorioty",,Carolina,,,Puerto Rico,,,,,,
,,Ave. 65 Infanteria Km. 10,,Carolina,,,Puerto Rico,,,,,,
,,Ave. Campo Rico & Calle 246,,Carolina,,,Puerto Rico,,,,,,
,,"Carr#3 Esq. Expreso Loiza, Local VC-13, Carolina, PR  00982",,Carolina,,,Puerto Rico,,,,,,
,,"Orient Food Court, State Road #3",,Carolina,,,Puerto Rico,,,,,,
,,"Plaza Escorial Sur, Km. 6.3 Carr Estatal #3",,Carolina,,,Puerto Rico,,,,,,
,,"Plazoleta de Isla Verde, Ave.",,Carolina,,,Puerto Rico,,,,,,
,,"State Road #101, Km. 55.2, Plaza Cayey",,Cayey,,,Puerto Rico,,,,,,
,,"State Road #172, Km. 13.6",,Cidra,,,Puerto Rico,,,,,,
,,Coamo Plz Shpg. Cntr. Rd 153 KM Bo. S. Ildefonso,,Coamo,,,Puerto Rico,,,,,,
,,"Carr No. 159, Km. 15.2",,Corozal,,,Puerto Rico,,,,,,
,,PR - 659 Interseccion #693,,Dorado,,,Puerto Rico,,,,,,
,,State Road #693 South Blvd. Ave.,,Dorado,,,Puerto Rico,,,,,,
,,"Monte Brisas Shopping Center, Carr. 194 esq. Calle A",,Fajardo,,,Puerto Rico,,,,,,
,,"Ave. Los Veteranos, Carr. 3 Km. 135.8",,Guayama,,,Puerto Rico,,,,,,
,,"Guayama III, Road #54, Km. 3.1",,Guayama,,,Puerto Rico,,,,,,
,,"Ave. Las Cumbres, Carretera 199 Sanchez Food Court, Lote B",,Guaynabo,,,Puerto Rico,,,,,,
,,"Plaza Guaynabo 4, Urb. Ind. Los Frailes, Calle Dye",,Guaynabo,,,Puerto Rico,,,,,,
,,"Plaza Puerto Rico, Carr. 1, Frente Univ.",,Guaynabo,,,Puerto Rico,,,,,,
,,"Plazoleta Las Cumbres, Avenue Las Cumbres",,Guaynabo,,,Puerto Rico,,,,,,
,,"State Rd. #24, Lot #4, Bo. Pueblo Viejo",,Guaynabo,,,Puerto Rico,,,,,,
,,State Road No. 189,,Gurabo,,,Puerto Rico,,,,,,
,,"State Road, #30 Int. State Road #171",,Gurabo,,,Puerto Rico,,,,,,
,,"Carretera 129 KM. 8.2 Interior, Barrio Campo Alegre",,Hatillo,,,Puerto Rico,,,,,,
,,"State Road #2, Km. 87.1, Barrio Pueblo",,Hatillo,,,Puerto Rico,,,,,,
,,"State Rd. #2, Km. 167.2",,Hormigueros,,,Puerto Rico,,,,,,
,,"Calle Antonio Lopez esq., Avenida Font",,Humacao,,,Puerto Rico,,,,,,
,,"Humacao IV, Centro Comercial Plaza Mall, Carr. #3 Esquina Expreso #52",,Humacao,,,Puerto Rico,,,,,,
,,"Plaza Palma Real, State Rd. #3 Corner Rd. 923",,Humacao,,,Puerto Rico,,,,,,
,,State Road  #908 - Oriental Plaza,,Humacao,,,Puerto Rico,,,,,,
,,Plaza Isabela - 494 Isabela Shopping Center,,Isabela,,,Puerto Rico,,,,,,
,,"State Road #31, Km. 24 Bo Ceiba Norte",,Juncos,,,Puerto Rico,,,,,,
,,"State Road #183, Int. P.R. 30,   Las Piedras Food Park",,Las Piedras,,,Puerto Rico,,,,,,
,,State Road PR 30 KM 20.2 ( Olympic Plaza Shopping Ctr.),,Las Piedras,,,Puerto Rico,,,,,,
,,"Plaza Puerta Del Sol, Carr. 2 Km. 49.7",,Manati,,,Puerto Rico,,,,,,
,,"Trigal Plaza Shopping Center, Carr. 2 y Carr. 149",,Manati,,,Puerto Rico,,,,,,
,,Calle Post Y Basora,,Mayaguez,,,Puerto Rico,,,,,,
,,Esquina Llorens Torres Calle Nelson Ramirez,,Mayaguez,,,Puerto Rico,,,,,,
,,"Mayaguez Mall Shopping Center, Carr. 2 Km. 158.6 y Carr. 343",,Mayaguez,,,Puerto Rico,,,,,,
,,Mayaguez Mall Shopping Ctr.     Guanajibo Ward,,Mayaguez,,,Puerto Rico,,,,,,
,,Mayaguez Town Center   252 Post Street,,Mayaguez,,,Puerto Rico,,,,,,
,,Plaza Sultana Shopping Center,,Mayaguez,,,Puerto Rico,,,,,,
,,"State Road #2, KM 149.2",,Mayaguez,,,Puerto Rico,,,,,,
,,"San Francisco Food Court, Carr. #111 Km. 4.6",,Moca,,,Puerto Rico,,,,,,
,,"Road PR 155, KM 30.8 Int. P 12 157, Barrio Gato",,Orocovis,,,Puerto Rico,,,,,,
,,"State Rd. #3, Corner Rd. No. 53",,Patillas,,,Puerto Rico,,,,,,
,,Bo El Cajon,,Penuelas,,,Puerto Rico,,,,,,
,,Penuelas Shopping Plaza,,Penuelas,,,Puerto Rico,,,,,,
,,Calle Degetau #8,,Ponce,,,Puerto Rico,,,,,,
,,Carr. 2 Ponce By-Pass,,Ponce,,,Puerto Rico,,,,,,
,,Coto Laurel,,Ponce,,,Puerto Rico,,,,,,
,,La Rambla Shopping Center,,Ponce,,,Puerto Rico,,,,,,
,,Plaza Del Caribe,,Ponce,,,Puerto Rico,,,,,,
,,"San Jorge Mall, Carr. 2 Ponce By-Pass",,Ponce,,,Puerto Rico,,,,,,
,,State Road P.R. 14 ( El Monte Town Center),,Ponce,,,Puerto Rico,,,,,,
,,"Ave. De Diego esq., Calle S. O. #48",,Puerto Nuevo,,,Puerto Rico,,,,,,
,,"State Road No. 115, Km 1.1",,Rincon,,,Puerto Rico,,,,,,
,,"Rio Grande Food Ct., Urb. Ind., Las Flores",,Rio Grande,,,Puerto Rico,,,,,,
,,Carretera #1 Km 89.5 Bo. Lapa,,Salinas,,,Puerto Rico,,,,,,
,,"La Quinta Shopping Court, Calle Luna 175 esq.",,San German,,,Puerto Rico,,,,,,
,,Ave. Ortegon esq. Calle,,San Juan,,,Puerto Rico,,,,,,
,,Avenue 65 De Infanteria Simon,,San Juan,,,Puerto Rico,,,,,,
,,Calle Domenech #501,,San Juan,,,Puerto Rico,,,,,,
,,"Carretera PR-26, Ave. Baldorioty de Castro Esq. Calle Tapia #242",,San Juan,,,Puerto Rico,,,,,,
,,Centro Medico,,San Juan,,,Puerto Rico,,,,,,
,,"Coliseo de Puerto Rico, Ave. Arterial B, Bo. Hato Rey",,San Juan,,,Puerto Rico,,,,,,
,,"Las Cumbres Neighborhood Commercial Area, Satate #199, Galeria Pacifico Cupey",,San Juan,,,Puerto Rico,,,,,,
,,Plaza Las Americas,,San Juan,,,Puerto Rico,,,,,,
,,"Ponce de Leon Ave. , Auxilio Mutuo",,San Juan,,,Puerto Rico,,,,,,
,,"Jardines de San Lorenzo Shopping Center, Carr. 181, Int. Carr. 183",,San Lorenzo,,,Puerto Rico,,,,,,
,,Barrio Bahomamey Carretera # 111 Km 18.9,,San Sebastian,,,Puerto Rico,,,,,,
,,State Road #153 & #52,,Santa Isabel,,,Puerto Rico,,,,,,
,,Calle Loiza No. 1803-9,,Santurce,,,Puerto Rico,,,,,,
,,"Plazoleta del Condado, Ave. Roberto H. Todd",,Santurce,,,Puerto Rico,,,,,,
,,"Plaza Aquarium Shopping Mall, State Road PR #159",,Toa Alta,,,Puerto Rico,,,,,,
,,"Plaza Los Palacios, Carretera 167 KM 14.6 Interseccion PR 148",,Toa Alta,,,Puerto Rico,,,,,,
,,Av. Los Dominicos Intersec. Road  Jose de Diego,,Toa Baja,,,Puerto Rico,,,,,,
,,"Trujillo Alto Plaza, Expreso",,Trujillo Alto,,,Puerto Rico,,,,,,
,,"P.R. State Road No. 2, Plaza Del Caribe II",,Vega Alta,,,Puerto Rico,,,,,,
,,"Plaza Caribe Mall, Carr. 2 esq. Carr. 678",,Vega Alta,,,Puerto Rico,,,,,,
,,"Expreso Luis A. Ferre, Salida 35",,Vega Baja,,,Puerto Rico,,,,,,
,,"Las Vegas Mall, State Road #2",,Vega Baja,,,Puerto Rico,,,,,,
,,"State Road #901, Km 1.6 Barrio Juan Martin",,Yabucoa,,,Puerto Rico,,,,,,
,,Prolongacion 25 de julio #18,,Yauco,,,Puerto Rico,,,,,,
,,Yauco Plaza II,,Yauco,,,Puerto Rico,,,,,,
,,77 Kostava Street,,Tbilisi,,,Republic of Georgia,,,,,,
,,William Peter Blvd.,,Castries,,,Saint Lucia,,,,,,
,,"Baywalk Mall, Rodney Bay",,Gros Islet,,,Saint Lucia,,,,,,
,,King Abdul Aziz Road (near Sarat Abidah),,Abha,,,Saudi Arabia,,,,,,
,,"King Khalid Mall, King Khalid Road",,Buraidah,,,Saudi Arabia,,,,,,
,,Prince Sultan Bin Al Abdul Aziz,,Hail,,,Saudi Arabia,,,,,,
,,Al Madinah Al Munawaran Road,,Jeddah,,,Saudi Arabia,,,,,,
,,Al Madinah Al Munawaran Road,,Jeddah,,,Saudi Arabia,,,,,,
,,King Faisal Road,,Khamis Mushait,,,Saudi Arabia,,,,,,
,,King Abdullah Road Rashed Mall,,Madinah,,,Saudi Arabia,,,,,,
,,"Abraj Al Bait near King Abdul Aziz Road, Mecca",,Makkah,,,Saudi Arabia,,,,,,
,,Prince Naif Bin Abdul Aziz Road,,Mecca,,,Saudi Arabia,,,,,,
,,-,,Riyadh,,,Saudi Arabia,,,,,,
,,Al Imam Muslim,,Riyadh,,,Saudi Arabia,,,,,,
,,"Al Malka Area, King Fahed Road",,Riyadh,,,Saudi Arabia,,,,,,
,,"Al Shafa Street, Dahrat Laban",,Riyadh,,,Saudi Arabia,,,,,,
,,Alamir Mamdoh Bin Abed Alazez,,Riyadh,,,Saudi Arabia,,,,,,
,,Imam Abdullah Bin Saud Street,,Riyadh,,,Saudi Arabia,,,,,,
,,Inman Ahmed Bin Hanbil Street (next to Bank Al-Bilad),,Riyadh,,,Saudi Arabia,,,,,,
,,King Abdul Aziz St.,,Riyadh,,,Saudi Arabia,,,,,,
,,King Abdulla Aziz Road,,Riyadh,,,Saudi Arabia,,,,,,
,,"King Abdulla Aziz Street, Exit 5",,Riyadh,,,Saudi Arabia,,,,,,
,,King Abdulla Road,,Riyadh,,,Saudi Arabia,,,,,,
,,King Fahed Road Exit #9,,Riyadh,,,Saudi Arabia,,,,,,
,,Medina Street (Badiaa Area),,Riyadh,,,Saudi Arabia,,,,,,
,,Olia Street,,Riyadh,,,Saudi Arabia,,,,,,
,,Omar Ibin Abdul Aziz Street,,Riyadh,,,Saudi Arabia,,,,,,
,,"Othman Bin Hafhan, Exit 7",,Riyadh,,,Saudi Arabia,,,,,,
,,Prince Bandar Bin Abdul Aziz Street,,Riyadh,,,Saudi Arabia,,,,,,
,,Prince Saud Ibn Muhammad Ibn Muqrin Road,,Riyadh,,,Saudi Arabia,,,,,,
,,Prince Turki Bin Abdulaziz Ath Thani St.,,Riyadh,,,Saudi Arabia,,,,,,
,,Turkey One Street,,Riyadh,,,Saudi Arabia,,,,,,
,,476 Upper Serangoon View #02-17,,Hougang,,,Singapore,,,,,,
,,"26 Sentosa Gateway, Unit #B1-215/216",,Sentosa,,,Singapore,,,,,,
,,"1 Expo Drive, #1-42",,Singapore,,,Singapore,,,,,,
,,"1 Kim Seng Promenade, #01-21",,Singapore,,,Singapore,,,,,,
,,"1 Vista Exchange Green,  #B1-13",,Singapore,,,Singapore,,,,,,
,,"1 Woodlands Square, Causeway Point, #01-14/15",,Singapore,,,Singapore,,,,,,
,,176 Orchard Road #B1-07,,Singapore,,,Singapore,,,,,,
,,18 Marine Gardens Drive,,Singapore,,,Singapore,,,,,,
,,23 Serangoon Central #04-18/19/20,,Singapore,,,Singapore,,,,,,
,,24A Senoko South Road,,Singapore,,,Singapore,,,,,,
,,"33 Sengkang Ave West, #B1-06/07, The Seletar Mall",,Singapore,,,Singapore,,,,,,
,,"5 Changi Business Park 1, # B1-30",,Singapore,,,Singapore,,,,,,
,,1 Harbourfront Walk #B2-24,,Vivo City,,,Singapore,,,,,,
,,"3 Gateway Drive, #B1-09",,Westgate,,,Singapore,,,,,,
,,Phahonyothin road,,Ayutthaya,,,Thailand,,,,,,
,,Bang Na-Trat,,Bangkok,,,Thailand,,,,,,
,,"Bukkhalo, Thonburi",,Bangkok,,,Thailand,,,,,,
,,"Rama II, Soi 81",,Bangkok,,,Thailand,,,,,,
,,"Seacon Square Srinakarin, 2nd Floor, 55 Srinakarin Road, Nongbon Prawet",,Bangkok,,,Thailand,,,,,,
,,"Siam Kit Bldg, 1st Fl, Rm 102, 103 & 104/Siam Square Soi 7, Rama I Rd, Pathumwan",,Bangkok,,,Thailand,,,,,,
,,"Room 303, 3rd Floor, Central Westgate Department Store 199, 199/1-2, Moo 6",,Bangyai,,,Thailand,,,,,,
,,Motorway Chon Buri Rest Area,,Chacherngsao,,,Thailand,,,,,,
,,3522 G Floor Ladprao Road,,Klongiun Bangkok,,,Thailand,,,,,,
,,"AH1, 32",,Phra Nakhon Si Ayutthaya,,,Thailand,,,,,,
,,"224 Moo 1 Markaeng District, Udonthanee District",,Udonthanee Province,,,Thailand,,,,,,
,,Grand Bazaar,,Aranguez,,,Trinidad and Tobago,,,,,,
,,"Corner of Queen and Green Street, Arima",,Arima,,,Trinidad and Tobago,,,,,,
,,"Eastern Main Road, Arouca",,Arouca,,,Trinidad and Tobago,,,,,,
,,Chaguanas Main Road,,Chaguanas,,,Trinidad and Tobago,,,,,,
,,"Crown Point Plaza, Store Bay Local Road",,Crown Point,,,Trinidad and Tobago,,,,,,
,,Highland Plaza,,Glencoe,,,Trinidad and Tobago,,,,,,
,,147-149 Longcircular Road,,Maravel,,,Trinidad and Tobago,,,,,,
,,Main Road,,Point Fortin,,,Trinidad and Tobago,,,,,,
,,Tropical Plaza,,Pointe-A-Pierre,,,Trinidad and Tobago,,,,,,
,,Independence Square,,Port of Spain,,,Trinidad and Tobago,,,,,,
,,Piarco International Airport,,Port of Spain,,,Trinidad and Tobago,,,,,,
,,Corner of Bonanza and High Street,,Princess Town,,,Trinidad and Tobago,,,,,,
,,Pt. Lisas Indutrial Estate,,Pt. Lisas,,,Trinidad and Tobago,,,,,,
,,Gulf City Mall,,San Fernando,,,Trinidad and Tobago,,,,,,
,,Long Circular Road,,San Fernando,,,Trinidad and Tobago,,,,,,
,,80 Lower Boundary Road,,San Juan,,,Trinidad and Tobago,,,,,,
,,Scarborough Main Road,,Scarborough,,,Trinidad and Tobago,,,,,,
,,47 Tissue Drive,,Trincity,,,Trinidad and Tobago,,,,,,
,,Corner of Golden Grove Road & Churchhill Roosevelt Highway,,Trinicity,,,Trinidad and Tobago,,,,,,
,,183 Airport Road,,Abu Dhabi,,,United Arab Emirates,,,,,,
,,Abu Dhabi-Dubai Hwy,,Abu Dhabi,,,United Arab Emirates,,,,,,
,,Al Khalij Al Arabi,,Abu Dhabi,,,United Arab Emirates,,,,,,
,,Tarif-Al Ain Highway,,Abu Dhabi,,,United Arab Emirates,,,,,,
,,"ADNOC Petrol Station, Samha 1",,"Abu Dhabi, Dubai, UAE",,,United Arab Emirates,,,,,,
,,"ADNOC Petrol Station, Samha 2",,"Abu Dhabi, Dubai, UAE",,,United Arab Emirates,,,,,,
,,Emarat Station,,Ajman,,,United Arab Emirates,,,,,,
,,137 Street Bawadi Mall,,Al Ain,,,United Arab Emirates,,,,,,
,,Adnoc Station Saeed Bin Khaden,,Al Wasit Sharjah,,,United Arab Emirates,,,,,,
,,Discovery Garden Mall,,Dhabi,,,United Arab Emirates,,,,,,
,,Airport Terminal 1,,Dubai,,,United Arab Emirates,,,,,,
,,"Al Qusais, Enooc 1006, Al Quasis Road",,Dubai,,,United Arab Emirates,,,,,,
,,"Al-Wehda Street, Sharjah",,Dubai,,,United Arab Emirates,,,,,,
,,"Bay Avenue, Food Court",,Dubai,,,United Arab Emirates,,,,,,
,,"BurJuman Mall Food Court, Dubai",,Dubai,,,United Arab Emirates,,,,,,
,,"Dubai Mall Food Court, Financial District",,Dubai,,,United Arab Emirates,,,,,,
,,Emirate Mall,,Dubai,,,United Arab Emirates,,,,,,
,,Emirates Road,,Dubai,,,United Arab Emirates,,,,,,
,,Emirates Road,,Dubai,,,United Arab Emirates,,,,,,
,,"Enoc 1018, Warqaa Road",,Dubai,,,United Arab Emirates,,,,,,
,,ENOC Station #1086,,Dubai,,,United Arab Emirates,,,,,,
,,"Eppco 15, Racheedia",,Dubai,,,United Arab Emirates,,,,,,
,,Eppco 98 ? Muhaisnah Road,,Dubai,,,United Arab Emirates,,,,,,
,,Garhoud Street,,Dubai,,,United Arab Emirates,,,,,,
,,"Jumeira Road, Eppco Stn. Al, Bahar, Jumeirah 3",,Dubai,,,United Arab Emirates,,,,,,
,,Sheikh Zayed Road,,Dubai,,,United Arab Emirates,,,,,,
,,Al Awir Road,,Dubai International City,,,United Arab Emirates,,,,,,
,,Fujairah City Centre Mall,,Fujairah,,,United Arab Emirates,,,,,,
,,"Adnoc Station, Fujairah Beach",,Fujairah Beach,,,United Arab Emirates,,,,,,
,,Techno Park,,Jebel Ali,,,United Arab Emirates,,,,,,
,,16th St north of 39th St,,Khalifa City,,,United Arab Emirates,,,,,,
,,Sultan Bin Zayed the First Street,,"Muroor, Abu Dhabi",,,United Arab Emirates,,,,,,
,,Ras Khaimah-Imm Al Quain Road,,Ras Khaimah,,,United Arab Emirates,,,,,,
,,"Enoc 1205 Charjah Ajman, Emirates Hwy",,Shajah,,,United Arab Emirates,,,,,,
,,"Adnoc Station, Sultan Bin Hada",,Sharjah,,,United Arab Emirates,,,,,,
,,Al-Nahda Road,,Sharjah,,,United Arab Emirates,,,,,,
,,iMall Al Ittihad Rd,,Sharjah,,,United Arab Emirates,,,,,,
,,Matajer - Al Khan,,Sharjah,,,United Arab Emirates,,,,,,
,,Matajer-Al Qouz,,Sharjah,,,United Arab Emirates,,,,,,
,,"Adnoc Petrol Station, Shahaba Street",,"Sharjah, Dubai, UAE",,,United Arab Emirates,,,,,,
,,"VCR Bosqueserino, C.A., Variante Valencia, Puerto Cabello",,Carabobo,,,Venezuela,,,,,,
,,"Av. Casanova, Centro Comercial El Recreo, Nivel Feria",,Caracas,,,Venezuela,,,,,,
,,Av. Francisco de Miranda,,Caracas,,,Venezuela,,,,,,
,,"Capital district, Parish Valley, Ft. Tiuna",,Caracas,,,Venezuela,,,,,,
,,Centro Comercial Los Proceres,,Caracas,,,Venezuela,,,,,,
,,"Libertador Avenue, Sambil Mall - Food Court Level",,Caracas,,,Venezuela,,,,,,
,,"VCR Mega Feria Del Centro,  Calle Sur 3 Esq. Doctor Paul A. Chorrow EDF #31 Caracas",,Caracas,,,Venezuela,,,,,,
,,Av. Paseo Caroni Nro S/n Sector Unare II,,Cuidad Bolivar,,,Venezuela,,,,,,
,,CC Morocoy Plaza,,Falcon,,,Venezuela,,,,,,
,,"Aeropuerto International de Maiquetia, Terminal Nacional, Nivel 2 Zona de Transi",,"La Guaira, Estado Vargas",,,Venezuela,,,,,,
,,Terminal de Pasajeros de Catia la Mar,,"La Guaira, Estado Vargas",,,Venezuela,,,,,,
,,"Aeropuerto Internacional de maiquetia, Sector 8.2, Nivel 2, Zona de Transito,",,"La Guaira, Vargas",,,Venezuela,,,,,,
,,"Maiquetia International Airport, International Building Level 4, Food Court",,Maiquetia,,,Venezuela,,,,,,
,,Maracay Edo. Aragua C.C. Hiperjumbo,,Maracay,,,Venezuela,,,,,,
,,"Av. La Guajira, Zone Norte, Via El Mojan Maracaibo",,Maracibo,,,Venezuela,,,,,,
,,CC Costa Verde,,Maracibo,,,Venezuela,,,,,,
,,"VCR La Cascada, C.A., Carretera Panamericana C.C., La Cascada, nival Feria, local N2-13",,Miranda,,,Venezuela,,,,,,
,,"VCR Plaza Las Americas, El Cafetal C.C. Plaza Las Americas, II Etapa Nivel Feria Local #37",,Miranda,,,Venezuela,,,,,,
,,"VCR Puerto Ordaz, Centro Comercial Orinokia Mall, Planta Baja Local 185-186-A",,Puerto Ordaz,,,Venezuela,,,,,,
,,Av. Primero de Mayo entre carreras 8 Y 9,,San Antonio,,,Venezuela,,,,,,
,,Barrio Obrero,,San Cristobal,,,Venezuela,,,,,,
,,"Lot No. 38-40, 1st Floor, Aeon Mall Canary Complex National Hwy No 13 Thuan An Dist",,Binh Duong,,,Vietnam,,,,,,
,,"1058 Nguyen Van Linh Street, District 7",,Ho Chi Minh,,,Vietnam,,,,,,
,,"352-354 Vo Van Ngan Street, Thu Duc District",,Ho Chi Minh,,,Vietnam,,,,,,
,,"392-394 Hoang Van Thu Street, ward 4, Tan Binh District",,Ho Chi Minh,,,Vietnam,,,,,,
,,"463 Su Van Hanh St, Ward12, District 10",,Ho Chi Minh,,,Vietnam,,,,,,
,,"578 Quang Trung, Quan Go Vap, TP. HCM",,Ho Chi Minh,,,Vietnam,,,,,,
,,"82 Nguyen Du, Ben Nghe Ward, Dist. 1",,Ho Chi Minh,,,Vietnam,,,,,,
,,"T21 Level 3, No 1 St 17A, Binh Tri Dong B Ward, Binh Tan District",,Ho Chi Minh,,,Vietnam,,,,,,
,,113-115 Nguyen Thai Hoc District 1,,Ho Chi Minh City,,,Vietnam,,,,,,
,,176C Hua Giang District 6,,Ho Chi Minh City,,,Vietnam,,,,,,
,,217B Nguyen Van Cu District 5,,Ho Chi Minh City,,,Vietnam,,,,,,
,,"274-276 Phan Xich Long, Ward 7, Phu Nhuan District, District 7",,Ho Chi Minh City,,,Vietnam,,,,,,
,,"L5 ? 17 ? 18 Vincom Mega Mall Thao Dien ? 161 Ha Noi Highway, District 2, HCMC",,Ho Chi Minh City,,,Vietnam,,,,,,
,,"SB-6-1 Lot H5-2 Nguyen Duc Cahn Street, District 7",,Ho Chi Minh City,,,Vietnam,,,,,,
,837,502 South Belt Hwy.,,St. Joseph,MO,64506,USA,816-676-0899,39.7630917,-94.80417179999999,,,
,4524,3001 SW 10th Avenue,,Topeka,KS,66604,USA,785-232-3396,39.051044,-95.71466,,,
,657,201 S.E. 29th Street,,Topeka,KS,66605,USA,785-267-2888,39.014924,-95.677078,,,
,10299,6416 North Oak Trafficway,,Gladstone,MO,64118,USA,816-468-4966,39.2114836,-94.5766106,,,
,10579,8234 Parallel Parkway,,Kansas City,KS,66112,USA,913-499-6771,39.1286481,-94.7700007,,,
,4784,5501 Leavenworth,,Kansas City,KS,66104,USA,913-287-5282,39.142698,-94.706186,,,
,225,4601 Ne Vivion Rd.,,Kansas City,MO,64119,USA,816-454-7644,39.1876963,-94.52555199999999,,,
,236,1222 Central Avenue,,Kansas City,KS,66102,USA,913-342-9273,39.103153,-94.640979,,,
,10655,7200 Eastwood Traffic Way,,Kansas City,MO,64129,USA,816-923-3352,39.0997265,-94.5785667,,,
,129,2515 East 12th Street,,Kansas City,MO,64127,USA,816-483-9257,39.0988854,-94.5523734,,,
,5988,3145 Gillham Plaza,,Kansas City,MO,64109,USA,816-931-0035,39.0690968,-94.57868189999999,,,
,152,2401 Van Brunt Blvd.,,Kansas City,MO,64127,USA,816-241-6696,39.081183,-94.5207889,,,
,10449,7404 Neiman Road,,Shawnee,KS,66203,USA,913-962-1950,38.9949529,-94.7144695,,,
,131,3900 Indiana Street,,Kansas City,MO,64130,USA,816-923-9882,39.0549952,-94.544722,,,
,4341,10610 E. 23rd Street S,,Independence,MO,64052,USA,816-836-0012,39.080944,-94.4528758,,,
,212,701 N. Noland,,Independence,MO,64050,USA,816-836-3256,39.097609,-94.412653,,,
,136,5500 Prospect Avenue,,Kansas City,MO,64130,USA,816-523-7225,39.02634500000001,-94.555548,,,
,1231,2600 East Gregory Blvd,,Kansas City,MO,64132,USA,816-444-1310,38.9982306,-94.5565283999999,,,
,10233,12003 E US Hwy 40,,Independence,MO,64055,USA,816-358-0604,39.04293800000001,-94.434966,,,
,5699,9310 E. Highway 350,,Raytown,MO,64133,USA,816-358-7516,38.994217,-94.471935,,,
,10489,124 North Clairborne,,Olathe,KS,66062,USA,(913) 393-2441,38.8828126,-94.78848400000001,,,
,4916,9325 Blue Ridge Blvd.,,Kansas City,MO,64138,USA,816-761-5153,38.955241,-94.505968,,,
,57,11500 Blue Ridge Blvd.,,Kansas City,MO,64134,USA,816-763-7132,38.9152258,-94.51421189999999,,,
,10643,7925 E. 171st Street,,Belton,MO,64012,USA,816-322-8600,38.812597,-94.49933689999999,,,
,4857,1039 US Hwy 59 North,,Carthage,TX,75633,USA,903-693-9312,38.3198653,-95.2511964,,,
,665,500 South Western Ave,,Peoria,IL,61605,USA,309-637-7570,40.682893,-89.622694,,,
,10592,11618 E. 86th Street,,Owasso,OK,74055,USA,918-376-4222,36.2785291,-95.8443691,,,
,616,410 N. Lindbergh Blvd.,,Florissant,MO,63031,USA,314-838-5616,38.7968313,-90.3387444,Monday:10:00 AM-10:00 PM;Tuesday:10:00 AM-10:00 PM;Wednesday:10:00 AM-10:00 PM;Thursday:10:00 AM-10:00 PM;Friday:10:00 AM-11:00 PM;Saturday:10:00 AM-11:00 PM;Sunday:10:00 AM-10:00 PM;,,
,836,4401 Marshall Road,,St. Louis,MO,63134,USA,314-423-0880,38.727889,-90.343231,Monday:10:00 AM-10:00 PM;Tuesday:10:00 AM-10:00 PM;Wednesday:10:00 AM-10:00 PM;Thursday:10:00 AM-10:00 PM;Friday:10:00 AM-11:00 PM;Saturday:10:00 AM-11:00 PM;Sunday:10:00 AM-10:00 PM;,,
,5548,13101 New Halls Ferry Rd.,,Florissant,MO,63033,USA,314-830-2700,38.794946,-90.2893982,Monday:10:00 AM-10:00 PM;Tuesday:10:00 AM-10:00 PM;Wednesday:10:00 AM-10:00 PM;Thursday:10:00 AM-10:00 PM;Friday:10:00 AM-11:00 PM;Saturday:10:00 AM-11:00 PM;Sunday:10:00 AM-10:00 PM;,,
,515,1753 Woodson Road,,Overland,MO,63114,USA,314-429-6353,38.68642080000001,-90.3622424,Monday:10:00 AM-10:00 PM;Tuesday:10:00 AM-10:00 PM;Wednesday:10:00 AM-10:00 PM;Thursday:10:00 AM-10:00 PM;Friday:10:00 AM-11:00 PM;Saturday:10:00 AM-11:00 PM;Sunday:10:00 AM-10:00 PM;,,
,775,5034 N. Peoria,,Tulsa,OK,74126,USA,918-425-0678,36.2265882,-95.9759857,,,
,612,10646 New Halls Ferry,,Ferguson,MO,63135,USA,314-867-5612,38.7659651,-90.2607503,Monday:10:00 AM-10:00 PM;Tuesday:10:00 AM-10:00 PM;Wednesday:10:00 AM-10:00 PM;Thursday:10:00 AM-10:00 PM;Friday:10:00 AM-11:00 PM;Saturday:10:00 AM-11:00 PM;Sunday:10:00 AM-10:00 PM;,,
,933,7215 Natural Bridge Road,,Normandy,MO,63121,USA,314-383-2731,38.7021213,-90.2934744,Monday:10:00 AM-10:00 PM;Tuesday:10:00 AM-10:00 PM;Wednesday:10:00 AM-10:00 PM;Thursday:10:00 AM-10:00 PM;Friday:10:00 AM-11:00 PM;Saturday:10:00 AM-11:00 PM;Sunday:10:00 AM-10:00 PM;,,
,376,2555 E. Pine,,Tulsa,OK,74110,USA,918-584-5015,36.1773989,-95.95425709999999,,,
,7104,6307 East Admiral Place,,Tulsa,OK,74115,USA,918-831-2233,36.1613334,-95.90608739999999,,,
,451,3420 N. Kings Highway,,St. Louis,MO,63115,USA,314-261-2628,38.6752397,-90.2524144,Monday:10:00 AM-10:00 PM;Tuesday:10:00 AM-10:00 PM;Wednesday:10:00 AM-10:00 PM;Thursday:10:00 AM-10:00 PM;Friday:10:00 AM-11:00 PM;Saturday:10:00 AM-11:00 PM;Sunday:10:00 AM-10:00 PM;,,
,446,805 North Kingshighway Blvd.,,St. Louis,MO,63108,USA,314-361-8776,38.6530086,-90.2636364,Monday:10:00 AM-10:00 PM;Tuesday:10:00 AM-10:00 PM;Wednesday:10:00 AM-10:00 PM;Thursday:10:00 AM-10:00 PM;Friday:10:00 AM-11:00 PM;Saturday:10:00 AM-11:00 PM;Sunday:10:00 AM-10:00 PM;,,
,10329,301 West Second Street,,Sand Springs,OK,74063,USA,918-419-2170,36.138868,-96.114419,,,
,662,5720 S. Lindbergh Blvd.,,St. Louis,MO,63123,USA,314-849-1114,38.5229775,-90.3505959,Monday:10:00 AM-10:00 PM;Tuesday:10:00 AM-10:00 PM;Wednesday:10:00 AM-10:00 PM;Thursday:10:00 AM-10:00 PM;Friday:10:00 AM-11:00 PM;Saturday:10:00 AM-11:00 PM;Sunday:10:00 AM-10:00 PM;,,
,10205,1313 W. Walnut St,,Rogers,AR,72756,USA,479-936-8785,36.3341128,-94.1361017,,,
,538,920 N. Grand Blvd.,,St. Louis,MO,63106,USA,314-652-2034,38.6732381,-90.2037959,Monday:10:00 AM-10:00 PM;Tuesday:10:00 AM-10:00 PM;Wednesday:10:00 AM-10:00 PM;Thursday:10:00 AM-10:00 PM;Friday:10:00 AM-11:00 PM;Saturday:10:00 AM-11:00 PM;Sunday:10:00 AM-9:00 PM;,,
,619,3036 S. Garnett,,Tulsa,OK,74129,USA,918-628-1497,36.119498,-95.851511,,,
,1060,1200 Lemay Ferry Road,,St. Louis,MO,63125,USA,314-631-0776,38.5329391,-90.2871263,Monday:10:00 AM-10:00 PM;Tuesday:10:00 AM-10:00 PM;Wednesday:10:00 AM-10:00 PM;Thursday:10:00 AM-10:00 PM;Friday:10:00 AM-11:00 PM;Saturday:10:00 AM-11:00 PM;Sunday:10:00 AM-10:00 PM;,,
,10183,3401 Nameoki Rd,,Granite City,IL,62040,USA,618-219-3481,38.7249338,-90.1231176,Monday:10:00 AM-10:00 PM;Tuesday:10:00 AM-10:00 PM;Wednesday:10:00 AM-10:00 PM;Thursday:10:00 AM-10:00 PM;Friday:10:00 AM-11:00 PM;Saturday:10:00 AM-11:00 PM;Sunday:10:00 AM-9:00 PM;,,
,10292,415 South Elm Place,,Broken Arrow,OK,74012,USA,918-286-1072,36.048118,-95.796977,,,
,555,2601 State Street,,E. St. Louis,IL,62205,USA,618-271-9339,38.6156386,-90.1261786,Monday:10:00 AM-10:00 PM;Tuesday:10:00 AM-10:00 PM;Wednesday:10:00 AM-10:00 PM;Thursday:10:00 AM-10:00 PM;Friday:10:00 AM-11:00 PM;Saturday:10:00 AM-11:00 PM;Sunday:10:00 AM-9:00 PM;,,
,1031,5520 Caseyville Avenue,,Washington Park,IL,62204,USA,618-271-8237,38.630069,-90.093361,Monday:10:00 AM-10:00 PM;Tuesday:10:00 AM-10:00 PM;Wednesday:10:00 AM-10:00 PM;Thursday:10:00 AM-10:00 PM;Friday:10:00 AM-11:00 PM;Saturday:10:00 AM-11:00 PM;Sunday:10:00 AM-9:00 PM;,,
,10440,2 North Mission Street,,Supulpa,OK,74066,USA,918-512-8188,35.999361,-96.0991449,,,
,617,4525 N. Belt West,,Belleville,IL,62223,USA,618-234-1382,38.5418828,-90.0223751,Monday:10:00 AM-10:00 PM;Tuesday:10:00 AM-10:00 PM;Wednesday:10:00 AM-10:00 PM;Thursday:10:00 AM-10:00 PM;Friday:10:00 AM-11:00 PM;Saturday:10:00 AM-11:00 PM;Sunday:10:00 AM-9:00 PM;,,
,409,419 E. Okmulgee,,Muskogee,OK,74401,USA,918-683-3981,35.7456414,-95.36348840000001,,,
,931,9253 N. Pennsylvania Avenue,,Oklahoma City,OK,73120,USA,405-842-6475,35.5647399,-97.5495133,,,
,10310,5590 NW Expressway,,Warr Acres,OK,73132,USA,405-728-8500,35.5461223,-97.61214869999999,,,
,1435,9010 N.E. 23rd,,Midwest City,OK,73141,USA,405-769-7380,35.492663,-97.36982800000001,,,
,323,3839 N. Lincoln,,Oklahoma City,OK,73105,USA,405-528-1386,35.5098318,-97.5036612,,,
,349,1424 N.E. 23rd,,Oklahoma City,OK,73111,USA,405-427-0052,35.4929187,-97.48651249999999,,,
,1057,701 N.W. 23rd.,,Oklahoma City,OK,73103,USA,405-525-7829,35.4935323,-97.52437809999999,,,
,318,3610 N.W. 23rd Street,,Oklahoma City,OK,73107,USA,405-947-3433,35.4930573,-97.58214050000001,,,
,4467,4438 N.W. 10th Street,,Oklahoma City,OK,73107,USA,405-942-6007,35.4784399,-97.6006142,,,
,341,3920 SE 15th Street,,Del City,OK,73115,USA,405-677-8552,35.4494723,-97.44287179999999,,,
,334,543 S.W. 29th,,Oklahoma City,OK,73109,USA,405-632-0882,35.4354917,-97.52340079999999,,,
,4313,4428 S.E. 44th Street,,Oklahoma City,OK,73135,USA,405-670-3339,35.4207441,-97.43806409999999,,,
,559,345 N. Collins Avenue,,Joliet,IL,60432,USA,815-723-5294,41.531403,-88.07285999999999,,,
,4314,1012 S.W. 59th Street,,Oklahoma City,OK,73139,USA,405-632-8040,35.4061513,-97.7054318,,,
,444,1235 N. Santa Fe,,Moore,OK,73160,USA,405-799-2250,35.348547,-97.51262,,,
,5587,1318 Highway 71 South,,Ft. Smith,AR,72901,USA,479-648-9306,35.3286647,-94.42035860000001,,,
,859,600 S. 5th Avenue,,Maywood,IL,60153,USA,708-865-0713,41.882571,-87.8390043,,,
,577,431 N. Austin,,Chicago,IL,60644,USA,773- 261-0419,41.8879124,-87.77488070000001,,,
,1414,4812 W. North Avenue,,Chicago,IL,60639,USA,773-622-6281,41.9099855,-87.7465702,,,
,970,2 South Pulaski,,Chicago,IL,60624,USA,773-722-6753,41.8807219,-87.7256786,,,
,1068,2806 W. Cermak,,Chicago,IL,60623,USA,773-523-0494,41.8521597,-87.6956449,,,
,1315,6849 S. Western Avenue,,Chicago,IL,60636,USA,773-776-2823,41.7686293,-87.6829507,,,
,1054,1808 W. 47th Street,,Chicago,IL,60609,USA,773-523-1562,41.8088689,-87.6702832,,,
,483,1755 W. Jackson,,Chicago,IL,60612,USA,312-942-1345,41.8774141,-87.67120829999999,,,
,10159,242 East Capitol Drive,,Milwaukee,WI,53212,USA,414-961-2512,43.089584,-87.90817299999999,,,
,983,333 East 159th Street,,Harvey,IL,60426,USA,708-331-2157,41.601148,-87.637203,,,
,982,58 West 79th Street,,Chicago,IL,60620,USA,773-651-9830,41.7512267,-87.62676569999999,,,
,1142,6 West 59th Street,,Chicago,IL,60621,USA,773-667-1055,41.787373,-87.6257067,,,
,259,200 East 103rd Street,,Chicago,IL,60628,USA,773-821-0875,41.7075633,-87.6182484,,,
,584,7102 S. Stoney Island,,Chicago,IL,60649,USA,773-684-0993,41.6187612,-87.57846049999999,,,
,532,1409 South Broadway,,Gary,IN,46407,USA,219-886-3055,41.5887471,-87.3369666,,,
,10932,2003 Illinois Hwy 1,,Marshall,IL,62441,USA,217-340-0199,39.5021917,-87.6802086,,,
,2003,500 West Oak Street,,Conway,AR,72032,USA,(501) 513-4700,35.0919983,-92.4324982,,,
,10272,1902 East Johnson Ave.,,Jonesboro,AR,72404,USA,870-934-9695,35.845674,-90.68301699999999,,,
,7082,4820 Chambers Road,,Denver,CO,80239,USA,303-375-7664,39.7840587,-104.8092395,,,
,396,1925 N.W. Sheridan,,Lawton,OK,73505,USA,580-248-4336,34.6285429,-98.4218799,,,
,999,11900 E. Colfax Avenue,,Aurora,CO,80010,USA,303-344-8896,39.739855,-104.849188,,,
,10431,7295 E. 64th Avenue,,Commerce City,CO,80022,USA,303-853-0074,39.812986,-104.9041728,,,
,397,902 S.W. 11th Street,,Lawton,OK,73501,USA,580-248-5453,34.598352,-98.404376,,,
,10361,2181 S. Havana,,Aurora,CO,80014,USA,(303) 368-8514,39.6770194,-104.8663122,,,
,790,3401 Colorado Boulevard,,Denver,CO,80205,USA,303-333-2649,39.7646771,-104.9410027,,,
,10893,8661 N. Washington Street,,Thornton,CO,80229,USA,303-288-9371,39.8550598802914,-104.976980019708,,,
,10965,4925 N. Federal Blvd,,Denver,CO,80221,USA,720-696-7853,39.7861699,-105.0255281,,,
,10453,1445 S. Federal Blvd,,Denver,CO,80219,USA,303-934-1500,39.6900799,-105.0254486,,,
,10783,2511 McCain Blvd,,North Little Rock,AR,72116,USA,(501) 916-9550,34.7969453,-92.2364911,,,
,2002,1500 John Barrow Rd,,Little Rock,AR,72204,USA,(501) 224-0505,34.738999,-92.372794,,,
,283,5423 W. 12Th Street,,Little Rock,AR,72204,USA,(501) 666-2253,34.740856,-92.33416199999999,,,
,254,1401 Dr Martin Luther King Dr.,,Little Rock,AR,72202,USA,(501) 375-4107,34.737187,-92.28910599999999,,,
,655,7621 Geyer Springs Road,,Little Rock,AR,72209,USA,(501) 568-4287,34.680256,-92.3434769,,,
,1690,501 North Austin,,Denison,TX,75020,USA,903-465-9689,33.759838,-96.537038,,,
,10944,7224 W. 10th Street,,Indianapolis,IN,46214,USA,317-644-0574,39.7796324,-86.28746749999999,,,
,7392,3970 Lafayette Road,,Indianapolis,IN,46255,USA,317-387-0196,39.8264877,-86.2381173,,,
,633,2910 Westlane Road,,Indianapolis,IN,46268,USA,317-297-4064,39.8847825,-86.20979410000001,,,
,797,3704 Sheppard Road,,Wichita Falls,TX,76306,USA,940-855-8171,33.9606855,-98.5137669,,,
,632,5170 W. Washington St.,,Indianapolis,IN,46241,USA,317-247-5208,39.7539255,-86.24773429999999,,,
,591,200 E. Amarillo Blvd.,,Amarillo,TX,79107,USA,806-374-3201,35.221754,-101.832556,,,
,592,2002 S. Georgia Street,,Amarillo,TX,79109,USA,806-353-1042,35.1925695,-101.8665316,,,
,261,3860 North College,,Indianapolis,IN,46205,USA,317-923-5166,39.826653,-86.1454229,,,
,384,1503 East Broadway,,W. Memphis,AR,72301,USA,(870) 735-2689,35.1464632,-90.166328,Monday:10:00 AM-11:00 PM;Tuesday:10:00 AM-11:00 PM;Wednesday:10:00 AM-11:00 PM;Thursday:10:00 AM-11:00 PM;Friday:10:00 AM-12:00 AM;Saturday:10:00 AM-12:00 AM;Sunday:10:00 AM-10:00 PM;,,
,321,200 East Houston ST,,Sherman,TX,75090,USA,903-892-1441,33.636581,-96.607779,,,
,238,2501 N. Keystone Ave,,Indianapolis,IN,46218,USA,317-923-9987,39.803669,-86.121185,,,
,150,3077 Thomas Street,,Memphis,TN,38127,USA,901-358-9728,35.2096779,-90.03307,,,
,274,2964 S. Shelby,,Indianapolis,IN,46203,USA,317-786-6159,39.7229389,-86.139883,,,
,1020,2237 Frayser Blvd,,Memphis,TN,38127,USA,(901) 358-9353,35.216709,-89.989014,Monday:10:00 AM-11:00 PM;Tuesday:10:00 AM-11:00 PM;Wednesday:10:00 AM-11:00 PM;Thursday:10:00 AM-11:00 PM;Friday:10:00 AM-12:00 AM;Saturday:10:00 AM-12:00 AM;Sunday:10:00 AM-10:00 PM;,,
,298,5044 East 38th Street,,Indianapolis,IN,46218,USA,317-547-4054,39.826173,-86.08538700000001,,,
,250,5443 East 21st Street,,Indianapolis,IN,46218,USA,317-356-2028,39.795991,-86.074107,,,
,309,2304 Chelsea Ave.,,Memphis,TN,38108,USA,(901) 452-4225,35.17492970000001,-89.98018549999999,Monday:10:00 AM-11:00 PM;Tuesday:10:00 AM-11:00 PM;Wednesday:10:00 AM-11:00 PM;Thursday:10:00 AM-11:00 PM;Friday:10:00 AM-12:00 AM;Saturday:10:00 AM-12:00 AM;Sunday:10:00 AM-10:00 PM;,,
,364,925 Poplar Avenue,,Memphis,TN,38105,USA,(901) 543-0436,35.144936,-90.029628,Monday:10:00 AM-11:00 PM;Tuesday:10:00 AM-11:00 PM;Wednesday:10:00 AM-11:00 PM;Thursday:10:00 AM-11:00 PM;Friday:10:00 AM-12:00 AM;Saturday:10:00 AM-12:00 AM;Sunday:10:00 AM-10:00 PM;,,
,286,1601 S. Cherry Street,,Pine Bluff,AR,71601,USA,(870) 536-2964,34.2131599,-92.0134539,,,
,265,3863 North Post Road,,Indianapolis,IN,46226,USA,317-897-4275,39.827731,-86.009452,,,
,395,1155 S. Bellevue Blvd,,Memphis,TN,38104,USA,(901) 775-1190,35.115036,-90.022021,Monday:10:00 AM-11:00 PM;Tuesday:10:00 AM-11:00 PM;Wednesday:10:00 AM-11:00 PM;Thursday:10:00 AM-11:00 PM;Friday:10:00 AM-12:00 AM;Saturday:10:00 AM-12:00 AM;Sunday:10:00 AM-10:00 PM;,,
,2008,3264 Summer Ave.,,Memphis,TN,38112,USA,901-454-0785,35.149893,-89.952191,Monday:10:00 AM-11:00 PM;Tuesday:10:00 AM-11:00 PM;Wednesday:10:00 AM-11:00 PM;Thursday:10:00 AM-11:00 PM;Friday:10:00 AM-12:00 AM;Saturday:10:00 AM-12:00 AM;Sunday:10:00 AM-10:00 PM;,,
,8817,8975 E. Washington Street,,Indianapolis,IN,46219,USA,317-897-1004,39.77335799999999,-86.0099802,,,
,934,1868 B.B. King Boulevard,,Memphis,TN,38109,USA,(901) 775-3265,35.0606958,-90.08385179999999,Monday:10:00 AM-11:00 PM;Tuesday:10:00 AM-11:00 PM;Wednesday:10:00 AM-11:00 PM;Thursday:10:00 AM-11:00 PM;Friday:10:00 AM-12:00 AM;Saturday:10:00 AM-12:00 AM;Sunday:10:00 AM-10:00 PM;,,
,365,3728 B.B. King Boulevard,,Memphis,TN,38109,USA,(901) 789-1600,35.0606958,-90.08385179999999,Monday:10:00 AM-11:00 PM;Tuesday:10:00 AM-11:00 PM;Wednesday:10:00 AM-11:00 PM;Thursday:10:00 AM-11:00 PM;Friday:10:00 AM-12:00 AM;Saturday:10:00 AM-12:00 AM;Sunday:10:00 AM-10:00 PM;,,
,996,2275 Elvis Presley Blvd.,,Memphis,TN,38106,USA,(901) 948-2995,35.0830376,-90.01858229999999,Monday:10:00 AM-11:00 PM;Tuesday:10:00 AM-11:00 PM;Wednesday:10:00 AM-11:00 PM;Thursday:10:00 AM-10:00 PM;Friday:10:00 AM-12:00 AM;Saturday:10:00 AM-12:00 AM;Sunday:10:00 AM-10:00 PM;,,
,4673,1668 E. Sycamore View Road,,Memphis,TN,38124,USA,(901) 213-9666,35.171212,-89.86683599999999,Monday:10:00 AM-11:00 PM;Tuesday:10:00 AM-11:00 PM;Wednesday:10:00 AM-11:00 PM;Thursday:10:00 AM-11:00 PM;Friday:10:00 AM-12:00 AM;Saturday:10:00 AM-12:00 AM;Sunday:10:00 AM-10:00 PM;,,
,350,2963 Park Avenue,,Memphis,TN,38114,USA,(901) 458-8337,35.107444,-89.963792,Monday:10:00 AM-11:00 PM;Tuesday:10:00 AM-11:00 PM;Wednesday:10:00 AM-11:00 PM;Thursday:10:00 AM-11:00 PM;Friday:10:00 AM-12:00 AM;Saturday:10:00 AM-12:00 AM;Sunday:10:00 AM-10:00 PM;,,
,771,2405 Airway Blvd,,Memphis,TN,38114,USA,(901) 743-2438,35.079554,-89.985315,Monday:10:00 AM-11:00 PM;Tuesday:10:00 AM-11:00 PM;Wednesday:10:00 AM-11:00 PM;Thursday:10:00 AM-11:00 PM;Friday:10:00 AM-12:00 AM;Saturday:10:00 AM-12:00 AM;Sunday:10:00 AM-10:00 PM;,,
,5426,1486 Getwell Rd.,,Memphis,TN,38111,USA,(901) 743-7698,35.0911029,-89.930633,Monday:10:00 AM-11:00 PM;Tuesday:10:00 AM-11:00 PM;Wednesday:10:00 AM-11:00 PM;Thursday:10:00 AM-11:00 PM;Friday:10:00 AM-12:00 AM;Saturday:10:00 AM-12:00 AM;Sunday:10:00 AM-10:00 PM;,,
,826,4360 Elvis Presley Blvd.,,Memphis,TN,38116,USA,(901) 348-3031,35.029388,-90.02477100000002,Monday:10:00 AM-12:00 AM;Tuesday:10:00 AM-12:00 AM;Wednesday:10:00 AM-12:00 AM;Thursday:10:00 AM-12:00 AM;Friday:10:00 AM-12:00 AM;Saturday:10:00 AM-12:00 AM;Sunday:10:00 AM-10:00 PM;,,
,774,3149 Perkins Road,,Memphis,TN,38118,USA,901-362-6311,35.063149,-89.90616469999999,Monday:10:00 AM-12:00 AM;Tuesday:10:00 AM-12:00 AM;Wednesday:10:00 AM-12:00 AM;Thursday:10:00 AM-12:00 AM;Friday:10:00 AM-12:00 AM;Saturday:10:00 AM-12:00 AM;Sunday:10:00 AM-10:00 PM;,,
,4109,4941 Lamar Ave (Hwy. 78),,Memphis,TN,38118,USA,901-546-0444,35.0213854,-89.8991195,,,
,10185,1800 US Hwy 377,,Pilot Point,TX,76258,USA,940-686-0887,33.4135479,-96.94145549999999,,,
,1768,400 North McCoy,,New Boston,TX,75570,USA,903-628-2149,33.4645838,-94.4084173,,,
,3994,1124 U.S. 61,,Tunica,MS,38676,USA,662-363-6744,34.6828554,-90.3763338,,,
,91,1700 N. State Line Ave,,Texarkana,AR,71854,USA,870-773-3951,33.4395913,-94.0428026,,,
,527,2223 New Boston Road,,Texarkana,TX,75501,USA,903-794-8134,33.4348565,-94.0682041,,,
,10982,204 West University Drive,,McKinney,TX,75069,USA,469-714-4747,33.214563,-96.6174747,,,
,443,3403 Wesley,,Greenville,TX,75401,USA,(903) 454-2233,33.133096,-96.10875,,,
,10775,901 S. Jefferson Avenue,,Mt. Pleasant,TX,75455,USA,903-575-9211,33.148741,-94.96808,,,
,2078,419 North Riverside Drive,,Clarksville,TN,37040,USA,931-552-3620,36.531402,-87.364193,Monday:6:00 AM-11:00 PM;Tuesday:6:00 AM-11:00 PM;Wednesday:6:00 AM-11:00 PM;Thursday:6:00 AM-11:00 PM;Friday:6:00 AM-11:00 PM;Saturday:6:00 AM-11:00 PM;Sunday:7:00 AM-11:00 PM;,,
,4910,3060 Wilma Rudolph Blvd.,,Clarksville,TN,37040,USA,931-648-9911,36.5943099,-87.2890012,,,
,5804,2300 E. Parker Road,,Plano,TX,75074,USA,972-943-9389,33.0431853,-96.68283249999999,,,
,1058,611 N. State Street,,Clarksdale,MS,38614,USA,662-627-1535,34.1949015,-90.5640596,,,
,10808,7360 Highway 78,,Sachse,TX,75048,USA,972-429-8585,32.9880412,-96.5761563,,,
,708,1298 Highway 121,,Lewisville,TX,75067,USA,972-221-1311,32.9988738,-96.9611148,,,
,4142,2020 E. Beltline Road,,Carrollton,TX,75006,USA,(972) 417-8827,32.9756415,-96.8899636,,,
,10612,14115 Coit Road,,Dallas,TX,75254,USA,972 392 9885,32.9401958,-96.7690382,,,
,4689,2520 West Walnut,,Garland,TX,75042,USA,(972) 272-7930,32.9160211,-96.66648590000001,,,
,10435,2002 Highway 66,,Garland,TX,75040,USA,(972) 276-4911,32.9094675,-96.5996471,,,
,4598,9363 Forest Lane,,Dallas,TX,75243,USA,972-231-2755,32.9095328,-96.7364436,,,
,4835,3601 Forest Lane,,Dallas,TX,75234,USA,(972) 243-1448,32.910054,-96.85894499999999,,,
,10717,1700 Dalrock Road,,Rowlett,TX,75088,USA,972-303-8946,32.8781658,-96.5174815,,,
,1385,3028 S. First Street,,Garland,TX,75042,USA,(972) 278-9499,32.8800002,-96.6304835,,,
,1051,10545 Harry Hines,,Dallas,TX,75220,USA,(214) 351-2403,32.8682465,-96.8828042,,,
,1564,5602 Broadway Blvd.,,Garland,TX,75043,USA,(972) 240-4304,32.84737930000001,-96.5958289,,,
,10304,5075 W. Northgate Drive,,Irving,TX,75062,USA,214-596-9685,32.8574411,-97.0205931,,,
,201,10295 Ferguson Rd,,Dallas,TX,75228,USA,(214) 327-6785,32.8346228,-96.6734709,,,
,10527,230 W. Harwood Road,,Euless,TX,76039,USA,817-571-2030,32.852316,-97.08524899999999,,,
,115,2530 N. Story Rd,,Irving,TX,75062,USA,(972) 255-6062,32.8413773,-96.9761328,,,
,4798,3605 Western Center Blvd.,,Fort Worth,TX,76137,USA,817-306-5555,32.8615844,-97.3043799,,,
,4757,2516 Inwood Road,,Dallas,TX,75235,USA,(214) 351-5912,32.8216825,-96.83531719999999,,,
,7192,513 North West Avenue,,Eldorado,AR,71730,USA,870-862-6862,33.2159975,-92.6656144,Monday:10:00 AM-10:00 PM;Tuesday:10:00 AM-10:00 PM;Wednesday:10:00 AM-10:00 PM;Thursday:10:00 AM-10:00 PM;Friday:10:00 AM-11:00 PM;Saturday:10:00 AM-11:00 PM;Sunday:10:00 AM-10:00 PM;,,
,1009,1035 W. Mockingbird,,Dallas,TX,75247,USA,(214) 631-6289,32.8164497,-96.8727322,,,
,31,501 N. O'Connor Road,,Irving,TX,75061,USA,(972) 254-3753,32.818284,-96.949812,,,
,1687,8080 Ferguson Rd.,,Dallas,TX,75228,USA,214-328-3570,32.8031519,-96.7121554,,,
,4995,604 South Saginaw Blvd.,,Saginaw,TX,76179,USA,(817) 306-7250,32.8535138,-97.36086159999999,,,
,10610,333 S. Belt Line Road,,Irving,TX,75060,USA,(972) 986-1858,32.8112573,-96.9943035,,,
,1386,4210 Gaston Avenue,,Dallas,TX,75246,USA,(214) 823-2856,32.7949378,-96.77515819999999,,,
,119,5503 E. Grand Avenue,,Dallas,TX,75223,USA,(214) 826-3792,32.7932815,-96.748198,,,
,5342,728 N. Gallaway Avenue,,Mesquite,TX,75149,USA,(972) 290-9044,32.7740785,-96.59877159999999,,,
,34,2019 Singleton Blvd,,Dallas,TX,75212,USA,(214) 638-1315,32.778897,-96.85427399999999,,,
,35,4656 Scyene Road,,Dallas,TX,75210,USA,(214) 421-7023,32.7668195,-96.74060349999999,,,
,10155,1407 W. North Carrier Parkway,,Grand Prairie,TX,75050,USA,972-623-1355,32.7858491,-97.04136890000001,,,
,239,3900 NE 28th Street,,Haltom City,TX,76111,USA,(817) 834-9851,32.794887,-97.29017759999999,,,
,36,9116 Bruton Rd,,Dallas,TX,75217,USA,(214) 391-0532,32.7483638,-96.66663059999999,,,
,2038,2231 N. Collins Street,,Arlington,TX,76011,USA,817-861-5788,32.7714419,-97.096616,,,
,51,1301 N. W. 28Th,,Fort Worth,TX,76164,USA,(817) 624-3011,32.794718,-97.364014,,,
,39,606 N. Hampton Road,,Dallas,TX,75208,USA,(214) 946-4015,32.749851,-96.85641,,,
,1619,11913 Lake June Rd,,Balch Springs,TX,75180,USA,(972) 289-1277,32.734344,-96.6223928,,,
,4560,201 W. Jefferson,,Dallas,TX,75208,USA,(214) 941-0009,32.7434033,-96.82481000000001,,,
,5285,1821 W. Tarrant Road,,Grand Prairie,TX,75050,USA,972-642-4597,32.7567445,-97.0279891,,,
,1401,901 E. Main,,Grand Prairie,TX,75050,USA,(972) 264-0529,32.7459248,-96.9930857,,,
,10711,1592 State Highway 34 S,,Terrell,TX,75160,USA,972-563-2100,32.7106578,-96.2803098,,,
,4898,820 S. Walton Walker Blvd.,,Dallas,TX,75211,USA,214-331-3544,32.7365909,-96.9182386,,,
,1407,129 N. Jim Miller Rd.,,Dallas,TX,75217,USA,214-398-6442,32.7136722,-96.7001837,,,
,224,2410 S. Zang Blvd,,Dallas,TX,75224,USA,(214) 946-9634,32.7192738,-96.8299241,,,
,83,2509 S. Westmoreland Rd.,,Dallas,TX,75211,USA,(214) 330-9614,32.7212599,-96.8747827,,,
,460,6500 Meadow Brook Drive,,Fort Worth,TX,76112,USA,817-451-6700,32.7457947,-97.2187203,,,
,4914,10201 C.F. Hawn Freeway,,Dallas,TX,75217,USA,972-557-3700,32.7006515,-96.6481173,,,
,80,3605 S. Lancaster Rd,,Dallas,TX,75216,USA,(214) 374-8700,32.704287,-96.799643,,,
,461,5662 E. Lancaster Ave.,,Fort Worth,TX,76112,USA,817-451-6461,32.7369546,-97.2328004,,,
,1689,1923 E. Park Row,,Arlington,TX,76010,USA,(817) 861-2177,32.7211973,-97.0783374,,,
,5523,4411 W. Kiest Blvd.,,Dallas,TX,75236,USA,214-330-3100,32.706175,-96.891903,,,
,1043,401 W. Hwy 303,,Grand Prairie,TX,75051,USA,(972) 262-5052,32.7093505,-96.9996566,,,
,53,3800 E. Rosedale Ave,,Fort Worth,TX,76105,USA,817-534-2451,32.7309968,-97.2689422,,,
,1439,2317 W. Ledbetter Dr.,,Dallas,TX,75224,USA,214-330-1032,32.6915701,-96.8563659,,,
,491,2302 S. Collins Street,,Arlington,TX,76014,USA,817-274-0152,32.7054065,-97.09806189999999,,,
,4014,1000 S. Davis Avenue,,Cleveland,MS,38732,USA,662-846-0222,33.73299009999999,-90.7162754,,,
,190,3344 Lackland Road,,Fort Worth,TX,76116,USA,817-732-6091,32.7224543,-97.4345786,,,
,10475,10137 West Freeway,,Fort Worth,TX,76116,USA,817-696-0403,32.728874,-97.5032039,,,
,10593,601 Malloy Bridge Road,,Seagoville,TX,75159,USA,972-287-3334,32.6480261,-96.5340068,,,
,763,201 E. Camp Wisdom Rd,,Duncanville,TX,75116,USA,(972) 298-4127,32.6622491,-96.90451379999999,,,
,347,1025 W. Camp Wisdom,,Dallas,TX,75232,USA,(214) 375-9097,32.6625625,-96.92785649999999,,,
,899,3221 Mansfield,,Fort Worth,TX,76119,USA,(817) 531-2373,32.6831567,-97.2790466,,,
,55,2120 W. Seminary,,Fort Worth,TX,76115,USA,(817) 926-8711,32.6847907,-97.35035239999999,,,
,10352,5410 Matlock Road,,Arlington,TX,76018,USA,817-465-4451,32.6587704,-97.1155723,,,
,4656,103 I-45 Frontage Rd,,Wilmer,TX,75172,USA,972-441-3747,32.6113035,-96.6930232,,,
,2032,6430 McCart Avenue,,Fort Worth,TX,76113,USA,(817) 346-2882,32.6505601,-97.367212,,,
,4773,3160 Pleasant Run,,Lancaster,TX,75146,USA,972-274-4414,32.6041273,-96.818535,,,
,4486,301 N. Oak Avenue,,Ruleville,MS,38771,USA,662-756-2094,33.7269378,-90.5468758,,,
,10811,8106 Matlock Road,,Arlington,TX,76002,USA,(817) 473-4800,32.6141398,-97.1172893,,,
,1579,1701 Sycamore School Road,,Fort Worth,TX,76134,USA,817-551-1324,32.6344493,-97.3448705,,,
,4924,114 N. Hampton Road,,Desoto,TX,75115,USA,(972) 274-6863,32.5910709,-96.8567073,,,
,3936,100 Harris Avenue,,Red Oak,TX,75154,USA,972-617-9998,32.5303766,-96.82124230000001,,,
,2086,3127 Dickerson Road,,Nashville,TN,37207,USA,615-226-5532,36.2315912,-86.7588799,Monday:6:00 AM-11:00 PM;Tuesday:6:00 AM-11:00 PM;Wednesday:6:00 AM-11:00 PM;Thursday:6:00 AM-11:00 PM;Friday:6:00 AM-11:00 PM;Saturday:6:00 AM-11:00 PM;Sunday:7:00 AM-11:00 PM;,,
,3614,509 Hwy. 82 East,,Greenville,MS,38701,USA,662-335-1062,33.399176,-91.044861,,,
,2074,810 Jefferson Street,,Nashville,TN,37208,USA,615-242-9804,36.17333,-86.792383,Monday:6:00 AM-10:00 PM;Tuesday:6:00 AM-10:00 PM;Wednesday:6:00 AM-10:00 PM;Thursday:6:00 AM-10:00 PM;Friday:6:00 AM-10:00 PM;Saturday:6:00 AM-10:00 PM;Sunday:7:00 AM-10:00 PM;,,
,4926,1351 North Hwy 67,,Midlothian,TX,76065,USA,972-775-1225,32.496921,-96.993231,,,
,314,300 West Grand Avenue,,Marshall,TX,75670,USA,903-938-7902,32.5484246,-94.369306,,,
,3974,1404 Broadway,,Nashville,TN,37203,USA,615-321-2291,36.155983,-86.79028199999999,,,
,303,217 East Marshall,,Longview,TX,75601,USA,903-758-1822,32.5008484,-94.73602609999999,,,
,4523,315 Hwy 65 & 82,,Lake Village,AR,71653,USA,870-265-4476,33.2792365,-91.252758,,,
,3938,103 Hwy. 82 East,,Indianola,MS,38751,USA,662-887-4566,33.4580966,-90.651285,,,
,8783,521 N. 3rd. Street,,Mabank,TX,75147,USA,903-887-0578,32.3704511,-96.0992933,,,
,1630,704 Ferris Avenue,,Waxahachie,TX,75165,USA,972-937-3219,32.3944071,-96.8462643,,,
,164,1612 North Market Street,,Shreveport,LA,71107,USA,318-222-2236,32.5388197,-93.77162500000001,,,
,1833,1310 Highway 80 East,,Haughton,LA,71037,USA,318-949-3959,32.5557683,-93.61012679999999,,,
,509,151 East Union Street,,Minden,LA,71055,USA,318-377-7421,32.613636,-93.284346,,,
,714,822 W. Gentry Parkway,,Tyler,TX,75702,USA,903-595-2281,32.359232,-95.3098569,,,
,3784,105 N. NW Loop 323,,Tyler,TX,75701,USA,903-595-5655,32.35335,-95.3434501,,,
,10759,120 So. SE Loop 323,,Tyler,TX,75708,USA,903-593-7561,32.35214070000001,-95.267483,,,
,3521,1868 Airline Drive,,Bossier City,LA,71112,USA,318-741-3302,32.5190086,-93.6953491,,,
,762,535 S. Beckham Ave.,,Tyler,TX,75702,USA,903-597-1942,32.3437467,-95.2937418,,,
,10802,1317 Sunset Drive,,Grenada,MS,38901,USA,662-226-1458,33.77531099999999,-89.82343999999999,,,
,4658,2626 Lakeshore Drive,,Shreveport,LA,71103,USA,318-425-1959,32.492962,-93.77981199999999,,,
,3939,3803 Jewella Street,,Shreveport,LA,71109,USA,318-636-3454,32.4764091,-93.7972406,,,
,2069,515 Bell Road,,Antioch,TN,37013,USA,615-361-7398,36.071044,-86.636939,Monday:10:00 AM-11:00 PM;Tuesday:10:00 AM-11:00 PM;Wednesday:10:00 AM-11:00 PM;Thursday:10:00 AM-11:00 PM;Friday:10:00 AM-11:00 PM;Saturday:10:00 AM-11:00 PM;Sunday:10:00 AM-11:00 PM;,,
,704,1046 Shreveport Barksdale Hwy,,Shreveport,LA,71105,USA,318-868-0646,32.484958,-93.70962600000001,,,
,8769,905 Avenue Q,,Lubbock,TX,79401,USA,806 747-1312,33.5868371,-101.8548181,Monday:10:00 AM-11:00 PM;Tuesday:10:00 AM-11:00 PM;Wednesday:10:00 AM-11:00 PM;Thursday:10:00 AM-11:00 PM;Friday:10:00 AM-11:00 PM;Saturday:10:00 AM-11:00 PM;Sunday:10:00 AM-11:00 PM;,,
,556,616 North Main,,Cleburne,TX,76033,USA,(817) 556-0570,32.3537726,-97.38819149999999,,,
,3710,2702 Hollywood Avenue,,Shreveport,LA,71108,USA,318-636-7664,32.456867,-93.780408,,,
,596,575 East 70th Street,,Shreveport,LA,71106,USA,318-865-9884,32.4420133,-93.7466725,,,
,589,1702 S. 50Th Street,,Lubbock,TX,79412,USA,(806) 749-5184,33.549062,-101.8556909,Monday:10:00 AM-10:00 PM;Tuesday:10:00 AM-10:00 PM;Wednesday:10:00 AM-10:00 PM;Thursday:10:00 AM-10:00 PM;Friday:10:00 AM-11:00 PM;Saturday:10:00 AM-11:00 PM;Sunday:10:00 AM-10:00 PM;,,
,2120,6410 19th St,,Lubbock,TX,79407,USA,806-791-6710,33.5778321,-101.9553564,Monday:10:00 AM-11:00 PM;Tuesday:10:00 AM-11:00 PM;Wednesday:10:00 AM-11:00 PM;Thursday:10:00 AM-11:00 PM;Friday:10:00 AM-11:00 PM;Saturday:10:00 AM-11:00 PM;Sunday:10:00 AM-11:00 PM;,,
,3824,349 Hwy. 82 West,,Greenwood,MS,38930,USA,662-455-2777,33.5039827,-90.1826279,,,
,703,9190 Mansfield Road,,Shreveport,LA,71118,USA,318-686-0659,32.402878,-93.804152,,,
,10702,1096 N. Hazel Street,,Arcadia,LA,71001,USA,318-263-4985,32.5581766,-92.91458380000002,,,
,158,2443 N. Gettysburg,,Dayton,OH,45406,USA,937-276-2263,39.7896659,-84.254188,,,
,4291,404 Texas 110,,Whitehouse,TX,75791,USA,903-839-6164,32.2309511,-95.2269734,,,
,174,1113 N. Gettysburg,,Dayton,OH,45417,USA,937- 268-5752,39.760699,-84.253699,,,
,412,5711 N. Dixie Road,,Dayton,OH,45414,USA,937-890-2471,39.820167,-84.198762,,,
,4307,959 RWE Jones Drive,,Grambling,LA,71245,USA,318-247-0898,32.538218,-92.7148217,,,
,537,407 W. California,,Ruston,LA,71270,USA,318-255-6603,32.5239211,-92.6436145,Monday:10:00 AM-10:00 PM;Tuesday:10:00 AM-10:00 PM;Wednesday:10:00 AM-10:00 PM;Thursday:10:00 AM-10:00 PM;Friday:10:00 AM-10:00 PM;Saturday:10:00 AM-10:00 PM;Sunday:10:00 AM-10:00 PM;,,
,581,1400 W. 7th Street,,Corsicana,TX,75110,USA,903-872-4991,32.0854479,-96.4759934,,,
,4832,2206 Old Fort Parkway,,Murfreesboro,TN,37129,USA,615-895-7977,35.8479265,-86.4307855,,,
,10230,5 South Reynolds Road,,Toledo,OH,43616,USA,419-531-7966,41.6385918,-83.6645206,,,
,10685,3410 Corunna Road,,Flint,MI,48503,USA,810-422-9436,43.002868,-83.73195899999999,,,
,10306,"3426 Cypress Street, Suite 19",,West Monroe,LA,71291,USA,318-397-1043,32.5179773,-92.1599781,Monday:10:00 AM-10:00 PM;Tuesday:10:00 AM-10:00 PM;Wednesday:10:00 AM-10:00 PM;Thursday:10:00 AM-10:00 PM;Friday:10:00 AM-10:00 PM;Saturday:10:00 AM-10:00 PM;Sunday:10:00 AM-10:00 PM;,,
,10500,1530 S. Byrne Road,,Toledo,OH,43614,USA,(419) 380-8815,41.611844,-83.626181,,,
,7194,1690 Desiard Street,,Monroe,LA,71201,USA,318-387-6785,32.5109572,-92.1027085,Monday:10:00 AM-10:00 PM;Tuesday:10:00 AM-10:00 PM;Wednesday:10:00 AM-10:00 PM;Thursday:10:00 AM-10:00 PM;Friday:10:00 AM-11:00 PM;Saturday:10:00 AM-11:00 PM;Sunday:10:00 AM-10:00 PM;,,
,897,1309 Grape Street,,Abilene,TX,79601,USA,325-672-4672,32.4645536,-99.7398576,,,
,4548,102 Race Street,,Rolling Fork,MS,39159,USA,662-873-2875,32.9057014,-90.8807444,,,
,943,4414 N. Saginaw,,Flint,MI,48505,USA,810-789-0042,43.055594,-83.693468,,,
,69,4026 North First,,Abilene,TX,79603,USA,325-673-1741,32.452708,-99.771368,,,
,5694,1844 W. Bancroft,,Toledo,OH,43606,USA,419-486-9083,41.663701,-83.58799499999999,,,
,7193,1613 Arizona Avenue,,Monroe,LA,71202,USA,318-325-8372,32.48997660000001,-92.0849787,Monday:10:00 AM-11:00 PM;Tuesday:10:00 AM-11:00 PM;Wednesday:10:00 AM-11:00 PM;Thursday:10:00 AM-11:00 PM;Friday:10:00 AM-11:00 PM;Saturday:10:00 AM-11:00 PM;Sunday:10:00 AM-11:00 PM;,,
,10601,3043 S. Dort Highway,,Burton,MI,48529,USA,(810) 715-1725,42.98796,-83.65293799999999,,,
,1523,1011 S. Jackson,,Jacksonville,TX,75766,USA,903-586-3381,31.954455,-95.2659675,,,
,709,3234 South 14th Street,,Abilene,TX,79605,USA,325-695-5588,32.4325866,-99.76237809999999,,,
,10231,1102 South Avenue,,Toledo,OH,43609,USA,419-243-8640,41.6311139,-83.56779999999999,,,
,4298,41205 Ford Rd.,,Canton,MI,48187,USA,734-844-0229,42.3224525,-83.44685869999999,,,
,4854,308 Depot Street,,Lexington,MS,39095,USA,662-834-0696,33.1123356,-90.04737399999999,,,
,4154,32925 Michigan Avenue,,Wayne,MI,48184,USA,313-721-4584,42.2826461,-83.3637348,,,
,1526,419 W. Palestine,,Palestine,TX,75801,USA,903-729-1888,31.7704123,-95.6369191,,,
,7427,30105 Plymouth Road,,Livonia,MI,48150,USA,734-422-2730,42.3673602,-83.3365386,,,
,3771,258 N. Clower Blvd.,,Yazoo City,MS,39194,USA,662-746-7843,32.8440331,-90.3886821,,,
,3998,13000 Telegraph Road,,Taylor,MI,48180,USA,734-946-6460,42.211477,-83.269536,,,
,4315,335 Martin Luther King Blvd N,,Pontiac,MI,48342,USA,248-745-0679,42.6473609,-83.271079,,,
,456,19741 W. McNichols Road,,Detroit,MI,48219,USA,313-532-8267,42.414899,-83.23656299999999,,,
,991,18138 W. 7 Mile Road,,Detroit,MI,48219,USA,313-538-1440,42.430354,-83.2199942,,,
,868,15525 W. Chicago Street,,Detroit,MI,48228,USA,313-272-6444,42.3651259,-83.197735,,,
,7092,26500 Greenfield Road,,Oak Park,MI,48237,USA,248-968-0051,42.485717,-83.20160899999999,,,
,7300,2774 Sawmill Road,,Santa Fe,NM,87505,USA,505-471-7165,35.6403016,-105.9595779,,,
,10348,16075 I-35,,Ross,TX,76640,USA,254-829-3603,31.6915437,-97.0994683,,,
,964,13531 Fenkell,,Detroit,MI,48227,USA,313-834-7869,42.4018755,-83.1786889,,,
,976,13611 W. 8 Mile Road,,Detroit,MI,48235,USA,313-345-6879,42.4446637,-83.1812861,,,
,785,16100 Livernois,,Detroit,MI,48221,USA,313-863-9413,42.4101831,-83.1400479,,,
,302,7060 Michigan Ave.,,Detroit,MI,48210,USA,313-843-3788,42.33138,-83.131625,,,
,855,9137 Grand River,,Detroit,MI,48204,USA,313-834-0252,42.364982,-83.130315,,,
,11004,6615 North IH35,,Waco,TX,76705,USA,815-977-7865,31.6419482,-97.0966682,,,
,4299,2930 John R. Road,,Troy,MI,48083,USA,248-689-7546,42.562485,-83.107674,,,
,452,11501 Woodward Avenue,,Detroit,MI,48202,USA,313-869-6996,42.391242,-83.087718,,,
,981,24990 DeQuindre,,Warren,MI,48091,USA,(586) 754-8908,42.4762189,-83.08449619999999,,,
,648,2928 East 7 Mile Road,,Detroit,MI,48234,USA,313-893-8141,42.4328973,-83.07364919999999,,,
,112,1325 E. Waco Drive,,Waco,TX,76704,USA,(254) 799-6671,31.579082,-97.12051,Monday:10:00 AM-10:00 PM;Tuesday:10:00 AM-10:00 PM;Wednesday:10:00 AM-10:00 PM;Thursday:10:00 AM-10:00 PM;Friday:10:00 AM-11:00 PM;Saturday:10:00 AM-11:00 PM;Sunday:10:00 AM-10:00 PM;,,
,1683,3903 N. 19Th,,Waco,TX,76708,USA,(254) 752-0360,31.581762,-97.1733992,Monday:10:00 AM-10:00 PM;Tuesday:10:00 AM-10:00 PM;Wednesday:10:00 AM-10:00 PM;Thursday:10:00 AM-10:00 PM;Friday:10:00 AM-11:00 PM;Saturday:10:00 AM-11:00 PM;Sunday:10:00 AM-10:00 PM;,,
,4596,"3505 South Street, Suite C",,Nacogdoches,TX,75964,USA,936-564-1650,31.5730309,-94.67410439999999,,,
,345,6931 E. Jefferson,,Detroit,MI,48207,USA,313-259-5574,42.3464551,-83.003768,,,
,975,11965 E. Warren,,Detroit,MI,48214,USA,313-571-6408,42.3893879,-82.97726899999999,,,
,974,14260 Gratiot Avenue,,Detroit,MI,48205,USA,313-839-1288,42.434861,-82.977239,,,
,127,1515 S. Valley Mills Drive,,Waco,TX,76711,USA,(254) 753-5481,31.5252216,-97.1434452,Monday:10:00 AM-11:00 PM;Tuesday:10:00 AM-11:00 PM;Wednesday:10:00 AM-11:00 PM;Thursday:10:00 AM-11:00 PM;Friday:10:00 AM-11:00 PM;Saturday:10:00 AM-11:00 PM;Sunday:10:00 AM-10:00 PM;,,
,4297,26900 Gratiot Ave.,,Roseville,MI,48066,USA,586-776-9560,42.49358000000001,-82.938051,,,
,428,1320 Clay Street,,Vicksburg,MS,39183,USA,(601) 638-6402,32.348825,-90.874312,Monday:10:00 AM-11:00 PM;Tuesday:10:00 AM-11:00 PM;Wednesday:10:00 AM-11:00 PM;Thursday:10:00 AM-11:00 PM;Friday:10:00 AM-11:00 PM;Saturday:10:00 AM-11:00 PM;Sunday:10:00 AM-10:00 PM;,,
,5418,2430 W. Commerce Street,,Buffalo,TX,75831,USA,903-322-9159,31.4485349,-96.078026,,,
,130,1406 Main Street,,Columbus,MS,39701,USA,601-327-4090,33.496334,-88.416484,,,
,634,1100 Cleveland,,Columbus,OH,43201,USA,614-297-0798,39.986672,-82.988586,,,
,5286,Bldg. 3220,,Redstone Arsenal,AL,35898,USA,256-881-3326,34.56201739999999,-86.64987029999999,,,
,503,101 S. Timberland,,Lufkin,TX,75901,USA,936-632-7097,31.33577,-94.717708,,,
,643,1520 E. Main,,Columbus,OH,43205,USA,614-252-1759,39.9576323,-82.9583231,,,
,8816,4488 E. Main Street,,Whitehall,OH,43213,USA,614-235-2790,39.95582220000001,-82.87794550000001,,,
,4131,327 W. Northside Drive,,Jackson,MS,39206,USA,(601) 981-9821,32.3553196,-90.1813578,Monday:10:00 AM-11:00 PM;Tuesday:10:00 AM-11:00 PM;Wednesday:10:00 AM-11:00 PM;Thursday:10:00 AM-11:00 PM;Friday:10:00 AM-12:00 AM;Saturday:10:00 AM-12:00 AM;Sunday:10:00 AM-11:00 PM;,,
,649,4375 Refugee Road,,Columbus,OH,43232,USA,614-866-2155,39.9151415,-82.8801077,,,
,378,3280 Medgar Evers Blvd,,Jackson,MS,39213-6842,USA,601-981-1620,32.3362982,-90.2086521,,,
,819,238 W. Woodrow Wilson,,Jackson,MS,39213,USA,(601) 981-1818,32.327071,-90.1920893,Monday:10:00 AM-11:00 PM;Tuesday:10:00 AM-11:00 PM;Wednesday:10:00 AM-11:00 PM;Thursday:10:00 AM-11:00 PM;Friday:10:00 AM-12:00 AM;Saturday:10:00 AM-12:00 AM;Sunday:10:00 AM-11:00 PM;,,
,10492,5673 Mississippi Hwy 18,,Jackson,MS,39209,USA,601-923-3535,32.2773946,-90.2823746,,,
,824,1264 Ellis Avenue,,Jackson,MS,39209,USA,(601) 355-2077,32.2960747,-90.2277801,Monday:10:00 AM-12:00 AM;Tuesday:10:00 AM-12:00 AM;Wednesday:10:00 AM-12:00 AM;Thursday:10:00 AM-12:00 AM;Friday:10:00 AM-12:00 AM;Saturday:10:00 AM-12:00 AM;Sunday:10:00 AM-11:00 PM;,,
,5297,3061 Terry Road,,Jackson,MS,39212,USA,(601) 373-3888,32.2614556,-90.2207484,Monday:10:00 AM-11:00 PM;Tuesday:10:00 AM-11:00 PM;Wednesday:10:00 AM-11:00 PM;Thursday:10:00 AM-11:00 PM;Friday:10:00 AM-12:00 AM;Saturday:10:00 AM-12:00 AM;Sunday:10:00 AM-11:00 PM;,,
,1499,208 N. Temple,,Diboll,TX,75941,USA,936-829-4464,31.186482,-94.7812527,,,
,726,#726 3056 US Hwy. 80,,Pearl,MS,39288,USA,601-932-2735,32.2826871,-90.11870739999999,,,
,511,276 Park Avenue W.,,Mansfield,OH,44902,USA,419-775-5720,40.759142,-82.525718,,,
,2115,404 Highway 550,,Bernalillo,NM,87004,USA,505-867-7291,35.3206722,-106.5517014,Monday:10:00 AM-10:00 PM;Tuesday:10:00 AM-10:00 PM;Wednesday:10:00 AM-10:00 PM;Thursday:10:00 AM-10:00 PM;Friday:10:00 AM-11:00 PM;Saturday:10:00 AM-11:00 PM;Sunday:10:00 AM-10:00 PM;,,
,1169,1710 S. 31St Street,,Temple,TX,76501,USA,(254) 771-1011,31.0841668,-97.3641217,Monday:10:00 AM-10:00 PM;Tuesday:10:00 AM-10:00 PM;Wednesday:10:00 AM-10:00 PM;Thursday:10:00 AM-10:00 PM;Friday:10:00 AM-11:00 PM;Saturday:10:00 AM-11:00 PM;Sunday:10:00 AM-10:00 PM;,,
,700,2616 E. Hwy. 190,,Killeen,TX,76543,USA,(254) 699-8351,31.1064363,-97.71058049999999,,,
,579,501 E.  Hwy 190,,Copperas Cove,TX,76522,USA,(254) 547-7766,31.1177819,-97.9018115,,,
,590,702 North Dal Paso,,Hobbs,NM,88240,USA,(575) 397-1825,32.707427,-103.1274006,Monday:10:00 AM-10:00 PM;Tuesday:10:00 AM-10:00 PM;Wednesday:10:00 AM-10:00 PM;Thursday:10:00 AM-10:00 PM;Friday:10:00 AM-11:00 PM;Saturday:10:00 AM-11:00 PM;Sunday:10:00 AM-10:00 PM;,,
,10276,3807 W. Stan Schlueter Loop - Suite 200,,Killeen,TX,76549,USA,254-618-5800,31.0878314,-97.7901318,,,
,8555,4014 East Stan Schlueter Loop,,Killeen,TX,76543,USA,254-690-5091,31.0768584,-97.7025858,,,
,707,"2307 Juan Tabo Boulevard, N.E.",,Albuquerque,NM,87112,USA,(505) 294-2794,35.10855,-106.5160159,Monday:10:00 AM-10:00 PM;Tuesday:10:00 AM-10:00 PM;Wednesday:10:00 AM-10:00 PM;Thursday:10:00 AM-10:00 PM;Friday:10:00 AM-10:00 PM;Saturday:10:00 AM-10:00 PM;Sunday:10:00 AM-10:00 PM;,,
,10250,3002 E. Main Street,,Madisonville,TX,77864,USA,936-348-3528,30.9646577,-95.8852454,,,
,4384,406 South Robb Street,,Trinity,TX,75862,USA,936-594-4264,30.9481579,-95.3752406,,,
,2020,10230 Central Ave. NE,,Albuquerque,NM,87123,USA,505-299-0492,35.071425,-106.533766,Monday:10:00 AM-10:00 PM;Tuesday:10:00 AM-10:00 PM;Wednesday:10:00 AM-10:00 PM;Thursday:10:00 AM-10:00 PM;Friday:10:00 AM-10:00 PM;Saturday:10:00 AM-10:00 PM;Sunday:10:00 AM-10:00 PM;,,
,701,2937 San Mateo N.E.,,Albuquerque,NM,87110,USA,(505) 881-1024,35.1162296,-106.5866922,Monday:10:00 AM-10:00 PM;Tuesday:10:00 AM-10:00 PM;Wednesday:10:00 AM-10:00 PM;Thursday:10:00 AM-10:00 PM;Friday:10:00 AM-11:00 PM;Saturday:10:00 AM-11:00 PM;Sunday:10:00 AM-10:00 PM;,,
,10353,2828 N. Main Street,,Roswell,NM,88201,USA,(575) 623-1465,33.4303745,-104.5236586,,,
,5341,401 Louisana Blvd. S. E.,,Albuquerque,NM,87106,USA,505-268-7427,35.0721147,-106.5689331,,,
,10386,9250 Golf Course Road,,Albuquerque,NM,87114,USA,505-898-9778,35.186317,-106.6847669,,,
,694,5112 Fourth St. N.W.,,Albuquerque,NM,87107,USA,(505) 344-2403,35.134512,-106.6417,Monday:10:00 AM-10:00 PM;Tuesday:10:00 AM-10:00 PM;Wednesday:10:00 AM-10:00 PM;Thursday:10:00 AM-10:00 PM;Friday:10:00 AM-10:00 PM;Saturday:10:00 AM-10:00 PM;Sunday:10:00 AM-10:00 PM;,,
,702,1275 Macarthur Drive,,Alexandria,LA,71301,USA,(318) 487-4543,31.2869,-92.47448,Monday:10:00 AM-11:00 PM;Tuesday:10:00 AM-11:00 PM;Wednesday:10:00 AM-11:00 PM;Thursday:10:00 AM-11:00 PM;Friday:10:00 AM-12:00 AM;Saturday:10:00 AM-12:00 AM;Sunday:10:00 AM-11:00 PM;,,
,595,1141 South Main,,Roswell,NM,88203,USA,575-623-1640,33.3809072,-104.5226309,,,
,457,2100 Broadway S.E.,,Albuquerque,NM,87102,USA,(505) 247-4268,35.0618164,-106.6449307,Monday:10:00 AM-10:00 PM;Tuesday:10:00 AM-10:00 PM;Wednesday:10:00 AM-10:00 PM;Thursday:10:00 AM-10:00 PM;Friday:10:00 AM-11:00 PM;Saturday:10:00 AM-11:00 PM;Sunday:10:00 AM-10:00 PM;,,
,3887,2301 N. Bryant Blvd.,,San Angelo,TX,76903,USA,325-658-7775,31.4801519,-100.4565857,,,
,695,5407 Central N.W.,,Albuquerque,NM,87105,USA,(505) 831-6905,35.083015,-106.698431,Monday:10:00 AM-10:00 PM;Tuesday:10:00 AM-10:00 PM;Wednesday:10:00 AM-10:00 PM;Thursday:10:00 AM-10:00 PM;Friday:10:00 AM-11:00 PM;Saturday:10:00 AM-11:00 PM;Sunday:10:00 AM-10:00 PM;,,
,4978,5455 E. Main Street,,Farmington,NM,87402,USA,505-324-1575,36.7701735,-108.1404651,,,
,574,3335 Isleta Blvd. SW,,Albuquerque,NM,87105,USA,(505) 873-2721,35.0281571,-106.6805302,Monday:10:00 AM-10:00 PM;Tuesday:10:00 AM-10:00 PM;Wednesday:10:00 AM-10:00 PM;Thursday:10:00 AM-10:00 PM;Friday:10:00 AM-11:00 PM;Saturday:10:00 AM-11:00 PM;Sunday:10:00 AM-10:00 PM;,,
,2112,510 Highway 61 North,,Natchez,MS,39120,USA,(601) 442-5905,31.4832878,-91.3692308999999,Monday:10:00 AM-11:00 PM;Tuesday:10:00 AM-11:00 PM;Wednesday:10:00 AM-11:00 PM;Thursday:10:00 AM-11:00 PM;Friday:10:00 AM-12:00 AM;Saturday:10:00 AM-12:00 AM;Sunday:10:00 AM-10:00 PM;,,
,2109,140 98th Street,,Albuquerque,NM,87121,USA,505-831-0053,35.0717913,-106.7424377,Monday:10:00 AM-10:00 PM;Tuesday:10:00 AM-10:00 PM;Wednesday:10:00 AM-10:00 PM;Thursday:10:00 AM-10:00 PM;Friday:10:00 AM-11:00 PM;Saturday:10:00 AM-11:00 PM;Sunday:10:00 AM-10:00 PM;,,
,1640,849 S. Wheeler St,,Jasper,TX,75951,USA,(409) 384-9478,30.9135008,-93.996321,,,
,1040,2711 East 20th Street,,Farmington,NM,87402,USA,505-327-9040,36.7478175,-108.1698821,,,
,896,1400 N. Big Springs,,Midland,TX,79701,USA,(432) 683-8841,31.9948002,-102.1024377,Monday:10:00 AM-10:00 PM;Tuesday:10:00 AM-10:00 PM;Wednesday:10:00 AM-10:00 PM;Thursday:10:00 AM-10:00 PM;Friday:10:00 AM-11:00 PM;Saturday:10:00 AM-11:00 PM;Sunday:10:00 AM-10:00 PM;,,
,450,202 N.  Midkiff,,Midland,TX,79701,USA,(432) 694-5858,31.99004,-102.114983,Monday:10:00 AM-10:00 PM;Tuesday:10:00 AM-10:00 PM;Wednesday:10:00 AM-10:00 PM;Thursday:10:00 AM-10:00 PM;Friday:10:00 AM-11:00 PM;Saturday:10:00 AM-11:00 PM;Sunday:10:00 AM-10:00 PM;,,
,146,1801 Greensboro Ave,,Tuscaloosa,AL,35401,USA,205-758-0052,33.1960222,-87.5617607,,,
,2093,3816 Brainerd Road,,Chattanooga,TN,37411,USA,(423) 622-3501,35.022177,-85.2423828,Monday:10:00 AM-11:00 PM;Tuesday:10:00 AM-11:00 PM;Wednesday:10:00 AM-11:00 PM;Thursday:10:00 AM-11:00 PM;Friday:10:00 AM-12:00 AM;Saturday:10:00 AM-12:00 AM;Sunday:10:00 AM-11:00 PM;,,
,756,2501 University Blvd. E.,,Tuscaloosa,AL,35404,USA,205-553-4660,33.206077,-87.50510899999999,,,
,4645,725 W. Main Street,,Farmington,NM,87401,USA,505-324-8500,36.7288508,-108.2178425,,,
,1510,2711 - 11Th St,,Huntsville,TX,77340,USA,(936) 291-9830,30.7183733,-95.5669925,,,
,9923,1428 Forestdale Blvd.,,Birmingham,AL,35214,USA,205-798-1221,33.563505,-86.895281,,,
,468,507 N. Texas Avenue,,Bryan,TX,77801,USA,(979) 822-5216,30.6776611,-96.3691559,Monday:10:00 AM-11:00 PM;Tuesday:10:00 AM-11:00 PM;Wednesday:10:00 AM-11:00 PM;Thursday:10:00 AM-11:00 PM;Friday:10:00 AM-12:00 AM;Saturday:10:00 AM-12:00 AM;Sunday:10:00 AM-11:00 PM;,,
,4707,794 Allison-Bonnett Memorial Drive,,Dolomite,AL,35061,USA,(205) 744-0700,33.4578661,-86.960025,Monday:10:00 AM-11:00 PM;Tuesday:10:00 AM-11:00 PM;Wednesday:10:00 AM-11:00 PM;Thursday:10:00 AM-11:00 PM;Friday:10:00 AM-11:00 PM;Saturday:10:00 AM-11:00 PM;Sunday:11:00 AM-11:00 PM;,,
,1209,4009 Vanderbilt Road,,Birmingham,AL,35217,USA,(205) 849-7102,33.5625309,-86.783036,Monday:10:00 AM-11:00 PM;Tuesday:10:00 AM-11:00 PM;Wednesday:10:00 AM-11:00 PM;Thursday:10:00 AM-11:00 PM;Friday:10:00 AM-11:00 PM;Saturday:10:00 AM-11:00 PM;Sunday:11:00 AM-11:00 PM;,,
,1598,119 Greensboro Street,,Eutaw,AL,35462,USA,205-372-2574,32.8399008,-87.88489539999999,,,
,1136,"1145 Third Avenue, West",,Birmingham,AL,35204,USA,(205) 780-4740,33.5051467,-86.8562176,Monday:10:00 AM-11:00 PM;Tuesday:10:00 AM-11:00 PM;Wednesday:10:00 AM-11:00 PM;Thursday:10:00 AM-11:00 PM;Friday:10:00 AM-11:00 PM;Saturday:10:00 AM-11:00 PM;Sunday:11:00 AM-11:00 PM;,,
,1042,5410 Bessemer Super Hwy,,Midfield,AL,35228,USA,(205) 428-0832,33.4488743,-86.9268194,Monday:10:00 AM-11:00 PM;Tuesday:10:00 AM-11:00 PM;Wednesday:10:00 AM-11:00 PM;Thursday:10:00 AM-11:00 PM;Friday:10:00 AM-11:00 PM;Saturday:10:00 AM-11:00 PM;Sunday:11:00 AM-11:00 PM;,,
,2121,703 Main St SE,,Los Lunas,NM,87031,USA,505-865-0900,34.8054715,-106.7269741,,,
,142,"3052 Jefferson Avenue, Sw",,Birmingham,AL,35211,USA,(205) 925-2822,33.4703933,-86.88289879999999,Monday:10:00 AM-11:00 PM;Tuesday:10:00 AM-11:00 PM;Wednesday:10:00 AM-11:00 PM;Thursday:10:00 AM-11:00 PM;Friday:10:00 AM-11:00 PM;Saturday:10:00 AM-11:00 PM;Sunday:11:00 AM-11:00 PM;,,
,233,"9929 Parkway, East",,Birmingham,AL,35215,USA,(205) 853-8030,33.609932,-86.687719,Monday:10:00 AM-11:00 PM;Tuesday:10:00 AM-11:00 PM;Wednesday:10:00 AM-11:00 PM;Thursday:10:00 AM-11:00 PM;Friday:10:00 AM-11:00 PM;Saturday:10:00 AM-11:00 PM;Sunday:11:00 AM-11:00 PM;,,
,361,3325 8th Street,,Meridian,MS,39301,USA,601-485-5811,32.3646394,-88.7123431,,,
,636,1391 Wooster Avenue,,Akron,OH,44320,USA,330-864-5138,40.8159765,-81.9113955,,,
,5403,824 3rd Ave North,,Birmingham,AL,35203,USA,205-328-0007,33.5086365,-86.8230348,Monday:10:00 AM-11:00 PM;Tuesday:10:00 AM-11:00 PM;Wednesday:10:00 AM-11:00 PM;Thursday:10:00 AM-11:00 PM;Friday:10:00 AM-11:00 PM;Saturday:10:00 AM-11:00 PM;Sunday:11:00 AM-11:00 PM;,,
,215,7529 1st Ave. N,,Birmingham,AL,35206,USA,(205) 838-7619,33.559904,-86.7298129,Monday:10:00 AM-11:00 PM;Tuesday:10:00 AM-11:00 PM;Wednesday:10:00 AM-11:00 PM;Thursday:10:00 AM-11:00 PM;Friday:10:00 AM-11:00 PM;Saturday:10:00 AM-11:00 PM;Sunday:11:00 AM-11:00 PM;,,
,237,1801 Carolina Ave.,,Bessemer,AL,35020,USA,(205) 426-2553,33.3989927,-86.95148520000001,Monday:10:00 AM-11:00 PM;Tuesday:10:00 AM-11:00 PM;Wednesday:10:00 AM-11:00 PM;Thursday:10:00 AM-11:00 PM;Friday:10:00 AM-11:00 PM;Saturday:10:00 AM-11:00 PM;Sunday:11:00 AM-11:00 PM;,,
,8561,2800 S. Texas Avenue,,College Station,TX,77845,USA,979-680-1533,30.5989352,-96.3010733,,,
,455,3800 Andrews Highway,,Odessa,TX,79762,USA,(432) 362-6413,31.8799512,-102.3839024,Monday:10:00 AM-10:00 PM;Tuesday:10:00 AM-10:00 PM;Wednesday:10:00 AM-10:00 PM;Thursday:10:00 AM-10:00 PM;Friday:10:00 AM-11:00 PM;Saturday:10:00 AM-11:00 PM;Sunday:10:00 AM-10:00 PM;,,
,50,620 N. Dixie Blvd.,,Odessa,TX,79761,USA,(432) 332-1283,31.856151,-102.358568,Monday:10:00 AM-10:00 PM;Tuesday:10:00 AM-10:00 PM;Wednesday:10:00 AM-10:00 PM;Thursday:10:00 AM-10:00 PM;Friday:10:00 AM-11:00 PM;Saturday:10:00 AM-11:00 PM;Sunday:10:00 AM-10:00 PM;,,
,1597,617 4th Avenue,,York,AL,36925,USA,205-392-7533,32.48917410000001,-88.2971628,,,
,803,1336 N. County Road W.,,Odessa,TX,79763,USA,(432) 333-5727,31.848922,-102.3913823,Monday:10:00 AM-10:00 PM;Tuesday:10:00 AM-10:00 PM;Wednesday:10:00 AM-10:00 PM;Thursday:10:00 AM-10:00 PM;Friday:10:00 AM-11:00 PM;Saturday:10:00 AM-11:00 PM;Sunday:10:00 AM-10:00 PM;,,
,10710,253 Hwy 36 North,,Caldwell,TX,77836,USA,979-567-1400,30.5361087,-96.6921886,,,
,10506,"4401 N. Interstate 35, Suite 896",,Round Rock,TX,78664,USA,512-863-6260,30.5673871,-97.68985149999999,,,
,10493,6280 Hwy 59 S,,Shepherd,TX,77371,USA,(936) 628-2060,30.489262,-94.99529,,,
,10920,10490 W. Interstate 20,,Odessa,TX,79763,USA,432-231-0050,31.7874599,-102.4790539,,,
,10626,1601 E. Whitestone Boulevard,,Cedar Park,TX,78726,USA,512 259-1841,30.529044,-97.8055519,,,
,10738,"1500 S. AW Grimes Boulevard, Unit 300",,Round Rock,TX,78664,USA,(512) 255 - 7755,30.497711,-97.65748,Monday:10:00 AM-10:00 PM;Tuesday:10:00 AM-10:00 PM;Wednesday:10:00 AM-10:00 PM;Thursday:10:00 AM-10:00 PM;Friday:10:00 AM-11:00 PM;Saturday:10:00 AM-11:00 PM;Sunday:10:00 AM-10:00 PM;,,
,10761,401 S. Danville,,Willis,TX,77378,USA,936-856-4948,30.42085,-95.478267,,,
,1308,1720 E. Washington Avenue,,Navasota,TX,77868,USA,(936) 825-3898,30.3962966,-96.07209560000001,,,
,1671,1411 State Street,,Greensboro,AL,36744,USA,(334) 624-8476,32.69866880000001,-87.5927044,Monday:10:00 AM-11:00 PM;Tuesday:10:00 AM-11:00 PM;Wednesday:10:00 AM-11:00 PM;Thursday:10:00 AM-11:00 PM;Friday:10:00 AM-11:00 PM;Saturday:10:00 AM-11:00 PM;Sunday:11:00 AM-11:00 PM;,,
,1099,1211 South Main,,Akron,OH,44301,USA,330-762-3914,41.053479,-81.52776500000002,,,
,10206,13729 Hwy. 183 N. Suite 900,,Austin,TX,78750,USA,512-257-3565,30.459283,-97.7921845,,,
,5386,1600 Wells Branch Parkway,,Austin,TX,78728,USA,512-251-6681,30.440343,-97.6693432,,,
,4964,1316 Hwy 80,,E. Demopolis,AL,36732,USA,334-289-7010,32.4907364,-87.85925460000001,,,
,326,700 South Arlington Street,,Akron,OH,44306,USA,330-724-7797,41.053188,-81.49145899999999,,,
,1504,206 West Houston,,Cleveland,TX,77327,USA,(281) 592-3536,30.3434892,-95.090143,,,
,3639,1203 N. Frazier St.,,Conroe,TX,77301,USA,936-756-4606,30.3203522,-95.46484819999999,,,
,3618,100 E. Presley Blvd.,,McComb,MS,39648,USA,601-249-0205,31.229617,-90.452439,,,
,765,8545 Research Blvd.,,Austin,TX,78758,USA,(512) 836-0345,30.3607587,-97.7163105,Monday:10:00 AM-10:00 PM;Tuesday:10:00 AM-10:00 PM;Wednesday:10:00 AM-10:00 PM;Thursday:10:00 AM-10:00 PM;Friday:10:00 AM-11:00 PM;Saturday:10:00 AM-11:00 PM;Sunday:10:00 AM-10:00 PM;,,
,2114,618 Shorter Ave.  NW,,Rome,GA,30165,USA,706-290-0200,34.266018,-85.201145,Monday:10:00 AM-11:00 PM;Tuesday:10:00 AM-11:00 PM;Wednesday:10:00 AM-11:00 PM;Thursday:10:00 AM-11:00 PM;Friday:10:00 AM-11:00 PM;Saturday:10:00 AM-11:00 PM;Sunday:10:00 AM-10:00 PM;,,
,713,5339 Cameron Road,,Austin,TX,78723,USA,(512) 458-3426,30.311359,-97.706619,Monday:10:00 AM-10:00 PM;Tuesday:10:00 AM-10:00 PM;Wednesday:10:00 AM-10:00 PM;Thursday:10:00 AM-10:00 PM;Friday:10:00 AM-11:00 PM;Saturday:10:00 AM-11:00 PM;Sunday:10:00 AM-10:00 PM;,,
,602,"410 9th Street, NE",,Canton,OH,44704,USA,330-454-3595,40.804364,-81.36923399999999,,,
,404,325 Beacon St.,,Laurel,MS,39440,USA,601-425-3953,31.6883501,-89.1354752,,,
,3666,6867 U.S. Hwy. 61,,St. Francisville,LA,70775,USA,225-635-5862,30.8490421,-91.38121509999999,,,
,7062,16145 FM 1485 Road,,Conroe,TX,77301,USA,281-689-5747,30.2154925,-95.2782912,,,
,10549,16983 Glen Eagle Drive,,Conroe,TX,77385,USA,936-271-4370,30.2086043,-95.4336026,,,
,1595,2266 W. Pushmataha St,,Butler,AL,36904,USA,(205) 459-7788,32.0963269,-88.2401885,,,
,25,1150 Airport Blvd.,,Austin,TX,78702,USA,(512) 926-1350,30.2737138,-97.6981404,Monday:10:00 AM-10:00 PM;Tuesday:10:00 AM-10:00 PM;Wednesday:10:00 AM-10:00 PM;Thursday:10:00 AM-10:00 PM;Friday:10:00 AM-11:00 PM;Saturday:10:00 AM-11:00 PM;Sunday:10:00 AM-10:00 PM;,,
,10169,19153 I-45 South,,Shenandoah,TX,77385,USA,281-419-4019,30.18772209999999,-95.4526128,,,
,4599,808 E. Battle Street,,Talladega,AL,35160,USA,256) 761-0076,33.439131,-86.084572,,,
,1600,313 S. Main Street,,Linden,AL,36748,USA,334-295-5636,32.3030178,-87.79790039999999,,,
,1334,1041 S. Market Street,,Brenham,TX,77833,USA,979-836-2712,30.1602323,-96.39418239999999,,,
,1570,1801 E. Riverside Drive,,Austin,TX,78741,USA,(512) 443-6079,30.2430468,-97.7298205,Monday:10:00 AM-10:00 PM;Tuesday:10:00 AM-10:00 PM;Wednesday:10:00 AM-10:00 PM;Thursday:10:00 AM-10:00 PM;Friday:10:00 AM-11:00 PM;Saturday:10:00 AM-11:00 PM;Sunday:10:00 AM-10:00 PM;,,
,10840,795 S MAIN ST,,Lumberton,TX,77657,USA,409-227-4052,30.2415416,-94.1958921,,,
,7055,32346 State Hwy 249,,Pinehurst,TX,77362,USA,281-525-3836,30.13653649999999,-95.65520699999999,,,
,10673,20444 Loop 494,,New Caney,TX,77357,USA,281-689-3108,30.149051,-95.21399799999999,,,
,10784,21775 FM 1314,,Porter,TX,77365,USA,281-345-4620,30.1345878,-95.28760799999999,,,
,10425,25110 Richards Road,,Spring,TX,77386,USA,(281) 292-3768,30.1275496,-95.4333704,,,
,386,1945 W. William Cannon-St. 190,,Austin,TX,78745,USA,(512) 445-0330,30.2024914,-97.8063324,Monday:10:00 AM-10:00 PM;Tuesday:10:00 AM-10:00 PM;Wednesday:10:00 AM-10:00 PM;Thursday:10:00 AM-10:00 PM;Friday:10:00 AM-11:00 PM;Saturday:10:00 AM-11:00 PM;Sunday:10:00 AM-10:00 PM;,,
,2004,5309 Nuckols Crossing,,Austin,TX,78744,USA,(512) 462-9560,30.19241,-97.73903,Monday:10:00 AM-10:00 PM;Tuesday:10:00 AM-10:00 PM;Wednesday:10:00 AM-10:00 PM;Thursday:10:00 AM-10:00 PM;Friday:10:00 AM-11:00 PM;Saturday:10:00 AM-11:00 PM;Sunday:10:00 AM-10:00 PM;,,
,10355,905 W. Main St.,,Tomball,TX,77375,USA,281-255-3484,30.092697,-95.6247169,,,
,582,1031 N. Main Street,,Opelousas,LA,70570,USA,(337) 942-4139,30.543966,-92.0804434,Monday:10:00 AM-11:00 PM;Tuesday:10:00 AM-11:00 PM;Wednesday:10:00 AM-11:00 PM;Thursday:10:00 AM-11:00 PM;Friday:10:00 AM-12:00 AM;Saturday:10:00 AM-12:00 AM;Sunday:10:00 AM-11:00 PM;,,
,10358,2349 North Main Street,,Junction,TX,76849,USA,325-446-3148,30.5040264,-99.7782857,,,
,10633,7525 Highway 105,,Beaumont,TX,77713,USA,409-924-0635,30.1331232,-94.1888979,,,
,10682,5275 Louetta Road,,Spring,TX,77379,USA,281-251-9165,30.0365412,-95.4955454,,,
,3601,614 East Main ST,,Fredericksburg,TX,78624,USA,830-997-7333,30.2678531,-98.8614528,,,
,165,1220 Hwy 171 North,,Lake Charles,LA,70601,USA,337-433-9759,30.2537969,-93.1802022,,,
,10557,21502 Aldine Westfield Road,,Humble,TX,77336,USA,281-821-5211,30.0274558,-95.38030599999999,,,
,5506,11931 Spring Cypress,,Tomball,TX,77375,USA,832-717-3110,30.012289,-95.60750999999999,,,
,41,2999 Magnolia,,Beaumont,TX,77703,USA,(409) 835-5270,30.107781,-94.109776,,,
,10770,11105 FM 1960 E,,Huffman,TX,77336,USA,281-764-5037,30.0196662,-95.10544829999999,,,
,10519,15515 Kuykendahl Rd.,,Houston,TX,77090,USA,281-586-9299,30.002596,-95.46075669999999,,,
,10868,14710 Mueschke Rd,,Cypress,TX,77429,USA,832-653-5718,29.9919643,-95.7222194999999,,,
,3942,"9475 FM 1960, Suite B",,Humble,TX,77338,USA,281-446-4533,30.001566,-95.2805724,,,
,235,3095 Calder Avenue,,Beaumont,TX,77702,USA,(409) 835-7281,30.085259,-94.134119,,,
,1674,229 Dowlen,,Beaumont,TX,77706,USA,(409) 860-3846,30.0751603,-94.1730728,,,
,403,1300 N. Main Street,,Hattiesburg,MS,39401,USA,601-582-7622,31.335895,-89.2994049,,,
,3443,307 W. Central Ave.,,Petal,MS,39465,USA,601-582-7311,31.346395,-89.270648,,,
,287,3505 Ryan Street,,Lake Charles,LA,70605,USA,337-478-4258,30.19318509999999,-93.2185987,,,
,10167,10910 Will Clayton Pkwy,,Humble,TX,77396,USA,281-852-0618,29.9779674,-95.2101302,,,
,218,1322 N. 16Th Street,,Orange,TX,77630,USA,(409) 883-7011,30.1035545,-93.7472516,,,
,228,2780 Washington Blvd.,,Beaumont,TX,77705,USA,(409) 835-0603,30.056184,-94.114115,,,
,43,615 Washington Blvd.,,Beaumont,TX,77705,USA,(409) 835-4125,30.057956,-94.08793600000001,,,
,4888,12004 Veterans Memorial Drive,,Houston,TX,77067,USA,281-537-1979,29.9579301,-95.47559299999999,,,
,3167,5310 Main Street,,Zachary,LA,70791,USA,225-654-2084,30.647357,-91.1481988,,,
,10669,8255-A Mills Road,,Houston,TX,77064,USA,832-688-8089,29.9528266,-95.5465339,,,
,5971,743 North Sam Houston Pkwy E,,Houston,TX,77060,USA,281-405-8791,29.9399946,-95.383825,,,
,10782,392 N. Sam Houston Pkwy E #D,,Houston,TX,77060,USA,281-448-1900,29.9386354,-95.39796199999999,,,
,1624,6810 Reserve A-Hwy 6 S.,,Houston,TX,77083,USA,281-568-6014,29.9323036,-95.5382334,,,
,7315,8011-A East North Belt Drive,,Humble,TX,77396,USA,281-441-1200,29.9393159,-95.2724277,,,
,5661,13648 Hwy 249,,Houston,TX,77086,USA,281-272-9131,29.9202079,-95.4932312,,,
,10809,16902 Tuckerton Road,,Houston,TX,77095,USA,281-758-1573,29.91634329999999,-95.6449586,,,
,11023,9825 Jones Road,,Houston,TX,77064,USA,,29.9169338,-95.5847778,,,
,10555,10186 Veterans Memorial Dr.,,Houston,TX,77038,USA,281-448-4334,29.920122,-95.44533899999999,,,
,10798,13955 E. Sam Houston Parkway North,,Houston,TX,77044,USA,281-458-0701,29.923921,-95.20089100000001,,,
,10683,1805 Texas Ave,,Bridge City,TX,77611,USA,409-738-3567,30.0385493,-93.8279381,,,
,600,1104 Main Street,,Baker,LA,70714,USA,(225) 774-2543,30.5864814,-91.1684441,Monday:10:00 AM-10:00 PM;Tuesday:10:00 AM-10:00 PM;Wednesday:10:00 AM-10:00 PM;Thursday:10:00 AM-10:00 PM;Friday:10:00 AM-11:00 PM;Saturday:10:00 AM-11:00 PM;Sunday:10:00 AM-10:00 PM;,,
,4558,5125 Aldine Mail Route Rd.,,Houston,TX,77039,USA,281-442-8886,29.9028981,-95.31542189999999,,,
,523,1208 Broad Street,,Selma,AL,36701,USA,(334) 877-1129,32.4174999,-87.0238,Monday:10:00 AM-10:00 PM;Tuesday:10:00 AM-10:00 PM;Wednesday:10:00 AM-10:00 PM;Thursday:10:00 AM-10:00 PM;Friday:10:00 AM-12:00 AM;Saturday:10:00 AM-12:00 AM;Sunday:10:00 AM-10:00 PM;,,
,10491,8011 Antoine Dr.,,Houston,TX,77088,USA,281-445-0447,29.8850694,-95.4740305,,,
,10363,13111 HWY 529,,Houston,TX,77041,USA,(713) 466-8900,29.8790187,-95.6090554,,,
,1555,13821 FM 2100 Rd.,,Crosby,TX,77532,USA,281-328-5101,29.8886478,-95.0628845,,,
,10625,6201 N. Fry Road,,Katy,TX,77449,USA,281 855 1155,29.865046,-95.721149,,,
,705,930 Nederland Ave,,Nederland,TX,77627,USA,(409) 727-1333,29.9773234,-93.9868271,,,
,1119,202 West Little York Rd,,Houston,TX,77076,USA,713-695-5235,29.8701922,-95.40092609999999,,,
,4490,6962 TC Jester Blvd.,,Houston,TX,77091,USA,713-263-7755,29.86345,-95.4587044,,,
,4143,10401 Jensen Drive,,Houston,TX,77093,USA,713-697-5997,29.8636635,-95.33452229999999,,,
,7056,7895 A West Tidwell Road,,Houston,TX,77040,USA,713-690-1119,29.8503923,-95.511006,,,
,1495,925 E. Tidwell,,Houston,TX,77022,USA,(713) 692-0247,29.84576,-95.3849709,,,
,3642,105 W. Gloria Switch Rd.,,Lafayette,LA,70507,USA,337-235-4003,30.295158,-92.027384,,,
,10476,8827  E. Sam Houston Pkwy North,,Houston,TX,77044,USA,281-458-9090,29.8527262,-95.1875302,,,
,1117,9403 Homestead,,Houston,TX,77016,USA,713-635-3229,29.847366,-95.30255299999999,,,
,10586,17225 Crosby Freeway,,Houston,TX,77049,USA,281 456 7600,29.8547697,-95.1289384,,,
,1122,5207 N Sheppard Dr,,Houston,TX,77018,USA,713-697-4103,29.8414567,-95.4110032,,,
,1083,8926 Jensen,,Houston,TX,77093,USA,(713) 692-2374,29.84225899999999,-95.34252699999999,,,
,1556,9122 Mesa Drive,,Houston,TX,77028,USA,(713) 633-0144,29.84495,-95.261894,,,
,5309,11778 Clay Road,,Houston,TX,77043,USA,713-849-2362,29.8323964,-95.56944299999999,,,
,1478,425 Crosstimbers,,Houston,TX,77022,USA,713-695-4372,29.8284505,-95.3977355,,,
,10477,9481 Kempwood Dr,,Houston,TX,77080,USA,713-996-7370,29.821637,-95.525511,,,
,5878,1290 W. Front Street North,,Thomasville,AL,36784,USA,334 636-8182,31.9191233,-87.7349892,,,
,3687,34000 Louisiana Hwy. 16,,Denham Sprgs.,LA,70726,USA,225-665-0084,30.56152699999999,-90.95559209999999,,,
,720,5460 Airline Hwy.,,Baton Rouge,LA,70814,USA,225-355-2636,30.5063351,-91.1357796,Monday:10:00 AM-11:00 PM;Tuesday:10:00 AM-11:00 PM;Wednesday:10:00 AM-11:00 PM;Thursday:10:00 AM-11:00 PM;Friday:10:00 AM-11:00 PM;Saturday:10:00 AM-11:00 PM;Sunday:10:00 AM-11:00 PM;,,
,1466,3334 Mangum,,Houston,TX,77092,USA,(713) 681-7237,29.819265,-95.459107,,,
,1172,5415 Plank Road,,Baton Rouge,LA,70805,USA,225-357-1555,30.498814,-91.1534165,Monday:10:00 AM-11:00 PM;Tuesday:10:00 AM-11:00 PM;Wednesday:10:00 AM-11:00 PM;Thursday:10:00 AM-11:00 PM;Friday:10:00 AM-11:00 PM;Saturday:10:00 AM-11:00 PM;Sunday:10:00 AM-11:00 PM;,,
,4321,2323 Wirt Road,,Houston,TX,77055,USA,713-463-7747,29.8154477,-95.4870907,,,
,6,345 N. Acadian Thruway,,Baton Rouge,LA,70806,USA,(225) 387-3001,30.503045,-91.112857,Monday:10:00 AM-11:00 PM;Tuesday:10:00 AM-11:00 PM;Wednesday:10:00 AM-11:00 PM;Thursday:10:00 AM-11:00 PM;Friday:10:00 AM-12:00 AM;Saturday:10:00 AM-12:00 AM;Sunday:10:00 AM-11:00 PM;,,
,4004,1701 St. Mary Street,,Scott,LA,70583,USA,337-261-9743,30.24196599999999,-92.10466090000001,,,
,10347,5815 Franz Rd.,,Katy,TX,77493,USA,281-395-3777,29.8015061,-95.82263499999999,,,
,1254,2305 Fry Road,,Katy,TX,77449,USA,(281) 578-3403,29.8021791,-95.7196232,,,
,1181,5725 Lockwood,,Houston,TX,77026,USA,(713) 635-2025,29.811806,-95.317707,,,
,891,1849 Jefferson Drive,,Port Arthur,TX,77642,USA,(409) 982-5688,29.919743,-93.911176,,,
,10754,1602 N. University Ave.,,Lafayette,LA,70506,USA,337-534-8354,30.2499241,-92.0346764,,,
,1492,4701 Irvington Blvd,,Houston,TX,77009,USA,(713) 694-7522,29.8036926,-95.3613637,,,
,10907,16151 W Interstate 10 East,,Baytown,TX,77523,USA,281-576-4600,29.8248403,-94.87095409999999,,,
,1608,10080 Long Point,,Houston,TX,77055,USA,(713) 467-5310,29.7942748,-95.5438128,,,
,9907,618 North Alexander Avenue,,Port Allen,LA,70767,USA,225-383-3277,30.4575471,-91.2106108,Monday:10:00 AM-10:00 PM;Tuesday:10:00 AM-10:00 PM;Wednesday:10:00 AM-10:00 PM;Thursday:10:00 AM-10:00 PM;Friday:10:00 AM-11:00 PM;Saturday:10:00 AM-11:00 PM;Sunday:10:00 AM-10:00 PM;,,
,1090,3501 Jensen Drive,,Houston,TX,77026,USA,713-228-7817,29.7941116,-95.34244819999999,,,
,10701,205 Waller Avenue,,Brookshire,TX,77423,USA,281-934-1001,29.78108379999999,-95.9508317,,,
,1553,354 Uvalde,,Houston,TX,77015,USA,713-455-3102,29.7947942,-95.18620899999999,,,
,1163,2706 Fulton,,Houston,TX,77009,USA,(713) 228-1211,29.7863631,-95.3603048,,,
,30,2000 Gulfway Drive,,Port Arthur,TX,77640,USA,(409) 982-4175,29.8917502,-93.93538579999999,,,
,70,212 SE Evangeline Thruway,,Lafayette,LA,70501,USA,(337) 235-4003,30.227141,-92.01199,Monday:10:00 AM-10:00 PM;Tuesday:10:00 AM-10:00 PM;Wednesday:10:00 AM-10:00 PM;Thursday:10:00 AM-10:00 PM;Friday:10:00 AM-11:00 PM;Saturday:10:00 AM-11:00 PM;Sunday:10:00 AM-10:00 PM;,,
,10858,1410 W Grand Parkway,,Katy,TX,77449,USA,281-574-7251,29.7620082,-95.7766514,,,
,1763,206 Sidney Baker South,,Kerrville,TX,78028,USA,830-257-3333,30.043529,-99.14494599999999,,,
,7360,415 Sheldon Road,,Channelview,TX,77530,USA,281-452-3636,29.7788061,-95.12487499999999,,,
,10478,12802 E. Freeway,,Houston,TX,77015,USA,713-330-8400,29.7708885,-95.20621760000002,,,
,7054,1585 South Hwy 6,,Houston,TX,77077,USA,832-379-4901,29.7565021,-95.6444765,,,
,721,5728 Government Street,,Baton Rouge,LA,70806,USA,225-925-5118,30.4446747,-91.13138029999999,,,
,1558,10397 Market St.,,Jacinto City,TX,77029,USA,(713) 673-7177,29.7675503,-95.24540499999999,,,
,3201,1015 North Highway 666,,Gallup,NM,87301,USA,505-722-0928,35.5355934,-108.7565102,,,
,3952,9404 N. Freeway 45 @ FM 249,,Houston,TX,77037,USA,281-405-9033,29.7601927,-95.36938959999999,,,
,4711,5600 Mykawa Rd./Fiesta #5,,Houston,TX,77033,USA,713-643-6293,29.7601927,-95.36938959999999,,,
,4853,15811 JFK Blvd.,,Houston,TX,77032,USA,281-219-0480,29.7601927,-95.36938959999999,,,
,719,10785 Florida Blvd,,Baton Rouge,LA,70815,USA,225-272-8510,30.4582515,-91.0646442,Monday:10:00 AM-11:00 PM;Tuesday:10:00 AM-11:00 PM;Wednesday:10:00 AM-11:00 PM;Thursday:10:00 AM-11:00 PM;Friday:10:00 AM-12:00 AM;Saturday:10:00 AM-12:00 AM;Sunday:10:00 AM-11:00 PM;,,
,1470,12350 Westheimer Rd Suite N,,Houston,TX,77077-6067,USA,281-497-7684,29.73709029999999,-95.60013,,,
,1143,309 S. Lockwood,,Houston,TX,77011,USA,(713) 921-4140,29.7441971,-95.3279633,,,
,4720,3503 Gulf Freeway,,Houston,TX,77003,USA,713-222-0642,29.7364762,-95.34744239999999,,,
,2119,1504 S. Range Ave,,Denham Springs,LA,70726,USA,225-667-6621,30.4661382,-90.9565098,Monday:10:00 AM-11:00 PM;Tuesday:10:00 AM-11:00 PM;Wednesday:10:00 AM-11:00 PM;Thursday:10:00 AM-11:00 PM;Friday:10:00 AM-11:00 PM;Saturday:10:00 AM-11:00 PM;Sunday:10:00 AM-11:00 PM;,,
,4317,4200 San Jacinto ST,,Houston,TX,77004,USA,713-529-3951,29.7336867,-95.3801946,,,
,1102,7445 Harrisburg,,Houston,TX,77011,USA,(713) 921-1318,29.7329106,-95.2922858,,,
,1104,1931 Garth Road,,Baytown,TX,77521,USA,281-422-5030,29.746362,-94.9774583,,,
,1473,6008 Chimney Rock,,Houston,TX,77081,USA,713-664-4416,29.7163133,-95.4765051,,,
,1482,6000 S. Gessner Road,,Houston,TX,77036,USA,713-988-0106,29.7138708,-95.53939179999999,,,
,3903,6200 Bellaire Blvd.,,Houston,TX,77081,USA,713-541-6170,29.7064857,-95.4913918,,,
,1471,410 S. Richey Street,,Pasadena,TX,77506,USA,713-920-1105,29.715345,-95.2168233,,,
,4882,131 North Park Street,,Carrollton,GA,30117,USA,(770) 836-4908,33.581588,-85.07791,,,
,1548,3207 Old Spanish Trail,,Houston,TX,77021,USA,713-748-8779,29.7010679,-95.3766553,,,
,1491,7020 Woodridge,,Houston,TX,77087,USA,(713) 649-7852,29.7034527,-95.29342009999999,,,
,1154,4575 Griggs Rd,,Houston,TX,77021,USA,(713) 748-6498,29.701245,-95.34580799999999,,,
,1450,8015 Beechnut,,Houston,TX,77036,USA,(713) 772-1306,29.6920019,-95.5284844,,,
,10338,13548 Beechnut Street,,Houston,TX,77083,USA,281-983-9400,29.689017,-95.61999999999999,,,
,4118,2560 Highway 71 South,,Columbus,TX,78934,USA,979-732-6356,29.6898283,-96.5385108,,,
,10780,901 S. Eagle Street,,Weimar,TX,78962,USA,979-725-5013,29.6927737,-96.7762473,,,
,1528,929 E. Southmore,,Pasadena,TX,77502,USA,713-473-6467,29.691111,-95.201245,,,
,1486,10803 Bissonnet,,Houston,TX,77099,USA,(281) 933-1651,29.673781,-95.568782,,,
,1520,102 E. San Augustine,,Deer Park,TX,77536,USA,281-479-9526,29.6892355,-95.1230994,,,
,3837,9958 Burbank Dr,,Baton Rouge,LA,70810,USA,225-766-8030,30.3569611,-91.1175952,,,
,6099,10017 Texas 6 South,,Sugar Land,TX,77478,USA,281-564-2456,29.6690117,-95.64254249999999,,,
,1105,2401 S. Shaver,,Pasadena,TX,77502,USA,(713) 943-1576,29.6755188,-95.2077027,,,
,1089,6405 Telephone Rd,,Houston,TX,77061,USA,(713) 649-2931,29.6710709,-95.28875380000001,,,
,1293,8841 Cullen Blvd,,Houston,TX,77051,USA,(713) 738-5078,29.663552,-95.35522399999999,,,
,1475,11121 Fondren Rd,,Houston,TX,77096,USA,(713) 995-5412,29.6583011,-95.50809509999999,,,
,10238,5234 Spencer Highway,,Pasadena,TX,77505,USA,281-998-8398,29.6649372,-95.1611444,,,
,1065,1213 College,,South Houston,TX,77587,USA,(713) 946-1805,29.65692,-95.24480899999999,,,
,1557,12512 Highway 90,,Houston,TX,77049,USA,713-458-5341,29.6476359,-95.46345649999999,,,
,9932,12602 Southwest Freeway,,Stafford,TX,77477,USA,281-494-2984,29.639501,-95.582171,,,
,5251,18149 Highland Road,,Baton Rouge,LA,70810,USA,225-751-6878,30.3506953,-91.0248245,,,
,10976,10901 Fairmont Pkwy,,La Porte,TX,77571,USA,,29.6520907,-95.0644306,,,
,732,75 S. Marietta Pkwy.,,Marietta,GA,30060,USA,(770) 424-1193,33.94964,-84.55078999999999,Monday:10:00 AM-11:00 PM;Tuesday:10:00 AM-11:00 PM;Wednesday:10:00 AM-11:00 PM;Thursday:10:00 AM-11:00 PM;Friday:10:00 AM-12:00 AM;Saturday:10:00 AM-12:00 AM;Sunday:10:00 AM-10:00 PM;,,
,1282,400 Memorial Drive,,Prattville,AL,36067,USA,(334) 365-2444,32.46206069999999,-86.4509346,Monday:10:00 AM-10:00 PM;Tuesday:10:00 AM-10:00 PM;Wednesday:10:00 AM-10:00 PM;Thursday:10:00 AM-10:00 PM;Friday:10:00 AM-11:00 PM;Saturday:10:00 AM-11:00 PM;Sunday:10:00 AM-10:00 PM;,,
,3072,Junction State Route 264 and Route 12,,Window Rock,AZ,86515,USA,928-871-5780,35.663412,-109.056964,,,
,1454,3200 S. Main,,Stafford,TX,77477,USA,(281) 499-2014,29.617655,-95.562955,,,
,1452,14450 S. Post Oak,,Houston,TX,77045,USA,(713) 433-0943,29.6166799,-95.465279,,,
,10189,13350 Alameda Rd.,,Houston,TX,77045,USA,713-434-0916,29.6140612,-95.41996999999999,,,
,920,6135 Fairburn Road,,Douglasville,GA,30134,USA,770-942-6009,33.7508659,-84.7331133,,,
,7185,1610 South West Railroad Ave.,,Hammond,LA,70403,USA,985-542-0692,30.48928119999999,-90.456876,Monday:10:00 AM-11:00 PM;Tuesday:10:00 AM-11:00 PM;Wednesday:10:00 AM-11:00 PM;Thursday:10:00 AM-11:00 PM;Friday:10:00 AM-12:00 AM;Saturday:10:00 AM-12:00 AM;Sunday:10:00 AM-11:00 PM;,,
,10649,10658 Monroe Road,,Houston,TX,77075,USA,713-987-5744,29.6114186,-95.26717860000001,,,
,754,3720 Austell Rd. SW,,Marietta,GA,30008,USA,770-436-9126,33.8628969,-84.596953,Monday:10:00 AM-11:00 PM;Tuesday:10:00 AM-11:00 PM;Wednesday:10:00 AM-11:00 PM;Thursday:10:00 AM-11:00 PM;Friday:10:00 AM-12:00 AM;Saturday:10:00 AM-12:00 AM;Sunday:10:00 AM-10:00 PM;,,
,1468,1949 FM 2234,,Missouri City,TX,77489,USA,281-499-4694,29.5995832,-95.5268004,,,
,1476,11334 Hughes Rd,,Houston,TX,77089,USA,(281) 481-8825,29.598915,-95.215693,,,
,1792,428 West Bandera,,Boerne,TX,78006,USA,830-249-1527,29.781247,-98.73584,,,
,518,824 W. San Antonio Street,,New Braunfels,TX,78130,USA,(830) 609-1100,29.6964586,-98.1312282,Monday:10:00 AM-10:00 PM;Tuesday:10:00 AM-10:00 PM;Wednesday:10:00 AM-10:00 PM;Thursday:10:00 AM-10:00 PM;Friday:10:00 AM-11:00 PM;Saturday:10:00 AM-11:00 PM;Sunday:10:00 AM-10:00 PM;,,
,1451,4823 Avenue H,,Rosenberg,TX,77471,USA,281-341-7810,29.568428,-95.7795979,,,
,10690,570 Thornton Road,,Lithia Springs,GA,30122,USA,770-941-6077,33.790275,-84.62397399999999,,,
,10448,1909 North Main Street  #115,,Pearland,TX,77581,USA,281-485-5611,29.574219,-95.285679,,,
,4270,2121 N. College Avenue,,Jackson,AL,36545,USA,251-246-7724,31.5322696,-87.8908543,,,
,10859,7201 W. Broadway Street,,Pearland,TX,77581,USA,832-853-7189,29.559388,-95.33044989999999,,,
,4609,4770 U.S. 31,,Montgomery,AL,36108,USA,(334) 281-2840,32.4002029,-86.3997225,Monday:10:00 AM-10:00 PM;Tuesday:10:00 AM-10:00 PM;Wednesday:10:00 AM-10:00 PM;Thursday:10:00 AM-10:00 PM;Friday:10:00 AM-11:00 PM;Saturday:10:00 AM-11:00 PM;Sunday:10:00 AM-10:00 PM;,,
,1481,1201 Bay Area Blvd.,,League City,TX,77058,USA,281-486-1555,29.5576983,-95.1178059,,,
,3544,Indian Route 7,,Chinle,AZ,86503,USA,928-674-3450,36.4979222,-109.7813264,,,
,10616,12320 Highway 6,,Fresno,TX,77545,USA,281-431-5200,29.52869729999999,-95.5023691,,,
,3932,351 Six Flags Drive,,Austell,GA,30168,USA,770-745-9955,33.776945,-84.56579099999999,,,
,519,601 W. St. Peter,,New Iberia,LA,70560,USA,(337) 364-5114,30.0108415,-91.8250664,Monday:10:00 AM-11:00 PM;Tuesday:10:00 AM-11:00 PM;Wednesday:10:00 AM-11:00 PM;Thursday:10:00 AM-11:00 PM;Friday:10:00 AM-12:00 AM;Saturday:10:00 AM-12:00 AM;Sunday:10:00 AM-11:00 PM;,,
,1281,2915 Lower Wetumpka Road,,Montgomery,AL,36110,USA,(334) 265-1563,32.4158359,-86.28613050000001,Monday:10:00 AM-10:00 PM;Tuesday:10:00 AM-10:00 PM;Wednesday:10:00 AM-10:00 PM;Thursday:10:00 AM-10:00 PM;Friday:10:00 AM-11:00 PM;Saturday:10:00 AM-11:00 PM;Sunday:10:00 AM-10:00 PM;,,
,4478,3515 Day Street,,Montgomery,AL,36108,USA,334-265-6800,32.3690028,-86.3458066,Monday:10:00 AM-10:00 PM;Tuesday:10:00 AM-10:00 PM;Wednesday:10:00 AM-10:00 PM;Thursday:10:00 AM-10:00 PM;Friday:10:00 AM-10:00 PM;Saturday:10:00 AM-10:00 PM;Sunday:10:00 AM-10:00 PM;,,
,59,1144 Adams Avenue,,Montgomery,AL,36104,USA,(334) 264-0550,32.375083,-86.291796,Monday:10:00 AM-10:00 PM;Tuesday:10:00 AM-10:00 PM;Wednesday:10:00 AM-10:00 PM;Thursday:10:00 AM-10:00 PM;Friday:10:00 AM-10:00 PM;Saturday:10:00 AM-10:00 PM;Sunday:10:00 AM-10:00 PM;,,
,725,3561 Martin Luther King Jr Dr SW,,Atlanta,GA,30331,USA,(404) 696-8674,33.758967,-84.50415199999999,Monday:10:00 AM-12:00 AM;Tuesday:10:00 AM-12:00 AM;Wednesday:10:00 AM-12:00 AM;Thursday:10:00 AM-12:00 AM;Friday:10:00 AM-1:00 AM;Saturday:10:00 AM-1:00 AM;Sunday:10:00 AM-10:00 PM;,,
,10229,17510 Morris Avenue,,Manvel,TX,77578,USA,281-692-0000,29.4771234,-95.3853177,,,
,4655,1014 Main Street,,Bandera,TX,78003,USA,830-796-3351,29.7306658,-99.0772114,,,
,496,311 West Fairview Avenue,,Montgomery,AL,36105,USA,(334) 262-3032,32.351434,-86.3121419999999,Monday:10:00 AM-10:00 PM;Tuesday:10:00 AM-10:00 PM;Wednesday:10:00 AM-10:00 PM;Thursday:10:00 AM-10:00 PM;Friday:10:00 AM-11:00 PM;Saturday:10:00 AM-11:00 PM;Sunday:10:00 AM-10:00 PM;,,
,471,404 W. Court Street,,Seguin,TX,78155,USA,(830) 379-8166,29.5691512,-97.9688824,Monday:10:00 AM-10:00 PM;Tuesday:10:00 AM-10:00 PM;Wednesday:10:00 AM-10:00 PM;Thursday:10:00 AM-10:00 PM;Friday:10:00 AM-11:00 PM;Saturday:10:00 AM-11:00 PM;Sunday:10:00 AM-10:00 PM;,,
,10824,"15171 Judson Road, Suite 101",,San Antonio,TX,78247,USA,210-637-6300,29.6206939,-98.3994364,,,
,1477,2401 Main St,,Dickinson,TX,77539,USA,(281) 337-2755,29.4607688,-95.0510339,,,
,727,3667 Campbelton Rd SW,,Atlanta,GA,30331,USA,(404) 344-8012,33.690343,-84.508079,,,
,98,860 Bankhead Hwy,,Atlanta,GA,30318,USA,(404) 872-6800,33.7781701,-84.4074696,,,
,3878,4995 Buford Highway,,Chamblee,GA,30341,USA,(770) 454-9404,33.887671,-84.28659999999999,Monday:10:00 AM-11:00 PM;Tuesday:10:00 AM-11:00 PM;Wednesday:10:00 AM-11:00 PM;Thursday:10:00 AM-11:00 PM;Friday:10:00 AM-11:00 PM;Saturday:10:00 AM-11:00 PM;Sunday:10:00 AM-10:00 PM;,,
,4979,6826 Atlanta Hwy,,Montgomery,AL,36117,USA,334-395-4499,32.3823345,-86.17932239999999,Monday:10:00 AM-10:00 PM;Tuesday:10:00 AM-10:00 PM;Wednesday:10:00 AM-10:00 PM;Thursday:10:00 AM-10:00 PM;Friday:10:00 AM-11:00 PM;Saturday:10:00 AM-11:00 PM;Sunday:10:00 AM-10:00 PM;,,
,4608,2450 East South Blvd,,Montgomery,AL,36116,USA,(334) 280-2224,32.3266,-86.258089,Monday:10:00 AM-10:00 PM;Tuesday:10:00 AM-10:00 PM;Wednesday:10:00 AM-10:00 PM;Thursday:10:00 AM-10:00 PM;Friday:10:00 AM-11:00 PM;Saturday:10:00 AM-11:00 PM;Sunday:10:00 AM-10:00 PM;,,
,745,"629 Cascade Avenue, SW",,Atlanta,GA,30310,USA,404-752-7878,33.738501,-84.435408,,,
,747,1796 Delowe Drive,,Atlanta,GA,30311,USA,404-755-4614,33.7058643,-84.4572737,,,
,1268,917 Pat Booker Road,,Universal City,TX,78148,USA,(210) 658-7141,29.5490875,-98.2939485,Monday:10:00 AM-10:00 PM;Tuesday:10:00 AM-10:00 PM;Wednesday:10:00 AM-10:00 PM;Thursday:10:00 AM-10:00 PM;Friday:10:00 AM-11:00 PM;Saturday:10:00 AM-11:00 PM;Sunday:10:00 AM-10:00 PM;,,
,760,"538 Lee Street, S.W.",,Atlanta,GA,30310,USA,404-753-8450,33.74036,-84.41372899999999,,,
,4543,20 Hospital Rd.,,Newnan,GA,30263,USA,770-254-0909,33.3876,-84.818107,,,
,1754,600 EE Butler Pkwy.,,Gainesville,GA,30501,USA,770-534-1059,34.296612,-83.82082199999999,,,
,10743,3271 Camp Creek Parkway,,East Point,GA,30344,USA,404-530-7785,33.6554004,-84.49579899999999,,,
,1519,1701 Fairway,,Alvin,TX,77511,USA,(281) 331-2677,29.407013,-95.2315271,,,
,1588,7307 North Loop 1604 W.,,San Antonio,TX,78249,USA,210-695-2109,29.5835342,-98.64117619999999,,,
,564,11910 Perrin Beitel Rd,,San Antonio,TX,78217,USA,(210) 653-2510,29.5482127,-98.40839729999999,Monday:10:00 AM-11:00 PM;Tuesday:10:00 AM-11:00 PM;Wednesday:10:00 AM-11:00 PM;Thursday:10:00 AM-11:00 PM;Friday:10:00 AM-11:00 PM;Saturday:10:00 AM-11:00 PM;Sunday:10:00 AM-11:00 PM;,,
,4680,6111 S. Norcross Tucker Rd.,,Norcross,GA,30093,USA,770-723-6215,33.896386,-84.21015799999999,,,
,1490,2303 25th Ave N,,Texas City,TX,77590,USA,(409) 948-0897,29.4080261,-94.9271156,,,
,565,11623 West Avenue,,San Antonio,TX,78213,USA,(210) 342-7172,29.546274,-98.509486,Monday:10:00 AM-11:00 PM;Tuesday:10:00 AM-11:00 PM;Wednesday:10:00 AM-11:00 PM;Thursday:10:00 AM-11:00 PM;Friday:10:00 AM-11:00 PM;Saturday:10:00 AM-11:00 PM;Sunday:10:00 AM-11:00 PM;,,
,818,911 Cleveland Ave,,East Point,GA,30344,USA,(404) 767-1011,33.681768,-84.419027,,,
,1263,9090 FM 78,,Converse,TX,78109,USA,210-658-6008,29.5086849,-98.30848569999999,,,
,1465,13530 Texas 6,,Santa Fe,TX,77510,USA,(409) 925-8010,29.37987,-95.108662,,,
,626,5148 Old National Hwy.,,College Park,GA,30349,USA,404-763-4221,33.6147436,-84.4722824,,,
,696,4925 Walzem Rd,,San Antonio,TX,78218,USA,(210) 656-4726,29.5105826,-98.3933376,Monday:10:00 AM-10:00 PM;Tuesday:10:00 AM-10:00 PM;Wednesday:10:00 AM-10:00 PM;Thursday:10:00 AM-10:00 PM;Friday:10:00 AM-11:00 PM;Saturday:10:00 AM-11:00 PM;Sunday:10:00 AM-10:00 PM;,,
,4537,1901 FM 1765,,LaMarque,TX,77568,USA,409-933-1900,29.3789446,-94.9719525,,,
,87,200 Cleveland Ave SW,,Atlanta,GA,30315,USA,(404) 763-8673,33.6801787,-84.39585550000001,,,
,568,9331 Wurzbach,,San Antonio,TX,78240,USA,(210) 696-9735,29.529514,-98.564353,Monday:10:00 AM-11:00 PM;Tuesday:10:00 AM-11:00 PM;Wednesday:10:00 AM-11:00 PM;Thursday:10:00 AM-11:00 PM;Friday:10:00 AM-11:00 PM;Saturday:10:00 AM-11:00 PM;Sunday:10:00 AM-11:00 PM;,,
,1319,"1045 West Frontage Road, Expressway  83",,Alamo,TX,78516,USA,(956) 781-2493,29.5195075,-98.4952786,Monday:10:00 AM-11:00 PM;Tuesday:10:00 AM-11:00 PM;Wednesday:10:00 AM-11:00 PM;Thursday:10:00 AM-11:00 PM;Friday:10:00 AM-12:00 AM;Saturday:10:00 AM-12:00 AM;Sunday:10:00 AM-11:00 PM;,,
,168,1405 Moreland Ave SE,,Atlanta,GA,30316,USA,(404) 622-7207,33.7157147,-84.3499916,,,
,10830,"1880 Mountain Industrial Blvd, Ste. A-1",,Tucker,GA,30084,USA,770-939-7689,33.8382189,-84.2015965,,,
,1246,8757 Huebner Rd,,San Antonio,TX,78240,USA,(210) 699-0673,29.5234274,-98.6005605,Monday:10:00 AM-10:00 PM;Tuesday:10:00 AM-10:00 PM;Wednesday:10:00 AM-10:00 PM;Thursday:10:00 AM-10:00 PM;Friday:10:00 AM-11:00 PM;Saturday:10:00 AM-11:00 PM;Sunday:10:00 AM-10:00 PM;,,
,1458,2400 N. Richmond Rd,,Wharton,TX,77488,USA,(979) 532-5150,29.33488539999999,-96.0931494,,,
,10428,2602 N.W. Loop 410,,San Antonio,TX,78230,USA,210-979-8700,29.510692,-98.535709,,,
,1601,4288 Main Street,,Lucedale,MS,39452,USA,601-947-9587,30.9247695,-88.5952495,,,
,1258,4747 Rittiman Road,,San Antonio,TX,78218,USA,210-653-4183,29.4844397,-98.3982736,Monday:10:00 AM-10:00 PM;Tuesday:10:00 AM-10:00 PM;Wednesday:10:00 AM-10:00 PM;Thursday:10:00 AM-10:00 PM;Friday:10:00 AM-11:00 PM;Saturday:10:00 AM-11:00 PM;Sunday:10:00 AM-10:00 PM;,,
,5582,8755 IH 10 Frontage Rd East,,Converse,TX,78109,USA,210-661-6188,29.4676459,-98.2835947,,,
,625,4680 Memorial Drive,,Decatur,GA,30032,USA,404-292-8431,33.78271,-84.2376202,,,
,1572,1001 Rittiman,,San Antonio,TX,78218,USA,210-822-8255,29.4851316,-98.4292818,,,
,1297,9405 Guilbeau,,San Antonio,TX,78250,USA,210-684-1407,29.5192768,-98.6681797,,,
,342,5903 San Pedro Ave.,,San Antonio,TX,78212,USA,(210) 734-3391,29.488464,-98.499657,Monday:10:00 AM-11:00 PM;Tuesday:10:00 AM-11:00 PM;Wednesday:10:00 AM-11:00 PM;Thursday:10:00 AM-11:00 PM;Friday:10:00 AM-11:00 PM;Saturday:10:00 AM-11:00 PM;Sunday:10:00 AM-11:00 PM;,,
,299,2431 Basse Road,,San Antonio,TX,78213,USA,210-344-1422,29.4888313,-98.5254961,,,
,1363,5096 Farm Rd. 78,,Kirby,TX,78219,USA,(210) 661-6823,29.467732,-98.3920749,Monday:10:00 AM-10:00 PM;Tuesday:10:00 AM-10:00 PM;Wednesday:10:00 AM-10:00 PM;Thursday:10:00 AM-10:00 PM;Friday:10:00 AM-11:00 PM;Saturday:10:00 AM-11:00 PM;Sunday:10:00 AM-10:00 PM;,,
,1367,96 Crossroads Blvd,,San Antonio,TX,78201,USA,(210) 732-8598,29.4895772,-98.5502719,Monday:10:00 AM-10:00 PM;Tuesday:10:00 AM-10:00 PM;Wednesday:10:00 AM-10:00 PM;Thursday:10:00 AM-10:00 PM;Friday:10:00 AM-11:00 PM;Saturday:10:00 AM-11:00 PM;Sunday:10:00 AM-10:00 PM;,,
,892,7003 Bandera Road,,Leon Valley,TX,78238,USA,210-681-7114,29.500192,-98.624134,,,
,4818,17950 South 3rd. Street,,Citronelle,AL,36522,USA,251-866-0065,31.066802,-88.235344,,,
,10962,"13323 Culebra Rd, Ste 103",,San Antonio,TX,78254,USA,210-384-2652,29.5168648,-98.76335949999999,,,
,10856,SEC Hwy 160  and Indian Rte 591,,Kayenta,AZ,86033,USA,928-697-3252,36.72777689999999,-110.2545767,,,
,599,2700 Candler Rd,,Decatur,GA,30034,USA,(404) 241-2116,33.7107516,-84.2711525,,,
,733,4498 Jonesboro Rd,,Forest Park,GA,30297,USA,(404) 366-4944,33.632488,-84.35705600000001,,,
,372,1839 W. Hildebrand Ave.,,San Antonio,TX,78201,USA,(210) 732-5430,29.4667194,-98.5257626,Monday:10:00 AM-10:00 PM;Tuesday:10:00 AM-10:00 PM;Wednesday:10:00 AM-10:00 PM;Thursday:10:00 AM-10:00 PM;Friday:10:00 AM-11:00 PM;Saturday:10:00 AM-11:00 PM;Sunday:10:00 AM-10:00 PM;,,
,712,1615 Bandera Rd,,San Antonio,TX,78228,USA,(210) 435-8561,29.469171,-98.5707709,Monday:10:00 AM-11:00 PM;Tuesday:10:00 AM-11:00 PM;Wednesday:10:00 AM-11:00 PM;Thursday:10:00 AM-11:00 PM;Friday:10:00 AM-12:00 AM;Saturday:10:00 AM-12:00 AM;Sunday:10:00 AM-11:00 PM;,,
,1264,8995 Grissom Road,,San Antonio,TX,78251,USA,210-680-6207,29.48177999999999,-98.66068,Monday:10:00 AM-11:00 PM;Tuesday:10:00 AM-11:00 PM;Wednesday:10:00 AM-11:00 PM;Thursday:10:00 AM-11:00 PM;Friday:10:00 AM-11:00 PM;Saturday:10:00 AM-11:00 PM;Sunday:10:00 AM-11:00 PM;,,
,916,213 Northeast Franklin Rd,,Lagrange,GA,30240,USA,(706) 884-3677,33.047236,-85.029496,,,
,1330,4414 Callaghan,,San Antonio,TX,78228,USA,(210) 434-5048,29.4684062,-98.6024896,Monday:10:00 AM-11:00 PM;Tuesday:10:00 AM-11:00 PM;Wednesday:10:00 AM-11:00 PM;Thursday:10:00 AM-11:00 PM;Friday:10:00 AM-11:00 PM;Saturday:10:00 AM-11:00 PM;Sunday:10:00 AM-11:00 PM;,,
,7309,765 Hwy 138 S.W.,,Riverdale,GA,30296,USA,770-909-7752,33.550332,-84.415176,Monday:10:00 AM-11:00 PM;Tuesday:10:00 AM-11:00 PM;Wednesday:10:00 AM-11:00 PM;Thursday:10:00 AM-11:00 PM;Friday:10:00 AM-12:00 AM;Saturday:10:00 AM-12:00 AM;Sunday:10:00 AM-10:00 PM;,,
,94,2856 Culebra road,,San Antonio,TX,78228,USA,(210) 435-0911,29.4481343,-98.5566982,Monday:10:00 AM-11:00 PM;Tuesday:10:00 AM-11:00 PM;Wednesday:10:00 AM-11:00 PM;Thursday:10:00 AM-11:00 PM;Friday:10:00 AM-11:00 PM;Saturday:10:00 AM-11:00 PM;Sunday:10:00 AM-11:00 PM;,,
,9931,4895 Stone Mountain Hwy. Ste A,,Lilburn,GA,30047,USA,770-972-7600,33.8261014,-84.0975856,,,
,424,2473 Wesley Chapel Rd,,Decatur,GA,30035,USA,(770) 981-4779,33.7153579,-84.2162599,,,
,3782,2948 South Alabama Ave.,,Monroeville,AL,36461,USA,251-575-9695,31.4802818,-87.3329371,,,
,1479,4825 Broadway,,Galveston,TX,77550,USA,409-762-7582,29.2920729,-94.82119139999999,,,
,11,219 Zarzamora Street South,,San Antonio,TX,78207,USA,(210) 438-0643,29.4266722,-98.5271329,Monday:10:00 AM-11:00 PM;Tuesday:10:00 AM-11:00 PM;Wednesday:10:00 AM-11:00 PM;Thursday:10:00 AM-11:00 PM;Friday:10:00 AM-11:00 PM;Saturday:10:00 AM-11:00 PM;Sunday:10:00 AM-11:00 PM;,,
,73,1318 S. WW White Rd,,San Antonio,TX,78220,USA,(210) 333-4930,29.409354,-98.405107,Monday:10:00 AM-10:00 PM;Tuesday:10:00 AM-10:00 PM;Wednesday:10:00 AM-10:00 PM;Thursday:10:00 AM-10:00 PM;Friday:10:00 AM-11:00 PM;Saturday:10:00 AM-11:00 PM;Sunday:10:00 AM-10:00 PM;,,
,5429,3632 Flakes Mill Rd.,,Decatur,GA,30034,USA,770-981-9988,33.6802092,-84.2305202,,,
,3,430 S. New Braunfels Ave,,San Antonio,TX,78203,USA,(210) 534-0111,29.41482359999999,-98.4610722,Monday:10:00 AM-10:00 PM;Tuesday:10:00 AM-10:00 PM;Wednesday:10:00 AM-10:00 PM;Thursday:10:00 AM-10:00 PM;Friday:10:00 AM-11:00 PM;Saturday:10:00 AM-11:00 PM;Sunday:10:00 AM-10:00 PM;,,
,10528,970 New Hope Road,,Lawrenceville,GA,30045,USA,678-242-8282,33.9331955,-83.9568527,,,
,900,2026 South Alamo,,San Antonio,TX,78204,USA,210-226-3690,29.4133484,-98.5039834,,,
,4205,6102 Covington Highway,,Decatur,GA,30035,USA,770-987-4395,33.723502,-84.1682469,,,
,2012,9710 Potranco Rd.,,San Antonio,TX,78245,USA,(210) 680-3783,29.4373383,-98.6790427,Monday:10:00 AM-11:00 PM;Tuesday:10:00 AM-11:00 PM;Wednesday:10:00 AM-11:00 PM;Thursday:10:00 AM-11:00 PM;Friday:10:00 AM-11:00 PM;Saturday:10:00 AM-11:00 PM;Sunday:10:00 AM-11:00 PM;,,
,132,1302 Castroville Road,,San Antonio,TX,78237,USA,(210) 433-6871,29.41534249999999,-98.5590729,Monday:10:00 AM-11:00 PM;Tuesday:10:00 AM-11:00 PM;Wednesday:10:00 AM-11:00 PM;Thursday:10:00 AM-11:00 PM;Friday:10:00 AM-12:00 AM;Saturday:10:00 AM-12:00 AM;Sunday:10:00 AM-11:00 PM;,,
,731,2347 Lake Harbin Road,,Morrow,GA,30260,USA,770-968-3999,33.5826557,-84.313256,,,
,893,7919 Marbach Rd,,San Antonio,TX,78227,USA,(210) 673-0080,29.41809199999999,-98.644746,Monday:10:00 AM-11:00 PM;Tuesday:10:00 AM-11:00 PM;Wednesday:10:00 AM-11:00 PM;Thursday:10:00 AM-11:00 PM;Friday:10:00 AM-11:00 PM;Saturday:10:00 AM-11:00 PM;Sunday:10:00 AM-11:00 PM;,,
,10,1209 Steves Avenue,,San Antonio,TX,78210,USA,(210) 532-9112,29.39146999999999,-98.474043,Monday:10:00 AM-11:00 PM;Tuesday:10:00 AM-11:00 PM;Wednesday:10:00 AM-11:00 PM;Thursday:10:00 AM-11:00 PM;Friday:10:00 AM-11:00 PM;Saturday:10:00 AM-11:00 PM;Sunday:10:00 AM-11:00 PM;,,
,10899,12845 Potranco Rd,,San Antonio,TX,78245,USA,210-876-2280,29.4295233,-98.7466886,,,
,718,1601 W. Airline Hwy,,Laplace,LA,70068,USA,(504) 652-2089,30.0726266,-90.4963703,Monday:10:00 AM-11:00 PM;Tuesday:10:00 AM-11:00 PM;Wednesday:10:00 AM-11:00 PM;Thursday:10:00 AM-11:00 PM;Friday:10:00 AM-11:00 PM;Saturday:10:00 AM-11:00 PM;Sunday:10:00 AM-11:00 PM;,,
,1187,1850 S. General Mcmullen Drive,,San Antonio,TX,78226,USA,(210) 432-5851,29.397243,-98.55758929999999,Monday:10:00 AM-11:00 PM;Tuesday:10:00 AM-11:00 PM;Wednesday:10:00 AM-11:00 PM;Thursday:10:00 AM-11:00 PM;Friday:10:00 AM-11:00 PM;Saturday:10:00 AM-11:00 PM;Sunday:10:00 AM-11:00 PM;,,
,97,2525 Nogalitos St,,San Antonio,TX,78225,USA,(210) 932-2525,29.389726,-98.521493,Monday:10:00 AM-11:00 PM;Tuesday:10:00 AM-11:00 PM;Wednesday:10:00 AM-11:00 PM;Thursday:10:00 AM-11:00 PM;Friday:10:00 AM-11:00 PM;Saturday:10:00 AM-11:00 PM;Sunday:10:00 AM-11:00 PM;,,
,10533,608 Fob James Drive # A,,Valley,AL,36854,USA,334-756-2020,32.8177817,-85.2014236,,,
,300,4620 S. Flores St.,,San Antonio,TX,78214,USA,(210) 924-2241,29.3796557,-98.5002055,Monday:10:00 AM-11:00 PM;Tuesday:10:00 AM-11:00 PM;Wednesday:10:00 AM-11:00 PM;Thursday:10:00 AM-11:00 PM;Friday:10:00 AM-11:00 PM;Saturday:10:00 AM-11:00 PM;Sunday:10:00 AM-11:00 PM;,,
,8,1923 Goliad Rd,,San Antonio,TX,78223,USA,(210) 333-8910,29.366613,-98.442366,Monday:10:00 AM-11:00 PM;Tuesday:10:00 AM-11:00 PM;Wednesday:10:00 AM-11:00 PM;Thursday:10:00 AM-11:00 PM;Friday:10:00 AM-11:00 PM;Saturday:10:00 AM-11:00 PM;Sunday:10:00 AM-11:00 PM;,,
,10720,2840 W. Loop 1604 South,,San Antonio,TX,78245,USA,210-677-0360,29.3984282,-98.70349139999999,,,
,1456,606 N. Mechanic,,El Campo,TX,77437,USA,(979) 543-6961,29.1984737,-96.2712966,,,
,2,234 Valley Hi Drive,,San Antonio,TX,78227,USA,(210) 673-2877,29.3821231,-98.6363907,Monday:10:00 AM-10:00 PM;Tuesday:10:00 AM-10:00 PM;Wednesday:10:00 AM-10:00 PM;Thursday:10:00 AM-10:00 PM;Friday:10:00 AM-11:00 PM;Saturday:10:00 AM-11:00 PM;Sunday:10:00 AM-10:00 PM;,,
,9906,305 North Main Street,,Tuskegee,AL,36083,USA,205-752-9351,32.4252777,-85.6920233,,,
,502,195 Gause Blvd.,,Slidell,LA,70458,USA,(985) 649-4542,30.2849443,-89.7773783,Monday:10:00 AM-11:00 PM;Tuesday:10:00 AM-11:00 PM;Wednesday:10:00 AM-11:00 PM;Thursday:10:00 AM-11:00 PM;Friday:10:00 AM-12:00 AM;Saturday:10:00 AM-12:00 AM;Sunday:10:00 AM-11:00 PM;,,
,3404,1003 S.E. Military Dr.,,San Antonio,TX,78214,USA,(210) 927-9389,29.356989,-98.484573,Monday:10:00 AM-12:00 AM;Tuesday:10:00 AM-12:00 AM;Wednesday:10:00 AM-12:00 AM;Thursday:10:00 AM-12:00 AM;Friday:10:00 AM-12:00 AM;Saturday:10:00 AM-12:00 AM;Sunday:10:00 AM-12:00 AM;,,
,9,3119 SW Military Drive,,San Antonio,TX,78224,USA,(210) 923-8431,29.357928,-98.548355,Monday:10:00 AM-10:00 PM;Tuesday:10:00 AM-10:00 PM;Wednesday:10:00 AM-10:00 PM;Thursday:10:00 AM-10:00 PM;Friday:10:00 AM-11:00 PM;Saturday:10:00 AM-11:00 PM;Sunday:10:00 AM-10:00 PM;,,
,1615,2423 Commercial Avenue,,San Antonio,TX,78221,USA,(210) 922-2115,29.3527028,-98.5165091,Monday:10:00 AM-10:00 PM;Tuesday:10:00 AM-10:00 PM;Wednesday:10:00 AM-10:00 PM;Thursday:10:00 AM-10:00 PM;Friday:10:00 AM-11:00 PM;Saturday:10:00 AM-11:00 PM;Sunday:10:00 AM-10:00 PM;,,
,5531,"5408 N. Henry Blvd., Suite #1",,Stockbridge,GA,30281,USA,678-284-0435,33.5498004,-84.2547302,,,
,10971,1200 Columbus Parkway,,Opelika,AL,36804,USA,334-737-0111,32.6439524,-85.349052,,,
,1460,1341 E. Mulberry St.,,Angleton,TX,77515,USA,979-849-3572,29.1730277,-95.4165259,,,
,1278,8459 Five Palms Drive,,San Antonio,TX,78242,USA,(210) 623-5800,29.3465567,-98.6148734,Monday:10:00 AM-10:00 PM;Tuesday:10:00 AM-10:00 PM;Wednesday:10:00 AM-10:00 PM;Thursday:10:00 AM-10:00 PM;Friday:10:00 AM-11:00 PM;Saturday:10:00 AM-11:00 PM;Sunday:10:00 AM-10:00 PM;,,
,1682,2502 Palo Alto Rd,,San Antonio,TX,78211,USA,(210) 924-8712,29.3251609,-98.552031,Monday:10:00 AM-10:00 PM;Tuesday:10:00 AM-10:00 PM;Wednesday:10:00 AM-10:00 PM;Thursday:10:00 AM-10:00 PM;Friday:10:00 AM-11:00 PM;Saturday:10:00 AM-11:00 PM;Sunday:10:00 AM-10:00 PM;,,
,1493,806 S. Columbia,,West Columbia,TX,77486,USA,(979) 345-5427,29.1374445,-95.6529709,,,
,10888,"405 Sigman Road, Suite 100",,Conyers,GA,30012,USA,770-679-1987,33.6849726,-84.0030298,,,
,10898,11487 US Hwy 49,,Gulfport,MS,39505,USA,228-357-5717,30.455356,-89.101328,,,
,1141,3111 Loyola Drive,,Kenner,LA,70062,USA,(504)468-9456,30.0105851,-90.2670335,Monday:10:00 AM-11:00 PM;Tuesday:10:00 AM-11:00 PM;Wednesday:10:00 AM-11:00 PM;Thursday:10:00 AM-11:00 PM;Friday:10:00 AM-12:00 AM;Saturday:10:00 AM-12:00 AM;Sunday:10:00 AM-11:00 PM;,,
,3804,1018 Highway 90 West,,Patterson,LA,70392,USA,985-399-9993,29.6860614,-91.3042084,,,
,1782,2101 West 19th ST,,Hondo,TX,78861,USA,830-426-5272,29.3462836,-99.15174499999999,,,
,10334,1230 North Esplanade St,,Cuero,TX,77954,USA,361-275-6629,29.1013352,-97.28627039999999,,,
,3977,312 East Front Street,,Evergreen,AL,36401,USA,251-578-1993,31.4339327,-86.95415419999999,,,
,1669,7751 Moffett Road,,Mobile,AL,36618,USA,251-645-0613,30.760932,-88.224773,,,
,401,2321 Pass Rd.,,Gulfport,MS,39501,USA,228-864-3442,30.38029999999999,-89.09124369999999,,,
,10580,232 Keys Ferry Street,,McDonough,GA,30253,USA,678-782-3300,33.447266,-84.137581,,,
,1593,105 Shelton Beach Road,,Saraland,AL,36571,USA,251-675-3984,30.822796,-88.073385,,,
,563,3740 Airline Highway,,Metairie,LA,70002,USA,504-831-1080,29.9735424,-90.1457098,Monday:10:00 AM-11:00 PM;Tuesday:10:00 AM-11:00 PM;Wednesday:10:00 AM-11:00 PM;Thursday:10:00 AM-11:00 PM;Friday:10:00 AM-11:00 PM;Saturday:10:00 AM-11:00 PM;Sunday:10:00 AM-11:00 PM;,,
,1362,1317 - 10Th Street,,Floresville,TX,78114,USA,(830) 216-7502,29.139975,-98.1508829,Monday:10:00 AM-11:00 PM;Tuesday:10:00 AM-11:00 PM;Wednesday:10:00 AM-11:00 PM;Thursday:10:00 AM-11:00 PM;Friday:10:00 AM-11:00 PM;Saturday:10:00 AM-11:00 PM;Sunday:10:00 AM-11:00 PM;,,
,1081,4030 Chef Menteur Hwy,,New Orleans,LA,70126,USA,504-942-8748,30.0029491,-90.04249689999999,Monday:10:00 AM-11:00 PM;Tuesday:10:00 AM-11:00 PM;Wednesday:10:00 AM-11:00 PM;Thursday:10:00 AM-11:00 PM;Friday:10:00 AM-12:00 AM;Saturday:10:00 AM-12:00 AM;Sunday:10:00 AM-11:00 PM;,,
,1821,503 N. Broad Street,,Monroe,GA,30655,USA,770-267-1226,33.8030621,-83.7180564,,,
,10297,115 Plantation Drive,,Lake Jackson,TX,77566,USA,979-292-0600,29.02035639999999,-95.42656099999999,,,
,96,2506 St Bernard Ave.,,New Orleans,LA,70119,USA,(504) 943-9588,29.9816865,-90.0709282,Monday:10:00 AM-11:00 PM;Tuesday:10:00 AM-11:00 PM;Wednesday:10:00 AM-11:00 PM;Thursday:10:00 AM-11:00 PM;Friday:10:00 AM-12:00 AM;Saturday:10:00 AM-12:00 AM;Sunday:10:00 AM-11:00 PM;,,
,5667,670 N. Schillinger Road,,Mobile,AL,36608,USA,251-776-7366,30.7042725,-88.2250909,,,
,1453,2514 Seventh St,,Bay City,TX,77414,USA,(979) 245-9411,28.98301039999999,-95.95990139999999,,,
,1153,1600 S. Claiborne Avenue,,New Orleans,LA,70125,USA,(504) 587-9721,29.9526792,-90.0838397,Monday:10:00 AM-11:00 PM;Tuesday:10:00 AM-11:00 PM;Wednesday:10:00 AM-11:00 PM;Thursday:10:00 AM-11:00 PM;Friday:10:00 AM-12:00 AM;Saturday:10:00 AM-12:00 AM;Sunday:10:00 AM-11:00 PM;,,
,10341,101 S. Prairie Street,,Union Springs,AL,36089,USA,334-738-3494,32.135263,-85.7160686,,,
,1412,110 East Houston Highway,,Edna,TX,77957,USA,361-782-2916,28.9883779,-96.64919610000001,,,
,1139,4301 St. Claude Avenue,,New Orleans,LA,70117,USA,(504) 944-6978,29.9652147,-90.03230099999999,Monday:10:00 AM-11:00 PM;Tuesday:10:00 AM-11:00 PM;Wednesday:10:00 AM-11:00 PM;Thursday:10:00 AM-11:00 PM;Friday:10:00 AM-11:00 PM;Saturday:10:00 AM-11:00 PM;Sunday:10:00 AM-10:00 PM;,,
,922,3275 Hwy. 278 @ Hwy. 36,,Covington,GA,30014,USA,770-787-2238,33.6028685,-83.8657669,,,
,722,300 S. Craft Hwy.,,Chickasaw,AL,36611,USA,251-457-0756,30.759776,-88.075198,,,
,1313,1001 N. Brazosport Blvd,,Freeport,TX,77541,USA,(979) 265-0548,28.9700813,-95.37066259999999,,,
,1823,401 North Main Street,,Atmore,AL,36502,USA,251-368-1318,31.02849519999999,-87.49378899999999,,,
,327,2325 St. Stephens Road,,Mobile,AL,36610,USA,251-457-0832,30.7189335,-88.0843201,,,
,839,7020 Westbank Exp.,,Marrero,LA,70072,USA,504-341-1839,29.8938995,-90.1244074,Monday:10:00 AM-11:00 PM;Tuesday:10:00 AM-11:00 PM;Wednesday:10:00 AM-11:00 PM;Thursday:10:00 AM-11:00 PM;Friday:10:00 AM-12:00 AM;Saturday:10:00 AM-12:00 AM;Sunday:10:00 AM-11:00 PM;,,
,3043,Hwy 31 & Hurricane Road,,Bay Minette,AL,36507,USA,251-937-3432,30.8663276,-87.7785885,,,
,10875,5021 Bataan Memorial W,,Las Cruces,NM,88012,USA,(575) 373-0797,32.3854,-106.7159999,,,
,816,601 Terry Parkway,,Terrytown,LA,70056,USA,(504) 366-6778,29.9039,-90.0300642,Monday:10:00 AM-11:00 PM;Tuesday:10:00 AM-11:00 PM;Wednesday:10:00 AM-11:00 PM;Thursday:10:00 AM-11:00 PM;Friday:10:00 AM-12:00 AM;Saturday:10:00 AM-12:00 AM;Sunday:10:00 AM-11:00 PM;,,
,4657,109 S. Teal Avenue,,Devine,TX,78016,USA,830-665-5299,29.1399633,-98.905306,,,
,458,3171 Moffatt Road,,Mobile,AL,36607,USA,251-450-2373,30.6953657,-88.0398912,,,
,10886,465 South Broad Street,,Mobile,AL,36603,USA,205-307-5412,30.677451,-88.053655,,,
,1817,377 Oak Street,,Athens,GA,30601,USA,706-354-4001,33.953249,-83.363641,,,
,319,1250 Michigan Ave.,,Mobile,AL,36605,USA,251-476-1049,30.662868,-88.07202099999999,,,
,1620,7370 Old Pascagoula,,Theodore,AL,36582,USA,251-653-6073,30.5638594,-88.21453470000002,,,
,908,1306 Us 280 By-Pass,,Phenix City,AL,36867,USA,(334) 298-3028,32.467051,-85.02831800000001,Monday:10:00 AM-11:00 PM;Tuesday:10:00 AM-11:00 PM;Wednesday:10:00 AM-11:00 PM;Thursday:10:00 AM-11:00 PM;Friday:10:00 AM-12:00 AM;Saturday:10:00 AM-12:00 AM;Sunday:10:00 AM-11:00 PM;,,
,447,300 East Lohman Ave,,Las Cruces,NM,88001,USA,575-524-3151,32.3064382,-106.7751857,,,
,357,405 18th Street,,Columbus,GA,31904,USA,(706) 322-7670,32.4801676,-84.9871806,Monday:10:00 AM-11:00 PM;Tuesday:10:00 AM-11:00 PM;Wednesday:10:00 AM-11:00 PM;Thursday:10:00 AM-11:00 PM;Friday:10:00 AM-12:00 AM;Saturday:10:00 AM-12:00 AM;Sunday:10:00 AM-10:00 PM;,,
,1604,21550 Hwy 31,,Flomaton,AL,36441,USA,(251) 296-2586,31.008878,-87.263943,,,
,1603,90 South Blvd.,,Brewton,AL,36426,USA,251-867-3222,31.101634,-87.0750714,,,
,512,123 W. Main,,Uvalde,TX,78801,USA,(830) 278-6867,29.208734,-99.787922,Monday:10:00 AM-11:00 PM;Tuesday:10:00 AM-11:00 PM;Wednesday:10:00 AM-11:00 PM;Thursday:10:00 AM-11:00 PM;Friday:10:00 AM-11:00 PM;Saturday:10:00 AM-11:00 PM;Sunday:10:00 AM-11:00 PM;,,
,3811,750 Grand Caillou Road,,Houma,LA,70363,USA,985-857-8913,29.5851839,-90.698669,,,
,2108,6001 Miller Road,,Columbus,GA,31907,USA,706 568-2997,32.5224959,-84.8879779999999,Monday:10:00 AM-11:00 PM;Tuesday:10:00 AM-11:00 PM;Wednesday:10:00 AM-11:00 PM;Thursday:10:00 AM-11:00 PM;Friday:10:00 AM-11:00 PM;Saturday:10:00 AM-11:00 PM;Sunday:10:00 AM-11:00 PM;,,
,441,410 Poinsett Hwy.,,Greenville,SC,29609,USA,864-232-6178,34.871603,-82.404054,,,
,1303,4305 Ben Jordan,,Victoria,TX,77901,USA,361-575-7231,28.83152699999999,-96.98488359999999,,,
,3172,3810 North Navarro,,Victoria,TX,77901,USA,361-572-0876,28.8309291,-97.0007141,,,
,1352,1018 Second Street,,Pleasanton,TX,78064,USA,(830) 569-6611,28.9684269,-98.4788065,Monday:10:00 AM-11:00 PM;Tuesday:10:00 AM-11:00 PM;Wednesday:10:00 AM-11:00 PM;Thursday:10:00 AM-11:00 PM;Friday:10:00 AM-11:00 PM;Saturday:10:00 AM-11:00 PM;Sunday:10:00 AM-11:00 PM;,,
,497,900 Augusta St,,Greenville,SC,29605,USA,864-233-1320,34.833958,-82.4054869,,,
,911,4256 Buena Vista Road,,Columbus,GA,31907,USA,(706) 568-1274,32.4647279,-84.9206584,Monday:10:00 AM-11:00 PM;Tuesday:10:00 AM-11:00 PM;Wednesday:10:00 AM-11:00 PM;Thursday:10:00 AM-11:00 PM;Friday:10:00 AM-12:00 AM;Saturday:10:00 AM-12:00 AM;Sunday:10:00 AM-11:00 PM;,,
,1331,209 West Rio Grande,,Victoria,TX,77901,USA,361-578-3232,28.80535789999999,-97.00479089999999,,,
,1174,1122 Fort Benning Road,,Columbus,GA,31903,USA,(706) 687-4709,32.4317584,-84.94019999999999,Monday:10:00 AM-10:00 PM;Tuesday:10:00 AM-10:00 PM;Wednesday:10:00 AM-10:00 PM;Thursday:10:00 AM-10:00 PM;Friday:10:00 AM-11:00 PM;Saturday:10:00 AM-11:00 PM;Sunday:10:00 AM-10:00 PM;,,
,1024,302 S. Pleasantburg Drive,,Greenville,SC,29607,USA,864-232-7408,34.8356075,-82.3675986,,,
,10430,11388 Gateway Blvd North,,El Paso,TX,79934,USA,915-821-3105,31.938306,-106.4088291,,,
,148,102 W Shockley Ferry Rd.,,Anderson,SC,29624,USA,864-261-3008,34.4790149,-82.649562,,,
,3105,1900 Veterans Boulevard,,Del Rio,TX,78840,USA,(830) 775-4788,29.3816775,-100.9051418,Monday:10:00 AM-11:00 PM;Tuesday:10:00 AM-11:00 PM;Wednesday:10:00 AM-11:00 PM;Thursday:10:00 AM-11:00 PM;Friday:10:00 AM-12:00 AM;Saturday:10:00 AM-12:00 AM;Sunday:10:00 AM-11:00 PM;,,
,245,338 North Zaragosa,,El Paso,TX,79907,USA,915-859-3524,31.7860864,-106.2418704,,,
,1766,110 North Sunset Strip Street,,Kenedy,TX,78119,USA,830-583-9030,28.8162904,-97.8578108,,,
,23,5328 Will Ruth Ave,,El Paso,TX,79924,USA,915-755-8696,31.8857865,-106.4162187,,,
,10255,1518 E 3 Notch Street,,Andalusia,AL,36420,USA,334-222-9161,31.3150895,-86.4643177,,,
,793,3395 North Yarborough,,El Paso,TX,79925,USA,915-593-1023,31.7917418,-106.331377,,,
,10937,13658 Eastlake Blvd,,Horizon City,TX,79928,USA,915-852-5190,31.69911399999999,-106.213378,,,
,8537,1350 Zaragoza Rd,,El Paso,TX,79935,USA,915-856-7870,31.7301012,-106.2971792,,,
,593,5308 Dyer,,El Paso,TX,79904,USA,915-566-5973,31.8264181,-106.444645,,,
,10854,16220 IH 35 South,,Dilley,TX,78017,USA,830-963-0548,28.8934756,-99.09547049999999,,,
,10503,111 N. IH 35,,Pearsall,TX,78061,USA,830-334-3131,28.8934756,-99.09547049999999,,,
,594,1077 North Carolina,,El Paso,TX,79915,USA,915-592-6068,31.7396298,-106.3461449,,,
,10728,6451 S. Desert Blvd,,El Paso,TX,79932,USA,915-584-1544,31.8869464,-106.5836418,,,
,10460,6101 Alameda Ave.,,El Paso,TX,79905,USA,915-887-0011,31.7664032,-106.4139841,,,
,1463,206 State Highway 35 S,,Port Lavaca,TX,77979,USA,(361) 552-5266,28.6259728,-96.6359891,,,
,29,812 North Copia Street,,El Paso,TX,79903,USA,915-565-3338,31.78238099999999,-106.450571,,,
,3011,10009 Alameda,,Socorro,TX,79927,USA,915-859-3198,31.6615087,-106.2961163,,,
,1262,1916 Montana,,El Paso,TX,79903,USA,915-532-1865,31.7754953,-106.4730243,,,
,1538,8028 North Mesa St,,El Paso,TX,79932,USA,915-584-4966,31.8413107,-106.5781485,,,
,1199,119 East Paisano Drive,,El Paso,TX,79901,USA,915-542-1277,31.75547989999999,-106.4875257,,,
,10256,805 E. Cummings Drive,,Opp,AL,36467,USA,334-493-9292,31.2731033,-86.2508404,,,
,910,880 North Church Street,,Spartanburg,SC,29303,USA,864-583-0199,34.967736,-81.941586,,,
,4012,102 C.C. Camp Road,,Fabens,TX,79838,USA,915-764-2075,31.5092092,-106.1501677,,,
,10636,325 S. Eufaula Avenue,,Eufaula,AL,36027,USA,334-687-5172,31.88982649999999,-85.1455289,,,
,724,8968 Pensacola Blvd.,,Pensacola,FL,32534,USA,850-484-0714,30.5273725,-87.2749227,,,
,7311,1106 Boll Weevil Circle,,Enterprise,AL,36330,USA,334-348-9098,31.335427,-85.85568099999999,,,
,1285,1164 Andrews Avenue,,Ozark,AL,36360,USA,334-774-9089,31.4431687,-85.6635787,,,
,1828,6584 Hwy. 90,,Milton,FL,32570,USA,850-626-8185,30.6207748,-87.0485885,,,
,3997,5394 Thomaston Road,,Macon,GA,31220,USA,478-475-5405,32.833352,-83.73787899999999,,,
,759,4502 Mobile Hwy.,,Pensacola,FL,32506,USA,850-458-3641,30.4346894,-87.2759947,,,
,394,3205 N. Pace Blvd.,,Pensacola,FL,32505,USA,850-439-9991,30.445991,-87.24028000000001,,,
,481,611 NE Washington St.,,Beeville,TX,78102,USA,361-358-9256,28.405492,-97.7513777,Monday:10:00 AM-10:00 PM;Tuesday:10:00 AM-10:00 PM;Wednesday:10:00 AM-10:00 PM;Thursday:10:00 AM-10:00 PM;Friday:10:00 AM-11:00 PM;Saturday:10:00 AM-11:00 PM;Sunday:10:00 AM-10:00 PM;,,
,1182,2138 Pio Nono Ave,,Macon,GA,31206,USA,(478) 788-2345,32.8210788,-83.66270569999999,,,
,5318,1901 Hwy83 North,,Crystal City,TX,78839,USA,830-374-0600,28.6942736,-99.8315207,,,
,366,1655 North 9th Avenue,,Pensacola,FL,32503,USA,850-434-1225,30.429262,-87.2088629,,,
,751,777 Shurling Dr,,Macon,GA,31211,USA,(478) 746-7294,32.859221,-83.611482,,,
,1427,100 Vineville St,,Fort Valley,GA,31030,USA,(478) 825-5230,32.5588542,-83.88382469999999,,,
,5829,620 North Jefferson Street,,Milledgeville,GA,31061,USA,478-414-1808,33.089037,-83.228127,,,
,1790,Highway 281 @ Burleson,,George West,TX,78022,USA,361-449-1864,28.3325002,-98.1175054,,,
,10596,130 Hwy 82 E,,Cuthbert,GA,39840,USA,229-732-5505,31.7712476,-84.78783969999999,,,
,795,1430 Main Street,,Eagle Pass,TX,78852,USA,830-757-3672,28.7086774,-100.4939949,Monday:10:00 AM-11:00 PM;Tuesday:10:00 AM-11:00 PM;Wednesday:10:00 AM-11:00 PM;Thursday:10:00 AM-11:00 PM;Friday:10:00 AM-11:00 PM;Saturday:10:00 AM-11:00 PM;Sunday:10:00 AM-11:00 PM;,,
,10157,1990 South Veteran's Blvd.,,Eagle Pass,TX,78852,USA,830-773-1500,28.6862212,-100.4733578,,,
,749,1801 Watson Blvd,,Warner Robins,GA,31093,USA,(478) 929-0139,32.6178073,-83.63730860000001,,,
,1745,300 East Second Street,,Winslow,AZ,86047,USA,928-289-2515,35.0226909,-110.6956419,,,
,10984,6995 FM 1021,,Eagle Pass,TX,78852,USA,,28.6461435,-100.4221757,,,
,3978,203 First Street,,Carrizo Springs,TX,78834,USA,830-876-5901,28.5217951,-99.8564801,,,
,915,1322 East Lamar Street,,Americus,GA,31709,USA,229-924-2625,32.0712597,-84.21694269999999,Monday:10:00 AM-11:00 PM;Tuesday:10:00 AM-11:00 PM;Wednesday:10:00 AM-11:00 PM;Thursday:10:00 AM-11:00 PM;Friday:10:00 AM-12:00 AM;Saturday:10:00 AM-12:00 AM;Sunday:10:00 AM-11:00 PM;,,
,1284,507 North Oates,,Dothan,AL,36303,USA,334-793-3556,31.22919499999999,-85.3941607,,,
,1789,904 East San Patricio Ave,,Mathis,TX,78368,USA,361-547-7338,28.0881119,-97.8206072,,,
,3937,12268 Columbia St.,,Blakely,GA,39823,USA,912-723-8388,31.3731614,-84.9488702,,,
,598,3443 Wilkinson Blvd.,,Charlotte,NC,28208,USA,704-399-4035,35.224182,-80.89849199999999,,,
,624,1735 W Trade Street,,Charlotte,NC,28216,USA,704-332-2438,35.241532,-80.858991,,,
,500,1301 Patterson Avenue,,Winston-Salem,NC,27105,USA,919-723-3310,36.110895,-80.241556,,,
,627,907 Waughton Street,,Winston-Salem,NC,27107,USA,336-784-5157,36.069609,-80.219679,,,
,4884,3217 Eastway Drive,,Charlotte,NC,28205,USA,704-535-9601,35.2109642,-80.78168079999999,,,
,1343,1901 W. Wheeler,,Aransas Pass,TX,78336,USA,(361) 758-7166,27.916484,-97.16371370000002,Monday:10:00 AM-10:00 PM;Tuesday:10:00 AM-10:00 PM;Wednesday:10:00 AM-10:00 PM;Thursday:10:00 AM-10:00 PM;Friday:10:00 AM-11:00 PM;Saturday:10:00 AM-11:00 PM;Sunday:10:00 AM-10:00 PM;,,
,10946,43 East Texas State Hwy 44,,Encinal,TX,78019,USA,956-948-4010,28.0052515,-99.1678433,,,
,1752,3502A Leopard,,Corpus Christi,TX,78408,USA,361-884-2513,27.7972702,-97.429042,,,
,1201,3223 Wrightsboro Road,,Augusta,GA,30909,USA,706-736-5510,33.469855,-82.064804,,,
,1704,2815 Ruth,,Corpus Christi,TX,78405,USA,361-883-0162,27.7825938,-97.4213134,,,
,1714,2901 Ayers,,Corpus Christi,TX,78404,USA,361-883-7743,27.7630016,-97.41083730000001,,,
,807,1820 Walton Way,,Augusta,GA,30904,USA,706-733-1904,33.475328,-81.998789,,,
,906,401 W. Oglethorpe Blvd,,Albany,GA,31701,USA,229-439-0325,31.575716,-84.1563,Monday:10:00 AM-11:00 PM;Tuesday:10:00 AM-11:00 PM;Wednesday:10:00 AM-11:00 PM;Thursday:10:00 AM-11:00 PM;Friday:10:00 AM-12:00 AM;Saturday:10:00 AM-12:00 AM;Sunday:10:00 AM-10:00 PM;,,
,1802,4901 Greenwood,,Corpus Christi,TX,78416,USA,361-852-8707,27.7456452,-97.4400663,,,
,407,2319 Milledgeville Road,,Augusta,GA,30904,USA,706-733-0876,33.4475744,-82.00782,,,
,1703,3140 Gollihar,,Corpus Christi,TX,78415,USA,(361) 852-8123,27.7387449,-97.4074401,,,
,414,2635 Peach Orchard,,Augusta,GA,30906,USA,706-790-4578,33.42252980000001,-82.02008839999999,,,
,1760,735 Lum,,Corpus Christi,TX,78412,USA,361-992-0626,27.7191351,-97.362549,,,
,1813,5149 Weber,,Corpus Christi,TX,78411,USA,361-852-5714,27.719942,-97.400081,,,
,307,1104 East Main,,Alice,TX,78332,USA,(361) 664-4262,27.7512046,-98.0638867,Monday:10:00 AM-10:00 PM;Tuesday:10:00 AM-10:00 PM;Wednesday:10:00 AM-10:00 PM;Thursday:10:00 AM-10:00 PM;Friday:10:00 AM-11:00 PM;Saturday:10:00 AM-11:00 PM;Sunday:10:00 AM-10:00 PM;,,
,1774,602 East Gravis Ave,,San Diego,TX,78384,USA,361-279-3260,27.7627683,-98.23348879999999,,,
,482,611 MLK Drive,,Greensboro,NC,27406,USA,336-274-0456,36.0726354,-79.7919754,,,
,10237,2431 Randleman Rd.,,Greensboro,NC,27406,USA,336-272-8540,36.03619,-79.799876,,,
,823,2001 Broad River Road,,Columbia,SC,29210,USA,803-772-6026,34.037387,-81.091734,,,
,767,1600 S. Brahma Blvd,,Kingsville,TX,78363,USA,(361) 592-1191,27.5017601,-97.8554865,Monday:10:00 AM-10:00 PM;Tuesday:10:00 AM-10:00 PM;Wednesday:10:00 AM-10:00 PM;Thursday:10:00 AM-10:00 PM;Friday:10:00 AM-11:00 PM;Saturday:10:00 AM-11:00 PM;Sunday:10:00 AM-10:00 PM;,,
,821,4000 North Main Street,,Columbia,SC,29203,USA,803-754-5437,34.0390469,-81.040094,,,
,822,2436 Taylor Street,,Columbia,SC,29204,USA,803-771-2319,34.0124271,-81.0155924,,,
,904,7116 Two Notch Road,,Columbia,SC,29223,USA,803-788-8550,34.0634159,-80.958294,,,
,755,104 South Tyndall Pkwy.,,Panama City,FL,32404,USA,850-769-5375,30.145343,-85.591537,,,
,10279,2333 Bob Bullock Loop,,Laredo,TX,78043,USA,956-791-7824,27.6107968,-99.4724973,,,
,10203,10219 San Isidro Pkwy,,Laredo,TX,78045,USA,956-791-6358,27.6042188,-99.47947169999999,,,
,10312,7411 IH 10 East,,Orange,TX,77630,USA,409-745-1176,27.5963584,-99.4664856,,,
,10220,611 Rancho Viejo Drive,,Laredo,TX,78045,USA,956-727-1495,27.5912865,-99.51268909999999,,,
,10551,13965 IH 35S,,Valley View,TX,76272,USA,940-726-5643,27.5798833,-99.48910579999999,,,
,3890,6701 McPherson Road,,Laredo,TX,78041,USA,956-712-3342,27.562795,-99.47306069999999,,,
,10374,2201 E. Saunders,,Laredo,TX,78040,USA,956 726-2656,27.5302997,-99.4739067,,,
,10313,306 E. 5th Street,,Tifton,GA,31794,USA,229-388-9572,31.4505642,-83.5045341,,,
,48,3420 San Bernardo Avenue,,Laredo,TX,78040,USA,(956) 722-2802,27.5303998,-99.5044892,Monday:10:00 AM-11:00 PM;Tuesday:10:00 AM-11:00 PM;Wednesday:10:00 AM-11:00 PM;Thursday:10:00 AM-11:00 PM;Friday:10:00 AM-12:00 AM;Saturday:10:00 AM-12:00 AM;Sunday:10:00 AM-11:00 PM;,,
,22,1702 Guadalupe St.,,Laredo,TX,78040,USA,(956) 722-6131,27.5066658,-99.4791425,Monday:10:00 AM-11:00 PM;Tuesday:10:00 AM-11:00 PM;Wednesday:10:00 AM-11:00 PM;Thursday:10:00 AM-11:00 PM;Friday:10:00 AM-12:00 AM;Saturday:10:00 AM-12:00 AM;Sunday:10:00 AM-11:00 PM;,,
,7031,1108 Zaragoza Street,,Laredo,TX,78040,USA,956-523-0199,27.5021668,-99.5068494,,,
,10202,3615 Highway 83,,Laredo,TX,78046,USA,956-723-3456,27.4649424,-99.4771703,,,
,1772,406 North Smith Avenue,,Hebbronville,TX,78361,USA,361-527-4619,27.3097106,-98.6781828,,,
,955,2080 US Hwy 60,,Miami,AZ,85539,USA,(928) 425-8711,33.4188083,-110.8151437,,,
,1767,304 South St. Marys Street,,Falfurrias,TX,78355,USA,361-325-5734,27.2240806,-98.1449069,,,
,10464,448 East Jackson Street,,Thomasville,GA,31792,USA,229-227-0610,30.84146699999999,-83.97399999999999,,,
,143,3400 Roxboro Street,,Durham,NC,27704,USA,919- 220-6679,36.035451,-78.89231,,,
,912,942 N. Miami Boulevard,,Durham,NC,27703,USA,919-682-6332,35.9922899,-78.868471,,,
,1251,202 W. Liberty Street,,Sumter,SC,29150,USA,803-775-1588,33.9205916,-80.3449385,,,
,914,320 East Hill Avenue,,Valdosta,GA,31601,USA,229-244-5920,30.8325,-83.2751,,,
,549,1401 New Bern Avenue,,Raleigh,NC,27610,USA,919-821-2220,35.780335,-78.617452,,,
,10874,429 L'Enfant Plaza Suite 337,,Washington,DC,20024,USA,202-484-6000,38.8839661,-77.0261367,,,
,10642,5775 Yadkin Road,,Fayetteville,NC,28303,USA,910-920-3634,35.0916551,-78.9841517,,,
,3263,94 5th Street,,Douglas,AZ,85607,USA,520-364-1449,31.3392732,-109.5612473,,,
,1224,9 Jefferson Davis Hwy.,,Richmond,VA,23224,USA,804-231-1066,37.517926,-77.44822599999999,,,
,10839,"5000 South Arizona Mills Circle, Space FC 8",,Tempe,AZ,85282,USA,602-635-3774,33.463984,-111.8772261,,,
,862,12045 N. 32nd Street,,Phoenix,AZ,85028,USA,(602) 996-5240,33.5966758,-112.0127013,,,
,373,1151 S. Country Club,,Mesa,AZ,85210,USA,(480) 833-6069,33.3939413,-111.8399527,,,
,685,7538 E. McDowell,,Scottsdale,AZ,85257,USA,(480) 946-5663,33.4660026,-111.9177951,,,
,1296,694 E. Hildalgo,,Raymondville,TX,78580,USA,(956) 689-5000,26.4816585,-97.7757552,Monday:10:00 AM-11:00 PM;Tuesday:10:00 AM-11:00 PM;Wednesday:10:00 AM-11:00 PM;Thursday:10:00 AM-11:00 PM;Friday:10:00 AM-11:00 PM;Saturday:10:00 AM-11:00 PM;Sunday:10:00 AM-11:00 PM;,,
,5337,817 N. Arizona Avenue,,Chandler,AZ,85225,USA,480-786-9554,33.3178465,-111.8410319,,,
,1771,South Highway 83,,Zapata,TX,78076,USA,956-765-6859,26.611182,-99.0730931,,,
,5794,447 E. G. Miles Parkway,,Hinesville,GA,31313,USA,912-877-3313,31.8395236,-81.6032074,,,
,7235,1840 W. Peoria Ave.,,Phoenix,AZ,85029,USA,602-944-1568,33.5824744,-112.099272,,,
,686,3150 E. Thomas Rd,,Phoenix,AZ,85016,USA,(602) 955-4402,33.480769,-112.0133391,,,
,4544,7980 East Broadway Blvd.,,Tucson,AZ,85710,USA,520-298-1851,32.2205556,-110.8212711,,,
,679,12040 N. 35Th Avenue,,Phoenix,AZ,85029,USA,(602) 938-8070,33.59608,-112.134447,,,
,681,1546 E. Roosevelt,,Phoenix,AZ,85006,USA,(602) 258-0874,33.4590119,-112.0479383,,,
,10906,2440 W. Bethany Home Rd,,Phoenix,AZ,85015,USA,602-249-8030,33.524639,-112.1113334,,,
,840,1906 W. Camelback,,Phoenix,AZ,85015,USA,(602) 242-4386,33.5099388,-112.1005041,,,
,778,7090 E. Golf Links,,Tucson,AZ,85730,USA,520-790-4801,32.191398,-110.8414949,,,
,1227,108 South Sycamore,,Petersburg,VA,23803,USA,804-732-7333,37.2261428,-77.40272879999999,,,
,1167,3869 E. Grant Rd.,,Tucson,AZ,85716,USA,520-325-8582,32.2508891,-110.9101289,,,
,10332,2242 East Broadway,,Phoenix,AZ,85040,USA,602-243-7412,33.4071516,-112.0324614,,,
,1047,714 Northwest Grand Avenue,,Phoenix,AZ,85007,USA,(602) 258-2267,33.4520773,-112.0832813,,,
,10613,7410 W. Cactus Road,,Peoria,AZ,85381,USA,623 486 6652,33.5962909,-112.2183316,,,
,4576,3970 East 22nd. Street,,Tucson,AZ,85711,USA,520-745-1460,32.2066486,-110.9075306,,,
,10997,456 Bourne Avenue,,Port Wentworth,GA,31408,USA,912-946-0666,32.127213,-81.167885,,,
,684,5505 West Glendale Ave,,Glendale,AZ,85301,USA,623-939-7117,33.53826970000001,-112.1776252,,,
,675,4245 S. Central Ave,,Phoenix,AZ,85040,USA,(602) 268-6408,33.406983,-112.0730413,,,
,670,4296 W. Thomas,,Phoenix,AZ,85019,USA,(602) 272-9127,33.48085349999999,-112.151244,,,
,683,3350 W. Van Buren,,Phoenix,AZ,85009,USA,(602)-278-8929,33.4513932,-112.1316099,,,
,950,5901 W. Camelback Road,,Phoenix,AZ,85033,USA,623-846-6001,33.5091914,-112.1867076,,,
,841,7444 S. Central Ave,,Phoenix,AZ,85040,USA,(602) 276-3365,33.3779991,-112.0736795,,,
,7358,15600 Charleston Hwy.,,Round O,SC,29474,USA,843-893-4128,32.7773264,-80.46346609999999,,,
,4758,3602 South 6th Avenue,,Tucson,AZ,85714,USA,520-628-9001,32.1812821,-110.9686489,,,
,690,7451 W. Indian School,,Phoenix,AZ,85033,USA,(623) 846-2069,33.49432,-112.220282,,,
,10462,6260 S. 35th Ave   Suite #170,,Phoenix,AZ,85040,USA,602-232-5737,33.3894264,-112.1342315,,,
,5662,6730 W. McDowell Rd,,Phoenix,AZ,85035,USA,623-845-0121,33.466241,-112.2047771,,,
,4672,1704 W. Ajo Way,,Tucson,AZ,85713,USA,520-434-9659,32.1782942,-111.0016873,,,
,7383,9024 W.Thomas Road-Ste101,,Phoenix,AZ,85037,USA,623-872-1005,33.4814258,-112.2541537,,,
,145,402 W. Valencia,,Tucson,AZ,85706,USA,520-889-6519,32.134252,-110.9758079,,,
,434,4119 Montgomery St.,,Savannah,GA,31401,USA,912-234-3762,32.042507,-81.110024,,,
,1275,130 E. Edinburg Avenue,,Elsa,TX,78543,USA,(956) 262 2637,26.2933902,-97.9932227,Monday:10:00 AM-11:00 PM;Tuesday:10:00 AM-11:00 PM;Wednesday:10:00 AM-11:00 PM;Thursday:10:00 AM-11:00 PM;Friday:10:00 AM-12:00 AM;Saturday:10:00 AM-12:00 AM;Sunday:10:00 AM-11:00 PM;,,
,10339,15697 N. Reems Rd.,,Surprise,AZ,85375,USA,623-584-1447,33.6268356,-112.3935018,,,
,1329,US Business Hwy 83 & Starr Plaza,,Rio Grande City,TX,78582,USA,956-487-8686,26.3797874,-98.8203046,Monday:10:00 AM-11:00 PM;Tuesday:10:00 AM-11:00 PM;Wednesday:10:00 AM-11:00 PM;Thursday:10:00 AM-11:00 PM;Friday:10:00 AM-12:00 AM;Saturday:10:00 AM-12:00 AM;Sunday:10:00 AM-11:00 PM;,,
,848,1233 East Florence Blvd.,,Casa Grande,AZ,85122,USA,520-836-7292,32.8791879,-111.7343609,,,
,1562,PO BOX 1256/207 Grant Street,,Roma,TX,78584,USA,(956) 849-2022,26.4024325,-99.0085894,Monday:10:00 AM-11:00 PM;Tuesday:10:00 AM-11:00 PM;Wednesday:10:00 AM-11:00 PM;Thursday:10:00 AM-11:00 PM;Friday:10:00 AM-11:00 PM;Saturday:10:00 AM-11:00 PM;Sunday:10:00 AM-11:00 PM;,,
,1423,820 E. University,,Edinburg,TX,78539,USA,(956) 380-0882,26.3002052,-98.154282,Monday:10:00 AM-11:00 PM;Tuesday:10:00 AM-11:00 PM;Wednesday:10:00 AM-11:00 PM;Thursday:10:00 AM-11:00 PM;Friday:10:00 AM-12:00 AM;Saturday:10:00 AM-12:00 AM;Sunday:10:00 AM-11:00 PM;,,
,465,1201 S. Closner Boulevard,,Edinburg,TX,78539,USA,956-383-7251,26.290518,-98.164693,Monday:10:00 AM-11:00 PM;Tuesday:10:00 AM-11:00 PM;Wednesday:10:00 AM-11:00 PM;Thursday:10:00 AM-11:00 PM;Friday:10:00 AM-12:00 AM;Saturday:10:00 AM-12:00 AM;Sunday:10:00 AM-11:00 PM;,,
,2029,1607 S. McColl,,Edinburg,TX,78539,USA,(956) 380-3948,26.2913089,-98.19721,Monday:10:00 AM-11:00 PM;Tuesday:10:00 AM-11:00 PM;Wednesday:10:00 AM-11:00 PM;Thursday:10:00 AM-11:00 PM;Friday:10:00 AM-12:00 AM;Saturday:10:00 AM-12:00 AM;Sunday:10:00 AM-11:00 PM;,,
,10773,2800 Highway 52,,Moncks Corner,SC,29461,USA,843-761-4702,33.091493,-80.030444,,,
,10461,13144 W. Camelback Road,,Litchfield Park,AZ,85340,USA,623-935-6282,33.508506,-112.3428209,,,
,2056,3469 North Business 281,,Edinburg,TX,78541,USA,956-386-0281,26.2691174,-98.1714789,Monday:10:00 AM-11:00 PM;Tuesday:10:00 AM-11:00 PM;Wednesday:10:00 AM-11:00 PM;Thursday:10:00 AM-11:00 PM;Friday:10:00 AM-12:00 AM;Saturday:10:00 AM-12:00 AM;Sunday:10:00 AM-11:00 PM;,,
,2116,Jct. 264 & Navajo Route 12,,Window Rock,AZ,86515,USA,,26.227098,-97.7193549,Monday:10:00 AM-11:00 PM;Tuesday:10:00 AM-11:00 PM;Wednesday:10:00 AM-11:00 PM;Thursday:10:00 AM-11:00 PM;Friday:10:00 AM-12:00 AM;Saturday:10:00 AM-12:00 AM;Sunday:10:00 AM-11:00 PM;,,
,2053,2310 Loop 499,,Harlingen,TX,78550,USA,956-423-7390,26.227098,-97.7193549,Monday:10:00 AM-11:00 PM;Tuesday:10:00 AM-11:00 PM;Wednesday:10:00 AM-11:00 PM;Thursday:10:00 AM-11:00 PM;Friday:10:00 AM-12:00 AM;Saturday:10:00 AM-12:00 AM;Sunday:10:00 AM-11:00 PM;,,
,5845,819 N 13TH Street,,Harlingen,TX,78550,USA,(956) 423-7975,26.2010133,-97.682792,Monday:10:00 AM-11:00 PM;Tuesday:10:00 AM-11:00 PM;Wednesday:10:00 AM-11:00 PM;Thursday:10:00 AM-11:00 PM;Friday:10:00 AM-12:00 AM;Saturday:10:00 AM-12:00 AM;Sunday:10:00 AM-11:00 PM;,,
,1391,2205 Nolana Ave,,McAllen,TX,78504,USA,(956) 686-7696,26.2406931,-98.2377754,Monday:10:00 AM-11:00 PM;Tuesday:10:00 AM-11:00 PM;Wednesday:10:00 AM-11:00 PM;Thursday:10:00 AM-11:00 PM;Friday:10:00 AM-12:00 AM;Saturday:10:00 AM-12:00 AM;Sunday:10:00 AM-11:00 PM;,,
,2035,200 W. Nolana,,Pharr,TX,78577,USA,956-283-9837,26.2338997,-98.1804358,Monday:10:00 AM-11:00 PM;Tuesday:10:00 AM-11:00 PM;Wednesday:10:00 AM-11:00 PM;Thursday:10:00 AM-11:00 PM;Friday:10:00 AM-12:00 AM;Saturday:10:00 AM-12:00 AM;Sunday:10:00 AM-11:00 PM;,,
,557,921 W. Tyler,,Harlingen,TX,78550,USA,(956) 423-7494,26.189338,-97.705226,Monday:10:00 AM-11:00 PM;Tuesday:10:00 AM-11:00 PM;Wednesday:10:00 AM-11:00 PM;Thursday:10:00 AM-11:00 PM;Friday:10:00 AM-12:00 AM;Saturday:10:00 AM-12:00 AM;Sunday:10:00 AM-11:00 PM;,,
,1349,1714 S. 77 Sunshine Strip,,Harlingen,TX,78550,USA,(956) 423-1203,26.1748586,-97.67558830000002,Monday:10:00 AM-11:00 PM;Tuesday:10:00 AM-11:00 PM;Wednesday:10:00 AM-11:00 PM;Thursday:10:00 AM-11:00 PM;Friday:10:00 AM-12:00 AM;Saturday:10:00 AM-12:00 AM;Sunday:10:00 AM-11:00 PM;,,
,10219,1117 Veterans Blvd.,,Palmview,TX,78572,USA,956-583-5757,26.2380848,-98.3836621,,,
,2026,201 W. Griffin Parkway,,Mission,TX,78572,USA,(956) 583-7758,26.230615,-98.321932,Monday:10:00 AM-11:00 PM;Tuesday:10:00 AM-11:00 PM;Wednesday:10:00 AM-11:00 PM;Thursday:10:00 AM-11:00 PM;Friday:10:00 AM-12:00 AM;Saturday:10:00 AM-12:00 AM;Sunday:10:00 AM-11:00 PM;,,
,2057,678 E. Hwy 83,,La Joya,TX,78560,USA,956-519-3908,26.246628,-98.472331,Monday:10:00 AM-11:00 PM;Tuesday:10:00 AM-11:00 PM;Wednesday:10:00 AM-11:00 PM;Thursday:10:00 AM-11:00 PM;Friday:10:00 AM-11:00 PM;Saturday:10:00 AM-11:00 PM;Sunday:10:00 AM-11:00 PM;,,
,8763,13554 W. Van Buren Street,,Goodyear,AZ,85395,USA,623-594-9600,33.4500446,-112.3873222,,,
,2027,3817 Pecan Blvd.,,McAllen,TX,78501,USA,(956) 618-4953,26.219437,-98.261277,Monday:10:00 AM-11:00 PM;Tuesday:10:00 AM-11:00 PM;Wednesday:10:00 AM-11:00 PM;Thursday:10:00 AM-11:00 PM;Friday:10:00 AM-12:00 AM;Saturday:10:00 AM-12:00 AM;Sunday:10:00 AM-11:00 PM;,,
,2054,1612 N. Raul Longoria Rd,,San Juan,TX,78589,USA,956-781-2911,26.2066856,-98.1527165,Monday:10:00 AM-11:00 PM;Tuesday:10:00 AM-11:00 PM;Wednesday:10:00 AM-11:00 PM;Thursday:10:00 AM-11:00 PM;Friday:10:00 AM-12:00 AM;Saturday:10:00 AM-12:00 AM;Sunday:10:00 AM-11:00 PM;,,
,2014,4395 N Expressway,,Brownsville,TX,78520,USA,(956) 350-5597,26.160651,-97.68486,Monday:9:00 AM-12:00 AM;Tuesday:9:00 AM-12:00 AM;Wednesday:9:00 AM-12:00 AM;Thursday:9:00 AM-12:00 AM;Friday:9:00 AM-1:00 AM;Saturday:9:00 AM-1:00 AM;Sunday:9:00 AM-12:00 AM;,,
,423,905 E. U.S. Highway #83 (Business Route),,Mission,TX,78572,USA,956-585-7221,26.2159066,-98.32529319999999,Monday:10:00 AM-11:00 PM;Tuesday:10:00 AM-11:00 PM;Wednesday:10:00 AM-11:00 PM;Thursday:10:00 AM-11:00 PM;Friday:10:00 AM-12:00 AM;Saturday:10:00 AM-12:00 AM;Sunday:10:00 AM-11:00 PM;,,
,3082,10 S. Cage,,Pharr,TX,78577,USA,(956) 787-8281,26.1948434,-98.1839945,Monday:10:00 AM-11:00 PM;Tuesday:10:00 AM-11:00 PM;Wednesday:10:00 AM-11:00 PM;Thursday:10:00 AM-11:00 PM;Friday:10:00 AM-12:00 AM;Saturday:10:00 AM-12:00 AM;Sunday:10:00 AM-11:00 PM;,,
,3060,1308 North Texas St,,Weslaco,TX,78596,USA,956-973-5028,26.1746082,-97.9907136,Monday:10:00 AM-11:00 PM;Tuesday:10:00 AM-11:00 PM;Wednesday:10:00 AM-11:00 PM;Thursday:10:00 AM-11:00 PM;Friday:10:00 AM-12:00 AM;Saturday:10:00 AM-12:00 AM;Sunday:10:00 AM-11:00 PM;,,
,1431,620 S. 10th Street,,McAllen,TX,78501,USA,(956) 686-6701,26.1972512,-98.2311675,Monday:10:00 AM-11:00 PM;Tuesday:10:00 AM-11:00 PM;Wednesday:10:00 AM-11:00 PM;Thursday:10:00 AM-11:00 PM;Friday:10:00 AM-12:00 AM;Saturday:10:00 AM-12:00 AM;Sunday:10:00 AM-11:00 PM;,,
,8560,716 North Main HWY (FM) 506,,La Feria,TX,78559,USA,956-797-4439,26.1589644,-97.8238853,Monday:10:00 AM-11:00 PM;Tuesday:10:00 AM-11:00 PM;Wednesday:10:00 AM-11:00 PM;Thursday:10:00 AM-11:00 PM;Friday:10:00 AM-12:00 AM;Saturday:10:00 AM-12:00 AM;Sunday:10:00 AM-11:00 PM;,,
,2025,3218 US Hwy 83,,Weslaco,TX,78596,USA,(956) 968-8123,26.1729748,-97.9901486,Monday:10:00 AM-11:00 PM;Tuesday:10:00 AM-11:00 PM;Wednesday:10:00 AM-11:00 PM;Thursday:10:00 AM-11:00 PM;Friday:10:00 AM-12:00 AM;Saturday:10:00 AM-12:00 AM;Sunday:10:00 AM-11:00 PM;,,
,4141,801 South Jackson Rd.,,Pharr,TX,78577,USA,(956) 682-3156,26.1905809,-98.2054337,Monday:10:00 AM-11:00 PM;Tuesday:10:00 AM-11:00 PM;Wednesday:10:00 AM-11:00 PM;Thursday:10:00 AM-11:00 PM;Friday:10:00 AM-12:00 AM;Saturday:10:00 AM-12:00 AM;Sunday:10:00 AM-11:00 PM;,,
,1271,719 Hooks Street (Avenue),,Donna,TX,78537,USA,(956) 464-8672,26.1703525,-98.05195,Monday:10:00 AM-11:00 PM;Tuesday:10:00 AM-11:00 PM;Wednesday:10:00 AM-11:00 PM;Thursday:10:00 AM-11:00 PM;Friday:10:00 AM-12:00 AM;Saturday:10:00 AM-12:00 AM;Sunday:10:00 AM-11:00 PM;,,
,197,205 W Business 83,,Weslaco,TX,78596,USA,(956) 968-5611,26.1678933,-98.0364801,Monday:10:00 AM-11:00 PM;Tuesday:10:00 AM-11:00 PM;Wednesday:10:00 AM-11:00 PM;Thursday:10:00 AM-11:00 PM;Friday:10:00 AM-12:00 AM;Saturday:10:00 AM-12:00 AM;Sunday:10:00 AM-11:00 PM;,,
,1061,515 W 2nd Street,,Mercedes,TX,78570,USA,(956) 565-4536,26.149745,-97.9300663,Monday:10:00 AM-11:00 PM;Tuesday:10:00 AM-11:00 PM;Wednesday:10:00 AM-11:00 PM;Thursday:10:00 AM-11:00 PM;Friday:10:00 AM-12:00 AM;Saturday:10:00 AM-12:00 AM;Sunday:10:00 AM-11:00 PM;,,
,796,295 E. Hwy 77,,San Benito,TX,78586,USA,(956) 399-1291,26.1258547,-97.6356883,Monday:10:00 AM-11:00 PM;Tuesday:10:00 AM-11:00 PM;Wednesday:10:00 AM-11:00 PM;Thursday:10:00 AM-11:00 PM;Friday:10:00 AM-12:00 AM;Saturday:10:00 AM-12:00 AM;Sunday:10:00 AM-11:00 PM;,,
,758,6138 Rivers Avenue,,N. Charleston,SC,29406,USA,843-747-2858,32.9075121,-80.0216658,,,
,2107,731 W. Ocean Boulevard (HWY 100),,Los Fresnos,TX,78566,USA,956-233-1238,26.094295,-97.450052,Monday:10:00 AM-11:00 PM;Tuesday:10:00 AM-11:00 PM;Wednesday:10:00 AM-11:00 PM;Thursday:10:00 AM-11:00 PM;Friday:10:00 AM-12:00 AM;Saturday:10:00 AM-12:00 AM;Sunday:10:00 AM-11:00 PM;,,
,757,5543 Dorchester Road,,Charleston,SC,29418,USA,843-552-0444,32.862197,-80.04811389999999,,,
,7384,1748 East TX 100,,Port Isabel,TX,78578,USA,(956) 943-8592,26.0740976,-97.2281453,Monday:10:00 AM-11:00 PM;Tuesday:10:00 AM-11:00 PM;Wednesday:10:00 AM-11:00 PM;Thursday:10:00 AM-11:00 PM;Friday:10:00 AM-11:00 PM;Saturday:10:00 AM-11:00 PM;Sunday:10:00 AM-11:00 PM;,,
,2034,6409 S. Cage Blvd.,,Pharr,TX,78577,USA,956-283-9961,26.131715,-98.19413,Monday:10:00 AM-11:00 PM;Tuesday:10:00 AM-11:00 PM;Wednesday:10:00 AM-11:00 PM;Thursday:10:00 AM-11:00 PM;Friday:10:00 AM-12:00 AM;Saturday:10:00 AM-12:00 AM;Sunday:10:00 AM-11:00 PM;,,
,551,3303 Rivers Avenue,,N. Charleston,SC,29405,USA,843-529-1916,32.853741,-79.9738519,,,
,936,1829 Sam Rittenburg Blvd.,,Charleston,SC,29407,USA,843-571-7290,32.800739,-80.01826500000001,,,
,5566,500 South International Blvd.,,Hidalgo,TX,78557,USA,956-843-4688,26.102021,-98.266948,Monday:10:00 AM-11:00 PM;Tuesday:10:00 AM-11:00 PM;Wednesday:10:00 AM-11:00 PM;Thursday:10:00 AM-11:00 PM;Friday:10:00 AM-12:00 AM;Saturday:10:00 AM-12:00 AM;Sunday:10:00 AM-11:00 PM;,,
,558,492 Meeting Street,,Charleston,SC,29403,USA,843-723-3924,32.7964474,-79.9403463,,,
,5889,7460 S. Padre Island Hwy,,Brownsville,TX,78521,USA,(956) 831-0655,25.9434922,-97.4278329,Monday:9:00 AM-12:00 AM;Tuesday:9:00 AM-12:00 AM;Wednesday:9:00 AM-12:00 AM;Thursday:9:00 AM-12:00 AM;Friday:9:00 AM-1:00 AM;Saturday:9:00 AM-1:00 AM;Sunday:9:00 AM-12:00 AM;,,
,2015,1650 Military Hwy 281,,Brownsville,TX,78520,USA,(956) 550-8180,25.9417184,-97.5396303,Monday:9:00 AM-12:00 AM;Tuesday:9:00 AM-12:00 AM;Wednesday:9:00 AM-12:00 AM;Thursday:9:00 AM-12:00 AM;Friday:9:00 AM-1:00 AM;Saturday:9:00 AM-1:00 AM;Sunday:9:00 AM-12:00 AM;,,
,794,2395 Boca Chica Blvd,,Brownsville,TX,78520,USA,(956) 546-7762,25.9222794,-97.4858285,Monday:9:00 AM-12:00 AM;Tuesday:9:00 AM-12:00 AM;Wednesday:9:00 AM-12:00 AM;Thursday:9:00 AM-12:00 AM;Friday:9:00 AM-1:00 AM;Saturday:9:00 AM-1:00 AM;Sunday:9:00 AM-12:00 AM;,,
,1442,1104 Ruben M. Torres Boulevard,,Brownsville,TX,78521,USA,(956) 541-5455,25.9065207,-97.4073294,Monday:9:00 AM-12:00 AM;Tuesday:9:00 AM-12:00 AM;Wednesday:9:00 AM-12:00 AM;Thursday:9:00 AM-12:00 AM;Friday:9:00 AM-1:00 AM;Saturday:9:00 AM-1:00 AM;Sunday:9:00 AM-12:00 AM;,,
,1536,535 W. Elizabeth,,Brownsville,TX,78520,USA,(956) 546-4340,25.9129965,-97.5110858,Monday:9:00 AM-12:00 AM;Tuesday:9:00 AM-12:00 AM;Wednesday:9:00 AM-12:00 AM;Thursday:9:00 AM-12:00 AM;Friday:9:00 AM-1:00 AM;Saturday:9:00 AM-1:00 AM;Sunday:9:00 AM-12:00 AM;,,
,448,2121 International Blvd,,Brownsville,TX,78520,USA,(956) 546-8360,25.9064349,-97.482437,Monday:9:00 AM-12:00 AM;Tuesday:9:00 AM-12:00 AM;Wednesday:9:00 AM-12:00 AM;Thursday:9:00 AM-12:00 AM;Friday:9:00 AM-1:00 AM;Saturday:9:00 AM-1:00 AM;Sunday:9:00 AM-12:00 AM;,,
,3219,1264 E. Washington,,Brownsville,TX,78521,USA,(956) 544-6587,25.9009634,-97.4968031,Monday:6:00 AM-7:30 PM;Tuesday:6:00 AM-7:30 PM;Wednesday:6:00 AM-7:30 PM;Thursday:6:00 AM-7:30 PM;Friday:6:00 AM-8:00 PM;Saturday:6:00 AM-8:00 PM;Sunday:6:00 AM-7:30 PM;,,
,5338,4826 Southmost,,Brownsville,TX,78521,USA,(956) 574-9870,25.8920822,-97.4441847,Monday:9:00 AM-12:00 AM;Tuesday:9:00 AM-12:00 AM;Wednesday:9:00 AM-12:00 AM;Thursday:9:00 AM-12:00 AM;Friday:9:00 AM-1:00 AM;Saturday:9:00 AM-1:00 AM;Sunday:9:00 AM-12:00 AM;,,
,688,546 N. Grand Ave.,,Nogales,AZ,85621,USA,520-287-3151,31.3404741,-110.9370126,,,
,10570,868 N. Nellis Blvd.,,Las Vegas,NV,89110,USA,702-453-6903,36.1754359,-115.0618365,,,
,331,2839 N. Las Vegas Blvd.,,North Las Vegas,NV,89030,USA,702-642-9100,36.2116461,-115.1044139,,,
,8616,4800 East Flamingo Road,,Las Vegas,NV,89121,USA,702-642-6900,36.1151852,-115.0691677,,,
,1214,3215 Jefferson Avenue,,Newport News,VA,23607,USA,(757) 244-0135,36.986159,-76.424391,,,
,10857,1625 East Charleston Blvd.,,Las Vegas,NV,89104,USA,702-478-7600,36.1591809,-115.130283,,,
,371,601 N. Rancho Drive,,Las Vegas,NV,89106,USA,702-648-1115,36.1774463,-115.1764027,,,
,10760,4851 West Charleston Boulevard,,Las Vegas,NV,89146,USA,702-822-6259,36.1588472,-115.2075095,,,
,284,4880 Spring Mountain Road,,Las Vegas,NV,89102,USA,702-365-5055,36.12654029999999,-115.2076721,,,
,10892,1855 Dunn Ave,,Jacksonville,FL,32218,USA,904-374-9153,30.4361943,-81.6753535,,,
,10244,3650 N. Broad Street,,Philadelphia,PA,19140,USA,215-229-3801,40.009096,-75.1516821,,,
,10465,3007 W. Edgewood Ave.,,Jacksonville,FL,32209,USA,904-924-8299,30.374977,-81.714606,,,
,3627,1904 N. Young Blvd.,,Chiefland,FL,32626,USA,352-493-7740,29.496923,-82.869126,,,
,10739,7925 S. Rainbow Boulevard,,Las Vegas,NV,89139,USA,702-207-1734,36.0447704,-115.2440255,,,
,1305,350 Effingham Street,,Portsmouth,VA,23704,USA,757-397-8852,36.837719,-76.307508,,,
,10513,5870 Normandy Blvd.,,Jacksonville,FL,32205,USA,904-693-1801,30.30669199999999,-81.749235,,,
,9916,5251 Frankford Ave.,,Philadelphia,PA,19124,USA,215-535-1740,40.0230386,-75.0767875,,,
,10894,8820 W. 103rd Street,,Jacksonville,FL,32210,USA,904-771-9769,30.2468783,-81.7988414,,,
,10153,4205 Market Street,,Wilmington,NC,28403,USA,910-763-7497,34.2425012,-77.89332739999999,,,
,1267,2308 E. Princess Anne Rd.,,Norfolk,VA,23504,USA,757-626-1765,36.8543023,-76.2633013,,,
,2091,1060 E. 21st Street,,Jacksonville,FL,32206,USA,904-356-6639,30.356978,-81.641543,Monday:10:00 AM-11:00 PM;Tuesday:10:00 AM-11:00 PM;Wednesday:10:00 AM-11:00 PM;Thursday:10:00 AM-11:00 PM;Friday:10:00 AM-11:00 PM;Saturday:10:00 AM-11:00 PM;Sunday:10:00 AM-11:00 PM;,,
,10385,6037 Merrill Rd,,Jacksonville,FL,32277,USA,904-745-7787,30.352127,-81.59574400000001,Monday:10:00 AM-11:00 PM;Tuesday:10:00 AM-11:00 PM;Wednesday:10:00 AM-11:00 PM;Thursday:10:00 AM-11:00 PM;Friday:10:00 AM-11:00 PM;Saturday:10:00 AM-11:00 PM;Sunday:10:00 AM-11:00 PM;,,
,873,210 White Horse Pike,,Lawnside,NJ,8045,USA,609-547-0429,39.8709674,-75.0438526,,,
,5456,303 Bell Fork Road,,Jacksonville,NC,28540,USA,910-455-5949,34.761652,-77.399422,,,
,10436,705 8th Avenue,,New York,NY,10036,USA,212-315-9600,40.7589911,-73.9888232,,,
,5790,988-A  E. Orange Avenue,,Daytona Beach,FL,32114,USA,386-255-7776,29.2007976,-81.0372629,,,
,691,2420 South 4th Avenue,,Yuma,AZ,85364,USA,928-726-0434,32.683327,-114.62507,,,
,464,1575 Gulf-to-Bay Blvd.,,Clearwater,FL,33755,USA,727-461-6900,27.9603702,-82.7714878,Monday:10:00 AM-11:00 PM;Tuesday:10:00 AM-11:00 PM;Wednesday:10:00 AM-11:00 PM;Thursday:10:30 AM-11:00 PM;Friday:10:00 AM-12:00 AM;Saturday:10:00 AM-12:00 AM;Sunday:10:30 AM-11:00 PM;,,
,1025,7502 West Waters Ave.,,Tampa,FL,33615,USA,813-888-7200,28.0254872,-82.56276749999999,,,
,8804,2219 East Fletcher Ave.,,Tampa,FL,33612,USA,813-975-9451,28.068732,-82.433054,,,
,330,3201 East Hillsborough,,Tampa,FL,33610,USA,813-238-7900,27.9959077,-82.4240543,Monday:10:00 AM-11:00 PM;Tuesday:10:00 AM-11:00 PM;Wednesday:10:00 AM-11:00 PM;Thursday:10:30 AM-11:00 PM;Friday:10:00 AM-12:00 AM;Saturday:10:00 AM-12:00 AM;Sunday:10:30 AM-10:00 PM;,,
,10558,2561 French Avenue,,Sanford,FL,32773,USA,407-323-1933,28.783831,-81.272993,Monday:10:00 AM-10:00 PM;Tuesday:10:00 AM-10:00 PM;Wednesday:10:00 AM-10:00 PM;Thursday:10:30 AM-10:00 PM;Friday:10:00 AM-12:00 AM;Saturday:10:00 AM-12:00 AM;Sunday:10:30 AM-10:00 PM;,,
,857,2301 North 50th Street N.,,Tampa,FL,33619,USA,813-248-1445,27.963318,-82.4012606,,,
,399,3510 Central Ave.,,St. Petersburg,FL,33711,USA,727-321-1400,27.7708938,-82.6810247,Monday:10:00 AM-10:00 PM;Tuesday:10:00 AM-10:00 PM;Wednesday:10:00 AM-10:00 PM;Thursday:10:30 AM-10:00 PM;Friday:10:00 AM-12:00 AM;Saturday:10:00 AM-12:00 AM;Sunday:10:30 AM-10:00 PM;,,
,1372,2195 34th Street S.,,St. Petersburg,FL,33711,USA,727-321-2100,27.7484579,-82.6797552,Monday:10:00 AM-11:00 PM;Tuesday:10:00 AM-11:00 PM;Wednesday:10:00 AM-11:00 PM;Thursday:10:30 AM-11:00 PM;Friday:10:00 AM-12:00 AM;Saturday:10:00 AM-12:00 AM;Sunday:10:30 AM-10:00 PM;,,
,10182,6234 West Colonial Drive,,Orlando,FL,32808,USA,407-293-2511,28.551632,-81.466352,Monday:10:00 AM-10:00 PM;Tuesday:10:00 AM-10:00 PM;Wednesday:10:00 AM-10:00 PM;Thursday:10:30 AM-10:00 PM;Friday:10:00 AM-12:00 AM;Saturday:10:00 AM-12:00 AM;Sunday:10:30 AM-10:00 PM;,,
,459,1234 W Church Street,,Orlando,FL,32805,USA,407-425-4333,28.5397998,-81.3969315,,,
,832,703 South Collins Street,,Plant City,FL,33566,USA,813-752-5100,28.009103,-82.12213299999999,Monday:10:00 AM-11:00 PM;Tuesday:10:00 AM-11:00 PM;Wednesday:10:00 AM-11:00 PM;Thursday:10:30 AM-11:00 PM;Friday:10:00 AM-12:00 AM;Saturday:10:00 AM-12:00 AM;Sunday:10:30 AM-10:00 PM;,,
,413,215 West Memorial Blvd.,,Lakeland,FL,33801,USA,863-687-4400,28.055223,-81.9587449,Monday:10:00 AM-11:00 PM;Tuesday:10:00 AM-11:00 PM;Wednesday:10:00 AM-11:00 PM;Thursday:10:30 AM-11:00 PM;Friday:10:00 AM-12:00 AM;Saturday:10:00 AM-12:00 AM;Sunday:10:30 AM-10:00 PM;,,
,698,480 North Imperial Avenue,,El Centro,CA,92243,USA,760-353-3810,32.7962194,-115.5703843,,,
,739,344 Imperial Avenue,,Calexico,CA,92231,USA,760-357-6630,32.6682185,-115.4985944,,,
,10181,832 E. Ramsey St.,,Banning,CA,92220,USA,951-849-8410,33.9250163,-116.8675364,,,
,4517,AAFES Food Court Bldg. #90228,,Hurlbert,FL,32544,USA,850-581-6656,27.6648274,-81.5157535,,,
,10753,14507 Palmdale Road,,Victorville,CA,92392,USA,760-245-1141,34.5061463,-117.3462291,,,
,853,299 East Baseline St,,San Bernardino,CA,92410,USA,909-888-0887,34.1213188,-117.2788016,,,
,4477,494 S. Mt. Vernon Ave.,,San Bernardino,CA,92410,USA,909-885-7887,34.0924063,-117.3141056,,,
,850,912 East Foothill Blvd.,,Rialto,CA,92376,USA,909-421-1981,34.1071079,-117.352526,,,
,5734,24440-A Allessandro Blvd.,,Moreno Valley,CA,92553,USA,951-413-6615,33.9186427,-117.2361491,,,
,902,1886 University Avenue,,Riverside,CA,92507,USA,951-276-4802,33.9753055,-117.3523993,,,
,1944,8909 Sierra Avenue,,Fontana,CA,92334,USA,909-357-2751,34.091845,-117.434523,,,
,5509,10015 Bellegrave Ave.,,Riverside,CA,92509,USA,951-685-5949,34.00634429999999,-117.5039546,,,
,1260,700 East Holt Blvd.,,Ontario,CA,91761,USA,909-986-4664,34.063079,-117.641058,,,
,1069,500 East Holt,,Pomona,CA,91767,USA,909-620-4008,34.0622232,-117.7412316,,,
,466,1105 West Mission,,Pomona,CA,91766,USA,909-622-4477,34.0550932,-117.7635433,,,
,958,701 East Huntington,,Monrovia,CA,91016,USA,(626) 303-4317,34.1408944,-117.9904471,,,
,787,14155 Ramona Blvd.,,Baldwin Park,CA,91706,USA,(626) 337-5433,34.0859097,-117.9651978,,,
,786,1180 North Hacienda Blvd.,,La Puente,CA,91744,USA,(626) 917-1553,34.0418806,-117.9490516,,,
,1858,510 Oceanside Blvd.,,Oceanside,CA,92054,USA,760-439-5636,33.18394360000001,-117.3691831,,,
,781,10967 Garvey Avenue,,El Monte,CA,91733,USA,(626) 444-9714,34.0631838,-118.0360778,,,
,1212,3495 El Cajon Blvd.,,San Diego,CA,92104,USA,619-584-4665,32.7549569,-117.1181803,,,
,1162,504 Euclid Avenue,,San Diego,CA,92114,USA,619-263-0578,32.7108588,-117.0855281,,,
,1164,3040 East 8th Street,,National City,CA,91950,USA,619-479-7555,32.6843876,-117.0754979,,,
,741,710 North Fair Oaks,,Pasadena,CA,91103,USA,(626) 793-7845,34.1581563,-118.1502945,,,
,1255,3180 Main Street,,San Diego,CA,92113,USA,619-233-8102,32.6927935,-117.1255203,,,
,1321,1005 Third Avenue,,Chula Vista,CA,91911,USA,619-426-0411,32.6167711,-117.0700752,,,
,1159,3726 Del Sol Blvd.,,San Diego,CA,92154,USA,619-690-3191,32.5737388,-117.053645,,,
,780,423 E. San Ysidro Blvd.,,San Ysidro,CA,92173,USA,619-428-2411,32.5505738,-117.0370253,,,
,621,15816 Pioneer Blvd.,,Norwalk,CA,90650,USA,562.929.4015,33.88787660000001,-118.0821817,,,
,5605,1300 Brundage Lane,,Bakersfield,CA,93304,USA,661-859-0595,35.3542754,-119.0170285,,,
,623,5610 Woodruff Ave.,,Lakewood,CA,90713,USA,562-920-0838,33.8585336,-118.116876,,,
,3104,5101 East Imperial Hwy.,,Lynwood,CA,90262,USA,310-638-4422,33.9310289,-118.1829391,,,
,10800,10118 San Fernando Road,,Pacoima,CA,91331,USA,818-897-5500,34.2544644,-118.4087245,,,
,1000,2604 South Central Avenue,,Los Angeles,CA,90011,USA,323-235-9200,34.0183438,-118.2546403,,,
,957,5801 Cherry Avenue,,Long Beach,CA,90805,USA,562-423-2225,33.860447,-118.1689395,,,
,128,261 E. Vernon Avenue,,Los Angeles,CA,90011,USA,323-846-8738,34.0041581,-118.2698919,,,
,945,1415 East Rosecrans,,Compton,CA,90222,USA,310-635-1733,33.9035235,-118.2082445,,,
,9912,8658 Woodman Ave,,Arleta,CA,91331,USA,818-891-4733,34.2280577,-118.4338939,,,
,779,1030 East Manchester,,Los Angeles,CA,90001,USA,323-582-8408,33.9598502,-118.2568196,,,
,959,5325 S. Figueroa St.,,Los Angeles,CA,90037,USA,323-232-5374,33.9938864,-118.2826986,,,
,1191,6210 Broadway,,Los Angeles,CA,90003,USA,323-778-7431,33.982745,-118.277932,,,
,147,1811 W. Jefferson Blvd.,,Los Angeles,CA,90018,USA,323-733-2728,34.0255669,-118.3092332,,,
,965,8531 S. Figueroa St.,,Los Angeles,CA,90044,USA,323-753-4054,33.9608146,-118.2827242,,,
,663,7205 S. Vermont,,Los Angeles,CA,90044,USA,323-758-0553,33.9743918,-118.2921636,,,
,114,217 North Central,,Compton,CA,90220,USA,310-637-6689,33.8974852,-118.2525856,,,
,1618,2533 Long Beach Blvd,,Long Beach,CA,90806,USA,562-427-2045,33.8040778,-118.1903499,,,
,171,1199 East Anaheim,,Long Beach,CA,90813,USA,562-591-0254,33.7829011,-118.1766246,,,
,1021,4720 Crenshaw Blvd.,,Los Angeles,CA,90043,USA,323-294-5443,34.0010067,-118.3308282,,,
,738,11251 S. Western Avenue,,Los Angeles,CA,90047,USA,323-757-9774,33.931169,-118.3093224,,,
,3732,"16500 Sherman Way, #A20",,Van Nuys,CA,91406,USA,818-908-1600,34.2003641,-118.492859,,,
,1073,1203 W. Redondo Beach,,Gardena,CA,90247,USA,310-532-0117,33.8926681,-118.2965944,,,
,1004,1500 North La Brea Avenue,,Inglewood,CA,90302,USA,323-299-1662,33.98134710000001,-118.3582189,,,
,843,3950 W. Century Blvd.,,Inglewood,CA,90303,USA,310-680-9965,33.9450925,-118.3436,,,
,949,2206 W. Rosecrans Avenue,,Gardena,CA,90249,USA,310-515-1057,33.9015543,-118.3181954,,,
,4717,7635 Winnetka Avenue,,Canoga Park,CA,91306,USA,818-576-0490,34.2094145,-118.5712833,,,
,5571,6670 Valley High Drive,,Sacramento,CA,95823,USA,916-683-9341,38.665863,-121.2889139,,,
,1072,3801 Stockton Boulevard,,Sacramento,CA,95820,USA,916-452-4682,38.5397524,-121.4494787,,,
,7190,2980 Florin Road,,Sacramento,CA,95822,USA,916-392-1380,38.4955104,-121.4726604,,,
,5773,8023 West Lane,,Stockton,CA,95210,USA,209-475-1547,38.022409,-121.295293,,,
,10538,23839 Pacific Hwy South,,Des Moines,WA,98198,USA,206-824-4212,47.3871841,-122.2967962,,,
,10474,31717 Pacific Highway,,Federal Way,WA,98003,USA,253-946-0596,47.3168604,-122.3137911,,,
,947,110 East Charter Way,,Stockton,CA,95206,USA,209-948-6351,37.9389033,-121.2858472,,,
,10333,11701 Bridgeport Way,,Lakewood,WA,98499,USA,253-582-0664,47.1511623,-122.5039263,,,
,5393,3450 State Road 7,,Lauderdale,FL,33319,USA,954-651-6120,26.1694806,-80.2031317,Monday:10:00 AM-11:00 PM;Tuesday:10:00 AM-11:00 PM;Wednesday:10:00 AM-11:00 PM;Thursday:10:00 AM-12:00 AM;Friday:10:00 AM-12:00 AM;Saturday:10:00 AM-12:00 AM;Sunday:10:00 AM-11:00 PM;,,
,10945,7742 Martin Way E,,Lacey,WA,98516,USA,360-491-5454,47.054433,-122.7763,,,
,1137,2401 W Sunrise Blvd.,,Ft. Lauderdale,FL,33311,USA,954-581-5866,26.1368398,-80.1747883,Monday:10:00 AM-11:00 PM;Tuesday:10:00 AM-11:00 PM;Wednesday:10:00 AM-11:00 PM;Thursday:10:00 AM-12:00 AM;Friday:10:00 AM-12:00 AM;Saturday:10:00 AM-12:00 AM;Sunday:10:00 AM-11:00 PM;,,
,1377,141 S. Federal Hwy.,,Dania Beach,FL,33004,USA,954-921-0244,26.048946,-80.14316,Monday:10:00 AM-11:00 PM;Tuesday:10:00 AM-11:00 PM;Wednesday:10:00 AM-11:00 PM;Thursday:10:00 AM-12:00 AM;Friday:10:00 AM-12:00 AM;Saturday:10:00 AM-12:00 AM;Sunday:10:00 AM-11:00 PM;,,
,1109,17495 NW 27th Avenue,,Miami Gardens,FL,33056,USA,305-620-4097,25.933394,-80.24457799999999,Monday:10:00 AM-11:00 PM;Tuesday:10:00 AM-11:00 PM;Wednesday:10:00 AM-11:00 PM;Thursday:10:00 AM-12:00 AM;Friday:10:00 AM-12:00 AM;Saturday:10:00 AM-12:00 AM;Sunday:10:00 AM-11:00 PM;,,
,1101,13200 NW 27th Avenue,,Opa Locka,FL,33054,USA,305-681-6412,25.8947048,-80.2438518,Monday:10:00 AM-11:00 PM;Tuesday:10:00 AM-11:00 PM;Wednesday:10:00 AM-11:00 PM;Thursday:10:00 AM-12:00 AM;Friday:10:00 AM-12:00 AM;Saturday:10:00 AM-12:00 AM;Sunday:10:00 AM-11:00 PM;,,
,344,2101 NW 79th Street,,Miami,FL,33147,USA,305-836-4014,25.8466169,-80.231878,Monday:10:00 AM-11:00 PM;Tuesday:10:00 AM-11:00 PM;Wednesday:10:00 AM-11:00 PM;Thursday:10:00 AM-12:00 AM;Friday:10:00 AM-12:00 AM;Saturday:10:00 AM-12:00 AM;Sunday:10:00 AM-11:00 PM;,,
,411,1155 NW 54th Street,,Miami,FL,33147,USA,305-756-5182,25.82497,-80.215384,Monday:10:00 AM-11:00 PM;Tuesday:10:00 AM-11:00 PM;Wednesday:10:00 AM-11:00 PM;Thursday:10:00 AM-12:00 AM;Friday:10:00 AM-12:00 AM;Saturday:10:00 AM-12:00 AM;Sunday:10:00 AM-11:00 PM;,,
,343,2899 NW 7th Avenue,,Miami,FL,33150,USA,305-634-5549,25.803297,-80.207008,Monday:10:00 AM-11:00 PM;Tuesday:10:00 AM-11:00 PM;Wednesday:10:00 AM-11:00 PM;Thursday:10:00 AM-12:00 AM;Friday:10:00 AM-12:00 AM;Saturday:10:00 AM-12:00 AM;Sunday:10:00 AM-11:00 PM;,,
,1542,21595 S Dixie Hwy.,,Goulds,FL,33189,USA,305-238-8079,25.5665427,-80.3812822,Monday:10:00 AM-11:00 PM;Tuesday:10:00 AM-11:00 PM;Wednesday:10:00 AM-11:00 PM;Thursday:10:00 AM-12:00 AM;Friday:10:00 AM-12:00 AM;Saturday:10:00 AM-12:00 AM;Sunday:10:00 AM-11:00 PM;,,
,1876,1920 Solano Avenue,,Vallejo,CA,94590,USA,707-642-8118,38.104489,-122.234166,,,
,182,7301 Bancroft Avenue,,Oakland,CA,94605,USA,510-568-5152,37.7653426,-122.1767761,,,
,181,4155 Telegraph Avenue,,Oakland,CA,94609,USA,510-653-2277,37.8306291,-122.2644361,,,
,185,11575 San Pablo Avenue,,El Cerrito,CA,94530,USA,510-215-0141,37.9250069,-122.3186176,,,
,3118,3701 MacDonald Ave,,Richmond,CA,94805,USA,510-233-9227,37.9340129,-122.3339394,,,
,187,1390 Fremont Blvd.,,Seaside,CA,93955,USA,831-394-8699,36.6060723,-121.8467377,,,
,10253,98-1005 Moanalua Rd Uptown Food Court,,Aiea,HI,96701,USA,808-488-9588,21.385897,-157.930925,,,
