store_name,store_number,address,address2,city,state,zip_code,country,phone_number,latitude,longitude,store_hours,other_fields,coming_soon
,,390 Mid Rivers Mall Dr.,,St. Peters,MO,63376,United States,(636) 875-1464,38.791073,-90.625006,Mon 9:00 AM-7:00 PM;Tue 9:00 AM-6:00 PM;Wed 9:00 AM-7:00 PM;Thu-Fri 9:00 AM-6:00 PM;Sat 8:00 AM-1:00 PM,,0
,,227 Salt Lick Road,,St. Peters,MO,63376,United States,(636) 875-1466,38.799773,-90.653478,Mon-Tue 9:00 AM-7:00 PM;Wed-Fri 9:00 AM-6:00 PM;Sat 8:00 AM-1:00 PM,,0
,,2121 Zumbehl Rd.,,St. Charles,MO,63303,United States,(636) 389-5487,38.772316,-90.550409,Mon 9:00 AM-6:00 PM;Tue 9:00 AM-7:00 PM;Wed 9:00 AM-6:00 PM;Thu 9:00 AM-7:00 PM;Fri 9:00 AM-6:00 PM;Sat 8:00 AM-1:00 PM,,0
,,6157 Mid Rivers Mall Dr.,,St. Charles,MO,63304,United States,(636) 336-1491,38.742307,-90.634408,Mon-Thu 9:00 AM-7:00 PM;Fri 9:00 AM-6:00 PM;Sat 8:00 AM-1:00 PM,,0
,,"1020 East Green Meadows, Ste. 100",,Columbia,MO,65201,United States,(573) 303-3960,38.910390,-92.326209,Mon 9:00 AM-7:00 PM;Tue-Wed 9:00 AM-6:00 PM;Thu 9:00 AM-7:00 PM;Fri 9:00 AM-6:00 PM;Sat 8:00 AM-1:00 PM,,0
,,"100 Brickton Road, Ste. 102",,Columbia,MO,65201,United States,(573) 397-7086,38.948050,-92.295895,Mon 9:00 AM-7:00 PM;Tue 9:00 AM-6:00 PM;Wed 9:00 AM-7:00 PM;Thu-Fri 9:00 AM-6:00 PM;Sat 8:00 AM-1:00 PM,,0
,,2404 Taylor Rd.,,Wildwood,MO,63040,United States,(636) 324-0071,38.581908,-90.627404,Mon-Wed 9:00 AM-7:00 PM;Thu-Fri 9:00 AM-6:00 PM;Sat 8:00 AM-1:00 PM,,0
,,8658 Big Bend Blvd.,,Webster Groves,MO,63119,United States,(314) 254-8905,38.583371,-90.357655,Mon 9:00 AM-7:00 PM;Tue 9:00 AM-6:00 PM;Wed 9:00 AM-7:00 PM;Thu-Fri 9:00 AM-6:00 PM;Sat 8:00 AM-1:00 PM,,0
,,1028 Town & Country Crossing Dr.,,St. Louis,MO,63017,United States,(636) 200-5858,38.677337,-90.499701,Mon 9:00 AM-7:00 PM;Tue 9:00 AM-6:00 PM;Wed 9:00 AM-7:00 PM;Thu-Fri 9:00 AM-6:00 PM;Sat 8:00 AM-1:00 PM,,0
,,12406 Tesson Ferry Rd.,,St. Louis,MO,63128,United States,(314) 843-1716,38.509744,-90.375202,Mon 9:00 AM-7:00 PM;Tue-Wed 9:00 AM-6:00 PM;Thu 9:00 AM-7:00 PM;Fri 9:00 AM-6:00 PM;Sat 8:00 AM-1:00 PM,,0
,,5632A Telegraph Rd.,,St. Louis,MO,63129,United States,(314) 334-7000,38.444290,-90.317477,Mon-Wed 9:00 AM-6:00 PM;Thu 9:00 AM-7:00 PM;Fri 9:00 AM-6:00 PM;Sat 8:00 AM-1:00 PM,,0
,,6415 Chippewa St.,,St. Louis,MO,63109,United States,(314) 797-7360,38.593781,-90.298927,Mon 9:00 AM-7:00 PM;Tue 9:00 AM-6:00 PM;Wed 9:00 AM-7:00 PM;Thu-Fri 9:00 AM-6:00 PM;Sat 8:00 AM-1:00 PM,,0
,,3122 South Grand,,St. Louis,MO,63118,United States,(314) 450-7313,38.601993,-90.242356,Mon 9:00 AM-7:00 PM;Tue-Wed 9:00 AM-6:00 PM;Thu 9:00 AM-7:00 PM;Fri 8:00 AM-5:00 PM;Sat 8:00 AM-1:00 PM,,0
,,4109 Union Rd.,,St. Louis,MO,63129,United States,314-487-0700,38.507754,-90.333823,Mon 9:00 AM-7:00 PM;Tue 9:00 AM-6:00 PM;Wed 9:00 AM-7:00 PM;Thu-Fri 9:00 AM-6:00 PM;Sat 8:00 AM-1:00 PM,,0
,,2572 Lemay Ferry Rd.,,St. Louis,MO,63125,United States,(314) 549-5055,38.524685,-90.317557,Mon 9:00 AM-7:00 PM;Tue 9:00 AM-6:00 PM;Wed-Thu 9:00 AM-7:00 PM;Fri 9:00 AM-6:00 PM;Sat 8:00 AM-1:00 PM,,0
,,"12591 Sorrento Road, Suite B",,Pensacola,FL,32507,United States,(850) 316-4862,30.339229,-87.406274,Mon 8:00 AM-5:00 PM;Tue 9:00 AM-6:00 PM;Wed 8:00 AM-5:00 PM;Thu 9:00 AM-6:00 PM;Fri 8:00 AM-5:00 PM,,0
,,9540 Manchester Rd.,,Rock Hill,MO,63119,United States,(314) 254-8897,38.609156,-90.365196,Mon-Tue 9:00 AM-6:00 PM;Wed 9:00 AM-7:00 PM;Thu 8:00 AM-7:00 PM;Fri 9:00 AM-6:00 PM;Sat 8:00 AM-1:00 PM,,0
,,2256 W. Nine Mile Rd. Suite B,,Pensacola,FL,32534,United States,(850) 479-2020,30.532973,-87.237279,Mon-Thu 9:00 AM-5:00 PM;Fri 8:00 AM-12:00 PM,,0
,,8050 Navarre Parkway,,Navarre,FL,32566,United States,(850) 396-4421,30.401853,-86.887331,Mon-Fri 8:00 AM-5:30 PM,,0
,,876 Gulf Breeze Parkway,,Gulf Breeze,FL,32561,United States,(850) 677-0949,30.357784,-87.163990,Mon 8:00 AM-5:00 PM;Tue 9:00 AM-6:00 PM;Wed 8:00 AM-5:00 PM;Thu 9:00 AM-6:00 PM;Fri 8:00 AM-5:00 PM,,0
,,417A Racetrack Rd. NW,,Ft. Walton Beach,FL,32547,United States,(850) 315-8861,30.449244,-86.626378,Mon-Thu 8:00 AM-5:00 PM,,0
,,5101 North Davis Highway,,Pensacola,FL,32503,United States,(850) 316-4857,30.471730,-87.225122,Mon 8:00 AM-5:00 PM;Tue 8:00 AM-6:00 PM;Wed 9:00 AM-5:00 PM;Thu 8:00 AM-6:00 PM;Fri 8:00 AM-5:00 PM;Sat 9:00 AM-1:00 PM,,0
,,6096 Berryhill Road,,Milton,FL,32570,United States,(850) 396-4425,30.631476,-87.064485,Mon-Tue 8:00 AM-5:00 PM;Wed 8:00 AM-3:00 PM;Thu-Fri 8:00 AM-5:00 PM,,0
,,2645 North Illinois Street,,Swansea,IL,62226,United States,(618) 744-6298,38.542591,-89.983855,Mon 9:00 AM-7:00 PM;Tue 9:00 AM-6:00 PM;Wed 9:00 AM-7:00 PM;Thu-Fri 9:00 AM-6:00 PM;Sat 8:00 AM-1:00 PM,,0
,,3248 Green Mount Crossing Dr.,,Shiloh,IL,62269,United States,(618) 619-4273,38.572674,-89.926921,Mon 9:00 AM-7:00 PM;Tue 9:00 AM-6:00 PM;Wed 9:00 AM-7:00 PM;Thu-Fri 9:00 AM-6:00 PM;Sat 8:00 AM-1:00 PM,,0
,,"12603 IL Hwy 143, Suite I",,Highland,IL,62249,United States,(618) 882-4262,38.751566,-89.681057,Mon 9:00 AM-7:00 PM;Tue-Wed 9:00 AM-6:00 PM;Thu 9:00 AM-7:00 PM;Fri 9:00 AM-6:00 PM;Sat 9:00 AM-1:00 PM,,0
,,3405 Nameoki Rd.,,Granite City,IL,62040,United States,(618) 219-1582,38.724604,-90.123596,Mon 9:00 AM-7:00 PM;Tue-Wed 9:00 AM-6:00 PM;Thu 9:00 AM-7:00 PM;Fri 9:00 AM-6:00 PM;Sat 8:00 AM-1:00 PM,,0
,,10 Lincoln Highway #101,,Fairview Heights,IL,62208,United States,(618) 589-1092,38.592167,-89.983668,Mon 9:00 AM-7:00 PM;Tue 9:00 AM-6:00 PM;Wed 9:00 AM-7:00 PM;Thu-Fri 9:00 AM-6:00 PM;Sat 8:00 AM-1:00 PM,,0
,,6663 Edwardsville Crossing Dr.,,Edwardsville,IL,62025,United States,(618) 216-6370,38.788696,-89.953729,Mon 9:00 AM-7:00 PM;Tue 9:00 AM-6:00 PM;Wed-Thu 9:00 AM-7:00 PM;Fri 9:00 AM-6:00 PM;Sat 8:00 AM-1:00 PM,,0
,,1025 Columbia Center,,Columbia,IL,62236,United States,(618) 589-4129,38.444266,-90.221153,Mon-Tue 9:00 AM-7:00 PM;Wed 9:00 AM-6:00 PM;Thu 9:00 AM-7:00 PM;Fri 9:00 AM-6:00 PM;Sat 8:00 AM-1:00 PM,,0
,,601 West Beltline Rd.,,Collinsville,IL,62234,United States,(618) 589-4416,38.679043,-89.925261,Mon 9:00 AM-7:00 PM;Tue-Wed 9:00 AM-6:00 PM;Thu 9:00 AM-7:00 PM;Fri 9:00 AM-6:00 PM;Sat 8:00 AM-1:00 PM,,0
,,2525 Green Mount Commons Dr.,,Belleville,IL,62221,United States,(618) 744-6011,38.521405,-89.925059,Mon 9:00 AM-7:00 PM;Tue 9:00 AM-6:00 PM;Wed 9:00 AM-7:00 PM;Thu-Fri 9:00 AM-6:00 PM;Sat 8:00 AM-1:00 PM,,0
,,1819 Homer Adams Pkwy.,,Alton,IL,62002,United States,(618) 767-6153,38.917517,-90.162732,Mon 9:00 AM-7:00 PM;Tue 9:00 AM-6:00 PM;Wed 9:00 AM-7:00 PM;Thu 9:00 AM-6:00 PM;Fri 8:00 AM-5:00 PM;Sat 8:00 AM-1:00 PM,,0
,,514 Warren County Shopping Center,,Warrenton,MO,63383,United States,(636) 235-0430,38.823872,-91.140424,Mon 9:00 AM-6:00 PM;Tue 9:00 AM-7:00 PM;Wed 9:00 AM-6:00 PM;Thu 9:00 AM-7:00 PM;Fri 9:00 AM-6:00 PM;Sat 8:00 AM-1:00 PM,,0
,,83 Troy Square,,Troy,MO,63379,United States,(636) 462-3958,38.986479,-90.980110,Mon 9:00 AM-7:00 PM;Tue-Wed 9:00 AM-6:00 PM;Thu 9:00 AM-7:00 PM;Fri 9:00 AM-6:00 PM;Sat 8:00 AM-1:00 PM,,0
,,537 West Karsch Blvd.,,Farmington,MO,63640,United States,(573) 747-4133,37.788897,-90.429064,Mon 8:00 AM-6:00 PM;Tue 8:00 AM-5:00 PM;Wed 8:00 AM-6:00 PM;Thu-Fri 8:00 AM-5:00 PM;Sat 8:00 AM-1:00 PM,,0
,,100 S. Jackson St.,,Perryville,MO,63775,United States,(573) 547-6233,37.723646,-89.863646,Mon 8:00 AM-6:00 PM;Tue-Wed 8:00 AM-5:00 PM;Thu 8:00 AM-6:00 PM;Fri 8:00 AM-5:00 PM;Sat 8:00 AM-12:00 PM,,0
,,3071 Phoenix Center Dr.,,Washington,MO,63090,United States,(636) 489-3431,38.536470,-90.981989,Mon 9:00 AM-7:00 PM;Tue 9:00 AM-6:00 PM;Wed 9:00 AM-7:00 PM;Thu-Fri 9:00 AM-6:00 PM;Sat 8:00 AM-1:00 PM,,0
,,1595 Denmark Rd.,,Union,MO,63084,United States,(636) 234-0008,38.431302,-90.968748,Mon 9:00 AM-7:00 PM;Tue 9:00 AM-6:00 PM;Wed 9:00 AM-7:00 PM;Thu-Fri 9:00 AM-6:00 PM;Sat 8:00 AM-1:00 PM,,0
,,330 West Osage,,Pacific,MO,63069,United States,(636) 334-0030,38.484084,-90.744334,Mon 9:00 AM-6:00 PM;Tue-Wed 9:00 AM-7:00 PM;Thu-Fri 9:00 AM-6:00 PM;Sat 8:00 AM-1:00 PM,,0
,,1259 Main Street Plaza,,Imperial,MO,63052,United States,(636) 549-8874,38.369582,-90.387743,Mon 9:00 AM-7:00 PM;Tue 9:00 AM-6:00 PM;Wed 9:00 AM-7:00 PM;Thu-Fri 9:00 AM-6:00 PM;Sat 8:00 AM-1:00 PM,,0
,,2698 Gravois Road,,High Ridge,MO,63049,United States,(636) 692-2674,38.465647,-90.524023,Mon-Tue 9:00 AM-7:00 PM;Wed 8:00 AM-6:00 PM;Thu 9:00 AM-6:00 PM;Fri 8:00 AM-6:00 PM;Sat 8:00 AM-1:00 PM,,0
,,341 A North Creek Dr.,,Festus,MO,63028,United States,(636) 524-4025,38.211186,-90.396080,Mon 9:00 AM-7:00 PM;Tue-Wed 9:00 AM-6:00 PM;Thu 9:00 AM-7:00 PM;Fri 8:30 AM-5:30 PM;Sat 8:00 AM-1:00 PM,,0
,,3936 Vogel Rd.,,Arnold,MO,63010,United States,(636) 333-0157,38.415043,-90.393055,Mon 9:00 AM-7:00 PM;Tue-Wed 9:00 AM-6:00 PM;Thu 9:00 AM-7:00 PM;Fri 9:00 AM-6:00 PM;Sat 8:00 AM-1:00 PM,,0
,,1894 Wentzville Pkwy.,,Wentzville,MO,63385,United States,(636) 856-5116,38.817332,-90.877123,Mon 9:00 AM-6:00 PM;Tue 9:00 AM-7:00 PM;Wed 9:00 AM-6:00 PM;Thu 9:00 AM-7:00 PM;Fri 9:00 AM-6:00 PM;Sat 8:00 AM-1:00 PM,,0
,,6313 Ronald Reagan Dr.,,Lake St. Louis,MO,63367,United States,(636) 549-8688,38.768086,-90.784967,Mon 9:00 AM-7:00 PM;Tue-Fri 9:00 AM-6:00 PM;Sat 8:00 AM-1:00 PM,,0
,,2946 Highway K,,O'Fallon,MO,63366,United States,(636) 542-4343,38.758652,-90.700188,Mon 9:00 AM-7:00 PM;Tue 9:00 AM-6:00 PM;Wed-Thu 9:00 AM-7:00 PM;Fri 9:00 AM-6:00 PM;Sat 8:00 AM-1:00 PM,,0
,,933 Highway K,,O'Fallon,MO,63366,United States,(636) 542-4323,38.798280,-90.700329,Mon 9:00 AM-7:00 PM;Tue-Wed 9:00 AM-6:00 PM;Thu 9:00 AM-7:00 PM;Fri 9:00 AM-6:00 PM;Sat 8:00 AM-1:00 PM,,0
,,9082 Overland Plaza,,St. Louis,MO,63114,United States,(314) 227-1132,38.685389,-90.359946,Mon 9:00 AM-7:00 PM;Tue-Wed 9:00 AM-6:00 PM;Thu 9:00 AM-7:00 PM;Fri 9:00 AM-6:00 PM;Sat 8:00 AM-1:00 PM,,0
,,4412 Telegraph Rd.,,St. Louis,MO,63129,United States,(314) 649-2227,38.484475,-90.304299,Mon 9:00 AM-7:00 PM;Tue-Fri 9:00 AM-6:00 PM;Sat 8:00 AM-1:00 PM,,0
,,2185 South Mason Rd.,,Town & Country,MO,63131,United States,(314) 821-5666,38.597012,-90.479516,Mon 9:00 AM-7:00 PM;Tue-Fri 9:00 AM-6:00 PM;Sat 8:00 AM-1:00 PM,,0
,,12681 Dorsett Village,,Maryland Heights,MO,63043,United States,(314) 786-3800,38.714851,-90.456047,Mon 9:00 AM-7:00 PM;Tue-Wed 9:00 AM-6:00 PM;Thu 9:00 AM-7:00 PM;Fri 9:00 AM-6:00 PM;Sat 8:00 AM-1:00 PM,,0
,,7335 Manchester Rd.,,Maplewood,MO,63143,United States,(314) 797-7365,38.613087,-90.318075,Mon-Tue 9:00 AM-6:00 PM;Wed 9:00 AM-5:00 PM;Thu 9:00 AM-7:00 PM;Fri 9:00 AM-6:00 PM;Sat 8:00 AM-1:00 PM,,0
,,730 S. Kirkwood Rd.,,Kirkwood,MO,63122,United States,(314) 315-4592,38.570610,-90.406584,Mon-Tue 9:00 AM-6:00 PM;Wed-Thu 9:00 AM-7:00 PM;Fri 9:00 AM-6:00 PM;Sat 8:00 AM-1:00 PM,,0
,,8031 W. Florissant Ave.,,Jennings,MO,63136,United States,(314) 222-2071,38.728948,-90.277685,Mon 9:00 AM-7:00 PM;Tue-Wed 9:00 AM-6:00 PM;Thu 9:00 AM-7:00 PM;Fri 9:00 AM-6:00 PM;Sat 8:00 AM-1:00 PM,,0
,,3533 Dunn Rd.,,Florissant,MO,63033,United States,(314) 254-8887,38.771465,-90.271598,Mon 8:00 AM-6:00 PM;Tue 9:00 AM-7:00 PM;Wed 8:00 AM-6:00 PM;Thu 9:00 AM-6:00 PM;Fri 8:00 AM-5:00 PM;Sat 8:00 AM-1:00 PM,,0
,,230 North Highway 67,,Florissant,MO,63031,United States,(314) 254-8908,38.794792,-90.340991,Mon 9:00 AM-7:00 PM;Tue 9:00 AM-6:00 PM;Wed 9:00 AM-7:00 PM;Thu-Fri 9:00 AM-6:00 PM;Sat 8:00 AM-1:00 PM,,0
,,"699 Gravois Bluffs Blvd., Suite B",,Fenton,MO,63026,United States,(636) 678-4008,38.507709,-90.442301,Mon-Tue 9:00 AM-7:00 PM;Wed 9:00 AM-6:00 PM;Thu 9:00 AM-7:00 PM;Fri 8:00 AM-6:00 PM;Sat 8:00 AM-1:00 PM,,0
,,"#54 The Legends Pkwy., #151",,Eureka,MO,63025,United States,(636) 549-4077,38.494873,-90.627512,Mon 9:00 AM-7:00 PM;Tue-Wed 9:00 AM-6:00 PM;Thu 9:00 AM-7:00 PM;Fri 9:00 AM-6:00 PM;Sat 8:00 AM-1:00 PM,,0
,,194 Clarkson Rd.,,Ellisville,MO,63011,United States,(636) 200-5841,38.597942,-90.585704,Mon-Thu 8:30 AM-7:00 PM;Fri 8:30 AM-6:00 PM;Sat 8:00 AM-1:00 PM,,0
,,917 Olive St.,,St. Louis,MO,63101,United States,(314) 621-5303,38.628894,-90.193680,Mon-Tue 8:00 AM-5:30 PM;Wed 8:00 AM-4:00 PM;Thu-Fri 8:00 AM-5:30 PM;Sat 8:00 AM-1:00 PM,,0
,,11941 Manchester Rd.,,Des Peres,MO,63131,United States,(314) 797-7348,38.601329,-90.433108,Mon 9:00 AM-7:00 PM;Tue-Wed 9:00 AM-6:00 PM;Thu 9:00 AM-7:00 PM;Fri 9:00 AM-6:00 PM;Sat 8:00 AM-1:00 PM,,0
,,11433 Olive Blvd. (West Oak Square),,St. Louis,MO,63141,United States,(314) 485-4259,38.671586,-90.429262,Mon-Tue 8:30 AM-7:00 PM;Wed 8:30 AM-6:00 PM;Thu 8:30 AM-7:00 PM;Fri 8:30 AM-6:00 PM;Sat 8:00 AM-1:00 PM,,0
,,8821 Ladue Road,,Ladue,MO,63124,United States,(314) 450-7305,38.653360,-90.350684,Mon 9:00 AM-7:00 PM;Tue 9:00 AM-6:00 PM;Wed-Thu 9:00 AM-7:00 PM;Fri 9:00 AM-6:00 PM;Sat 8:00 AM-1:00 PM,,0
,,17249 Chesterfield Airport Rd.,,Chesterfield,MO,63005,United States,(636) 489-3416,38.668447,-90.597662,Mon 9:00 AM-7:00 PM;Tue-Wed 9:00 AM-6:00 PM;Thu 9:00 AM-7:00 PM;Fri 9:00 AM-6:00 PM;Sat 8:00 AM-1:00 PM,,0
,,1729 Clarkson Rd.,,Chesterfield,MO,63017,United States,(636) 489-1792,38.642053,-90.567570,Mon-Tue 9:00 AM-7:00 PM;Wed 9:00 AM-6:00 PM;Thu 9:00 AM-7:00 PM;Fri 9:00 AM-6:00 PM;Sat 8:00 AM-1:00 PM,,0
,,7 North Euclid,,St. Louis,MO,63108,United States,(314) 797-7351,38.640776,-90.262113,Mon 9:00 AM-7:00 PM;Tue 8:30 AM-6:00 PM;Wed 9:00 AM-7:00 PM;Thu 8:30 AM-6:00 PM;Fri 9:00 AM-6:00 PM;Sat 8:00 AM-1:00 PM,,0
,,4305 Butler Hill Rd.,,St. Louis,MO,63128,United States,(314) 649-2232,38.485738,-90.356897,Mon 9:00 AM-7:00 PM;Tue 9:00 AM-6:00 PM;Wed 9:00 AM-7:00 PM;Thu-Fri 9:00 AM-6:00 PM;Sat 8:00 AM-1:00 PM,,0
,,8562 Eager Road,,Brentwood,MO,63144,United States,(314) 254-8895,38.629232,-90.340986,Mon-Thu 9:00 AM-7:00 PM;Fri 9:00 AM-6:00 PM;Sat 8:00 AM-1:00 PM,,0
,,14842 Manchester Rd.,,Ballwin,MO,63011,United States,(636) 200-5862,38.592898,-90.541307,Mon 9:00 AM-7:00 PM;Tue-Wed 9:00 AM-6:00 PM;Thu 9:00 AM-7:00 PM;Fri 9:00 AM-6:00 PM;Sat 8:00 AM-1:00 PM,,0
,,10101 Gravois Road,,Affton,MO,63123,United States,(314) 282-9050,38.550734,-90.336289,Mon 9:00 AM-7:00 PM;Tue 9:00 AM-6:00 PM;Wed 9:00 AM-7:00 PM;Thu-Fri 9:00 AM-6:00 PM;Sat 8:00 AM-1:00 PM,,0
,,32 Four Seasons Center,,Chesterfield,MO,63017,United States,(314) 485-4536,38.679093,-90.501252,Mon-Tue 9:00 AM-6:00 PM;Wed 9:00 AM-7:00 PM;Thu 8:00 AM-6:00 PM;Fri 9:00 AM-6:00 PM;Sat 8:00 AM-1:00 PM,,0
