store_name,store_number,address,address2,city,state,zip_code,country,phone_number,latitude,longitude,store_hours,other_fields,coming_soon
Another city two stores (selling muffins),,Shanghai Songhu Road on the 8th B1 layer G09-B01-037,,,,,China,,,,,,0
Chang Li (selling muffins),,"No. 1206, Shangnan Road, Pudong New Area",,,,,China,,,,,,0
Changsha backgammon Meixihu shop (selling muffins),,"Changsha City, Hunan Province, Yuelu District, Fenglin Road, and Dongfanghong Road Interchange back step Gaixi Xintiandi L3 layer 312",,,,,China,,,,,,0
Changsha China Resources Vientiane (selling muffins),,"Changsha City Xinsha Avenue 168, China Resources Vientiane L145-L146 shop",,,,,China,,,,,,0
Changsha Friends of Ao Ao Leisi,,"Changsha City Tianxin District Furong South Road, No. 27, Friends of the Ao Te Laesi gate entrance",,,,,China,,,,,,0
Changsha Jardine shop (selling muffins),,"Changsha City, 515 Avenue, No. 655 Jintian Xintiandi commercial podium floor",,,,,China,,,,,,0
Changsha Kaifu Wanda shop (selling muffins),,"Changsha Kaifu District Xiangjiang Road 589, Wanda Plaza indoor pedestrian street 4 storey 4017 shops",,,,,China,,,,,,0
Changsha Wyatt (sale of muffins),,"Changsha City, Hunan Province, Tianxin District, No. 26, Po Po Street, Yuet side IDMALLB161 shops",,,,,China,,,,,,0
Changzhou another city (selling muffins),,"Changzhou City, Jiangsu Province, Wujin District Huantang Town Garden Street No.33 Road, another city square 1B-21",,,,,China,,,,,,0
Changzhou Baolong shop (selling muffins),,"Changzhou City, Jiangsu Province, Central District, Camellia Road and the introduction of water lily Square Baolong Square 3F-003",,,,,China,,,,,,0
Changzhou Culture Palace Yanling shop (selling muffins),,"Changzhou City, Jiangsu Province, Yan Ling Road 56, 110-111",,,,,China,,,,,,0
Changzhou Lemmon (selling muffins),,"Changzhou Lemmon International Business District 1-104,105",,,,,China,,,,,,0
Changzhou New North Wanda,,"Changzhou New North Wanda Plaza 3 layer 3061,3062 shops",,,,,China,,,,,,0
Changzhou Wujin Wanda (selling muffins),,"Changzhou Wujin District Hutang Town Garden Street 301, Wujin Wanda shopping mall three",,,,,China,,,,,,0
Changzhou Wujin Yuyue (selling muffins),,"Wujin District, Wujin District, Changzhou City, Wu Yizhong Road, No. 188, I Yue Plaza 2F",,,,,China,,,,,,0
Chengdu Fortune Center Shop (selling muffins),,Chengdu City Jinjiang District Daguan Road on the 6th floor of Chengdu Fortune Center Plaza,,,,,China,,,,,,0
Chengdu gifted shop,,"1st Floor, Excellent Shopping Center, No. 1, Qingyang Road, Chengdu, China",,,,,China,,,,,,0
Chengdu happy song (selling muffins),,Zoom Here Find Nearby Get Directions Share with Friends,,,,,China,,,,,,0
Chengdu Happy Valley shop (selling muffins),,"Chengdu, Sichuan Province, Jinniu District on the 1st line of Chengdu Overseas Chinese Town Park Plaza, a layer of C3108 shops",,,,,China,,,,,,0
Chengdu high-tech Ito (selling muffins),,"Chengdu High-tech Zone Tianfu Second Street 999, Ito Yang Huatang high-tech store store negative layer",,,,,China,,,,,,0
Chengdu Jinli shop,,"No.53, Wuhou Temple Street, Wuhou District, Chengdu City",,,,,China,,,,,,0
Chengdu Jinnan Tianjie shop,,"Chengdu Wuhou District Jinji West Street 66, Longhu Jin Nan Tian Street shopping malls 5",,,,,China,,,,,,0
Chengdu Jinniu Wanda shop (selling muffins),,"Chengdu Jinniu District, a section of the north section of the third section of Jinniu Wanda Plaza, 3rd Floor, 3013",,,,,China,,,,,,0
Chengdu Joy City (selling muffins),,"Chengdu Wuhou District Da Yue Road, Joy City store a negative layer LG049",,,,,China,,,,,,0
Chengdu Qingyang Wanda (selling muffins),,"Guanghua District, Chengdu, Sichuan Province, a section of the moon and the moon on the 978 Wanda Plaza, 4038 shops on the fourth floor",,,,,China,,,,,,0
Chengdu red card shop,,Chengdu Wuhou District Jialing Road red archway square,,,,,China,,,,,,0
Chengdu Vientiane City shop (selling muffins),,"Chengdu Chenghua District Shuangqing Road on the 8th, Chengdu Vientiane City Shopping Center B1, 151",,,,,China,,,,,,0
Chengdu Wanda store (selling muffins),,"Chengdu Jinjiang District Jinhua Road 68, Wanda shopping malls on the 2nd floor",,,,,China,,,,,,0
Chengdu Wangfujing (selling muffins),,Chengdu Wuhou District Kehua North Road and Second Ring Road at the junction of Wangfujing Department Store 4F,,,,,China,,,,,,0
Chengdu Yancheng shop (selling muffins),,Chengdu Shuncheng Street on the 8th New World Department Store B1F,,,,,China,,,,,,0
Chengshan Road shop (selling muffins),,"No. 521, Jinzun Road, Pudong New Area, Shanghai",,,,,China,,,,,,0
Cheung Shide shop (selling muffins),,"Changsha City Tianxin District, Italy and all the way to the intersection of Xiangfu East Road, Germany and Sri Lanka Plaza 1F",,,,,China,,,,,,0
Cixi Yintai (selling muffins),,"Zhejiang Province, Cixi City, Jiefang East Street and the intersection of sugar Square Road, a layer of 1A - 01",,,,,China,,,,,,0
Danyang Golden Eagle (selling muffins),,"Danyang City, Jiangsu Province, Xinmin Road and Chenghe Road Interchange Golden Eagle Shopping Plaza 1F",,,,,China,,,,,,0
Danyang Yuyue (selling muffins),,"Danyang City, Jiangsu Province Development Zone Jinling Road and Phoenix Road, Danyang Yu Yue Plaza, 1st Floor, 019 shop",,,,,China,,,,,,0
Dujiangyan hundred lun shop (selling muffins),,"Sichuan Dujiangyan City, Dujiangyan Road, No. 211, 100th Floor, Dylan Dresan Queen",,,,,China,,,,,,0
Fenghua Yintai shop,,"Fenghua City, Zhejiang Province, Nanshan Road 150, Yintai a layer of 135 shops",,,,,China,,,,,,0
Fuqing Wanda shop (selling muffins),,"Fuqing City, Fujian Province, Qingchang Road 105 Wanda Plaza 3",,,,,China,,,,,,0
Fuyang jade Great Wall (selling muffins),,"Zhejiang Province, Fuyang District, Hangzhou City, Fu Chun Street, Spring Road, No. 271, the Great Wall Shopping Center S1001 shops",,,,,China,,,,,,0
Fuyang Oriental Maodian (selling muffins),,"Zhejiang Province, Fuyang District, Hangzhou City, Fu Chun Street, No. 1 East Road, Oriental Mao Shopping Center, Building A, 1052 shops",,,,,China,,,,,,0
Fuzhou Cangshan Wanda (selling muffins),,"Fuzhou City, Fujian Province Cangshan District Pu on the road 276 Cangshan Wanda Plaza (a district) 3 Building 3, 3-39",,,,,China,,,,,,0
Fuzhou Financial Street Wanda shop (selling muffins),,"No.6, Wanda Plaza, 8 Financial Street, Aojiang Road, Taijiang District, Fuzhou City",,,,,China,,,,,,0
Fuzhou Vientiane City shop (selling muffins),,"Fuzhou City, Fujian Province, Taijiang District Industrial Road 378, a layer of 1023 shops",,,,,China,,,,,,0
Fuzhou Wangfujing (selling muffins),,"Fuzhou Gulou District No. 54 Road, No. 126 Wangfujing department store negative layer B1-B20 shop",,,,,China,,,,,,0
Gaoyou World Trade Center (selling muffins),,"Jiangsu Province Gaoyou Tonghu Road, the first floor of the World Trade Plaza",,,,,China,,,,,,0
Guangzhou Baiyun Kaide shop (selling muffins),,Guangzhou Baiyun District Yuncheng West Road Baiyun Cairde Square negative two on the 53rd,,,,,China,,,,,,0
Guangzhou China Plaza,,"Yuexiu District, Guangzhou City, Zhongshan Road, No. 33, the Chinese store a negative plus 01 shops",,,,,China,,,,,,0
Guangzhou is good shop (selling muffins),,"Guangzhou Tianhe Road, No. 288 Guangzhou is good square 7F7C002 shop",,,,,China,,,,,,0
Guangzhou Lai Ying shop (selling muffins),,"Longgang Road, Haizhu District, Guangzhou City, 356, Lai Ying Plaza B1-035A",,,,,China,,,,,,0
Guangzhou Luogang Wanda (sale of muffins),,"Guangzhou Hi-Tech Industrial Development Zone, No. 89, Fengfeng Road, 000",,,,,China,,,,,,0
Guangzhou Panyu Wanda Plaza Shop (selling muffins),,"Panyu District, Guangzhou City, South Town, Hanxi Road East, No. 381 Wanda Plaza, 3052 shop DQ ice and snow queen",,,,,China,,,,,,0
Guangzhou Tianhe City store (selling muffins),,"Tianhe District, Guangzhou Tianhe Road 208, Tianhe City shopping malls on the 4th floor K426 shops",,,,,China,,,,,,0
Guiyang Heiner Square shop (selling muffins),,"Guizhou Province, the first floor of the Yellow River Road Heiner Square",,,,,China,,,,,,0
Guiyang Hengfeng (selling muffins),,"Guiyang City, Zhongshan West Road 58 Hengfeng Pedestrian Street 1-7 stores",,,,,China,,,,,,0
Guiyang Hongtong City (selling muffins),,"Guiyang City, Guizhou Province, Nanming District, Jiefang Road, No. 100 Hongtong City 1F",,,,,China,,,,,,0
Guiyang Hunter International Store (sale of muffins),,"Guiyang City, Guizhou Province Airport Road on the 18th (Wenchang South Road and the Department of Road Interchange) Hunter International 1F",,,,,China,,,,,,0
Guiyang Jinyang (selling muffins),,Guiyang Jinyang New District Jinyang Avenue Jinyang South Road on the 6th Century Jinyuan Shopping Center Block A 1-9 shops,,,,,China,,,,,,0
Guiyang Nan Guo Hua Jin Dian (sale of muffins),,"Guiyang City, Guizhou Province, China Road, civil rights intersection south of the first floor",,,,,China,,,,,,0
Guiyang Zhengde Jiabang shop (selling muffins),,"Guiyang City Wudang District Yu Xin Road on the 2nd, Wei Central Life Square Zhengde Jiabang shopping malls LG layer 01 shops",,,,,China,,,,,,0
Guiyang Zhongda International Store (sale of muffins),,"Guiyang City, Guiyu North Road, No. 183, the first floor of the International Shopping Center",,,,,China,,,,,,0
Haimen Wenfeng big world,,"Jiangsu Province, Haimen Changjiang Road Xiushan junction Wenfeng big world on the first floor",,,,,China,,,,,,0
Haimen Zhongnancheng shop (selling muffins),,"No. 99, Zhangjian Avenue, Haimen Street, Haimen, Jiangsu Province, China",,,,,China,,,,,,0
Haining Yintai City,,"Haining City, Zhejiang Province, 365 Haichang Road, Yintai City, a layer of 132 shops",,,,,China,,,,,,0
Hangzhou Binjiang Baolong (selling muffins),,"Hangzhou, Binjiang District, Hangzhou City, 3867 Bin Sheng Road, Baolong City, 4th Floor, No. 024-1 shop",,,,,China,,,,,,0
Hangzhou Canal Street Shop (sale of muffins),,"Hangzhou City, Zhejiang Province, No. 36, Taizhou Road, Canal Street, Commercial Street, F108 shop",,,,,China,,,,,,0
Hangzhou Crystal City Shopping Center (selling muffins),,"Hangzhou Gongshu District Shangtang Road 458 Crystal City Shopping Center, 1st Floor",,,,,China,,,,,,0
Hangzhou East Station Store,,Hangzhou East Station Commercial Interlayer East HD-3F-57,,,,,China,,,,,,0
Hangzhou Fulei shop (selling muffins),,"Hangzhou Economic Development Zone Wenzhi Road 99 Fulide Plaza, the first layer 1D05 shop",,,,,China,,,,,,0
Hangzhou Gongshu D32 (selling muffins),,"No.36, Xiaohe Road, Gongshu District, Hangzhou City, Zhejiang Province, China",,,,,China,,,,,,0
Hangzhou Gongshu Wanda shop (selling muffins),,"Hangzhou Gongshu District Shixiang Road and Hang Road intersection 666 Wanda Plaza, 4th Floor",,,,,China,,,,,,0
Hangzhou Hubin shop (selling muffins),,Hangzhou Lake Road on the 2nd,,,,,China,,,,,,0
Hangzhou lakeside famous (selling muffins),,"Room 16, G / F, Block B, 238 Jiefang Road, Hangzhou, Zhejiang Province, China",,,,,China,,,,,,0
Hangzhou Southern Song Dynasty Royal Street,,"No.8-1, Zhongshan Road, Hangzhou, Zhejiang, China",,,,,China,,,,,,0
Hangzhou Star Avenue shop (selling muffins),,"Zoom Here Find Nearby Get Directions Share with Friends Correct 8 Brisbane City,",,,,,China,,,,,,0
Hangzhou Wenyi Wumart (sale of muffins),,"Hangzhou West Lake District Road, No. 296, the first floor of the city and the city",,,,,China,,,,,,0
Hangzhou West Silver Thai City (selling muffins),,"No. 380-38, Fengtan Road, Gongshu District, Hangzhou, China.",,,,,China,,,,,,0
Hangzhou West Tin City (selling muffins),,"Hangzhou Yuhang District Moganshan Road 1509, West Tin City shopping malls A1F-011 shops",,,,,China,,,,,,0
Hangzhou Xiaoshan Hang Lung Plaza (selling muffins),,"Xiaoshan District, Hangzhou City, Zhejiang Province, Shan Yin Road, Hang Lung Plaza, No. 111, 111",,,,,China,,,,,,0
Hangzhou Xiaoshan Yinlong Department Store (selling muffins),,"No.128, 1st Floor, Block B, Main Building, Yinlong Department Store, No.268, Zhongxin Road, Xiaoshan District, Hangzhou City, Zhejiang Province, China",,,,,China,,,,,,0
Hangzhou Xiasha Baolong shop (selling muffins),,"Bufeng Economic Development Zone, Jianggan District, Hangzhou City, Zhejiang Province, No. 2 Avenue Baolong City Plaza, Building 3, 1F",,,,,China,,,,,,0
Hangzhou Xixi Impression City (sale of muffins),,"Yuhang District, Hangzhou City, Zhejiang Province, Wuchang Avenue, No. 1 West Creek Impression City, the first floor of the city",,,,,China,,,,,,0
Hangzhou Zhongda Yintai Cheng shop (selling muffins),,"No.222, Shixiang Road, 822 Dongxin Road, Hangzhou City, China B115-116, B1, Great Yintai Town, intersection",,,,,China,,,,,,0
Hefei Baohe Wanda store (selling muffins),,Hefei Ma On Shan Road 130 (near Wuhu Road) Wanda Plaza 3F,,,,,China,,,,,,0
Hefei hundred drum tower shop (selling muffins),,"Luzhou District, Hefei City, Anhui Province, Huaihe Road and Huaihe Road, the eastern corner of the Drum Tower Building, 4th Floor",,,,,China,,,,,,0
Hefei Swan Lake Wanda (selling muffins),,"No. 3-36, 3rd Floor, Pedestrian Street, 3818 South Second Ring Road, Shushan District, Hefei City, Anhui Province, China",,,,,China,,,,,,0
Hefei Wan Da Mao shop,,"Hefei City, Anhui Province, Baohe District Wanda Tourism City A1 block Wanda Plaza, indoor pedestrian street three 3011",,,,,China,,,,,,0
Hefei Yaohai Wanda shop (selling muffins),,"Hefei Yaohai District Linquan East Road 277 Wanda Plaza, 3rd Floor, Room 3030",,,,,China,,,,,,0
Hefei Yintai shop,,"Hefei Shushan District, Anhui Province, No. 190 buried hill Road, Yintai City, 2nd Floor, 228",,,,,China,,,,,,0
Jiading big financial city shop (selling muffins),,"No. 12786, Building 1, Building 1, Dahe City, No. 3386 Baoan Road, Jiading District, Shanghai",,,,,China,,,,,,0
Jiading Jiating Hui shop (selling muffins),,"Room 1055, 1055 Moyu South Road, Jiading District, Shanghai",,,,,China,,,,,,0
Jiading Robinson shop,,"No. 138, City Road, Jiading District, Shanghai",,,,,China,,,,,,0
Jiande Pacific (selling muffins),,"Shop 003-01, 1st Floor, Pacific Shopping Center, Yan Dong Guan Road, Jiande City, Zhejiang Province, China",,,,,China,,,,,,0
Jiangqiao Wanda (selling muffins),,Shanghai Jiangqiao Wanda Plaza indoor walk street 3 layer 3072 shops,,,,,China,,,,,,0
Jiangyin new city,,"Jiangyin City, Chengjiang Road 206, a new city square floor atrium",,,,,China,,,,,,0
Jiashan Hengli Square (sale of muffins),,Zhejiang Province Jiashan County Weitang Street Zhongshan West Road 118 Hengli Shopping Plaza 1F,,,,,China,,,,,,0
Jiashan Wanlian City (selling muffins),,"Jiaxing City, Zhejiang Province Jiashan County Century Avenue 1001 1F-023",,,,,China,,,,,,0
Jiaxing Wanda shop (selling muffins),,"Zhejiang Province Jiaxing City Guangyi Road 1108 Wanda Plaza indoor pedestrian street 4, 4020",,,,,China,,,,,,0
Jiaxing Xuhui shop (selling muffins),,"Zhejiang Province, Jiaxing City, South Lake Road, No. 666, Xuhui Square, No. 066 (1037)",,,,,China,,,,,,0
Jiaxing Yaohan (selling muffins),,Zhejiang Province Jiaxing City Nanhu District Yuexiu Road 968 Jiaxing Yaohan mall F2017 shop,,,,,China,,,,,,0
Jinan Changqing University City store (selling muffins),,"Changqing District, Jinan City, Shandong Province Science and Technology Park, Li Wei Road and Zhang Heng Road Interchange Sanqing Youth City, a layer",,,,,China,,,,,,0
Jinan high-tech Wanda store (selling muffins),,"High - tech Zone, Jinan City Industrial Road and Yingxiu Road intersection high - tech zones Wanda 4th floor, 4012",,,,,China,,,,,,0
Jinan jade letter Ginza shop (selling muffins),,Jinan City by the ten road Jade Road Ginza B1F,,,,,China,,,,,,0
Jinan Jiahua shop,,"Jinan City, Huaiyin District, No. 588 Second Road, Jinan Jiahua Shopping Plaza, a layer",,,,,China,,,,,,0
Jinan show town (sale of muffins),,Zoom Here Find Nearby Get Directions Share with Friends Check Out Sign In |,,,,,China,,,,,,0
Jinan Weijiazhuang Wanda shop (selling muffins),,"Jinan City in the District by the four-way Wei Jia Zhuang Wanda Plaza, three pedestrian street",,,,,China,,,,,,0
Kunming Carnival Square (sale of muffins),,"Kunming, Yunnan Province, Wuhua District, Kunming Road, Kunming, Carnival Square, a layer of commercial square",,,,,China,,,,,,0
Kunming Golden Eagle (selling muffins),,"5-22, 2 / F, Golden Eagle B, 168 Witai Street, Wuhua District, Kunming",,,,,China,,,,,,0
Kunming Helen International (selling muffins),,"Kunming, Yunnan Province Guandu District Guangfu Road and Jinyuan Avenue intersection, Helen International Shopping Center",,,,,China,,,,,,0
Kunming Jingxing shop (selling muffins),,Kunming Wuhua District Qian Wang Street 001 shops,,,,,China,,,,,,0
Kunming People's Shop (selling muffins),,"No.55 People 's Road, Wuhua District, Kunming City",,,,,China,,,,,,0
Kunming Red Star Aegean shop (selling muffins),,"Kunming, Yunnan Province, Xishan District, Kunming, Kunming, Hongxing Aegean Sea shopping park on the 1st floor",,,,,China,,,,,,0
Kunming Shuncheng (selling muffins),,"Kunming City, three city streets Shuncheng Wangfujing shopping center on the first floor of A - 06",,,,,China,,,,,,0
Kunming Square shop (selling muffins),,"Kunming, Yunnan Province, Panlong District, Beijing Road, No. 928 Tongde Kunming Square on the 1st floor",,,,,China,,,,,,0
Kunming Xishan Wanda shop (selling muffins),,"Xishan District, Kunming Xishan Wanda Plaza 3F 3005DQ ice and snow queen",,,,,China,,,,,,0
Kunshan Golden Eagle,,"Jiangsu Province, Kunshan City Pearl River Road 199, a layer",,,,,China,,,,,,0
Kunshan Kuncheng shop,,"Kunshan City, Jiangsu Province Development Zone Renmin South Road, No. 1188 Queensway Plaza, Building B132 unit",,,,,China,,,,,,0
Kunshan nine square shop (selling muffins),,"Kunshan City, Jiangsu Province, Yushan Town, Zizhu Road, Xiao Lin Road Interchange Kunshan nine square 4F",,,,,China,,,,,,0
Like the lake Tianhong shop (selling muffins),,"Nanchang City, Jiangxi Province as the lake Tianhong shop and Nanchang Jinsha Avenue as Lake Tianhong shopping malls on the 1st floor",,,,,China,,,,,,0
Lincang Le car city (selling muffins),,Qingdao Licang District Xiazhuang Road on the 1st Weidong Le car city on the 1st floor,,,,,China,,,,,,0
Linhai Yin Tai shop (selling muffins),,"Linhai City, Zhejiang Province, Oriental Avenue on the 1st Yintai City 1F038-1",,,,,China,,,,,,0
Liyang Pingling Square (selling muffins),,"Liyang City, Jiangsu Province, 228 Pingling Road, Pingling Square, a layer of 102 shops",,,,,China,,,,,,0
Lujiabang new neighborhood living station,,Shanghai Xinpu District Lujiabang Road 1100 New Neighborhood Station B2F-03A,,,,,China,,,,,,0
Nanchang dream shop (selling muffins),,"Nanchang, Beijing East Road, No. 408 Nanchang Hengmao dream of the International Plaza, Building 3, No. 1, 51",,,,,China,,,,,,0
Nanchang Honggu Tan Shimao (sale of muffins),,"Shop No. 117, Shimao Plaza, 1996, Honggu Zhong Avenue, Nanchang",,,,,China,,,,,,0
Nanchang moving shop (selling muffins),,"Jiangxi Province, Nanchang West Lake District, Zhongshan Road, No. 220-234 No. 320",,,,,China,,,,,,0
Nanchang red valley (selling muffins),,Jiangxi Province Nanchang Honggu Tan New District Exhibition Road 999 000 Wanda Plaza 3 3061 shops,,,,,China,,,,,,0
Nanchang Wanda Ma shop,,"Nanchang City, Jiangxi Province, Honggu Tan New Area South 666 South Longpan Street Nanchang Wan Da Mao layer 1018",,,,,China,,,,,,0
Nanjing 1912 stores (selling muffins),,"Building 1, Building 17, 1912, 288 Changjiang Road, Xuanwu District, Nanjing",,,,,China,,,,,,0
Nanjing Aolin Square shop,,"Pudong District, Nanjing Pudong North Road, No. 126-2, Olin Shopping Plaza, 2nd Floor, first floor",,,,,China,,,,,,0
Nanjing Dachang Amethyst (sale of muffins),,"Factory District No. 380-1, Qiguan Road, Nanjing, China Amethyst Global Life Plaza, 1st Floor, 021 shops",,,,,China,,,,,,0
Nanjing Grand View (sale of muffins),,"Jiangsu Province, Gulou District, Nanjing, Jianning Road, No. 300, Grand View MALL shopping mall layer",,,,,China,,,,,,0
Nanjing Hexi Yurun Square (selling muffins),,"No.277, Jiangdong Middle Road, Jianye District, Nanjing, China",,,,,China,,,,,,0
Nanjing Hongyue City shop (selling muffins),,"No. 619 Yingtian Street, Nanjing, Jiangsu Province, China",,,,,China,,,,,,0
Nanjing Horse Group Garden City,,"Jiangsu Province, Qixia District, Zhongshan City, northwest of the street Merchants Garden City, 2nd Floor, 207 shops",,,,,China,,,,,,0
Nanjing Jian Ye Wanda shop (selling muffins),,Nanjing Jiangdong Road Nanjing Jianye Wanda Plaza within the pedestrian street 3,,,,,China,,,,,,0
Nanjing Jiangbei Ocean shop (sale of muffins),,"Nanjing City, 48 North Road, East China MALL 1 layer",,,,,China,,,,,,0
Nanjing Jiangning Auchan (sale of muffins),,"Nanjing Jiangning District Qinhuai Road on the 11th, Jiangning Auchan layer",,,,,China,,,,,,0
Nanjing Jiangning Tongxi shop (selling muffins),,"Jiangning District, Nanjing City, Jiangsu Province, Shuanglong Avenue, No. 1356 Tongxi million Shangcheng B1-009",,,,,China,,,,,,0
Nanjing Jiangning Wanda (selling muffins),,"Nanjing Jiangning District Zhushan Road 68 Wanda Plaza, third floor 3060 shop",,,,,China,,,,,,0
Nanjing Jinlun shop,,"Nanjing Hanzhong Road on the 8th Nanjing Jinlun World Shopping Center, the first layer of F-19",,,,,China,,,,,,0
Nanjing Longjiang New City store (selling muffins),,"No. 100, Caochangmen Avenue, Gulou District, Nanjing, Longjiang New Town Square",,,,,China,,,,,,0
Nanjing mall shop (selling muffins),,Nanjing Xuanwu District Longpan Road on the 1st floor of Nanjing commercial buildings,,,,,China,,,,,,0
Nanjing new 100 stores,,"No.2, Zhongshan South Road, Baixia District, Nanjing, China A06, A07",,,,,China,,,,,,0
Nanjing Rainbow Square (sale of muffins),,"Qixia District, Nanjing and Yan Road, No. 408, Rainbow Shopping Center layer DQ ice and snow queen",,,,,China,,,,,,0
Nanjing Wan Guhui (selling muffins),,"Nanjing Qixia District Huaxian Road on the 1st, Wan Guhui life on the first floor of the square",,,,,China,,,,,,0
Nanjing Water City,,"Building 1, B1 - T107, Jiukang Road, Nanjing",,,,,China,,,,,,0
Nanjing Wenting Square (selling muffins),,"No. 10, Qindi Square, No. 99, Qizhi Road, Jiangning District, Nanjing",,,,,China,,,,,,0
Nanjing Xianlin Jinying shop (selling muffins),,"Qixia District, Nanjing, Xianlin New Area Xuehai Road on the 1st Xianlin Golden Eagle heaven and earth 3 1 3-103 shops",,,,,China,,,,,,0
Nanjing Xinjiekou ocean,,"No. 122, Zhongshan South Road, Qinhuai District, Nanjing, B1 Floor, Ocean Mall",,,,,China,,,,,,0
Nanjing Xinjiekou Wanda Cinema shop,,Nanjing Xinjiekou Wanda Plaza four Wanda theater,,,,,China,,,,,,0
Nanjing Zhonghai Huanyu shop (selling muffins),,Nanjing Gulou District Qingliangmen Street in the sea ring city on the 4th floor,,,,,China,,,,,,0
Nanning Anji Wanda shop (selling muffins),,"Nanning City, Guangxi Xixiangtang District High - tech Avenue 55 Anji Wanda Plaza, 4th Floor",,,,,China,,,,,,0
Nanning Convention and Exhibition Ocean City (sale of muffins),,"Guangxi Nanning Qingxiu District National Road 131, Ocean International City L1-060 shops",,,,,China,,,,,,0
Nanning Qingxi Wanda shop (selling muffins),,"Qingxiu District, East Road, No. 118, Green Wanda Shopping Center 3",,,,,China,,,,,,0
Nanning Vientiane City (sale of muffins),,"Nanning City Youth Township Road 136, Vientiane City, B1-149 shop",,,,,China,,,,,,0
Nanning Xiguan shop (selling muffins),,"Nanning City, Guangxi Province, Xining Road on the 2nd West Gate Square N103 shops",,,,,China,,,,,,0
Nansha Wanda store (selling muffins),,"No.337, Wanda Plaza, No.3 Shan Shan Road, Nansha District, Guangzhou City",,,,,China,,,,,,0
Nantong round into the store,,"Nantong City Chongchuan District Industrial and Rural Road, a large square floor B125",,,,,China,,,,,,0
Nantong Rugao Wandu Square shop (selling muffins),,"Jiangsu Province, Nantong Rugao City, such as the streets of the streets of the first floor of the North Square A5-125,126",,,,,China,,,,,,0
Nantong Wanda (selling muffins),,"Nantong City Gangzha Jianghai Avenue and Changping Road at the junction of Wanda Plaza, 3rd Floor",,,,,China,,,,,,0
Nantong Wenfeng City Square Shop (selling muffins),,"Nantong City, Jiangsu Province, Hongqiao Road on the 1st floor of Wenfeng City Plaza",,,,,China,,,,,,0
Nantong Wenfeng shop (selling muffins),,Nantong City Chongchuan District South Street Wenfeng large world fourth floor ice and snow queen,,,,,China,,,,,,0
Nantong Wuzhou shop (selling muffins),,"No.88, Zhongxiu Road, Chongchuan District, Nantong City, 1st Floor, Wuzhou International Plaza",,,,,China,,,,,,0
Nantong Zhongnan City (selling muffins),,Jiangsu Nantong Chongchuan District Taoyuan Road on the 12th Zhongnan City shopping city on the first floor,,,,,China,,,,,,0
Ningbo Beilun Yintai shop (selling muffins),,"No.39, Zhonghe Road, Beilun District, Ningbo City, Zhejiang Province, China",,,,,China,,,,,,0
Ningbo China Resources Pacific shop,,"No. 299, Sang Tin Road, Ningbo City, Zhejiang Province, China",,,,,China,,,,,,0
Ningbo Gao Xin Plaza (selling muffins),,"No. 336, 3rd Floor, Gaoxin Plaza, 111 Xinxing Road, Haishu District, Ningbo City, Zhejiang Province",,,,,China,,,,,,0
Ningbo impression city shop,,"Ningbo City, Zhejiang Province, Yinzhou District, No. 288 Qianhu Road, Ningbo Impression City Plaza B1 B1-22",,,,,China,,,,,,0
Ningbo Ninghai Xizi international shop,,"No. 1F - 27-2, Xizi International Plaza, 168 Taoyuan Zhong Road, Ninghai County, Ningbo City, Zhejiang Province, China",,,,,China,,,,,,0
Ningbo Outlets,,Ningbo Yinzhou District autumn real road 555 15500 shops DQ ice and snow queen shop,,,,,China,,,,,,0
Ningbo Tianyi shop (selling muffins),,"Ningbo City, Zhejiang Province, Haishu District, Zhaizhi Street, No. 152, Ningbo Tianyi Square, the first layer of Ivb101-5 dining room",,,,,China,,,,,,0
Ningbo Tianyi shop (selling muffins),,"No.515, Drug Street, Ningbo City, Zhejiang Province",,,,,China,,,,,,0
Ningbo Yintai Jiangdong shop (selling muffins),,"No. 333, Zhongshan East Road, Jiangdong District, Ningbo City, Zhejiang Province, China.",,,,,China,,,,,,0
Ningbo Yintai Universal City shop (selling muffins),,"3rd Floor, Yintai City, 1088 Tiantong South Road, Yinzhou District, Ningbo City, Zhejiang Province",,,,,China,,,,,,0
Ningbo Yinzhou Wanda shop (selling muffins),,"No. 1A-35-02, Wanda Plaza, Inner Street, No. 999, Sanming Middle Road, Yinzhou District, Ningbo City, Zhejiang Province",,,,,China,,,,,,0
Ningbo Yuyao Shun (selling muffins),,"Yuyao City, South River Road 33, Fortune Center, Area A, 1F102",,,,,China,,,,,,0
North Cai shop (selling muffins),,Shanghai Shanghai South Road 999 North Choi Life Square 1 layer,,,,,China,,,,,,0
Old Minhang shop (selling muffins),,"Shanghai Minhang District Heqing Road 900, Bijiang Plaza, Building 2, 103 shops",,,,,China,,,,,,0
Oriental Floating Court (selling muffins),,Shanghai Pudong New Area Lujiazui century floating court two (near the century Avenue and Lujiazui ring junction),,,,,China,,,,,,0
Pizhou new Su shop (selling muffins),,"Xuzhou City, Jiangsu Province, Pizhou City Ginkgo Avenue South and Ruixing Road Interchange Xin Su Center f1006",,,,,China,,,,,,0
Qidong shop (selling muffins),,"No.966, Jianghai Zhong Road, Huilong Town, Qidong City, Jiangsu Province",,,,,China,,,,,,0
Qingdao Belle shop,,"Qingdao City, 88 South Road, Qingdao Belle Square B1 layer G2-104 shops",,,,,China,,,,,,0
Qingdao Chengyang home good source shop,,"Qingdao City Chengyang District Zhengyang Road 136, the first floor",,,,,China,,,,,,0
Qingdao Golden Lion Plaza Shop (sale of muffins),,"Qingdao Laoshan District, Hong Kong East Road, No. 195, B Golden Lion Plaza, L2-39",,,,,China,,,,,,0
Qingdao Huangdao home good source shop,,Huangdao Economic Development Zone Yangtze River Road Jinggangshan Road home good source 1F,,,,,China,,,,,,0
Qingdao Huangdao Jiashi off,,"Qingdao City, Shandong Province, Huangdao Development Zone, the junction of the Yangtze River Road and Jinggangshan Road, 419 northeast of the first layer of T130 District",,,,,China,,,,,,0
Qingdao Li Cang Wanda,,"Qingdao, Shandong Licang District Jufeng Road 178 Wanda Plaza, a layer of 127 shops",,,,,China,,,,,,0
Qingdao Li Cang Wanda two stores (selling muffins),,"Qingdao City Licang District Jufeng Road 178, Wanda Plaza, 2nd Floor",,,,,China,,,,,,0
Qingdao Vientiane City (selling muffins),,"Shandong Province, Qingdao City, Shandong Province on the 6th Road, a Chinese city of Vientiane City, B211",,,,,China,,,,,,0
Qingdao Yanji Wanda (selling muffins),,"Qingdao Yanji Road 116, CBD Wanda Plaza, a pedestrian street on the 1st floor of 145",,,,,China,,,,,,0
Sanlin Jinyi Square,,"Shanghai Pudong New Area on the South Road 4467, Jin Yi Plaza, a layer of atrium",,,,,China,,,,,,0
Shanghai Chuan Sha East Coast Store (sale of muffins),,"Shanghai Chuansha Road 5558 Lane Building 2, Room 106",,,,,China,,,,,,0
Shanghai Hongjing shop (selling muffins),,"Shanghai Hongjing Road 288, 1st Floor",,,,,China,,,,,,0
Shanghai Huacheng shop (selling muffins),,"No. 01, Block A, Huacheng Building, 601 Zhang Yang Road, Pudong, Shanghai",,,,,China,,,,,,0
Shanghai Huangxing shop,,"No. 1618, Huangxing Road, Yangpu District, Shanghai, China",,,,,China,,,,,,0
Shanghai Jinqiao shop,,"Shanghai Pudong New Area, Zhang Yang Road 3611, Lane 3, B1, No. 37",,,,,China,,,,,,0
Shanghai Jinyu shop,,"No. 296, Fangbang Middle Road, Huangpu District, Shanghai",,,,,China,,,,,,0
Shanghai Land Plaza store,,Shanghai Nanjing East Road 409-459 Landmark Plaza B1,,,,,China,,,,,,0
Shanghai Nanxiang (selling muffins),,"No. 3, Jia Tong Road, Jiading District, Shanghai, China",,,,,China,,,,,,0
Shanghai People's Square shop,,Shanghai Metro Line 1 People's Square Station No. 1-108,,,,,China,,,,,,0
Shanghai Pujiang Town shop,,"Minhang District, Shanghai Chenhang Road 2688, OCT Commercial Center, a layer of 102 shops",,,,,China,,,,,,0
Shanghai Qibao Jiabao shop (selling muffins),,"Shanghai Qixin Road 3655, 1st Floor",,,,,China,,,,,,0
Shanghai Wulian shop,,Shanghai Zhang Yang North Road 801 Shanghai Wenfeng Square layer F1-101-1,,,,,China,,,,,,0
Shanghai Yuyuan shop,,"Shanghai Yuyuan Road, No. 112",,,,,China,,,,,,0
Shanghai Zhengda shop (selling muffins),,"Shanghai Pudong Lujiazui Road 168, 8F08B-09",,,,,China,,,,,,0
Shanghai Zhongsheng shop,,Shanghai City Road 5001 Zhong Sheng World Mall B1F02,,,,,China,,,,,,0
Shangyu Wanda (selling muffins),,"Shaoxing City, Zhejiang Province, Shangyu District, 399 North Road, Wanda Plaza, 4030 shops on the fourth floor",,,,,China,,,,,,0
Shaoxing Huijin (selling muffins),,"1st Floor, Huijin Life Art Plaza, 199 Jiefang North Road, Yuecheng District, Shaoxing City",,,,,China,,,,,,0
Shaoxing Keqiao Wanda shop,,"Zhejiang Province, Shaoxing Keqiao Jin Ke Road, Qian Tao Road Wanda Plaza, third floor",,,,,China,,,,,,0
Shaoxing Shimao shop (selling muffins),,"Shaoxing City, Zhejiang Province, the city of Victory Road, No. 360, No. 1 - A - 18 shops",,,,,China,,,,,,0
Shaoxing Yin Tai shop (selling muffins),,Shaoxing City Yueqiu District Jiefang South Road 777 Jin Di Yin Tiesheng negative on the first floor,,,,,China,,,,,,0
Shengzhou Lushan stores (selling muffins),,Zhejiang Province Shengzhou Lushan Road on the 6th Lushan Square 1 layer,,,,,China,,,,,,0
Shudu Wanda shop (selling muffins),,"Chengdu Pixian Pi tube town of Wang Road East Road 139, Shu million Wanda shopping malls 3, 3015",,,,,China,,,,,,0
Suining Vientiane (sale of muffins),,"Suining County, Jiangsu Province, Vientiane 1-112",,,,,China,,,,,,0
Suzhou Dragon shop (selling muffins),,"Suzhou High-tech Zone, No. 556 Yangtze River Road, Suzhou Hong Kong Dragon layer",,,,,China,,,,,,0
Suzhou Emerald Plaza (sale of muffins),,"3rd Floor, Emerald Plaza, 436 Changjiang Road, Suzhou High - tech Zone",,,,,China,,,,,,0
Suzhou Flower Center (selling muffins),,"Suzhou City Xiangcheng District Yangcheng Lake Road 964, the first floor of the flower shopping center",,,,,China,,,,,,0
Suzhou Jinji Lake Auchan shop,,"Suzhou Jinji Lake Road, No. 205 Auchan large commercial center within a layer of C102",,,,,China,,,,,,0
Suzhou Palace Lane (sale of muffins),,Suzhou City mysterious view of the eunuchs and the intersection of the intersection of the palace Lane,,,,,China,,,,,,0
Suzhou people Wanda (selling muffins),,"Zoom Here Find Nearby Get Directions Share with Friends Correct 3 Cafe 0 3188 Renmin Road, Suzhou, China",,,,,China,,,,,,0
Suzhou Shantang Street (selling muffins),,"Jiangsu Province, Suzhou City, Suzhou Huangtang Street, No. 190",,,,,China,,,,,,0
Suzhou Shilu new Su shop,,"Suzhou City Jinchang District Guangji South Road 219, the new base of the ground floor",,,,,China,,,,,,0
Suzhou Shuanghu Neighborhood Store (sale of muffins),,"Building 160, 1st Floor, Shuanghu Plaza, No. 18, Qihong Road, Industrial Park, Suzhou City, Jiangsu Province, China",,,,,China,,,,,,0
Suzhou Wujiang Wanbao Fortune Plaza shop,,"No.88, Zhongshan South Road, Wujiang District, Suzhou City, Jiangsu Province, China",,,,,China,,,,,,0
Suzhou Wujiang Wu Yue (sale of muffins),,"No.288, Kaiping Road, Songling Town, Wujiang District, Suzhou City, China",,,,,China,,,,,,0
Suzhou Wuzhong Dayun City store (selling muffins),,"Jiangsu Province, Wuzhong District, Zhongshan East Road 88 Jinxin Dayun City Building 2, 1st Floor",,,,,China,,,,,,0
Suzhou Xinghai Square shop,,"Suzhou City Industrial Park, No. 145 Xinghai Street, Xinghai Square South B1 layer A111 shops",,,,,China,,,,,,0
Taizhou Huangyan bookstore shop (selling muffins),,"Taizhou City, Zhejiang Province, Huang Yan District, No. 158, Huangquan Bookstore South Building, west of the first floor of the business room",,,,,China,,,,,,0
Taizhou in the store (selling muffins),,"Taizhou City, Zhejiang Province Luqiao District Taizhou Road and Bridge Ginza Street 500 in the Sheng Department Store B1A-17",,,,,China,,,,,,0
Taizhou Italian shop (selling muffins),,"No.88, Tianhe Road, Jiaojiang District, Taizhou City, China",,,,,China,,,,,,0
Taizhou opened Wanda shop (selling muffins),,"Taizhou City, Zhejiang Province Economic Development Zone Taizhou opened by Wanda Plaza indoor pedestrian street three 3006",,,,,China,,,,,,0
Wenling Yintai shop (selling muffins),,"Wenling City, Zhejiang Province, West Street, 728 Zhonghua Road, Yintai City, a layer of 020-a",,,,,China,,,,,,0
Wuhan AEON MALL Shop (sale of muffins),,"East and West Lake District Jinyin Lake Avenue on the 1st - Austrian Road West on the 2nd, AEON MALL shopping mall layer",,,,,China,,,,,,0
Wuhan Bailian Outlets (selling muffins),,Hubei Wuhan Huangpi District Panlong Avenue 51 Wuhan Bailian F1-134 room,,,,,China,,,,,,0
Wuhan Bayi shop (selling muffins),,"Wuchang District of Wuhan City Road, Luoxi Road, Luzhou in the middle of the parity shop 1F",,,,,China,,,,,,0
Wuhan Dongsha Wanda (sale of muffins),,"Wuchang District of Wuhan City in the North East Dongda Wanda 1F (North Road, next to the industry and trade home appliances)",,,,,China,,,,,,0
Wuhan Dunkou AEON (sale of muffins),,"Wuhan City, Hubei Province, Hong Kong Development Zone, 388 Jiangcheng Avenue AEON MALL 1-165",,,,,China,,,,,,0
Wuhan Guanggu world (selling muffins),,"No. 519, Guanshan Road, Donghu High-tech Zone, Wuhan, Hubei Province, China.",,,,,China,,,,,,0
Wuhan Hailin Square (sale of muffins),,"East and West Lake District, Wuhan City, Sanxiu Road and Dongwu Road intersection on the first floor of Hailin Square",,,,,China,,,,,,0
Wuhan Han Street Shopping Center (sale of muffins),,"Wuchang District, Wuhan City, Hubei Province in the North Road and the fair road at the junction of Han Street Wanda Plaza, 4th Floor, 4001 Shop",,,,,China,,,,,,0
Wuhan Hankou City Square (sale of muffins),,"Wuhan City Jiangan District Houhu Avenue City Plaza, a layer A1-31-33 shops",,,,,China,,,,,,0
Wuhan Kaide Wusheng shop (selling muffins),,"No. 238 Zhongshan Road, Qiaokou District, Wuhan City, Kaide Square, a negative layer of 16A shops",,,,,China,,,,,,0
Wuhan Ling Kau Lake Wanda shop (selling muffins),,"Jianghan District, Wuhan City, Tangjiadun Road on the 5th Lingtai Lake Wanda 3 layer",,,,,China,,,,,,0
Wuhan Moore City (selling muffins),,"Wuhan Jianghan Longyang Avenue on the 6th Wuhan Moer City C Building, first floor",,,,,China,,,,,,0
Wuhan New Jiali shop (selling muffins),,"Hankou Jianghan District, Wuhan City, Zhongshan Road 818, the new beauty fashion square layer",,,,,China,,,,,,0
Wuhan Okuyama Century City (sale of muffins),,"819 Heping Avenue, Qingshan District, Wuhan City, the first floor of the Okayama Century City Plaza",,,,,China,,,,,,0
Wuhan Optical Valley two stores (selling muffins),,"Wuhan City Guanggu World City Project Spain style Street E Building, a layer of 130",,,,,China,,,,,,0
Wuhan Optical Valley World City (sale of muffins),,"No.666, Luo Yu Road, Hongshan District, Wuhan City, Hubei Province Optical Valley World City Plaza B1F181-183",,,,,China,,,,,,0
Wuhan Star City store (selling muffins),,"Wuchang District of Wuhan City, 120 East Street, Fuxing Fitch City Star EL2-13 shops",,,,,China,,,,,,0
Wuhan Wanda shop (selling muffins),,Wuhan Dunkou Economic and Technological Development Zone Dongfeng Avenue Wanda Plaza 2F,,,,,China,,,,,,0
Wuhan Wushang Moore (selling muffins),,"Wuhan Square, Wuhan Square, Jianghan District, Wuhan City, Hubei Province, China 7F",,,,,China,,,,,,0
Wuhan Wuxiang Zhongyuan Square shop,,Wuhan City Qingshan District Peace Avenue Wushu Zhongyuan Square 1F-C1033,,,,,China,,,,,,0
Wuhan Xidian shop (selling muffins),,"Wuhan City Qiaokou District Jiefang Road 201, Zongguan Wal-Mart West",,,,,China,,,,,,0
Wuhan Xu Dong sales mao (sale of muffins),,"Wuhan City, 18 East Road, Wuhan, Hong Kong sales of a pile of 1108-09",,,,,China,,,,,,0
Wuhan Yijia shop (selling muffins),,"Wuhan City Qiaokou District Changyi Road, No. 1, a gathering of shopping malls on the 2nd floor",,,,,China,,,,,,0
Wuhan Zhongjia Village shop,,"2nd Floor, New World Department Store, 27 Parrot Avenue, Hanyang District, 18-19",,,,,China,,,,,,0
Wuhan Zhongnan Commercial City (selling muffins),,"Wuhan City, Hubei Province, South Road subway station C exports to the south of the commercial city of a negative layer",,,,,China,,,,,,0
Wujiao field Wanda cinema shop,,"Shanghai Guobin Road 36, Wanda Plaza, Block B, 3F (Wanda Cinema)",,,,,China,,,,,,0
Wujiao field Wanda shop,,Shanghai Yangpu District Administration Road No. 189 special force fashion square 1F-1,,,,,China,,,,,,0
Wuxi Baile shop (selling muffins),,"Wuxi City Huishan District Qianqiao Shing Road West Road 331, 100 times the commercial square 1043",,,,,China,,,,,,0
Wuxi broad store (selling muffins),,"Wuxi City, Binhu District, high-Lang Road and Lihu Avenue intersection on the north side of the modern 1930F District 1036-1037",,,,,China,,,,,,0
Wuxi Huishan Wanda shop (selling muffins),,"No.521, Wuyun Road, Huishan District, Wuxi City Huishan Wanda Plaza Commercial Plaza",,,,,China,,,,,,0
Wuxi IKEA (selling muffins),,"Wuxi Xishan Economic Development Zone No. 3, Unity Road, Convergence Shopping Center 2-13-09-R shops",,,,,China,,,,,,0
Wuxi People's Road Parkson (selling muffins),,"Wuxi City Chongan District People 's Road 127, Sanyang Parkson Plaza B1 layer of food",,,,,China,,,,,,0
Wuxi Qingyang Road (selling muffins),,"No.83, Qingyang Road, No.88, Maoye Department Store, Nanchang District, Wuxi City",,,,,China,,,,,,0
Wuxi South Street (selling muffins),,"No.240, Nan Chang Street, Wuxi City",,,,,China,,,,,,0
Xi'an Daming Palace (selling muffins),,"No.339 Taihua North Road, Weiyang District, Xi'an, Wanda Plaza, 3rd Floor, No. 3075",,,,,China,,,,,,0
Xi'an Han God (selling muffins),,"No.268, Fengcheng Eighth Road, Weiyang District, Xi'an",,,,,China,,,,,,0
Xi'an high-tech cloth lotus shop (selling muffins),,Xi'an High-tech Zone Tang Yan Road and Feng Hui South Road Crossroads Bu Bu Lotus Shopping Center,,,,,China,,,,,,0
Xi'an high-tech Yonghui (selling muffins),,"Xi'an, Shaanxi Province, Lianhu District, Tang Yan Road, Yonghui supermarket negative layer",,,,,China,,,,,,0
Xi'an Impression City (sale of muffins),,"No.23, Weiyuan Road, Weiyang District, Xi'an",,,,,China,,,,,,0
Xi'an Jiefang Wanda shop,,Zoom Here Find Free | Sign In Chinese shop | |,,,,,China,,,,,,0
Xi'an Li & Fung Plaza Shop (sale of muffins),,"Zoomlion International Shopping Plaza, No.6, Jinhua South Road, Beilin District, Xi'an",,,,,China,,,,,,0
Xi'an New World (selling muffins),,"No. 88, North Street, Lianhu District, Xi'an, New Century Shopping Mall B1, 109 shops",,,,,China,,,,,,0
Xi'an Outlets store (selling muffins),,"11 / F, Phoenix Avenue, Lintong District, Xi'an, Shaanxi Province, China.",,,,,China,,,,,,0
Xi'an Qujiang gold shop (selling muffins),,"Xi'an Qujiang New Qu Qujiang East Road 999, gold shopping malls B1 layer",,,,,China,,,,,,0
Xi'an Qujiang Longhu Xingyue Hui shop (selling muffins),,"Qujiang New District, No. 888, Ximenmen North Road, Qujiang Longhu Xingyue Hui store a layer of 014 shops",,,,,China,,,,,,0
Xi'an Qujiang Yintai (selling muffins),,Xi'an Qujiang New District Yannan Second Road on the north side of Yintai a negative layer,,,,,China,,,,,,0
Xi'an South Street (sale of muffins),,"Xi'an City, South Street, No. 52, South Building, a layer of commercial housing",,,,,China,,,,,,0
Xi'an sunshine heaven and earth shop,,"Xi'an High - tech Zone, Xi'an, Shaanxi Province, the Western Avenue and Dr. Road, the sun on the 1st floor of the sun on the 17th floor",,,,,China,,,,,,0
Xi'an Wanda store (selling muffins),,"Second Floor, Wanda Plaza, No.8 North Road, Yanta Road, Beilin District, Xi'an, Shaanxi Province",,,,,China,,,,,,0
Xi'an Xiaozhai Golden Eagle (selling muffins),,Zoom Here Find Nearby Get Directions Share with Friends,,,,,China,,,,,,0
Xi'an Xingzheng yuan (selling muffins),,Zoom Here Find Nearby Get Directions Share with Friendspective 1 Click to see other editions ZQCW-01,,,,,China,,,,,,0
Xiangshan Bo waves Pacific shop (selling muffins),,"Zhejiang Province, Xiangshan County, Ningbo Dandong Street Dafeng East Road and the giant eagle Road intersection Bo wave Pacific Plaza, 1st Floor, 007-1",,,,,China,,,,,,0
Xinzhuang Long dream store (selling muffins),,"Minhang District, Shanghai Minhang Road, No. 6088 Xinzhuang Kaide Dragon Dream Shopping Center B2, 25",,,,,China,,,,,,0
Xitang town (selling muffins),,"Jiashan County, Zhejiang Province to the west side of the city, the west side of the West Diversion Park Panyu Garden 12 Business 9, 206",,,,,China,,,,,,0
Xuzhou Golden Eagle (selling muffins),,"3rd Floor, Golden Eagle International Shopping Center, No.2 Zhongshan North Road, Xuzhou City",,,,,China,,,,,,0
Xuzhou Pengcheng shop (selling muffins),,"No.1, 1-13, 3rd Floor, Commercial Street, Pengcheng, No.1, Pengcheng Road, Gulou District, Xuzhou City",,,,,China,,,,,,0
Xuzhou Tongshan Wanda shop (selling muffins),,"Jiangsu Province, Xuzhou City, North Road, North Road, Wanda Plaza, 3rd Floor, 3016",,,,,China,,,,,,0
Xuzhou Yunlong Wanda,,"No. 38, Peace Avenue, Yunlong District, Xuzhou City, Wanda Plaza, 3rd Floor, 3018 shops",,,,,China,,,,,,0
Yangzhou Chinachem Shopping Center (selling muffins),,"Yangzhou City, Jiangsu Province, Hanjiang District Wenchang Road and the University of North Road, Chinatown Shopping Center, the first floor of Area C F121",,,,,China,,,,,,0
Yangzhou Jiangdu Runfa (selling muffins),,"Jiangsu Province, Yangzhou City Jiangdu District Wenchang East Road, No. 1316 Jiangdu Runfa 3F308",,,,,China,,,,,,0
Yangzhou Jinghua City shop (selling muffins),,"Room 1004 + 1608, Block 168, Jinghua City Road, Yangzhou City",,,,,China,,,,,,0
Yangzhou Kaide Jia letter shop (selling muffins),,"Yangzhou City, Yangtze River Road 101, Jiaxin Mao Plaza, 1st Floor, 02B",,,,,China,,,,,,0
Yangzhou Kaide Jia letter shop (selling muffins),,"Yangzhou City, Jiangsu Province, Yangtze River Road 101, Kaide Square 01-02B",,,,,China,,,,,,0
Yangzhou Lippo shop (selling muffins),,"No.306, Hanjiang Middle Road, Hanjiang City, Jiangsu Province, China",,,,,China,,,,,,0
Yangzhou three Sheng (selling muffins),,"Yangzhou City, Jiangsu Province, Han Jiang Road, three wins on the first floor of the square",,,,,China,,,,,,0
Yangzhou Times Square (sale of muffins),,"3rd Floor, Times Square, 537 Wenchang Middle Road, Yangzhou City, Jiangsu Province",,,,,China,,,,,,0
Yangzhou Zhenyuan shop (selling muffins),,"No. 492 Wenchang Middle Road, Guangling District, Yangzhou City",,,,,China,,,,,,0
Yantai Development Zone Wanda store (selling muffins),,"Yantai City, Shandong Province Development Zone Hengshan Road on the 17th Wanda Plaza, 3rd Floor",,,,,China,,,,,,0
Yantai Joy City (selling muffins),,"Yantai City Zhifu District North Road 150, Joy City",,,,,China,,,,,,0
Yantai Parkson,,"Yantai City, Shandong Province, No. 166 South Street, Parkson first floor",,,,,China,,,,,,0
Yantai Shimao (selling muffins),,"District 1, Jiefang Road, Zhifu District, Yantai City, Shandong Province, China",,,,,China,,,,,,0
Yantai Wanda store (selling muffins),,"3 / F, Wanda Plaza, 6 Guanuan District, Zhifu District, Yantai City",,,,,China,,,,,,0
Yixing Wanda,,"Yixing City, Donghong Road 550 Wanda Plaza, 1st Floor, 3rd Floor, pedestrian street 3007B",,,,,China,,,,,,0
Yuyao Wanda,,"Yuyao City, four West Road 855, Wanda shopping malls 3 3035 shops",,,,,China,,,,,,0
Yuyuan two stores,,Shanghai Yu Chun Road on the 11th (the original three Lin Road on the 9th),,,,,China,,,,,,0
Zengcheng Wanda (selling muffins),,"Guangzhou City Zengcheng Li Chengjie Road 69, Zengcheng Wanda three 318",,,,,China,,,,,,0
Zhangjiagang Man Bate shop,,"Zhangjiagang City Yangshe Town West Road 88, Manchester, a negative layer",,,,,China,,,,,,0
Zhangjiagang Youyue,,"Zhangjiagang City, Hong Kong Avenue and South Second Ring Interchange Wu Yue Plaza, 1st Floor",,,,,China,,,,,,0
Zhangjiang Changtai Square,,"Pudong New Area, Shanghai Zu Chong Road 1239, Lane 7, ground floor, 48-3 / 48-4",,,,,China,,,,,,0
Zhangqiu Tang people center (selling muffins),,Shandong Zhangqiu City Huiquan Road and Baiyun Spring Street Interchange at the center of the Tang Dynasty,,,,,China,,,,,,0
Zhengzhou CBD,,"Zhengzhou City, Henan Province, Dennis 2 days on the first floor of the hall",,,,,China,,,,,,0
Zhengzhou David City shop (selling muffins),,"Zhengzhou City Jinshui District Erqi Road Taikang Road Dennis David City 6th Floor, C District",,,,,China,,,,,,0
Zhengzhou Guomao shop,,"Zhengzhou City Garden Road 39, Zhengzhou International Trade Center negative layer",,,,,China,,,,,,0
Zhengzhou Hanhai North gold shop (selling muffins),,"Jinshui District Cultural Road North Ring Road, Hanhai North gold shopping mall 1 layer",,,,,China,,,,,,0
Zhengzhou Health Road (selling muffins),,Zhengzhou City Jinshui District Health Road and Yung Sin Road intersection northeast corner of a layer,,,,,China,,,,,,0
Zhengzhou Huiji Wanda shop (selling muffins),,"Henan Province, Huizhou District, Xinhua Road, Kaiyuan Road Wanda Plaza, fourth floor, 4053",,,,,China,,,,,,0
Zhengzhou Jia Mao shop (selling muffins),,"Zhengzhou City, Henan Province, 1188 Zhongzhou Road (Zheng Bian Road North) Jia Mao Plaza 1F",,,,,China,,,,,,0
Zhengzhou Jianwen shop (selling muffins),,Zhengzhou City Jinshui District by the eight-way construction of the United States and the United States Shangcheng Mall 1 layer A006 shops,,,,,China,,,,,,0
Zhengzhou Jin Yi shop (selling muffins),,Zoom Here Find Nearby Get Directions Share with Friends,,,,,China,,,,,,0
Zhengzhou Jinbo big (selling muffins),,"Zhengzhou City, the town of Erqi Road 200, the second floor of Jin Bo",,,,,China,,,,,,0
Zhengzhou Jinyi City Phase III (sale of muffins),,"No. C1, No. 1, Building C, Jinyi City Shopping Center, No. 36 Cotton Road, Zhengzhou, Henan Province, China",,,,,China,,,,,,0
Zhengzhou trend front (selling muffins),,"Zhengzhou City, Erqi Square, a hundred years of Germany is still a reminder of the first floor of the tide",,,,,China,,,,,,0
Zhengzhou twenty-seven million (selling muffins),,"Zhengzhou City, Henan Province, Erqi District Road and the sea road intersection twenty-seven million three layers of 3027 shops",,,,,China,,,,,,0
Zhengzhou Vientiane City shop (selling muffins),,"Zhengzhou City Erqi District Road, China Resources Vientiane City, the first floor of B160",,,,,China,,,,,,0
Zhengzhou West (selling muffins),,"Henan Province, Zhongyuan District, Zhengzhou City, West Road, No. 198 West International Plaza B102",,,,,China,,,,,,0
Zhengzhou Zhongyuan Wanda,,Zhongyuan Road and Huashan Road intersection on the second floor of Wanda Plaza,,,,,China,,,,,,0
Zhengzhou Zhongyuan Xincheng shop (selling muffins),,"Zhonghe District, Zhengzhou City, Longhai Road and Tongbai Road intersection at the new business center",,,,,China,,,,,,0
Zhenjiang Baolong shop (selling muffins),,"Zhenjiang City Dantu District Dantu New Town Guyang Road 75, L1-075",,,,,China,,,,,,0
Zhenjiang Suning shop (selling muffins),,"Jiangsu Province, Zhenjiang City, Jingkou District, Zhongshan East Road 301 Zhenjiang Suning Square B1",,,,,China,,,,,,0
Zhenjiang Wanda (selling muffins),,Zhenjiang City Runzhou District Huangshan West Road Wanda Plaza layer 1019 room,,,,,China,,,,,,0
Zhongyuan City Square (selling muffins),,"Shanghai Yangpu District Guohe Road 777, Zhongyuan City Plaza, 2nd Floor, 2nd Floor, 2101",,,,,China,,,,,,0
Zhuji Xiongfeng Xintiandi (selling muffins),,"Zhejiang Province, Zhuji City, No. 555 Jiyang Street Xintiandi the first floor",,,,,China,,,,,,0
