store_name,store_number,address,address2,city,state,zip_code,country,phone_number,latitude,longitude,store_hours,other_fields,coming_soon
,3557,1500 Mill Avenue,,Brainerd,MN,56401,United States,2188280076,46.3744,-94.1785,Mon:5:30am - 10:30pm;Tue:5:30am - 10:30pm;Wed:5:30am - 10:30pm;Thu:5:30am - 10:30pm;Fri:5:30am - 10:30pm;Sat:5:30am - 10:30pm;Sun:5:30am - 10:30pm;,,0
,107,3020 Fernbrook Lane,,Plymouth,MN,55447,United States,7635593690,45.0137,-93.4611,"24 hours, 7 days a week",,0
,100,1530 Woodland Avenue,,Duluth,MN,55803,United States,2187284544,46.8210337,-92.0745566,Mon:5:00am - 12:00am;Tue:5:00am - 12:00am;Wed:5:00am - 12:00am;Thu:5:00am - 12:00am;Fri:5:00am - 12:00am;Sat:5:00am - 12:00am;Sun:5:00am - 12:00am;,,0
,102,50 West 98th Street,,Bloomington,MN,55420,United States,9528883919,44.8269143,-93.2792651,"24 hours, 7 days a week",,0
,108,790 S Billings Blvd,,Billings,MT,59101,United States,4068961896,45.7559,-108.5362,"24 hours, 7 days a week",,0
,444,2030 Eagle Creek Lane,,Woodbury,MN,55125,United States,6514362458,44.919239,-92.901783,Mon:5:00am - 11:30pm;Tue:5:00am - 11:30pm;Wed:5:00am - 11:30pm;Thu:5:00am - 11:30pm;Fri:5:00am - 11:30pm;Sat:6:00am - 11:30pm;Sun:6:00am - 11:30pm;,,0
,446,113 58th Street W,,Williston,ND,58801,United States,7017742682,48.1974267,-103.6249141,"24 hours, 7 days a week",,0
,447,1185 S Main,,Sauk Centre,MN,56378,United States,3203526655,45.7240134,-94.9512017,"24 hours, 7 days a week",,0
,440,2255 East South Avenue,,North St. Paul,MN,55109,United States,6517704879,45.0069629,-93.005626,Mon:5:00am - 11:00pm;Tue:5:00am - 11:00pm;Wed:5:00am - 11:00pm;Thu:5:00am - 11:00pm;Fri:5:00am - 11:00pm;Sat:5:00am - 11:00pm;Sun:6:00am - 11:00pm;,,0
,441,2159 N Division Street,,North St. Paul,MN,55109,United States,6517770425,45.0063429,-92.9852767,Mon:6:00am - 11:00pm;Tue:6:00am - 11:00pm;Wed:6:00am - 11:00pm;Thu:6:00am - 11:00pm;Fri:6:00am - 11:00pm;Sat:6:00am - 11:00pm;Sun:6:00am - 11:00pm;,,0
,442,2500 W. Orleans Street,,Stillwater,MN,55082,United States,6514397438,45.0433949,-92.838712,"24 hours, 7 days a week",,0
,443,8610 E. Point Douglas Road,,Cottage Grove,MN,55016,United States,6514584118,44.817656,-92.9311461,Mon:5:00am - 11:30pm;Tue:5:00am - 11:30pm;Wed:5:00am - 11:30pm;Thu:5:00am - 11:30pm;Fri:5:00am - 11:30pm;Sat:6:00am - 11:30pm;Sun:6:00am - 11:30pm;,,0
,3587,281 N. Snelling Avenue,,St. Paul,MN,55104,United States,6516460541,44.949816,-93.1673347,"24 hours, 7 days a week",,0
,3586,7180 42nd Avenue N.,,New Hope,MN,55427,United States,7637467767,45.0331974,-93.371932,"24 hours, 7 days a week",,0
,3585,2732 County Road 10,,Moundsview,MN,55112,United States,7637921002,45.1099595,-93.2181852,"24 hours, 7 days a week",,0
,3584,16255 Ipava Avenue North,,Lakeville,MN,55044,United States,9528982771,44.7132588,-93.2603585,Mon:5:00am - 11:00pm;Tue:5:00am - 11:00pm;Wed:5:00am - 11:00pm;Thu:5:00am - 11:00pm;Fri:5:00am - 11:00pm;Sat:6:00am - 11:00pm;Sun:6:00am - 11:00pm;,,0
,639,2150 Raspberry Road,,Anchorage,AK,99502,United States,9072482352,61.1586794,-149.9231911,"24 hours, 7 days a week",,0
,5,629 Rice Street,,St. Paul,MN,55103,United States,6512912458,44.9599,-93.1066,Mon:24 Hours;Tue:24 Hours;Wed:24 Hours;Thu:24 Hours;Fri:24 Hours;Sat:24 Hours;Sun:24 Hours;,,0
,41,1502 South 12th Avenue West,,Virginia,MN,55792,United States,2187495985,47.5107134,-92.5514668,"24 hours, 7 days a week",,0
,43,600 Snelling Ave. No.,,St. Paul,MN,55104,United States,6516443994,44.9585971,-93.1665639,Mon:6:00am - 11:00pm;Tue:6:00am - 11:00pm;Wed:6:00am - 11:00pm;Thu:6:00am - 11:00pm;Fri:6:00am - 11:00pm;Sat:6:00am - 11:00pm;Sun:6:00am - 11:00pm;,,0
,42,3700 W. 50th St.,,Minneapolis,MN,55410,United States,6129228713,44.9126992,-93.3267484,Mon:6:00am - 11:00pm;Tue:6:00am - 11:00pm;Wed:6:00am - 11:00pm;Thu:6:00am - 11:00pm;Fri:6:00am - 11:00pm;Sat:6:00am - 11:00pm;Sun:6:00am - 11:00pm;,,0
,45,200 South Wabasha,,St. Paul,MN,55107,United States,6512981014,44.9369495,-93.0867854,"24 hours, 7 days a week",,0
,46,625 Main St. So.,,Cambridge,MN,55008,United States,7636894877,45.566835,-93.224277,"24 hours, 7 days a week",,0
,49,226 S Railroad Street,,Eagle River,WI,54521,United States,7154791816,45.914285,-89.2523893,Mon:5:00am - 12:00am;Tue:5:00am - 12:00am;Wed:5:00am - 12:00am;Thu:5:00am - 12:00am;Fri:5:00am - 12:00am;Sat:5:00am - 12:00am;Sun:5:00am - 12:00am;,,0
,3730,2104 Highland Ave,,Eau Claire,WI,54701,United States,715-552-51,44.8073463,-91.4712188,Mon:24 Hours;Tue:24 Hours;Wed:24 Hours;Thu:24 Hours;Fri:24 Hours;Sat:24 Hours;Sun:24 Hours;,,0
,3731,1630 Blaschko,,Arcadia,WI,54612,United States,6083232206,44.243982,-91.4725957,Mon:6:00am - 10:00pm;Tue:6:00am - 10:00pm;Wed:6:00am - 10:00pm;Thu:6:00am - 10:00pm;Fri:6:00am - 10:00pm;Sat:6:00am - 10:00pm;Sun:6:00am - 10:00pm;,,0
,3732,17544 N Main Street,,Galesville,WI,54630,United States,6085823300,44.0932104,-91.3416095,Mon:6:00am - 10:00pm;Tue:6:00am - 10:00pm;Wed:6:00am - 10:00pm;Thu:6:00am - 10:00pm;Fri:6:00am - 10:00pm;Sat:6:00am - 10:00pm;Sun:6:00am - 10:00pm;,,0
,3733,2501 S Main Street,,Rice Lake,WI,54868,United States,7152342553,45.4746936,-91.7345628,Mon:6:00am - 10:00pm;Tue:6:00am - 10:00pm;Wed:6:00am - 10:00pm;Thu:6:00am - 10:00pm;Fri:6:00am - 10:00pm;Sat:6:00am - 10:00pm;Sun:6:00am - 10:00pm;,,0
,3734,3314 E Hamilton Ave.,,Eau Claire,WI,54701,United States,7158300920,44.7859787,-91.4533959,Mon:6:00am - 10:00pm;Tue:6:00am - 10:00pm;Wed:6:00am - 10:00pm;Thu:6:00am - 10:00pm;Fri:6:00am - 10:00pm;Sat:6:00am - 10:00pm;Sun:6:00am - 10:00pm;,,0
,3735,701 E Clifton,,Tomah,WI,54660,United States,6085672221,43.971234,-90.4976791,Mon:5:00am - 10:00pm;Tue:5:00am - 10:00pm;Wed:5:00am - 10:00pm;Thu:5:00am - 10:00pm;Fri:5:00am - 10:00pm;Sat:5:00am - 10:00pm;Sun:5:00am - 10:00pm;,,0
,3736,2611 Birch Street,,Eau Claire,WI,54703,United States,7158300950,44.8208696,-91.472416,Mon:6:00am - 10:00pm;Tue:6:00am - 10:00pm;Wed:6:00am - 10:00pm;Thu:6:00am - 10:00pm;Fri:6:00am - 10:00pm;Sat:6:00am - 10:00pm;Sun:6:00am - 10:00pm;,,0
,3737,312 Bay Street,,Chippewa Falls,WI,54729,United States,7157200390,44.9365342,-91.3952662,Mon:7:00am - 9:00pm;Tue:7:00am - 9:00pm;Wed:7:00am - 9:00pm;Thu:7:00am - 9:00pm;Fri:7:00am - 9:00pm;Sat:7:00am - 9:00pm;Sun:7:00am - 9:00pm;,,0
,3738,318 E Division Street,,Neillsville,WI,54456,United States,7157430150,44.5525051,-90.5929206,Mon:8:00am - 8:00pm;Tue:8:00am - 8:00pm;Wed:8:00am - 8:00pm;Thu:8:00am - 8:00pm;Fri:8:00am - 8:00pm;Sat:8:00am - 8:00pm;Sun:8:00am - 8:00pm;,,0
,3739,2811 Hendrickson Drive,,Eau Claire,WI,54701,United States,7158300988,44.7901524,-91.515578,Mon:7:00am - 9:00pm;Tue:7:00am - 9:00pm;Wed:7:00am - 9:00pm;Thu:7:00am - 9:00pm;Fri:7:00am - 9:00pm;Sat:7:00am - 9:00pm;Sun:7:00am - 9:00pm;,,0
,112,805 E. Cloverland Dr.,,Ironwood,MI,49938,United States,9069321128,46.4630153,-90.1560147,"24 hours, 7 days a week",,0
,159,2000 US Hwy 41 West,,Marquette,MI,49855,United States,9062288765,46.5477,-87.4302,"24 hours, 7 days a week",,0
,602,10630 Old Seward Hwy.,,Anchorage,AK,99515,United States,9075225454,61.1245536,-149.8645885,"24 hours, 7 days a week",,0
,157,1845 So. Robert Street,,West St. Paul,MN,55118,United States,6514576684,44.8905,-93.0811,"24 hours, 7 days a week",,0
,155,301 E. Munising,,Munising,MI,49862,United States,9063874872,46.410484,-86.651343,"24 hours, 7 days a week",,0
,152,19 West Adams,,Iron River,MI,49935,United States,9062655958,46.0921711,-88.6386193,Mon:4:30am - 12:00am;Tue:4:30am - 12:00am;Wed:4:30am - 12:00am;Thu:4:30am - 12:00am;Fri:4:30am - 12:00am;Sat:4:30am - 12:00am;Sun:4:30am - 11:00pm;,,0
,607,5497 E. Northern Lights Blvd.,,Anchorage,AK,99508,United States,9073339618,61.1955744,-149.778992,"24 hours, 7 days a week",,0
,605,225 North Boundary Street,,Wasilla,AK,99654,United States,9073762948,61.581387,-149.4388521,"24 hours, 7 days a week",,0
,721,4377 45th Street S.,,Fargo,ND,58104,United States,7012828738,46.8152114,-96.8620455,Mon:6:00am - 11:00pm;Tue:6:00am - 11:00pm;Wed:6:00am - 11:00pm;Thu:6:00am - 11:00pm;Fri:6:00am - 11:00pm;Sat:6:00am - 11:00pm;Sun:6:00am - 11:00pm;,,0
,720,1510 32nd Avenue South,,Fargo,ND,58103,United States,7012374082,46.8324539,-96.8025417,Mon:6:00am - 11