store_name,store_number,address,address2,city,state,zip_code,country,phone_number,latitude,longitude,store_hours,other_fields,coming_soon
,17489,312 Market St.,,Roanoke,VA,24011,United States,,37.2707275,-79.938838,,,0
,17490,208 North Main St.,,Blacksburg,VA,24060,United States,5409615326,37.2305389,-80.414806,,,0
,17491,9200 Stony Point Parkway  #310,,Richmond,VA,23235,United States,,37.5501342,-77.572072,,,0
,17492,1038 N. Highland Ave,,Atlanta,GA,30306,United States,,33.7828658,-84.354677,,,0
,17493,169  Carriage House Dr.,,Jackson,TN,38305,United States,,35.6681079,-88.835347,,,0
,17494,34 Main Street,,Tiburon,CA,94920,United States,415-271-8413,37.8732889,-122.45685,,,0
,17495,7 Dutchess Ave,,Millerton,NY,12546,United States,5187896327,41.9542969,-73.510112,,,0
,17496,22 Main Street,,Millerton,NY,12546,United States,5187896327,41.953452,-73.510895,,,0
,17497,3748 Merrick Road,,Seaford,NY,11783,United States,5166795198,40.6651237,-73.492299,,,0
,17498,262 Commercial Blvd.,,Ft. Lauderdale,FL,33308,United States,,26.189493,-80.101167,,,0
,17499,"3300 Bee Caves Road, Suite #440",,Austin,TX,78748,United States,512-770-6515,30.2749739,-97.798971,,,0
,17500,142 E. Granada Blv. #3,,Ormond Beach,FL,33176,United States,,29.2904613,-81.043065,,,0
,17501,145 Via Naranjas,,Boca Raton,FL,33432,United States,561-409-4093,26.3472203,-80.084586,,,0
,17502,3815 Ne Miami Court,,Miami,FL,33137,United States,3052669456,25.8122714,-80.194506,,,0
,17503,1992 Northern Blvd.,,Manhasset,NY,11030,United States,,40.7961049,-73.673391,,,0
,17504,1430 W. Willow Street,,Chicago,IL,60642,United States,773-772-5420,41.9145444,-87.663009,,,0
,17505,1560 South Dixie Hwy,,Coral Gables,FL,33146,United States,3056632199,25.7081818,-80.283979,,,0
,17506,1850 2nd Street,,Highland Park,IL,60035,United States,,42.1857183,-87.801886,,,0
,17507,259 Market Square,,Lake Forest,IL,60045,United States,,42.2519945,-87.840728,,,0
,17508,9814 Clayton Rd.,,St. Louis,MO,63124,United States,,38.637824,-90.390443,,,0
,17509,7027 E.  5th Ave,,Scottsdale,AZ,85251,United States,,33.4972739,-111.92990,,,0
,17510,218 S. Main St.,,Naperville,IL,60540,United States,,41.7725297,-88.149324,,,0
,17511,800 Hillgrove Avenue,,Western Springs,IL,60558,United States,6307890022,41.8100469,-87.899010,,,0
,17512,2  W  First St.,,Hinsdale,IL,60521,United States,480-947-2055,41.8014504,-87.929502,,,0
,17513,4410 E. Camelback,,Phoenix,AZ,85018,United States,,33.510284,-111.98587,,,0
,17514,48 East Broadway,,Jackson,WY,83001,United States,3077334719,43.4792982,-110.76159,,,0
,17515,915 Howard Street,,San Francisco,CA,94103,United States,415-369-0860,37.7810024,-122.40517,,,0
,17516,205 East 45th. Street,,New York,NY,10017,United States,228675100,40.7526937,-73.972439,,,0
,17518,5330 Harbor St.,,Commerce,CA,90040,United States,,34.0038729,-118.16131,,,0
,17519,833 Market St.  Ste 3,,San Diego,CA,92101,United States,619-203-8676,32.7107542,-117.15683,,,0
,17520,115 N. Maple St.,,Murfreesboro,TN,37130,United States,6155070207,35.8467367,-86.392831,,,0
,17521,600 East Superior Street,,Duluth,MN,55802,United States,2187271765,46.7924047,-92.090630,,,0
,17522,1151  Galleria Blvd #2180,,Roseville,CA,95678,United States,916-889-1599,38.7734416,-121.26928,,,0
,17523,1355   Third  Avenue,,New York,NY,10075,United States,,40.7731507,-73.957815,,,0
,17524,51-53 E. Palisades Ave,,Englewood,NJ,07631,United States,,40.893122,-73.973048,,,0
,17525,119 E. Ridgewood Ave.,,Ridgewood,NJ,07450,United States,,40.979711,-74.117394,,,0
,17526,355 Main Street,,Highlands,NC,28741,United States,8285267446,35.0528722,-83.198084,,,0
,17528,12638 Ocean Gateway Unit 11,,Ocean City,MD,21842,United States,410-213-9883,38.3374728,-75.113574,,,0
,17529,840 Kiefer Trails Dr.,,Ballwin,MO,63021,United States,636-795-7298,38.568676,-90.572636,,,0
,17530,9160 Atlantic Ave #138,,Delray Beach,FL,33446,United States,,26.4538067,-80.190306,,,0
,17531,2401 St. Louise Galleria,,Saint Louis,MO,63117,United States,(707),38.6349583,-90.348097,,,0
,17532,11167 West 95th St,,Overland Park,KS,66214,United States,9134386000,38.953794,-94.718474,,,0
,17533,23 Washington St,,Ellicottville,NY,14731,United States,,42.2754754,-78.671554,,,0
,17534,4130 West Jefferson Blvd. Suite I-7,,Fort Wayne,IN,46804,United States,,41.0724261,-85.197871,,,0
,17535,421 Park Ave,,Boca Grande,FL,33921,United States,941-964-2209,26.7508648,-82.262227,,,0
,17536,26972 Burbank,,Foothill Ranch,CA,92610,United States,,33.6788123,-117.65977,,,0
,17537,"15620 Edgewood Drive North, Suite 200",,Baxter,MN,56425,United States,,46.3788872,-94.252931,,,0
,17538,8516 County 107,,Nisswa,MN,56345,United States,,46.4559814,-94.388654,,,0
,17539,25853 Main Street,,Nisswa,MN,56468,United States,218-961-0130,46.5215557,-94.286174,,,0
,17540,121 S. 39th Avenue,,Phoeniz,AZ,85009,United States,,33.4464243,-112.14090,,,0
,17541,675 Lionhead Place# 114,,Vail,CO,81657,United States,,39.6433775,-106.38881,,,0
,17542,761 N. High Street,,Columbus,OH,43215,United States,614-297-7700,39.9779167,-83.003906,,,0
,17543,544 Hamilton Street,,Allentown,PA,18101,United States,610-433-7625,40.6025919,-75.469407,,,0
,17544,2506 White Mountain Hwy.,,North Conway,NH,03860,United States,,44.0486074,-71.124944,,,0
,17545,515 West Fort Macon Rd.,,Atlantic Beach,NC,28512,United States,252-726-9382,34.7009765,-76.745139,,,0
,17546,1387 N Manin Street,,Walnut Creek,CA,94596,United States,925-933-8050,37.8989215,-122.06100,,,0
,17547,233 Flatbush Ave,,Brooklyn,NY,11217,United States,,40.6810651,-73.975278,,,0
,17548,644  Broadway,,New York,NY,10012,United States,,40.7264924,-73.995412,,,0
,17549,1190 Thomas Ave,,San Francisco,CA,94124,United States,,37.7262644,-122.38342,,,0
,17550,4540  Poplar Ave,,Memphis,TN,38117,United States,,35.1179299,-89.910985,,,0
,17551,103 South Mill Street,,Aspen,CO,81611,United States,9706180804,39.1904326,-106.81949,,,0
,17552,227 Midland Ave Suite 15a,,Basalt,CO,81621,United States,9706180804,39.368895,-107.03177,,,0
,17553,73515 El Paseo #1724,,Palm Desert,CA,92260,United States,760-836-3250,33.7194087,-116.38198,,,0
,17554,221 E. Park Ave,,Anaconda,MT,59711,United States,406-691-0229,46.128887,-112.95033,,,0
,17555,2150 Hwy 35,,Sea Girt,NJ,08750,United States,732-974-0060,40.1391955,-74.061066,,,0
,17556,80 Ocean Avenue,,Long Branch,NJ,07740,United States,7327141444,40.3013912,-73.978678,,,0
,17557,206 W State Street,,Geneva,IL,60134,United States,6302329520,41.88746,-88.306921,,,0
,17558,3636  S. Alameda St.,,Corpus Christi,TX,78411,United States,361-779-2641,27.7471305,-97.382748,,,0
,17559,25712 Northwest Frwy #G,,Cypress,TX,77429,United States,,29.9700925,-95.689671,,,0
,17560,2824 Devine Street,,Columbia,SC,29205,United States,8438492232,33.9980594,-81.002529,,,0
,17562,622 S Carrollton,,New Orleans,LA,70118,United States,9856458891,29.9437517,-90.133994,,,0
,17563,70457 Hwy 21 Ste# 106,,Covington,LA,70458,United States,9858920455,30.4547595,-90.136112,,,0
,17564,22 Purchase Street,,Rye,NY,10580,United States,9176642015,40.9826265,-73.684188,,,0
,17565,100 N. Sterling Street,,Morganton,NC,28655,United States,8284377272,35.7457926,-81.688067,,,0
,17566,1418 2nd. Avenue,,New York,NY,10021,United States,2128774770,40.7697427,-73.957209,,,0
,17567,2460 Canyon Blvd # L4c,,Boulder,CO,80302,United States,3035452228,40.0171979,-105.26245,,,0
,17568,5350 W. Loverslane #126,,Dallas,TX,75209,United States,2143662910,32.8505661,-96.820480,,,0
,17569,4325 Glenwood Ave #2084b,,Raleigh,NC,27612,United States,,35.8399958,-78.679198,,,0
,17570,2321 Collins Ave,,Miami Beach,FL,33139,United States,2123433200,25.7989502,-80.127748,,,0
,17571,275 King Street,,Charleston,SC,29401,United States,,32.7824646,-79.934334,,,0
,17572,275 King Street,,Charleston,SC,29401,United States,3052953530,32.7824646,-79.934334,,,0
,17573,871 Washington Street,,Braintree,MA,02184,United States,6178778483,42.2034961,-71.005425,,,0
,17574,1440 Pierson Road,,Wellington,FL,33414,United States,6317663376,26.6371867,-80.254418,,,0
,17576,1003 West 3160 South,,Salt Lake City,UT,84119,United States,8019739350,40.7039338,-111.91898,,,0
,17577,108 N Kirkwood Road,,Kirkwood,MO,63122,United States,,38.581662,-90.406116,,,0
,17578,8823 Ladue Road,,Ladue,MO,63124,United States,,38.6533551,-90.350282,,,0
,17579,9948 Via de la Amistad,,San Diego,CA,92154,United States,,32.553379,-116.93041,,,0
,17580,426 Coleman Blvd. Suite F,,Mount Pleasant,SC,29464,United States,8433889091,32.7905555,-79.875690,,,0
,17581,7400  45th Street CT.E,,Fife,WA,98424,United States,9076778967,47.2155419,-122.32875,,,0
,17582,720 D Street Suite C,,Anchorage,AK,99501,United States,9076778967,61.2153382,-149.88971,,,0
,17583,706 W. 4th Ave,,Anchorage,AK,99503,United States,,61.2181314,-149.89595,,,0
,17584,316 North Park Ave.,,Winter Park,FL,32789,United States,,28.5997494,-81.350938,,,0
,17585,1047 Sw Gage Blvd.,,Topeka,KS,66604,United States,7859256318,39.0495165,-95.724685,,,0
,17586,1827 Union Street,,San Francisco,CA,94123,United States,,37.7976524,-122.42945,,,0
,17587,1409 Montana Avenue,,Santa Monica,CA,90403,United States,,34.0325923,-118.49502,,,0
,17588,19 Elm Street,,Greenwich,CT,06830,United States,,41.0272424,-73.625143,,,0
,17589,"377 Santana Row, Suite 1010",,San Jose,CA,95128,United States,,37.320371,-121.94837,,,0
,17591,8603 Irvine Center Dr.,,Irvine,CA,92618,United States,,33.6446131,-117.74481,,,0
,17592,21159 Newport Coast Dr.,,Newport Beach,CA,92657,United States,,33.608334,-117.82775,,,0
,17593,32341 Golden Lantern,,Laguna Niguel,CA,92677,United States,,33.4936124,-117.69729,,,0
,17594,"3381 E. Imperial Hwy, D2",,Brea,CA,92823,United States,,33.9088098,-117.85105,,,0
,17595,1200 S. Coast Hwy #106,,Laguna Beach,CA,92651,United States,9495336022,33.5333496,-117.77596,,,0
,17596,296 Commercial St,,Provincetown,MA,02657,United States,,42.0517456,-70.186303,,,0
,17597,1 Gosmans Dock,,Montauk,NY,11954,United States,,41.075813,-71.938372,,,0
,17598,1604 Hughes Rd. Ste D.,,Madison,AL,35758,United States,2563258823,34.7509122,-86.741349,,,0
,17599,222 West Gorham Street,,Madison,WI,53703,United States,6082552570,43.0751392,-89.391759,,,0
,17600,320  W  5th Ave,,Anchorage,AK,99501,United States,907-841-3736,61.217081,-149.88851,,,0
,17601,928  S. Western Ave #343,,Los Angeles,CA,90006,United States,,34.055137,-118.30843,,,0
,17602,4028 N Milwaukee Ave,,Chicago,IL,60641,United States,,41.9538584,-87.748486,,,0
,17603,1819 Sansom Street,,Philadelphia,PA,19103,United States,2155649000,39.9510293,-75.171396,,,0
,17604,1447 Piedmont Ave,,Atlanta,GA,30309,United States,,33.7939592,-84.371851,,,0
,17605,54 Main Street,,Blue Hill,ME,04614,United States,207-992-7271,44.413426,-68.587829,,,0
,17606,11500 Webb Bridge Way,,Alpharetta,GA,30005,United States,770-667-8108,34.0616307,-84.224720,,,0
,17607,125 Senabi Lane,,Sun Valley,ID,83353,United States,,43.6785801,-114.33486,,,0
,17608,5909 R Street,,Little Rock,AR,72207,United States,501-487-1883,34.7688059,-92.339825,,,0
,17609,85 N 3rd Street #101,,Brooklyn,NY,11211,United States,7187822600,40.7172774,-73.962447,,,0
,17610,200 Bedford Ave,,Brooklyn,NY,11249,United States,718-388-7010,40.7173074,-73.958619,,,0
,17611,730 Lincoln Ave,,Steamboat Springs,CO,80487,United States,,40.4858081,-106.83408,,,0
,17612,631 2nd Street East,,Ketchum,ID,83340,United States,,43.6825707,-114.36038,,,0
,17613,"261 Main Street, Ste #3",,Yuma,AZ,85364,United States,619-928-8297,32.7232295,-114.61749,,,0
,17615,1905  S. Catalina Ave,,Redondo Beach,CA,90277,United States,,33.8160014,-118.38716,,,0
,17616,166 W Maple Road,,Birmingham,MI,48009,United States,2486455151,42.5468925,-83.215774,,,0
,17617,2502 East Camelback Road #166,,Phoenix,AZ,85016,United States,213-200-6979,33.5103953,-112.02869,,,0
,17618,105 S. Dubuque St,,Iowa City,IA,52240,United States,3193382210,41.6584215,-91.533143,,,0
,17619,"7643 Girard Ave, Suite C",,La Jolla,CA,92037,United States,,32.843026,-117.27296,,,0
,17620,500 Atlantic Ave.,,Brooklyn,NY,11217,United States,7184823885,40.6854811,-73.981774,,,0
,17621,22 98 Place Boulevard Suite 10,,Hattiesburg,MS,39402,United States,6014503722,31.3185196,-89.412288,,,0
,17622,8660 North Main Street Suite 2,,Helen,GA,30545,United States,706-878-5521,34.7015105,-83.731107,,,0
,17623,7539 Corporate Blvd. Ste #120,,Baton Rouge,LA,70809,United States,225-306-1314,30.4314689,-91.110825,,,0
,17624,6201 Minaret Road Suite 206,,Mammoth Lake,CA,93546,United States,7609349719,37.6511257,-118.98519,,,0
,17625,"14835 Ballantyne Village Way, Suite 115",,Charlotte,NC,28277,United States,704-543-8773,35.0533218,-80.850977,,,0
,17626,114 E. Main Street,,Visalia,CA,93291,United States,,36.3304478,-119.29181,,,0
,17627,595 New Loudon Rd,,Latham,NY,12110,United States,8458764009,42.7275694,-73.759845,,,0
,17628,901 Bethlehem Place,,Springhouse,PA,19477,United States,,40.1857375,-75.227267,,,0
,17629,7600 E Park Meadows Drive Ste 1050,,Lone Tree,CO,80124,United States,3035232870,39.5616789,-104.89915,,,0
,17630,18671 Mainstreet Unit E,,Parker,CO,80134,United States,3035232870,39.5191943,-104.77124,,,0
,17631,113 N. Coastal Way,,Jupiter,FL,33477,United States,,26.9346119,-80.082300,,,0
,17632,7 Larson Avenue,,Smithtown,NY,11787,United States,9178870485,40.849243,-73.172839,,,0
,17633,9333 Double Road Blvd.,,Reno,NV,89521,United States,7758515222,39.4507132,-119.75868,,,0
,17634,127 E. 9th. Street,,Los Angeles,CA,90015,United States,,34.0412077,-118.25400,,,0
,17635,2531 Main St.,,Lake Placid,NY,12983,United States,,44.2866872,-73.985165,,,0
,17636,489  Castro Street,,San Francisco,CA,94114,United States,,37.7612323,-122.43473,,,0
,17637,710 - C Allied Way,,El Segundo,CA,90245,United States,3104286212,33.9067598,-118.39069,,,0
,17638,220 W. Goodwin Street #3,,Prescott,AZ,86303,United States,928-776-7467,34.5403286,-112.47127,,,0
,17639,322 W. 21st Street,,Norfolk,VA,23517,United States,7572229750,36.869175,-76.289091,,,0
,17640,2502 E. Camelback Rd. Ste #169,,Phoeniz,AZ,85016,United States,,33.5103953,-112.02869,,,0
,17641,1 Riverside Square Mall #272,,Hackensack,NJ,07601,United States,,40.9063128,-74.030536,,,0
,17642,1440 Texas Ave S #4,,College Station,TX,77840,United States,,30.618012,-96.322861,,,0
,17643,605 Main St.,,Windsor,CO,80550,United States,970-663-9418,40.4795609,-104.90633,,,0
,17644,531 3rd Street,,Eureka,CA,95501,United States,7076167884,40.8038419,-124.16572,,,0
,17645,1228 Belk Drive,,Mount Pleasant,SC,29464,United States,8438813497,32.8295433,-79.830802,,,0
,17646,311 King Street,,Charleston,SC,29401,United States,8438813497,32.7836594,-79.935109,,,0
,17647,22 W Broughton Street,,Savannah,GA,31401,United States,8438813497,32.0793132,-81.092494,,,0
,17648,3085 Howard Avenue,,Myrtle Beach,SC,29577,United States,,33.669305,-78.939842,,,0
,17649,38  Shelter Cove Lane #123,,Hilton Head Island,SC,29928,United States,843-304-2494,32.1856346,-80.721062,,,0
,17650,130 Second Street,,Lewes,DE,19958,United States,,38.77537,-75.139728,,,0
,17651,6025 Procyon Street,,Las Vegas,NV,89118,United States,702-698-7784,36.079947,-115.18842,,,0
,17652,1708  S. Congress Ave,,Austin,TX,78704,United States,512-912-7970,30.2467942,-97.751034,,,0
,17653,2362 Whiteburg Dr.,,Huntsville,AL,35801,United States,2565390091,34.7120608,-86.574523,,,0
,17654,707 West Main Street,,Spokane,WA,99201,United States,5098385837,47.6587008,-117.42279,,,0
,17655,128 Park Avenue South,,Winter Park,FL,32789,United States,,28.5973286,-81.350860,,,0
,17656,"1061 Village Park Dr., Suite 204",,Greensboro,GA,30642,United States,,33.466392,-83.245296,,,0
,17657,NE Corner of Ocean & San Carlo,,Carmel,CA,93921,United States,,36.5551042,-121.92183,,,0
,17658,2000 PGA Blvd  Ste 3120,,Palm Beach Gardens,FL,33408,United States,,26.8433131,-80.063007,,,0
,17659,1440  S. State College Blvd #5G,,Anaheim,CA,92806,United States,714-767-4080,33.8116904,-117.88826,,,0
,17660,8420 Melrose Ave,,West Hollywood,CA,90069,United States,,34.0829877,-118.37374,,,0
,17661,668  Collins Ave,,Miami Beach,FL,33139,United States,,25.7767099,-80.132759,,,0
,17662,119 Spring Street,,New York,NY,10012,United States,,40.7237151,-74.000200,,,0
,17663,64 Jobs Lane,,Southampton,NY,11968,United States,,40.8833884,-72.391713,,,0
,17664,1052 N. Cahuenga Blvd,,Los Angeles,CA,90038,United States,,34.0900164,-118.32874,,,0
,17665,4472 Palisades Center Drive,,West Nyack,NY,10994,United States,6094081509,41.0983094,-73.953184,,,0
,17666,121 4th Street s,,La Crosse,WI,54601,United States,6087852827,43.8117286,-91.251323,,,0
,17667,70R Winnicutt Rd,,Stratham,NH,08885,United States,,43.0194211,-70.895290,,,0
,17668,1931 Olney Ave. #300,,Cherry Hill,NJ,08003,United States,,39.9079289,-74.968395,,,0
,17669,85 Greenwhich Ave,,Greenwich,CT,06830,United States,,41.0295945,-73.626311,,,0
,17670,348 Jericho Turnpike,,Syosset,NY,11791,United States,,40.8098279,-73.503287,,,0
,17671,2210 N. Halsted Street,,Chicago,IL,60614,United States,,41.922207,-87.648894,,,0
,17672,6810 Snider Plaza,,Dallas,TX,75205,United States,,32.8486759,-96.787785,,,0
,17673,720 Waukegan Street,,Deerfield,IL,60615,United States,,42.1655669,-87.846203,,,0
,17674,"4742 River City Drive, Unit #113",,Jacksonville,FL,32246,United States,,30.2562989,-81.525728,,,0
,17675,1827 Union Street,,San Francisco,CA,94123,United States,,37.7976524,-122.42945,,,0
,17676,317 N. Broadway Third Ward,,Milwaukee,WI,53202,United States,414-319-0030,43.034318,-87.907684,,,0
,17677,1836 9th St. N.,,Naples,FL,34102,United States,239-263-7277,26.1687327,-81.799261,,,0
,17678,2413  California Street,,San Francisco,CA,94115,United States,415-563-2937,37.7886988,-122.43410,,,0
,17679,4939 Cordell Avenue,,Bethesda,MD,20814,United States,7034148202,38.9884426,-77.099383,,,0
,17680,28 Via Mizner,,Palm Beach,FL,33480,United States,561-833-2353,26.701197,-80.040289,,,0
,17681,516 S. Mill Avenue,,Tempe,AZ,85281,United States,480-968-1783,33.42483,-111.94005,,,0
,17682,2000 E. Rio Salado Parkway #1062,,Tempe,AZ,85281,United States,,33.4324152,-111.90520,,,0
,17683,3708 Las Vegas Blvd #5,,Las Vegas,NV,89109,United States,2023339792,36.1097553,-115.17387,,,0
,17684,3238  Prospect Street NW,,Washington,DC,20007,United States,,38.9058187,-77.064408,,,0
,17685,1666 Connecticut Ave NW,,Washington,DC,20009,United States,,38.9123928,-77.045127,,,0
,17686,847 E. New Haven Ave  W.E.,,Melbourne,FL,32901,United States,,28.0784208,-80.606167,,,0
,17687,462 N 4th Street,,Philadelphia,PA,19123,United States,,39.9599651,-75.145761,,,0
,17689,"1554 Edgewater St. NW, Suite 160",,Salem,OR,97304,United States,503-990-8543,44.9377025,-123.06319,,,0
,17690,2910 Killington Rd.,,Killington,VT,05751,United States,8025584232,43.6367541,-72.794616,,,0
,17691,630 Milwaukee Street,,Delafield,WI,53018,United States,,43.061502,-88.403008,,,0
,17692,2929 Turner Hill Rd,,Lithonia,GA,30038,United States,,33.6991241,-84.088791,,,0
,17693,1384 Broadway 11th Floor,,New York,NY,10018,United States,,40.752552,-73.987007,,,0
,17694,3511  West Chester Pike,,Newtown Square,PA,19073,United States,610-325-4204,39.9861,-75.394773,,,0
,17695,127 E. 9th. Street,,Los Angeles,CA,90015,United States,2132360983,34.0412077,-118.25400,,,0
,17696,"114 Clinton Ave 8E, unit 103",,Huntsville,AL,35801,United States,256-452-8829,34.731107,-86.587491,,,0
,17697,25 Washington Street,,Ellicottville,NY,14741,United States,,42.278238,-78.667245,,,0
,17698,51 West Street,,Litchfield,CT,06759,United States,8604598006,41.7467076,-73.191537,,,0
,17699,90 Washington St. Apt# 24h,,New York,NY,10006,United States,,40.70803,-74.014869,,,0
,17700,1648 Bell Lane,,Atwater,CA,95301,United States,,37.3435212,-120.61542,,,0
,17701,3564 G Street,,Merced,CA,95340,United States,209-725-3201,37.3313087,-120.46906,,,0
,17702,"1700 McHenry Ave, Ste 60",,Modesto,CA,95350,United States,,37.6686473,-120.99162,,,0
,17703,227 Main Street,,Turlock,CA,95380,United States,209-357-000,37.4951746,-120.84555,,,0
,17704,895 Broadway,,New York,NY,10003,United States,,40.7390386,-73.990206,,,0
,17705,"895 Broadway, 3rd Floor",,New York,NY,10003,United States,,40.7390386,-73.990206,,,0
,17706,895 Broadway,,New York,NY,10003,United States,,40.7390386,-73.990206,,,0
,17707,897 Broadway,,New York,NY,10003,United States,,40.7390882,-73.990089,,,0
,17708,2465 Broadway,,New York,NY,10025,United States,,40.7919408,-73.974351,,,0
,17709,205 East 85th Street,,New York,NY,10028,United States,,40.7780518,-73.953774,,,0
,17710,817 Lexington,,New York,NY,10065,United States,,40.7644,-73.966204,,,0
,17711,250 East 54th St.,,New  York,NY,10022,United States,,40.7573349,-73.967139,,,0
,17712,1633 Broadway,,New York,NY,10019,United States,,40.7621078,-73.984763,,,0
,17713,420 Lexington,,New York,NY,10170,United States,,40.7526842,-73.975902,,,0
,17714,14 Wall Street- The Shop,,New York,NY,10005,United States,,40.707489,-74.010843,,,0
,17715,54 Murray Street- The Shop,,New York,NY,10007,United States,,40.714054,-74.009649,,,0
,17716,97 Greenwich Ave.,,New York,NY,10014,United States,,40.7374854,-74.002019,,,0
,17717,10 Columbus Ave. @ 60th Street,,New York,NY,10019,United States,,40.7698732,-73.984312,,,0
,17718,69 Prince @ Crosby,,New York,NY,10012,United States,,40.7238919,-73.996944,,,0
,17719,"1 Park Ave., 2nd Floor",,New York,NY,10016,United States,,40.7458821,-73.981503,,,0
,17720,450 West 17th Street,,New York,NY,10011,United States,,40.7436578,-74.006378,,,0
,17721,1429 Second Avenue,,New York,NY,10021,United States,,40.77053,-73.957461,,,0
,17722,344 Amsterdam Ave.,,New York,NY,10024,United States,,40.7816817,-73.979735,,,0
,17723,421 Hudson Street,,New York,NY,10014,United States,,40.7298841,-74.007251,,,0
,17724,194 Joraleman Street,,Brooklyn,NY,11201,United States,,40.6924762,-73.991520,,,0
,17725,800 White Plains Rd.,,Scarsdale,NY,10583,United States,,40.975099,-73.802261,,,0
,17726,72 Heights Rd.,,Darien,CT,06820,United States,,41.0701136,-73.492545,,,0
,17727,7550 Jericho Tpke,,Woodbury,NY,11797,United States,,40.8112551,-73.489137,,,0
,17728,90 Northen Blvd.,,Greenvale,NY,11548,United States,,40.8082465,-73.628926,,,0
,17729,1053 West Boston Post Rd.,,Mamaroneck,NY,10543,United States,,40.9396233,-73.743294,,,0
,17730,90 East Shore Rd.,,Great Neck,NY,11030,United States,,40.791552,-73.709105,,,0
,17731,16 Old Track Road,,Greenwich,CT,06830,United States,,41.020041,-73.634489,,,0
,17732,68 River Road,,Summit,NJ,07901,United States,,40.7320126,-74.374501,,,0
,17733,131 Dartmouth St.,,Boston,MA,02116,United States,,42.3469178,-71.075040,,,0
,17734,225 Franklin Street,,Boston,MA,02110,United States,,42.3560286,-71.054051,,,0
,17735,8065 Leesburg Pike,,Vienna,VA,22182,United States,,38.9127212,-77.224751,,,0
,17736,4905 Elm Street,,Bethesda,MD,20814,United States,,38.9821841,-77.096378,,,0
,17737,520 Collins Ave.,,Miami Beach,FL,33139,United States,,25.7754172,-80.133085,,,0
,17738,370 San Lorenzo Ave,,Coral Gables,FL,33146,United States,,25.732147,-80.260779,,,0
,17739,"Aventura Mall, Biscayne Blvd.",,Aventura,FL,33180,United States,,25.956482,-80.142785,,,0
,17740,1750 N. Clark Street,,Chicago,IL,60614,United States,,41.9142642,-87.633958,,,0
,17741,900 North Michigan Ave.,,Chicago,IL,60611,United States,,41.899573,-87.624826,,,0
,17742,799 Central Ave.,,Highland Park,IL,60035,United States,,42.1845777,-87.805172,,,0
,17743,200 West Monroe Str.,,Chicago,IL,60606,United States,,41.881003,-87.634277,,,0
,17744,4023 Oak Lawn Ave.,,Dallas,TX,75219,United States,,32.8180318,-96.802957,,,0
,17745,8611 Hillcrest Rd.,,Dallas,TX,75225,United States,,32.8667838,-96.787190,,,0
,17746,260 E. Colorado Blvd.,,Pasadena,CA,91101,United States,,34.1455348,-118.14475,,,0
,17747,8590 Sunset Blvd.,,West Hollywood,CA,90069,United States,,34.0922597,-118.37877,,,0
,17748,201 Santa Monica Blvd.,,Santa Monica,CA,90401,United States,,34.0152648,-118.49713,,,0
,17749,10960 Wilshire Blvd.,,Los Angeles,CA,90024,United States,,34.0578692,-118.44591,,,0
,17750,550 Deep Valley Dr.,,Rolling Hills Estate,CA,90274,United States,,33.7721263,-118.37335,,,0
,17751,10220 Constellation Blvd.,,Century City,CA,90067,United States,,34.0576323,-118.41664,,,0
,17752,21530 Oxnard St.,,Woodland Hills,CA,91367,United States,,34.1791726,-118.59881,,,0
,17753,5400 Rosecrans Ave.,,Hawthorne,CA,90250,United States,,33.9012956,-118.37490,,,0
,17754,13455 Maxella Ave,,Marina Del Rey,CA,90292,United States,,33.9869416,-118.44184,,,0
,17755,9601 Wilshire Blvd,,Beverly Hills,CA,90210,United States,,34.0674084,-118.40336,,,0
,17756,16710 Ventura Blvd,,Encino,CA,91436,United States,,34.1585087,-118.49787,,,0
,17757,301 Pine Street,,San Francisco,CA,94104,United States,,37.7918225,-122.40128,,,0
,17758,4 East 4th Street,,San Mateo,CA,94401,United States,,37.5623022,-122.32463,,,0
,17759,440 Portage Ave.,,Palo Alto,CA,94306,United States,,37.4219922,-122.13810,,,0
,17760,19540 Jamboree Road,,Irvine,CA,92612,United States,,33.6589594,-117.86045,,,0
,17761,895 Broadway,,New York,NY,10003,United States,,40.7390386,-73.990206,,,0
,17762,895 Broadway,,New York,NY,10003,United States,,40.7390386,-73.990206,,,0
,17763,907 Market Street,,Allen,TX,75013,United States,214-663-4234,33.0877056,-96.683536,,,0
,17764,2601 Preston Road,,Frisco,TX,75034,United States,214-663-4234,33.0982299,-96.805935,,,0
,17765,330 Marshall Street,,Shreveport,LA,71101,United States,214-663-4234,32.5137145,-93.751374,,,0
,17766,1612 S. University Drive Suite,,Fort Worth,TX,76107,United States,,32.7272435,-97.363136,,,0
,17767,1901 NW Expressway,,Oklahoma City,OK,73118,United States,214-663-4234,35.5246909,-97.544010,,,0
,17768,7021S. Memorial Drive,,Tulsa,OK,74133,United States,214-663-4234,36.061174,-95.886280,,,0
,17770,12800 Hill Country Blvd. #G145,,Bee Cave,TX,78738,United States,214-663-4034,30.3103968,-97.943827,,,0
,17771,1565 S. Disneyland Drive,,Anaheim,CA,92802,United States,214-663-4234,33.8084605,-117.92495,,,0
,17772,1600 E. Lake,,Lake Buenavista,FL,32830,United States,214-663-4234,28.3717107,-81.517836,,,0
,17773,159 Carondelet Plaza,,Clayton,MO,63105,United States,3148725600,38.6486802,-90.332904,,,0
,17774,9224 Clayton Road,,Saint Louis,MO,63124,United States,314-872-5600,38.6412589,-90.368355,,,0
,17775,11010 N. Port Washington,,Mequon,WI,53092,United States,,43.2189454,-87.922501,,,0
,17776,908 Greenbay Road,,Winnetka,IL,60093,United States,8474330050,42.116189,-87.74362,,,0
,17777,741 Main Street,,Lake Geneva,WI,53147,United States,8474330050,42.5920319,-88.434591,,,0
,17778,112 W. San Francisco Street,,Santa Fe,NM,87501,United States,,35.6871534,-105.94017,,,0
,17779,125  W.  San Francisco St,,Santa Fe,NM,87501,United States,,35.6878203,-105.94023,,,0
,17780,815 Billy Mitchel Blvd,,Brownsville,TX,78521,United States,956-545-3971,25.909828,-97.448018,,,0
,17781,"330 Broadway, Suite B",,Eagle,CO,81631,United States,970-328-6382,39.6534937,-106.82776,,,0
,17782,1219 Oakdale,,Atlanta,GA,30307,United States,4044412351,33.788206,-84.331842,,,0
,17783,250 Old Cherokee Rd,,Lexington,SC,29072,United States,,34.000119,-81.224749,,,0
,17784,25 Norwich Westerly Road,,North Stonington,CT,06359,United States,,41.4154755,-71.856115,,,0
,17785,4101 N. Kings Hwy,,Myrtle Beach,SC,29577,United States,843-692-7022,33.7181603,-78.853879,,,0
,17786,6229 - B River Rd Shopping Center,,Richmond,VA,23229,United States,804-288-5246,37.5683189,-77.537221,,,0
,17787,4235 Electric Rd,,Roanoke,VA,24014,United States,540-989-8151,37.227106,-79.977902,,,0
,17788,1544 Laskin Rd. Suite 220,,VA Beach,VA,23451,United States,757-491-5000,36.8513627,-76.017586,,,0
,17789,270 E. Hunt Hwy Ste 16-149,,San Tan,AZ,85143,United States,,33.1628729,-111.56335,,,0
,17790,828 Franklin Ave,,Franklin Lakes,NJ,07417,United States,2018478243,41.0235821,-74.209563,,,0
,17791,294 Main Street,,Exton,PA,19341,United States,,40.0225489,-75.628108,,,0
,17792,124  Beaver Creek Plaza,,Avon,CO,81620,United States,,39.6201891,-106.52245,,,0
,17793,2628 East 3rd Ave,,Denver,CO,80206,United States,,39.720893,-104.95618,,,0
,17794,1408 Larimer St. #101,,Denver,CO,80202,United States,,39.7474137,-104.99928,,,0
,17795,2620 Montgomery Hwy #5,,Dothan,AL,36303,United States,334-699-7447,31.2450981,-85.419465,,,0
,17796,121 Broad Street,,Red Bank,NJ,07701,United States,732-576-8500,40.348241,-74.064758,,,0
,17797,"6025 Phelan  Blvd , Suite B",,Beaumont,TX,77706,United States,409-729-2790,30.0788538,-94.165561,,,0
,17798,2841 Greenbriar Pkwy,,Atlanta,GA,30331,United States,404-344-8411,33.6877868,-84.493452,,,0
,17799,132 S. Kalamazoo Mall,,Kalamazoo,MI,49007,United States,,42.2910576,-85.583342,,,0
,17800,4933 N Tamiami,,Naples,FL,34108,United States,2392878660,26.2063225,-81.800867,,,0
,17801,440 East Ave North,,Ketchum,ID,83340,United States,208-622-7364,43.6825229,-114.36366,,,0
,17802,8113 Melrose Ave.,,Los Angeles,CA,90046,United States,310-210-8156,34.0839698,-118.36636,,,0
,17803,366 2nd St.,,Monument,CO,80132,United States,7196231652,39.0911107,-104.86878,,,0
,17804,535 South State Street,,Clarks Summit,PA,18411,United States,570-983-6667,41.4930527,-75.700195,,,0
,17805,105 South Main Street,,Breckenridge,CO,80424,United States,9704532880,39.4822049,-106.04614,,,0
,17806,123 B 2nd Avenue,,Decatur,AL,35601,United States,256-341-0190,34.6030942,-86.985454,,,0
,17807,321 Bridge St.,,New Cumberland,PA,17070,United States,717-412-1404,40.227263,-76.864936,,,0
,17808,"3210 27th St W, Suite 101",,Williston,ND,58801,United States,701-570-5509,48.1702288,-103.67003,,,0
,17809,7131 W. Ray Rd. Suite 33,,Chandler,AZ,85226,United States,,33.3179223,-111.96551,,,0
,17810,71 Main Street,,Vineyard Haven,MA,02568,United States,5086936888,41.3900646,-70.514566,,,0
,17811,11 Western Avenue,,Kennebunkport,ME,04043,United States,207-967-8301,43.3610116,-70.478396,,,0
,17812,199 Main Street,,Falmouth,MA,02540,United States,508-495-0403,41.5520537,-70.616517,,,0
,17813,141 East Meadow Drive #205,,Vail,CO,81657,United States,970-376-5048,39.6425364,-106.37554,,,0
,17814,78 The Promenade,,Edgewater,NJ,07020,United States,2013134800,40.826056,-73.975731,,,0
,17815,225  Summit Blvd. Ste. 700,,Birmingham,AL,35243,United States,205-870-3300,33.4488281,-86.727592,,,0
,17816,1062 Thompson Bridge Rd. Ste A3,,Gainsville,GA,30501,United States,678-943-8601,34.315332,-83.828874,,,0
,17818,230 N. Tejon Street,,Colorado Springs,CO,80903,United States,,38.837825,-104.82380,,,0
,17819,"4801 Line Ave, Ste 16",,Shreveport,LA,71106,United States,,32.4575242,-93.744493,,,0
,17820,15652 Rankin Avenue,,Dunlap,TN,37327,United States,423-949-8489,35.37177,-85.390172,,,0
,17821,2416 Fillmore Street,,San Francisco,CA,94115,United States,4157490655,37.7917971,-122.43422,,,0
,17822,127 E. 9th Street #1101,,Los Angeles,CA,90015,United States,3107136076,34.0412077,-118.25400,,,0
,17823,8 Randall Road,,Freeport,ME,04032,United States,,43.828865,-70.103135,,,0
,17824,20 Pleasant Street,,Newburyport,MA,01950,United States,9784683455,42.8102981,-70.871311,,,0
,17825,15 Walnut Street,,South Hamilton,MA,01982,United States,9784683455,42.6098057,-70.873413,,,0
,17826,16645 Highland Road,,Baton Rouge,LA,70810,United States,5045920242,30.346355,-91.043174,,,0
,17827,609 Charteres Street,,New Orleans,LA,70130,United States,3374061119,29.9569401,-90.064446,,,0
,17828,2555 Amherst Street,,Houston,TX,77005,United States,3374061119,29.7157352,-95.417578,,,0
,17829,3308 Magazine St,,New Orleans,LA,70115,United States,5042694005,29.923061,-90.087974,,,0
,17830,"208  N. Bryan, Ste 11",,Bryan,TX,77803,United States,979-703-1498,30.6752369,-96.374140,,,0
,17831,233 West 2nd Street,,Austin,TX,78701,United States,,30.264686,-97.746288,,,0
,17832,2047 W Gray St.,,Houston,TX,77019,United States,713-520-0060,29.7530333,-95.409514,,,0
,17833,7519 Corporate Blvd #310,,Baton Rouge,LA,70809,United States,,30.4247204,-91.123910,,,0
,17834,"9595 Six Pines Dr., Ste #1020",,The Woodlands,TX,77380,United States,281-948-4010,30.1640407,-95.464217,,,0
,17835,16645 Highland Rd. Suite Q,,Baton Rouge,LA,70810,United States,225-753-4400,30.346355,-91.043174,,,0
,17836,"208 N. Bryan, Ste 11",,Bryan,TX,77803,United States,979-703-1498,30.6752369,-96.374140,,,0
,17837,4439 Lovers Lane,,Dallas,TX,75225,United States,214-559-3600,32.8509212,-96.811397,,,0
,17838,2360 Tower Dr. Suite 106,,Monroe,LA,71201,United States,318-801-3279,32.5254747,-92.103315,,,0
,17839,609 Charteres,,New Orleans,LA,70130,United States,504-592-0242,29.9569401,-90.064446,,,0
,17840,16 Newtown Lane,,East Hampton,NY,11937,United States,6313295424,40.9642333,-72.185830,,,0
,17842,567 Mountain Village Blvd #107D,,Telluride,CO,81435,United States,,37.9373957,-107.84661,,,0
,17844,6335 Marshall Foch,,New Orleans,LA,70124,United States,504-559-1743,30.005355,-90.103369,,,0
,17845,4025  W Madison Street,,Chicago,IL,60624,United States,,41.8807219,-87.726712,,,0
,17846,144 North 14th Street,,Lincoln,NE,68508,United States,,40.8145007,-96.700805,,,0
,17847,2930 S. Bristol Street #a105,,Costa Mesa,CA,92626,United States,7143961034,33.6775633,-117.88619,,,0
,17848,926 Hopmeadow,,Simsbury,CT,06070,United States,,41.8796141,-72.799482,,,0
,17849,4109 Camp Bowie,,Ft. Worth,TX,76107,United States,,32.743678,-97.378969,,,0
,17850,3070 Washtenaw Ave,,Ann Arbor,MI,48104,United States,,42.2567397,-83.697826,,,0
,17851,8670 N. Dixson Ave,,Kansas City,MO,64153,United States,,39.2531759,-94.665492,,,0
,17852,4470 Cedar Park Drive,,Beavercreek,OH,45440,United States,,39.6942574,-84.103093,,,0
,17853,1235 Market Street,,Lynnfield,MA,01940,United States,,42.5143324,-71.031919,,,0
,17854,55 S. Main St. Suite# 165,,Naperville,IL,60540,United States,,41.7743589,-88.150313,,,0
,17855,128 S. Old Woodward,,Birmingham,MI,48009,United States,,42.5462669,-83.214299,,,0
,17856,246 Chesterfield Mall,,Chesterfield,MO,63017,United States,,38.6488937,-90.562892,,,0
,17857,5505A Deerfield Blvd,,Mason,OH,45040,United States,,39.3066184,-84.318126,,,0
,17858,1958 S. Randall Road,,Algonquin,IL,60102,United States,,42.1482183,-88.335832,,,0
,17859,3902 13th Avenue South,,Fargo,ND,58103,United States,,46.8591805,-96.846520,,,0
,17860,8423 Park Meadows Center Dr.,,Lone Tree,CO,80124,United States,,39.5620929,-104.87922,,,0
,17861,"9100 Hudson Road, Suite #116",,Woodbury,MN,55125,United States,,44.9475146,-92.925828,,,0
,17862,237 Plaza Frontenac,,St. Louis,MO,63131,United States,,38.6300518,-90.407334,,,0
,17863,5754 N. Bayshore Drive Suite Q100,,Glendale,WI,53217,United States,,43.121929,-87.914072,,,0
,17864,"4036 Fenlon Street, Suite 810",,Columbus,OH,43219,United States,,40.0523186,-82.913847,,,0
,17865,7875 Montgomery Road,,Cincinnati,OH,45236,United States,,39.2025027,-84.377022,,,0
,17866,8701 Keystone Crossing,,Indianapolis,IN,46240,United States,,39.9137556,-86.107907,,,0
,17867,1750 29th Street  Suite 1044,,Boulder,CO,80301,United States,303-443-1060,40.0178053,-105.25522,,,0
,17868,248  North Adams Road,,Rochester Hills,MI,48309,United States,,42.6833277,-83.193007,,,0
,17869,11995 Singletree Lane,,Eden Prairie,MN,55344,United States,9529209070,44.8557554,-93.428791,,,0
,17870,1632 West End Blvd,,St. Louis Park,MN,55416,United States,9529209070,44.9668225,-93.348071,,,0
,17871,161 Lexington Green Circle Suite B-13,,Lexington,KY,40503,United States,,37.9944286,-84.524678,,,0
,17872,437 Oakbrook Center,,Oak Brook,IL,60523,United States,,41.8520448,-87.952585,,,0
,17873,55 S. Main St. Suite # 165,,Naperville,IL,60540,United States,9529209070,41.7743589,-88.150313,,,0
,17874,100 W. Higgins Rd.  Suite F-10,,South Barrington,IL,60010,United States,,42.0748421,-88.184787,,,0
,17875,3440 N Southport Ave,,Chicago,IL,60657,United States,,41.9446338,-87.664271,,,0
,17876,4319 W. 119th Street,,Leawood,KS,66209,United States,,38.9118749,-94.636474,,,0
,17877,666 N Midvale Blvd,,Madison,WI,53705,United States,9529209070,43.073487,-89.452126,,,0
,17878,2637 NE 46TH Street,,Seattle,WA,98105,United States,,47.6616368,-122.29887,,,0
,17879,7301 S. Santa Fe Drive,,Littleton,CO,80120,United States,9529209070,39.5844826,-105.02532,,,0
,17880,687 East Lake Street,,Wayzata,MN,55391,United States,9529209070,44.9695021,-93.511931,,,0
,17881,101 Jordan Creek Parkway,,Des Moines,IA,50266,United States,,41.5702624,-93.807039,,,0
,17882,42  North 650 West Station Park,,Farmington,UT,84025,United States,,40.9852583,-111.90704,,,0
,17883,"3000 184th Street SW, Suite 988",,Lynnwood,WA,98037,United States,425-599-2088,47.8299542,-122.27257,,,0
,17884,"920 E. 2nd Avenue, suite 130",,Coralville,IA,52241,United States,319-499-5225,41.6823461,-91.563007,,,0
,17885,2665 Edmondson Road,,Cincinnati,OH,45209,United States,9529209070,39.1488618,-84.444183,,,0
,17886,2206 East Williams Field Rd.,,Gilbert,AZ,85295,United States,,33.3068228,-111.75247,,,0
,17887,11245 W. 95th Street,,Overland Park,KS,66214,United States,,38.9536954,-94.719079,,,0
,17888,"12239 Wayzata Blvd, Suite 1084",,Minnetonka,MN,55305,United States,,44.9721271,-93.433269,,,0
,17889,1726 Utica Square,,Tulsa,OK,74114,United States,,36.1326625,-95.966127,,,0
,17890,"2500 N. Mayfair Rd, #142",,Wauwatosa,WI,53226,United States,,43.0638475,-88.045647,,,0
,17891,490 Village Center Drive,,Burr Ridge,IL,60527,United States,,41.7517807,-87.912540,,,0
,17892,1948 Breton Ave SE,,Grand Rapids,MI,49506,United States,,42.9290745,-85.609316,,,0
,17893,"26300 Cedar Road, unit 2320",,Beachwood,OH,44122,United States,216-359-8998,41.4985554,-81.494339,,,0
,17894,"11700 Rock Rose, suite 166",,Austin,TX,78758,United States,512-351-4904,30.4034697,-97.721856,,,0
,17895,"3070 Washtenaw Ave, suite 105",,Ann Arbor,MI,48104,United States,,42.2567397,-83.697826,,,0
,17896,4470  Cedar Park Drive,,Beavercreek,OH,45440,United States,,39.6942574,-84.103093,,,0
,17897,"14395 Clay Terrace Blvd, suite 120",,Carmel,IN,46032,United States,,39.997098,-86.129316,,,0
,17898,1538 North Clybourne Ave,,Chicago,IL,60610,United States,,41.9091258,-87.647545,,,0
,17899,"1500 Polaris Parkway, suite 1166",,Columbus,OH,43240,United States,,40.1414554,-82.978951,,,0
,17900,20530 N. Rand Road,,Deer Park,IL,60010,United States,9529209070,42.1615737,-88.054181,,,0
,17901,"250 S. Columbine St, Unit 140",,Denver,CO,80206,United States,,39.7201799,-104.95669,,,0
,17902,101  Jordan Creek Parkway Suite 11320,,Des Moines,IA,50266,United States,,41.5702624,-93.807039,,,0
,17903,41 West County Center,,Des Peres,MO,63131,United States,314-858-6610,38.6009384,-90.446875,,,0
,17904,2249 Wealthy Street,,East Grand Rapids,MI,49506,United States,9529209070,42.9505242,-85.613537,,,0
,17905,3914 West 50th Street,,Edina,MN,55424,United States,9529209070,44.9128131,-93.329826,,,0
,17906,1608 Sherman Avenue,,Evanston,IL,60201,United States,9529209070,42.0473578,-87.682184,,,0
,17907,"170 N. East Promontory, Suite J140",,Farmington,UT,84025,United States,,40.9836686,-111.90657,,,0
,17908,2670 Navy Blvd.,,Glenview,IL,60026,United States,9529209070,42.0897441,-87.824213,,,0
,17909,"94 Derby St, Suite 241",,Highham,MA,02043,United States,,42.1774601,-70.908774,,,0
,17910,225 W. 47th Street,,Kansas City,MO,64112,United States,,39.0420875,-94.589946,,,0
,17911,8670 N. Dixson Ave,,Kansas City,MO,64153,United States,,39.2531759,-94.665492,,,0
,17912,248 Market Square,,Lake Forest,IL,60045,United States,,42.2525936,-87.841105,,,0
,17913,358 S Teller Street,,Lakewood,CO,80226,United States,,39.7099395,-105.07651,,,0
,17914,1235 Market Street,,Lynnfield,MA,01940,United States,,42.5143324,-71.031919,,,0
,17915,12117 Elm Creek Blvd.,,Maple Grove,MN,55369,United States,9529209070,45.0941409,-93.434905,,,0
,17916,3540  E. Longwing Ln Suite 120,,Meridian,ID,83646,United States,,43.6214803,-116.35058,,,0
,17917,"5421 Feltl Rd., suite 130",,Minnetonka,MN,55343,United States,,44.904888,-93.419988,,,0
,17918,"50 S. Main Street, Suite 108",,Naperville,IL,60540,United States,,41.7746017,-88.148892,,,0
,17919,"13971 Town Center Blvd, Suite 600",,Noblesville,IN,46060,United States,,39.9924415,-85.931907,,,0
,17920,"120 Regency Parkway, Suite 178",,Omaha,NE,68114,United States,,41.2594589,-96.071728,,,0
,17921,"1500 Washington Rd, Space 1405",,Pittsburgh,PA,15228,United States,,40.3569591,-80.051807,,,0
,17922,"7430  164th Ave NE, STE B125",,Redmond,WA,98052,United States,,47.6708997,-122.12123,,,0
,17923,"7430 164th Ave NE, Ste B125",,Redmond,WA,98052,United States,,47.6708997,-122.12123,,,0
,17924,815 Rosedale Center,,Roseville,MN,55113,United States,9529209070,45.0120468,-93.168085,,,0
,17925,"200 Evergreen Way, Suite 200",,South Windsor,CT,06074,United States,,41.8113597,-72.556626,,,0
,17926,867 Grand Avenue,,Saint Paul,MN,55105,United States,9529209070,44.9402804,-93.136812,,,0
,17927,7457 SW. Bridgeport Rd,,Tigard,OR,97224,United States,,45.3958708,-122.75287,,,0
,17928,"131 Cheshire Lane, Suite 200",,Minnetonka,MN,55305,United States,,44.9774437,-93.458429,,,0
,17929,153 Main Street,,Westlake,OH,44145,United States,,41.4582842,-81.951681,,,0
,17930,121 Town Square Wheaton,,Wheaton,IL,60189,United States,,41.8338886,-88.100167,,,0
,17931,898 G St,,Arcata,CA,95521,United States,7078227562,40.868678,-124.08555,,,0
,17932,51 George Street,,Charleston,SC,29401,United States,8435737256,32.7834769,-79.935793,,,0
,17933,767 Higuera Street,,San Luis Obispo,CA,93401,United States,,35.2794805,-120.66333,,,0
,17934,1325 Park Street,,Paso Robles,CA,93446,United States,,35.6284285,-120.69060,,,0
,17935,7708 Del mar,,Saint Louis,MO,63130,United States,3147262224,38.655661,-90.301920,,,0
,17936,2760 N. Germantown Parkway #272,,Memphis,TN,38133,United States,901-336-7742,35.20067,-89.793146,,,0
,17937,1635  Miami Rd. #8,,Ft. Lauderdale,FL,33316,United States,954-592-5460,26.1009907,-80.134547,,,0
,17938,402 Main Street,,Ecru,MS,38841,United States,662-309-7020,34.350737,-89.026172,,,0
,17939,2275 Ortega Hill Road,,Summerland,CA,93067,United States,8059691162,34.4215408,-119.60122,,,0
,17940,232 Lake Marina Avenue,,New Orleans,LA,70124,United States,,30.0214939,-90.116522,,,0
,17941,122 S. Palafox St.,,Pensacola,FL,32502,United States,850-607-2255,30.4106049,-87.214594,,,0
,17942,124 South Ridge Street,,Port Chester,NY,10573,United States,914-935-1470,41.0029688,-73.681276,,,0
,17943,3217 S. W 35th Boulevard,,Gainesville,FL,32608,United States,,29.6254499,-82.377998,,,0
,17944,420 N. Morton,,Bloomington,IN,47404,United States,8129613703,39.1702847,-86.536109,,,0
,17945,46  Market St.,,Portsmouth,NH,03801,United States,,43.077795,-70.757651,,,0
,17946,1309  Panorama Dr.  Suite 109,,Chattanooga,TN,37421,United States,423-710-8376,35.0174513,-85.169640,,,0
,17947,303 Auburn St,,Newton,MA,02466,United States,,42.3465412,-71.247447,,,0
,17948,1422 Grant Ave,,San Francisco,CA,94133,United States,,37.8001722,-122.40725,,,0
,17949,2511 University Boulevard,,Houston,TX,77005,United States,7136265326,29.7148702,-95.417180,,,0
,17950,309 Gray Street,,Houston,TX,77002,United States,7135331699,29.7522678,-95.376881,,,0
,17951,"23501 Cinco Ranch Blvd, B100",,Katy,TX,77494,United States,7135331699,29.7428289,-95.776260,,,0
,17952,10 Holland,,Irvine,CA,92618,United States,7604481644,33.643783,-117.71789,,,0
,17953,10 Holland,,Irvine,CA,92618,United States,7604481644,33.643783,-117.71789,,,0
,17954,703 Palomar Airport Rd.,,Carlsbad,CA,92011,United States,,33.121012,-117.32389,,,0
,17955,2021 San Elijo Avenue,,Cardiff,CA,92007,United States,7604481644,33.0218502,-117.28296,,,0
,17956,13850 City Center Drive,,Chino Hills,CA,91709,United States,7604481644,34.0016017,-117.73070,,,0
,17958,1846 N. Loop 1604,,San Antonio,TX,78248,United States,2106324734,29.6066959,-98.521539,,,0
,17959,3500 Peachtree Road,,Atlanta,GA,30326,United States,2122208629,33.8531394,-84.360210,,,0
,17960,449 West 14th Street,,New York,NY,10014,United States,2122208629,40.7421767,-74.007105,,,0
,17961,20895 East Dixie Highway,,Aventura,FL,33180,United States,,25.9687859,-80.147071,,,0
,17962,134 West Branch Street,,Arroyo Grande,CA,93420,United States,8054749440,35.123005,-120.58054,,,0
,17963,11725 Mississippi Ave.,,Los Angeles,CA,90025,United States,,34.0354713,-118.44986,,,0
,17964,1125 Woodruff Road,,Greenville,SC,29607,United States,(864),34.8292334,-82.301227,,,0
,17965,761 N High Street,,Columbus,OH,43215,United States,6142977700,39.9779167,-83.003906,,,0
,17966,47 Middle Neck Road,,Great Neck,NY,11021,United States,5164666829,40.7881315,-73.729125,,,0
,17967,2200 South Tenth Avenue,,Mc Allen,TX,78503,United States,,26.1852376,-98.236285,,,0
,17968,5300 San Bario Ave,,Laredo,TX,78041,United States,9567220771,27.5512366,-99.499529,,,0
,17969,11096 Ocean Hwy,,Pawleys Island,SC,29585,United States,8432372631,33.446077,-79.121961,,,0
,17970,12111 E 21st Street N,,Wichita,KS,67206,United States,3166821000,37.7225012,-97.198029,,,0
,17971,139 Rockway Ave. #38,,Weymouth,MA,02188,United States,6172677770,42.188764,-70.94753,,,0
,17972,3379 Joseph Martin Highway,,Martinsville,VA,24112,United States,,36.6062495,-79.880449,,,0
,17973,1413   3rd Street Promenade,,Santa Monica,CA,90401,United States,3108063097,34.0154694,-118.49548,,,0
,17974,1340 1/2 4th Street,,Santa Monica,CA,90401,United States,,34.0188903,-118.49816,,,0
,17975,1412 Unit A 4th Street,,Santa Monica,CA,90401,United States,3108063097,34.0160359,-118.49498,,,0
,17976,664 S. Santa Fe Street,,Los Angeles,CA,90021,United States,,34.035933,-118.22992,,,0
,17977,525 Lincoln Ave,,Steam Boat Springs,CO,80487,United States,970-870-6658,40.484335,-106.83227,,,0
,17978,3545 19th Lane,,Yuma,AZ,85364,United States,,32.6915835,-114.66170,,,0
,17979,6127 N. Mesa Suite E,,El Paso,TX,79912,United States,9154337147,31.8307585,-106.53225,,,0
,17980,114 Mid Town Avenue,,Farmville,VA,23901,United States,4343158822,37.3000619,-78.392689,,,0
,17981,10767  Spur Hwy,,Kanai,AK,99611,United States,907-252-7567,60.5576373,-151.24173,,,0
,17982,511 East Sun Valley Road,,Ketchum,ID,83340,United States,2087269624,43.6821208,-114.36249,,,0
,17983,22 Durham Rd.,,Madison,CT,06443,United States,2032458887,41.2807624,-72.598658,,,0
,17984,8687 Melrose Ave. #g410/#g498,,West Hollywood,CA,90069,United States,,34.0823377,-118.38236,,,0
,17985,41 South Moger,,Mount Kisco,NY,10549,United States,2035574276,41.2068769,-73.728913,,,0
,17986,41 South Moger,,Mount Kisco,NY,10549,United States,2035574276,41.2068769,-73.728913,,,0
,17987,41 South Moger Avenue,,Mount Kisco,NY,10549,United States,2035574276,41.2068769,-73.728913,,,0
,17988,41 South Moger,,Mount Kisco,NY,10549,United States,2035574276,41.2068769,-73.728913,,,0
,17989,41 South Moger,,Mount Kisco,NY,10549,United States,2035574276,41.2068769,-73.728913,,,0
,17990,178 Main Street,,East Greenwich,RI,02818,United States,,41.6614724,-71.449813,,,0
,17991,1000 Chapel View Blvd,,Cranston,RI,02920,United States,4012700188,41.7566184,-71.460728,,,0
,17992,175 West California Street,,Jacksonville,OR,97530,United States,5418991010,42.3143605,-122.96849,,,0
,17993,1493 Angelcrest Drive,,Medford,OR,97504,United States,5418991010,42.335824,-122.79494,,,0
,17994,116 W. Central Ave,,Bentonville,AR,72712,United States,479-224-9295,36.3725258,-94.209560,,,0
,17995,132  North Higgins Avenue,,Missoula,MT,59801,United States,406-721-2955,46.8708064,-113.99444,,,0
,17996,2100 Costa Del Mar Road,,Carlsbad,CA,92009,United States,,33.0919712,-117.26625,,,0
,17997,4016 Tennyson Street,,Denver,CO,80212,United States,720-541-7646,39.7719541,-105.04389,,,0
,17998,1135 Stonecrest Blvd.,,Fort Mill,SC,29708,United States,,35.047,-80.9958,,,0
,17999,129 E Fremont Street,,Las Vegas,NV,89101,United States,7136801185,36.1702682,-115.14491,,,0
,18000,5222 Seawall Blvd,,Galveston,TX,77551,United States,7136801185,29.2725356,-94.818292,,,0
,18001,14520 Delta Lane #105,,Huntington Beach,CA,92647,United States,562-296-6350,33.7508078,-118.03320,,,0
,18002,363 N. Franklin St.,,Fort Bragg,CA,95437,United States,,39.4453199,-123.80453,,,0
,18003,100 Plaza Real,,Boca Raton,FL,33432,United States,5613922212,26.3480699,-80.084669,,,0
,18004,1176 Town & Country Cross Drive,,Town & Country,MO,63017,United States,636-527-4139,38.6408301,-90.519135,,,0
,18005,3580 Galleria,,Edina,MN,55435,United States,9523803655,44.8765814,-93.328225,,,0
,18006,499 7th Ave. #3 South,,New York,NY,10018,United States,3109804759,40.7525883,-73.989095,,,0
,18007,"23730 Westheimer Pkwy, Ste J",,Houston,TX,77494,United States,281-574-3517,29.7364644,-95.777047,,,0
,18008,201 Court St,,Brooklyn,NY,11216,United States,,40.6872736,-73.993537,,,0
,18009,532 Ramona Street,,Palo Alto,CA,94301,United States,6503272196,37.4447109,-122.16171,,,0
,18010,2601 E. Parkway STE D,,Russellville,AR,72802,United States,479-857-5742,35.2825051,-93.104295,,,0
,18011,2076 Route 70E,,Cherry Hill,NJ,08003,United States,856-424-8388,39.8970727,-74.950240,,,0
,18012,324 South State Street,,Clarks Green,PA,18411,United States,5705864201,41.4938786,-75.702586,,,0
,18013,4465 Poplar Ave,,Memphis,TN,38117,United States,901-497-1359,35.1172361,-89.913349,,,0
,18014,412 Rosedale Center Drive #320,,Roseville,MN,55113,United States,,45.0137033,-93.169071,,,0
,18015,651 Nicollet Mall,,Minneapolis,MN,55402,United States,9529279700,44.9772351,-93.271391,,,0
,18016,1630 Southdale Mall,,Edina,MN,55435,United States,952-920-0472,44.8828102,-93.320803,,,0
,18017,300 North Garden,,Bloomington,MN,55425,United States,,44.8558133,-93.243487,,,0
,18018,E320 Woodfield Mall,,Schaumburg,IL,60173,United States,,42.0464163,-88.037125,,,0
,18019,2411 Coney Island Ave,,Brooklyn,NY,11223,United States,7183757337,40.5981071,-73.960985,,,0
,18020,309 E. Water St.,,Decorah,IA,52101,United States,563-382-4474,43.3039193,-91.782442,,,0
,18021,"99 Eglin Parkway NE, Ste 16",,Fort Walton Beach,FL,32548,United States,850-226-8655,30.418666,-86.607014,,,0
,18022,1839  s. Main St. Suite 100,,Wake Forest,NC,27587,United States,919-453-0113,35.9516655,-78.527290,,,0
,18023,3881 Portola Parkway,,Irvine,CA,92620,United States,9496442330,33.7341478,-117.76251,,,0
,18024,811 Gardenia Way,,Corona del Mar,CA,92625,United States,9496442330,33.600952,-117.86747,,,0
,18025,203  Front Street,,New York,NY,10038,United States,,40.7070099,-74.003314,,,0
,18026,3201 Market Street,,Rogers,AR,72758,United States,4794649433,36.3069417,-94.188146,,,0
,18027,290 Grand Avenue,,Southlake,TX,76092,United States,8173106373,32.9442408,-97.130764,,,0
,18028,374 Post Road East,,Westport,CT,06880,United States,2032210123,41.1400831,-73.352659,,,0
,18029,"5501 W. 135th Street, #2320",,Overland Park,KS,66223,United States,913-530-8134,38.883229,-94.650276,,,0
,18030,485-11 S. Broadway,,Hicksville,NY,11801,United States,5169375485,40.7691439,-73.525733,,,0
,18031,558 Greenbay,,Winnetka,IL,60093,United States,,42.1063807,-87.734486,,,0
,18032,1100 N. Dearborn St.,,Chicago,IL,60610,United States,,41.9020565,-87.630195,,,0
,18033,611 W. 207th St,,New York,NY,10034,United States,2125673850,40.8675699,-73.920914,,,0
,18034,107 E. Baseline Rd. A-003,,Tempe,AZ,85283,United States,4807725466,33.3777599,-111.93871,,,0
,18035,366 Main Street,,Los Altos,CA,94022,United States,4082199323,37.3781399,-122.11743,,,0
,18036,220 W. Wilshire Blvd. #F3,,Oklahoma City,OK,73116,United States,,35.5511301,-97.516599,,,0
,18037,324 Manhattan Beach Blvd.,,Manhattan Beach,CA,90266,United States,3107984577,33.8851146,-118.40889,,,0
,18038,3325 Main Street,,Mammoth Lake,CA,93546,United States,7609248890,37.6475179,-118.97126,,,0
,18039,39 Toepperwein Road,,Boerne,TX,78006,United States,830-331-2345,29.816415,-98.722751,,,0
,18040,"734 Alpha Drive, Unit D",,Highland Hights,OH,44143,United States,216-225-7165,41.543559,-81.455095,,,0
,18041,6317 Bee Cave Rd. #210,,Austin,TX,78746,United States,512-852-9674,30.296208,-97.832796,,,0
,18042,4131 Legendary Dr. F-112,,Destin,FL,32541,United States,8506506666,30.3912252,-86.426174,,,0
,18043,"4001 North Lamar, Suite 510",,Austin,TX,78756,United States,5127992732,30.3074743,-97.740345,,,0
,18044,3046 Se Pine Lake Road,,Sammamish,WA,98075,United States,4253921574,47.5817218,-122.03314,,,0
,18045,2670 Ne University Village St.,,Seattle,WA,98105,United States,4253921574,47.6625617,-122.29840,,,0
,18046,181 Stanford Shopping Center,,Palo Alto,CA,94304,United States,4253921574,37.4396556,-122.17378,,,0
,18047,Bellevue Square,,Bellevue,WA,98004,United States,4253922955,47.6156454,-122.20372,,,0
,18048,355 Court Street,,Salem,OR,97301,United States,5033657725,44.9414346,-123.03898,,,0
,18049,726 E. Lake Street,,Wayzata,MN,55391,United States,763-286-9336,44.968739,-93.510411,,,0
,18050,169-17 Jamaica Ave,,Jamaica,NY,11432,United States,718-526-1100,40.7072705,-73.790201,,,0
,18051,874  Berlin Turnpike,,Berlin,CT,06037,United States,860-828-6547,41.6264879,-72.740540,,,0
,18052,740 East Valley Rd.,,Basalt,CO,81621,United States,,39.3879244,-107.08387,,,0
,18053,4413 Town Center Parkway,,Jacksonville,FL,32246,United States,9042735185,30.2635392,-81.526603,,,0
,18054,330 A1a North,,Ponte Vedra,FL,32082,United States,9042735185,30.2315087,-81.385672,,,0
,18055,7882 E. Coast Hwy,,Newport,CA,92657,United States,,33.5689141,-117.83340,,,0
,18056,4545 Center Blvd.,,Long Island City,NY,11109,United States,,40.7480015,-73.955920,,,0
,18057,203  Glen St.,,Glen Falls,NY,12801,United States,518-926-7227,43.3103369,-73.644661,,,0
,18058,3300 Coach Lane,,Cameron Park,CA,95682,United States,,38.657527,-120.97285,,,0
,18059,333 Bleeker Street,,New York,NY,10014,United States,2123520111,40.7336445,-74.004245,,,0
,18060,270 Main Street,,Huntington,NY,11743,United States,,40.8707771,-73.426772,,,0
,18061,"1364 E.  Augustine Lane, 3a",,Fayetteville,AR,72703,United States,479-443-6529,36.1217646,-94.139593,,,0
,18062,321 Marine Ave,,Newport Beach,CA,92662,United States,,33.6078969,-117.88999,,,0
,18063,225 N. Canon Drive,,Beverly Hills,CA,90210,United States,,34.0679911,-118.39884,,,0
,18064,9100 Marsac Avenue,,Park City,UT,84060,United States,435-604-1300,40.616116,-111.51193,,,0
,18065,30801 South Coast Hwy,,Laguna Beach,CA,92651,United States,,33.5149637,-117.75716,,,0
,18066,9700 Collins Ave Store #208,,Bal Harbour,FL,33154,United States,,25.88857,-80.124922,,,0
,18068,3 Esterbrook Lane # 200,,Cherry Hill,NJ,08003,United States,(856),39.914023,-74.967626,,,0
,18069,16613 Valley View Ave.,,Cerritos,CA,90703,United States,5629215300,33.8805548,-118.03003,,,0
,18070,290 West Maint St.,,Northborough,MA,01532,United States,5087090505,42.3078811,-71.658601,,,0
,18071,2436  Bull Street,,Savannah,GA,31401,United States,912-441-3957,32.0539121,-81.101541,,,0
,18072,122 Charles Street,,Boston,MA,02114,United States,,42.3593224,-71.070900,,,0
,18073,4 Dock Street,,Edgartown,MA,02539,United States,6177420082,41.3894693,-70.510233,,,0
,18074,2  Straight Wharf,,Nantucket,MA,02554,United States,,41.284202,-70.095653,,,0
,18075,35  Central Street,,Wellesley,MA,02481,United States,,42.2962354,-71.295458,,,0
,18076,105 E. College St,,Iowa City,IA,52240,United States,,41.6588424,-91.534219,,,0
,18077,347 Plandome Rd.,,Manhasset,NY,11030,United States,5166275333,40.7974104,-73.699628,,,0
,18078,2905 Talaga Drive,,Algonquin,IL,60102,United States,,42.174087,-88.343515,,,0
,18079,1019 Oriente Ave,,Wilmington,DE,19807,United States,,39.772312,-75.601118,,,0
,18080,1390 Ocean Drive  #105,,Miami Beach,FL,33139,United States,305-281-2186,25.7849744,-80.130015,,,0
,18081,"4651 Main Street, unit 104",,Orange Beach,AL,36561,United States,2519816113,30.2923059,-87.628137,,,0
,18082,14440 Pierson Road,,Wellington,FL,33414,United States,,26.6367719,-80.277132,,,0
,18083,155 West 72nd Street,,New York,NY,10023,United States,2127120473,40.7784226,-73.980481,,,0
,18084,480  Center Street NE #1108,,Salem,OR,97301,United States,503-364-3440,44.942616,-123.03690,,,0
,18085,2071 West Bullard Avenue,,Fresno,CA,93711,United States,,36.8227583,-119.82843,,,0
,18086,1305 N. Willow Ave #140,,Clovis,CA,93619,United States,,36.8531261,-119.72744,,,0
,18087,7725 N. Via Del Rio,,Fresno,CA,93720,United States,,36.8489715,-119.78944,,,0
,18088,632 Kirkwood Mall,,Bismarck,ND,58504,United States,,46.797522,-100.78492,,,0
,18089,9700 Collins Ave Suite 261,,Bal Harbour,FL,33154,United States,305-864-0202,25.8883666,-80.125341,,,0
,18090,3027 A  Fillmore Street,,San Francisco,CA,94123,United States,,37.7974353,-122.43588,,,0
,18091,4 Basin Road,,Menemsha,MA,02552,United States,5082941462,41.351659,-70.764183,,,0
,18092,"1351  Kearns Blv, suite 104",,Park City,UT,84060,United States,,40.6615448,-111.50285,,,0
,18093,16195 Monterey Rd. Suite 60,,Morgan Hill,CA,95037,United States,408-921-6303,37.1151683,-121.64480,,,0
,18094,6500 Labeaux Ave NE,,Albertville,MN,55301,United States,763-497-2440,45.2445393,-93.662479,,,0
,18095,226 Water Street,,Block Island,RI,02807,United States,401-466-5254,41.172633,-71.557963,,,0
,18096,1304 D Chestnut Street,,Murray,KY,42071,United States,2707615225,36.6173786,-88.316939,,,0
,18097,1557 Potomac Greens Dr.,,Alexandria,VA,22314,United States,,38.8218127,-77.047236,,,0
,18098,4150 Campbell Ave # 104,,Arlington,VA,22206,United States,2026070426,38.8407831,-77.089604,,,0
,18099,238 E Street,,Davis,CA,95616,United States,5304009950,38.5443067,-121.74108,,,0
,18100,16087 San Dieguito Road STE D2,,Rancho Santa Fe,CA,92067,United States,,32.9908366,-117.19613,,,0
,18101,6024 Paseo Delicias,,Rancho Santa Fe,CA,92067,United States,,33.0201293,-117.20347,,,0
,18102,28200 Highway 189,,Lake Arrowhead,CA,92352,United States,9093377222,34.2509814,-117.18845,,,0
,18103,"16087  San Dieguito Road, Ste D2",,Rancho Santa Fe,CA,92067,United States,,32.9908366,-117.19613,,,0
,18104,401 1/2 East Cooper Avenue,,Aspen,CO,81611,United States,970-925-1681,39.1881399,-106.81978,,,0
,18105,716  Main Street,,Montauk,NY,11954,United States,631-668-9300,41.043431,-71.923319,,,0
,18106,7915 Jericho Tpke,,Woodbury,NY,11797,United States,5166212450,40.81442,-73.477012,,,0
,18107,"1995 Squaw Valley Rd, Suite #14",,Olympic Valley,CA,96146,United States,530-584-6181,39.1965872,-120.23535,,,0
,18108,300 Market Street,,Harrisburg,PA,17101,United States,717-737-4505,40.2611553,-76.880825,,,0
,18109,213  Locust St.,,Harrisburg,PA,17101,United States,,40.2613363,-76.883216,,,0
,18110,1074 Main Street,,Branford,CT,06405,United States,,41.282929,-72.810865,,,0
,18111,113 E River Road,,Rumson,NJ,07760,United States,,40.3716801,-73.999632,,,0
,18112,2605  State Road 7,,Wellington,FL,33414,United States,,26.6424559,-80.206229,,,0
,18113,8500 Beverly Blvd # 778,,Los Angeles,CA,90046,United States,3236537530,34.0753309,-118.37749,,,0
,18114,9701 Maumelle Blvd,,Maumelle,AR,72113,United States,501-912-6823,34.8196725,-92.366156,,,0
,18115,270 E. Merrick Rd,,Rockville Ctr,NY,11570,United States,,40.6560406,-73.645816,,,0
,18116,350 Center Avenue,,Westwood,NJ,07675,United States,2016644389,40.993096,-74.032901,,,0
,18117,351 Center Avenue,,Westwood,NJ,07675,United States,2016644389,40.9933494,-74.032468,,,0
,18118,"100 East Stone Ave, Suite C",,Greenville,SC,29609,United States,,34.860731,-82.392604,,,0
,18119,425 E. Chandler Boulevard,,Phoenix,AZ,85048,United States,4807851811,33.3055403,-112.06894,,,0
,18120,408  Main Street,,Hyannis,MA,02601,United States,508-775-2400,41.6527645,-70.284617,,,0
,18121,"2800 Kirby Drive, Suite B-124",,Houston,TX,77098,United States,,29.7409388,-95.419128,,,0
,18122,70-34 Austin Street,,Forest Hills,NY,11375,United States,5166795198,40.7203056,-73.845850,,,0
,18123,10470 Lansing St,,Mendocino,CA,95460,United States,,39.3060918,-123.79881,,,0
,18124,5910 S. University Blvd.,,Greenwood Village,CO,80121,United States,,39.6085985,-104.95820,,,0
,18125,249 Newport Center Drive,,Newport Beach,CA,92660,United States,(720),33.612705,-117.87515,,,0
,18126,15091 Edgewood Drive  Ste# 110,,Baxter,MN,56425,United States,2188259290,46.3700008,-94.245177,,,0
,18127,25 Center Street,,Douglas,MI,49406,United States,,42.6438976,-86.201934,,,0
,18128,49 US Highway Route 202,,Far Hills,NJ,07931,United States,908-234-2400,40.685129,-74.634786,,,0
,18129,1251 E. Southlake Blvd #341,,Southlake,TX,76092,United States,,32.9405094,-97.132313,,,0
,18130,1524 Bay Rd.,,Miami Beach,FL,33139,United States,,25.7880887,-80.143697,,,0
,18131,268 North Nova Road,,Ormond Beach,FL,32174,United States,3866735455,29.2842909,-81.084398,,,0
,18132,4500  I-55 North Ste 103A,,Jackson,MS,39211,United States,,32.3555087,-90.150901,,,0
,18133,240 Collins Industrial Blvd.,,Athens,GA,30601,United States,,33.9790514,-83.359645,,,0
,18134,3639 Riverside Plaza Drive,,Riverside,CA,92507,United States,9516826652,33.9553274,-117.39295,,,0
,18135,"1291 S. Houston Lake Rd, Suite G",,Warner Robins,GA,31088,United States,,32.5565054,-83.66362,,,0
,18136,1075 Peachtree Street,,Atlanta,GA,30309,United States,,33.7836417,-84.383032,,,0
,18137,150 W. Roosevelt Blvd. Ste,,Chicago,IL,60605,United States,,41.8678114,-87.632058,,,0
,18139,200 Market Street #1140,,Yonkers,NY,10710,United States,,40.9633626,-73.856164,,,0
,18140,107 Amherst Drive SE,,Albuquerque,NM,87106,United States,,35.079507,-106.60602,,,0
,18141,3663 S. Las Vegas Blvd # 21,,Las Vegas,NV,89109,United States,,36.1107901,-115.17141,,,0
,18142,510  Elk Ave #5,,Cutte,CO,81224,United States,,38.8697493,-106.98241,,,0
,18143,510 Elk Avenue,,Crested Butte,CO,81224,United States,9704811007,38.8697493,-106.98241,,,0
,18144,1931 Olney Ave. #300,,Cherry Hill,NJ,08003,United States,,39.9079289,-74.968395,,,0
,18145,47  Saint Georges Road,,Ardmore,PA,19003,United States,610-649-3419,40.0093801,-75.289091,,,0
,18146,500  S. Rte 73 D-4,,Marlton,NJ,08053,United States,856-596-2121,39.8784131,-74.920240,,,0
,18147,16716  Edwards Rd.,,Cerritos,CA,90703,United States,,33.8793737,-118.03394,,,0
,18148,5749 Egan Drive,,Savage,MN,55378,United States,9522201630,44.7450378,-93.353312,,,0
,18149,Store # 2013,,Garden City,NY,11530,United States,5167398201,40.7399709,-73.613575,,,0
,18150,25 East Union  Avenue,,East Rutherford,NJ,07073,United States,,40.8245361,-74.091526,,,0
,18151,861 Washington St,,New York,NY,10014,United States,,40.7410885,-74.007176,,,0
,18152,"175 Broad Street, Unit 2",,Carlstadt,NJ,07072,United States,2014383930,40.83255,-74.082929,,,0
,18153,"47-16 Austell Place, 2nd Floor",,Long Island City,NY,11101,United States,,40.7430405,-73.941982,,,0
,18154,8787 N. Scottsdale Road,,Scottsdale,AZ,85253,United States,4809059300,33.5654588,-111.92446,,,0
,18155,3334-123 W. Friendly Ave.,,Greensboro,NC,27410,United States,3362722555,36.0871088,-79.838805,,,0
,18156,402 Ledgestone Way,,Cary,NC,27519,United States,,35.791778,-78.848546,,,0
,18157,346 N. Park Ave,,Winter Park,FL,32789,United States,407-790-4916,28.6002891,-81.350727,,,0
,18158,5592-R  Whitesville Rd.,,Columbus,GA,31904,United States,706-221-9480,32.5227487,-84.957788,,,0
,18159,1013 Galleria Blvd. #190,,Roseville,CA,95678,United States,,38.7675389,-121.26907,,,0
,18160,1001 Heavenly Village Way #13,,South Lake Tahoe,CA,96150,United States,,38.9559113,-119.94315,,,0
,18161,212 Clement Streert,,San Francisco,CA,94118,United States,5106732370,37.7832982,-122.46159,,,0
,18162,2027 Hudson Street,,Fort Lee,NJ,07024,United States,,40.8517554,-73.968905,,,0
,18163,675 Mt View Road,,Rapid City,SD,57702,United States,6053423650,44.0803867,-103.25204,,,0
,18164,547 Main St.,,Winchester,MA,01890,United States,6178425739,42.4523542,-71.136527,,,0
,18165,1210  N. Airline Hwy #8,,Gonzales,LA,70737,United States,,30.2431991,-90.917102,,,0
,18166,259 West Fayette Street,,Syracuse,NY,13202,United States,,43.0485778,-76.155333,,,0
,18167,577 E Millsap,,Fayetteville,AR,72703,United States,479530224,36.1141167,-94.149380,,,0
,18168,577 E Milsap,,Fayetteville,AR,72703,United States,478-521-0077,36.1141167,-94.149380,,,0
,18169,577 E. Millsap  #3,,Fayetteville,AR,72703,United States,,36.1141167,-94.149380,,,0
,18170,"13098 George Weber Drive, Suite 300",,Rogers,MN,55374,United States,646-583-1963,45.1927312,-93.538703,,,0
,18171,4096 Glencoe Avenue,,Marina del Rey,CA,90292,United States,,33.9898121,-118.44254,,,0
,18172,"970 Hays Mill Rd, Building 200",,Carrollton,GA,30117,United States,678-664-0610,33.554147,-85.09012,,,0
,18173,3426  NE 45th Ave.,,Portland,OR,97213,United States,,45.547939,-122.61641,,,0
,18174,1486 Buena Vista Drive,,Orlando,FL,32830,United States,,28.370279,-81.522097,,,0
,18175,2321 W. 95th St.,,Chicago,IL,60643,United States,,41.7206917,-87.680659,,,0
,18176,7225 S. Stony Island Ave.,,Chicago,IL,60649,United States,,41.7633912,-87.585473,,,0
,18177,100  Plaza Real S. Suite E,,Boca Raton,FL,33432,United States,561-392-7676,26.3480699,-80.084669,,,0
,18178,1921 Walnut Street,,Philadelphia,PA,19103,United States,267-239-5488,39.9506736,-75.173364,,,0
,18179,7986 East Coast Highway,,Newport Coast,CA,92657,United States,949-706-1071,33.5685275,-117.83292,,,0
,18180,401 Newport Center Drive,,Newport Beach,CA,92660,United States,,33.615841,-117.87454,,,0
,18181,"1111 Metropolitan Ave, Suite 150",,Charlotte,NC,28204,United States,,35.21244,-80.835393,,,0
,18182,"1100-F Metropolitan Ave, unit #415",,Charlotte,NC,28204,United States,,35.2128207,-80.835897,,,0
,18183,"1298  Prospect Street, Suite 1B",,La Jolla,CA,92037,United States,858-412-4151,32.8489451,-117.27085,,,0
,18184,931 W Lancaster Avenue,,Bryn Mawr,PA,19010,United States,6105200222,40.0232577,-75.321991,,,0
,18185,3800 A East Coast Hwy Ste B,,Corona del Mar,CA,92625,United States,9497293900,33.593892,-117.86658,,,0
,18186,18215 9th St E #105,,Lake Tapps,WA,98391,United States,,47.2511291,-122.18650,,,0
,18187,505 S. Main Street,,Breckenridge,CO,80424,United States,,39.4767551,-106.04574,,,0
,18188,137 E. Atlantic Avenue,,Delray Beach,FL,33444,United States,5612762330,26.4618172,-80.071160,,,0
,18189,6801 Northlake Mall Drive Unit 198,,Charlotte,NC,28216,United States,,35.3521388,-80.851223,,,0
,18190,6592  Woodway Dr,,Huston,TX,77057,United States,,29.7548572,-95.500787,,,0
,18191,4677 Hollywood Blvd,,Hollywood,CA,90027,United States,9496500479,34.1004009,-118.29049,,,0
,18192,"183  Harry S. Truman Parkway, Suite 108",,Annapolis,MD,21401,United States,,38.9776654,-76.561305,,,0
,18193,"255  Seminole Rd, Suite 103",,Muskegon,MI,49444,United States,231-750-1129,43.1888326,-86.250605,,,0
,18194,8811 Ladie Road Ste # B,,St. Louis,MO,63124,United States,,38.653844,-90.350049,,,0
,18195,24 Kane Street,,West Hartford,CT,06119,United States,,41.751638,-72.716371,,,0
,18196,92 Boston Road,,Orange,CT,06477,United States,,41.2768649,-72.989232,,,0
,18197,387 N. Alafaya Trail,,Orlando,FL,32828,United States,4076580330,28.553504,-81.205573,,,0
,18198,212 3rd Ave N. #105,,Minneapolis,MN,55401,United States,651-600-6006,44.9853302,-93.272033,,,0
,18199,222  Main St.,,LaGrange,GA,30240,United States,,33.0363662,-85.031506,,,0
,18200,"207 Monterey Ave, #100",,Capitola,CA,95010,United States,,36.9731777,-121.95064,,,0
,18201,224 N. Ham Lane #102,,Lodi,CA,95242,United States,209-369-7231,38.1377106,-121.28807,,,0
,18202,"5915 Kavanaugh Blvd, Ste 227",,Little Rock,AR,72207,United States,,34.7700653,-92.340114,,,0
,18203,9100 W Flamingo Road,,Las Vegas,NV,89147,United States,7022055073,36.1152207,-115.29249,,,0
,18204,118  S. Howard Ave,,Tampla,FL,33606,United States,813-758-1272,27.9437964,-82.482799,,,0
,18205,3223  13th Ave S,,Fargo,ND,58103,United States,,46.862138,-96.831520,,,0
,18206,5818 Sunset Drive,,Miami,FL,33143,United States,3056654570,25.7043386,-80.28776,,,0
,18207,75-1022 Henry Street #5,,Kailua Kona,HI,96740,United States,808-990-9844,19.6460285,-155.98835,,,0
,18208,811 North Central Express Way,,Plano,TX,75075,United States,,33.0134918,-96.712982,,,0
,18209,1739 Maybank Hwy Ste E,,Charleston,SC,29412,United States,,32.7619443,-79.976470,,,0
,18210,"4215  W. Anthem Way Ste, #112",,Anthem,AZ,85086,United States,623-465-3223,33.870817,-112.15057,,,0
,18211,"1001 Heavenly Village Way, #13",,South Lake Tahoe,CA,96150,United States,,38.9559113,-119.94315,,,0
,18212,2620 Montgomery Hwy,,Dothan,AL,36303,United States,3347935593,31.2450981,-85.419465,,,0
,18213,765  Woodlake Rd,,Kohler,WI,53044,United States,9204586645,43.7438583,-87.782803,,,0
,18214,900 Ocean Dr.,,Miami Beach,FL,33139,United States,,25.7794108,-80.131170,,,0
,18215,1659 Collins Ave,,Miami Beach,FL,33139,United States,,25.7911233,-80.129774,,,0
,18216,11280 East Taylor Rd. Suite C,,Gulfport,MS,39503,United States,2284352665,30.413488,-89.02701,,,0
,18217,8029 Parkway Dr.,,Leeds,AL,35094,United States,205-868-1616,33.5436269,-86.542762,,,0
,18218,577 E. Millsap #3,,Fayetteville,AR,72703,United States,,36.1141167,-94.149380,,,0
,18219,13  S. Hight St,,Dublin,OH,43017,United States,,40.0992017,-83.113899,,,0
,18220,1285  Grandview Avenue,,Columbus,OH,43212,United States,,39.9839827,-83.045193,,,0
,18221,"1145 Chesapeake Ave, Unit J",,Columbus,OH,43212,United States,,39.992103,-83.037348,,,0
,18222,4353 Main Street,,Philadelphia,PA,19127,United States,315-406-1061,40.0257549,-75.223741,,,0
,18223,83 Fortune Dr,,Irvine,CA,92618,United States,7148653309,33.6272014,-117.70801,,,0
,18224,5265 Hwy 311,,Houma,LA,70360,United States,9859170134,29.594438,-90.750015,,,0
,18225,4651 Woodstock Road,,Roswell,GA,30075,United States,678-457-7128,34.0614669,-84.422197,,,0
,18226,206 Coolsprings Blvd.,,Franklin,TN,37067,United States,6157143278,35.9400047,-86.833987,,,0
,18227,73520 El Paseo,,Palm Desert,CA,92260,United States,,33.7200652,-116.38252,,,0
,18228,7250 SW 57 Avenue,,S. Miami,FL,33143,United States,,25.7036523,-80.285644,,,0
,18229,501  W. Walnut Street,,Celina,TX,75009,United States,,33.3246899,-96.788884,,,0
,18230,14440  Pierson Rd.,,Wellington,FL,33414,United States,,26.6367719,-80.277132,,,0
,18231,2971 Vermont Rt. 7,,East Dorset,VT,05253,United States,3025840041,43.2530825,-73.007314,,,0
,18232,11751 Gateway West Blvd,,El Paso,TX,79936,United States,9155330113,31.7305269,-106.31223,,,0
,18233,222 Main Street,,Chico,CA,95926,United States,5417542444,39.7298722,-121.84020,,,0
,18234,"2001 Nw Monroe Street, #104",,Corvallis,OR,97333,United States,5417542444,44.5683605,-123.27546,,,0
,18235,351 West Broadway,,New York,NY,10013,United States,2122748594,40.7227736,-74.003078,,,0
,18236,7277 East Camelback Road,,Scottsdale,AZ,85251,United States,,33.501547,-111.92414,,,0
,18237,188 14th Street Ne,,Atlanta,GA,30361,United States,,33.7870497,-84.381506,,,0
,18238,7021 Executive Center Dr.,,Brentwood,TN,37027,United States,615-585-7761,36.0296227,-86.789482,,,0
,18239,138 B. South Ridge St.,,Rye Brook,NY,10573,United States,9178879133,41.0029259,-73.681260,,,0
