store_name,store_number,address,address2,city,state,zip_code,country,phone_number,latitude,longitude,store_hours,other_fields,coming_soon
Flower Mound,,6050 Long Prairie Road,,Flower Mound,TX,75028,United States,972-691-4900,33.0679619,-97.0800571,Mon: 11:00 am - 9:00 pm;Tues: 11:00 am - 9:00 pm; Wed: 11:00 am - 9:00 pm;Thurs: 11:00 am - 9:00 pm;Fri: 11:00 am - 10:00 pm;Sat: 11:00 am - 10:00 pm;Sun: 11:00 am - 9:00 pm,,0
Kingsport,,1700 N. Eastman Road,,Kingsport,TN,37660,United States,423-247-5646,36.5400078,-82.5243758,Mon: 11:00 am - 10:00 pm;Tues: 11:00 am - 10:00 pm; Wed: 11:00 am - 10:00 pm;Thurs: 11:00 am - 10:00 pm;Fri: 11:00 am - 11:00 pm;Sat: 11:00 am - 11:00 pm;Sun: 11:00 am - 9:00 pm,,0
Johnson City,,2111 North Roan Street,,Johnson City,TN,37601,United States,423-477-4992,36.3415382,-82.3768839,Mon: 11:00 am - 10:00 pm;Tues: 11:00 am - 10:00 pm; Wed: 11:00 am - 10:00 pm;Thurs: 11:00 am - 10:00 pm;Fri: 11:00 am - 11:00 pm;Sat: 11:00 am - 11:00 pm;Sun: 11:00 am - 9:00 pm,,0
Bristol,,408 Pinnacle Pkwy,,Bristol,TN,37620,United States,423-573-2002,36.5909637,-82.2644839,Mon: 11:00 am - 9:00 pm;Tues: 11:00 am - 9:00 pm; Wed: 11:00 am - 9:00 pm;Thurs: 11:00 am - 9:00 pm;Fri: 11:00 am - 10:00 pm;Sat: 11:00 am - 10:00 pm;Sun: 11:00 am - 9:00 pm,,0
Mooresville,,129 Gateway Blvd,,Mooresville,NC,28117,United States,704-799-9261,35.555307,-80.856636,Mon: 11:00 am - 10:00 pm;Tues: 11:00 am - 10:00 pm; Wed: 11:00 am - 10:00 pm;Thurs: 11:00 am - 10:00 pm;Fri: 11:00 am - 10:00 pm;Sat: 11:00 am - 10:00 pm;Sun: 11:00 am - 9:00 pm,,0
Concord,,9900 Poplar Tent Rd.,,Concord,NC,28027,United States,704-788-3888,35.4188597,-80.742848,Mon: 11:00 am - 10:00 pm;Tues: 11:00 am - 10:00 pm; Wed: 11:00 am - 10:00 pm;Thurs: 11:00 am - 10:00 pm;Fri: 11:00 am - 10:00 pm;Sat: 11:00 am - 10:00 pm;Sun: 11:00 am - 9:00 pm,,0
Louisville,,10600 Meeting Street,,Louisville,KY,40059,United States,502-749-8400,38.322965,-85.565822,Mon: 11:00 am - 9:00 pm;Tues: 11:00 am - 9:00 pm; Wed: 11:00 am - 9:00 pm;Thurs: 11:00 am - 9:00 pm;Fri: 11:00 am - 10:00 pm;Sat: 11:00 am - 10:00 pm;Sun: 12:00 pm - 9:00 pm,,0
Dawsonville,,355 Quill Drive,,Dawsonville,GA,30534,United States,706-216-1224,34.3488508,-84.0475668,Mon: 11:00 am - 10:00 pm;Tues: 11:00 am - 10:00 pm; Wed: 11:00 am - 10:00 pm;Thurs: 11:00 am - 10:00 pm;Fri: 11:00 am - 11:00 pm;Sat: 11:00 am - 11:00 pm;Sun: 11:00 am - 10:00 pm,,0
Dallas,,49 Hosiery Mill Road,,Dallas,GA,30157,United States,770-445-9500,33.9559006,-84.7871183,Mon: 11:00 am - 10:00 pm;Tues: 11:00 am - 10:00 pm; Wed: 11:00 am - 10:00 pm;Thurs: 11:00 am - 10:00 pm;Fri: 11:00 am - 10:00 pm;Sat: 11:00 am - 10:00 pm;Sun: 12:00 pm - 9:00 pm,,0
Dacula,,720 Dacula Road,,Dacula,GA,30019,United States,678-377-2434,34.0030708,-83.9129881,Mon: 11:00 am - 10:00 pm;Tues: 11:00 am - 10:00 pm; Wed: 11:00 am - 10:00 pm;Thurs: 11:00 am - 10:00 pm;Fri: 11:00 am - 11:00 pm;Sat: 11:00 am - 11:00 pm;Sun: 11:00 am - 10:00 pm,,0
Cumming,,3490 Keith Bridge Road,,Cumming,GA,30041,United States,678-947-4260,34.2597204,-84.0712063,Mon: 11:00 am - 10:00 pm;Tues: 11:00 am - 10:00 pm; Wed: 11:00 am - 10:00 pm;Thurs: 11:00 am - 10:00 pm;Fri: 11:00 am - 11:00 pm;Sat: 11:00 am - 11:00 pm;Sun: 11:00 am - 10:00 pm,,0
Covington,,10176 Carlin Dr.,,Covington,GA,30014,United States,678-342-4343,33.5712759,-83.851972,Mon: 11:00 am - 9:00 pm;Tues: 11:00 am - 9:00 pm; Wed: 11:00 am - 9:00 pm;Thurs: 11:00 am - 9:00 pm;Fri: 11:00 am - 10:00 pm;Sat: 11:00 am - 10:00 pm;Sun: 12:00 pm - 9:00 pm,,0
Conyers,,2455 Salem Road,,Conyers,GA,30013,United States,770-922-1000,33.6225226,-83.9768958,Mon: 11:00 am - 10:00 pm;Tues: 11:00 am - 10:00 pm; Wed: 11:00 am - 10:00 pm;Thurs: 11:00 am - 10:00 pm;Fri: 11:00 am - 11:00 pm;Sat: 11:00 am - 11:00 pm;Sun: 12:00 pm - 9:00 pm,,0
Woodstock,,1105 Parkside Lane,,Woodstock,GA,30189,United States,770-928-9494,34.107712,-84.553184,Mon: 11:00 am - 10:00 pm;Tues: 11:00 am - 10:00 pm; Wed: 11:00 am - 10:00 pm;Thurs: 11:00 am - 10:00 pm;Fri: 11:00 am - 11:00 pm;Sat: 11:00 am - 10:00 pm;Sun: 11:30 am - 9:30 pm,,0
Trinity,,10730 SR 54,,Trinity,FL,34655,United States,727-376-1000,28.1919051,-82.6363374,Mon: 11:00 am - 9:00 pm;Tues: 11:00 am - 9:00 pm; Wed: 11:00 am - 9:00 pm;Thurs: 11:00 am - 9:00 pm;Fri: 11:00 am - 10:00 pm;Sat: 11:00 am - 10:00 pm;Sun: 11:00 am - 9:00 pm,,0
Bentonville,,700 SE Walton Blvd,,Bentonville,AR,72712,United States,479-268-6748,36.3349022,-94.2028344,Mon: 10:30 am - 9:00 pm;Tues: 10:30 am - 9:00 pm; Wed: 10:30 am - 9:00 pm;Thurs: 10:30 am - 9:00 pm;Fri: 10:30 am - 10:00 pm;Sat: 11:00 am - 10:00 pm;Sun: 11:00 am - 9:00 pm,,0
Vestavia Hills,,2516 Rocky Ridge Road,,Vestavia Hills,AL,35243,United States,205-637-5270,33.424992,-86.773518,Mon: 11:00 am - 9:00 pm;Tues: 11:00 am - 9:00 pm; Wed: 11:00 am - 9:00 pm;Thurs: 11:00 am - 9:00 pm;Fri: 11:00 am - 10:00 pm;Sat: 11:00 am - 10:00 pm;Sun: 11:00 am - 9:00 pm,,0
Jasper,,1705 Hwy. 78 East,,Jasper,AL,35501,United States,205-221-9700,33.845275071507345,-87.2552620168579,Mon: 11:00 am - 9:00 pm;Tues: 11:00 am - 9:00 pm; Wed: 11:00 am - 9:00 pm;Thurs: 11:00 am - 9:00 pm;Fri: 11:00 am - 9:00 pm;Sat: 11:00 am - 9:00 pm;Sun: 11:00 am - 4:00 pm,,0
Hoover,,2341 John Hawkins Parkway,,Hoover,AL,35244,United States,205-982-8985,33.3532458,-86.8639758,Mon: 11:00 am - 9:00 pm;Tues: 11:00 am - 9:00 pm; Wed: 11:00 am - 9:00 pm;Thurs: 11:00 am - 9:00 pm;Fri: 11:00 am - 10:00 pm;Sat: 11:00 am - 10:00 pm;Sun: 10:45 am - 9:00 pm,,0
Auburn &#8211; University Dr,,2408 E University Dr,,Auburn,AL,36830,United States,334-826-0055,32.6293896,-85.4623931,Mon: 11:00 am - 10:00 pm;Tues: 11:00 am - 10:00 pm; Wed: 11:00 am - 10:00 pm;Thurs: 11:00 am - 10:00 pm;Fri: 11:00 am - 10:00 pm;Sat: 11:00 am - 10:00 pm;Sun: 11:00 am - 10:00 pm,,0
Auburn,,2415 Moores Mill Rd.,,Auburn,AL,36830,United States,334-826-0545,32.585318,-85.4370006,Mon: 11:00 am - 10:00 pm;Tues: 11:00 am - 10:00 pm; Wed: 11:00 am - 10:00 pm;Thurs: 11:00 am - 10:00 pm;Fri: 11:00 am - 10:00 pm;Sat: 11:00 am - 10:00 pm;Sun: 11:00 am - 9:00 pm,,0
West Point,,712 3rd Avenue,,West Point,GA,31833,United States,706-645-2010,32.8765493,-85.1840896,Mon: 11:00 am - 9:00 pm;Tues: 11:00 am - 9:00 pm; Wed: 11:00 am - 9:00 pm;Thurs: 11:00 am - 10:00 pm;Fri: 11:00 am - 10:00 pm;Sat: 11:00 am - 10:00 pm;Sun: Closed,,0
Villa Rica,,2000 Mirror Lake Boulevard,,Villa Rica,GA,30180,United States,678-840-5111,33.73365,-84.8990309,Mon: 11:00 am - 10:00 pm;Tues: 11:00 am - 10:00 pm; Wed: 11:00 am - 10:00 pm;Thurs: 11:00 am - 10:00 pm;Fri: 11:00 am - 10:00 pm;Sat: 12:00 pm - 10:00 pm;Sun: 12:00 pm - 10:00 pm,,0
Suwanee,,1145 A Peachtree Industrial Blvd,,Suwanee,GA,30024,United States,770-932-1998,34.0467229,-84.0949186,Mon: 11:00 am - 10:00 pm;Tues: 11:00 am - 10:00 pm; Wed: 11:00 am - 10:00 pm;Thurs: 11:00 am - 10:00 pm;Fri: 11:00 am - 11:00 pm;Sat: 11:00 am - 11:00 pm;Sun: 11:00 am - 10:00 pm,,0
Stockbridge,,608 Eagles Landing Parkway,,Stockbridge,GA,30281,United States,678-289-1449,33.5139127,-84.2133701,Mon: 11:00 am - 9:00 pm;Tues: 11:00 am - 9:00 pm; Wed: 11:00 am - 9:00 pm;Thurs: 11:00 am - 9:00 pm;Fri: 11:00 am - 10:00 pm;Sat: 11:00 am - 10:00 pm;Sun: 12:00 pm - 9:00 pm,,0
Snellville,,3035 Centerville Hwy,,Snellville,GA,30078,United States,770-978-8180,33.8247678,-84.033041,Mon: 11:00 am - 9:30 pm;Tues: 11:00 am - 9:30 pm; Wed: 11:00 am - 9:30 pm;Thurs: 11:00 am - 9:30 pm;Fri: 11:00 am - 10:00 pm;Sat: 11:00 am - 10:00 pm;Sun: 12:00 pm - 9:30 pm,,0
Smyrna,,1435 Highlands Ridge Road,,Smyrna,GA,30082,United States,770-431-0600,33.8401809,-84.518988,Mon: 11:00 am - 9:00 pm;Tues: 11:00 am - 10:00 pm; Wed: 11:00 am - 10:00 pm;Thurs: 11:00 am - 10:00 pm;Fri: 11:00 am - 10:00 pm;Sat: 11:00 am - 10:00 pm;Sun: 12:00 pm - 9:00 pm,,0
Sandy Springs (Morgan Falls),,7887A Roswell Road,,Sandy Springs,GA,30350,United States,770-804-3322,33.9726263,-84.3573784,Mon: 11:00 am - 10:00 pm;Tues: 11:00 am - 10:00 pm; Wed: 11:00 am - 10:00 pm;Thurs: 11:00 am - 10:00 pm;Fri: 11:00 am - 11:00 pm;Sat: 11:00 am - 11:00 pm;Sun: 12:00 pm - 10:00 pm,,0
Roswell,,550 W Crossville Rd,,Roswell,Ga,30075,United States,678-878-4242,34.055349,-84.3783486,Mon: 11:00 am - 10:00 pm;Tues: 11:00 am - 10:00 pm; Wed: 11:00 am - 10:00 pm;Thurs: 11:00 am - 10:00 pm;Fri: 11:00 am - 10:00 pm;Sat: 11:00 am - 10:00 pm;Sun: 11:00 am - 9:00 pm,,0
Rome,,233 Broad Street,,Rome,GA,30161,United States,706-232-6555,34.2533821,-85.1737377,Mon: 11:00 am - 9:00 pm;Tues: 11:00 am - 9:00 pm; Wed: 11:00 am - 9:00 pm;Thurs: 11:00 am - 9:00 pm;Fri: 11:00 am - 10:00 pm;Sat: 11:00 am - 10:00 pm;Sun: 11:00 am - 8:00 pm,,0
Rockmart,,1735 Nathan Dean Bypass,,Rockmart,GA,30153,United States,770-684-7700,34.0107133,-85.043005,Mon: 11:00 am - 9:00 pm;Tues: 11:00 am - 9:00 pm; Wed: 11:00 am - 9:00 pm;Thurs: 11:00 am - 9:00 pm;Fri: 11:00 am - 10:00 pm;Sat: 11:00 am - 10:00 pm;Sun: 12:00 pm - 9:00 pm,,0
Powder Springs,,1050 Richard D. Sailors Pkwy,,Powder Springs,GA,30127,United States,678-483-6186,33.8647851,-84.6801042,Mon: 11:00 am - 9:00 pm;Tues: 11:00 am - 9:00 pm; Wed: 11:00 am - 9:00 pm;Thurs: 11:00 am - 9:00 pm;Fri: 11:00 am - 10:00 pm;Sat: 11:00 am - 10:00 pm;Sun: 11:00 am - 9:00 pm,,0
Peachtree City,,494 Crosstown Drive,,Peachtree City,GA,30269,United States,770-486-5480,33.3774499,-84.5608572,Mon: 11:00 am - 10:00 pm;Tues: 11:00 am - 10:00 pm; Wed: 11:00 am - 10:00 pm;Thurs: 11:00 am - 10:00 pm;Fri: 11:00 am - 10:00 pm;Sat: 11:00 am - 10:00 pm;Sun: 12:00 pm - 9:00 pm,,0
Newnan,,1111 Lower Fayetteville Road,,Newnan,GA,30265,United States,770-252-3495,33.3743686,-84.7523726,Mon: 11:00 am - 10:00 pm;Tues: 11:00 am - 10:00 pm; Wed: 11:00 am - 10:00 pm;Thurs: 11:00 am - 10:00 pm;Fri: 11:00 am - 10:00 pm;Sat: 11:00 am - 10:00 pm;Sun: 12:00 am - 9:00 pm,,0
McDonough,,24 Old Jackson Road,,McDonough,GA,30253,United States,770-954-4225,33.4281222,-84.0976954,Mon: 11:00 am - 9:30 pm;Tues: 11:00 am - 9:30 pm; Wed: 11:00 am - 9:30 pm;Thurs: 11:00 am - 9:30 pm;Fri: 11:00 am - 10:30 pm;Sat: 11:00 am - 10:30 pm;Sun: 12:00 pm - 8:00 pm,,0
Marietta-Lower Roswell Road,,4880 Lower Roswell Road,,Marietta,GA,30068,United States,678-560-2228,33.9658153,-84.4102137,Mon: 11:00 am - 9:00 pm;Tues: 11:00 am - 9:00 pm; Wed: 11:00 am - 9:00 pm;Thurs: 11:00 am - 9:00 pm;Fri: 11:00 am - 10:00 pm;Sat: 11:00 am - 10:00 pm;Sun: 11:30 am - 8:30 pm,,0
Marietta-Dallas Hwy,,3718 Dallas Highway,,Marietta,GA,30064,United States,770-425-8333,33.9535713,-84.6609823,Mon: 11:00 am - 10:00 pm;Tues: 11:00 am - 10:00 pm; Wed: 11:00 am - 10:00 pm;Thurs: 11:00 am - 10:00 pm;Fri: 11:00 am - 11:00 pm;Sat: 11:00 am - 11:00 pm;Sun: 11:00 am - 10:00 pm,,0
Marietta-Canton Road,,2970 Canton Rd,,Marietta,GA,30066,United States,678-797-0505,34.0230657,-84.5273976,Mon: 11:00 am - 9:00 pm;Tues: 11:00 am - 9:00 pm; Wed: 11:00 am - 9:00 pm;Thurs: 11:00 am - 9:00 pm;Fri: 11:00 am - 10:00 pm;Sat: 11:00 am - 9:00 pm;Sun: 11:00 am - 9:00 pm,,0
Macon,,6255 Zebulon Road,,Macon,GA,31210,United States,478-405-3232,32.8825979,-83.7662254,Mon: 11:00 am - 9:00 pm;Tues: 11:00 am - 9:00 pm; Wed: 11:00 am - 9:00 pm;Thurs: 11:00 am - 9:00 pm;Fri: 11:00 am - 9:00 pm;Sat: 11:00 am - 10:00 pm;Sun: 11:00 am - 9:00 pm,,0
Loganville,,4132 Atlanta Hwy (Hwy 78),,Loganville,GA,30052,United States,678-691-8505,33.8389977,-83.9007382,Mon: 11:00 am - 9:00 pm;Tues: 11:00 am - 9:00 pm; Wed: 11:00 am - 9:00 pm;Thurs: 11:00 am - 9:00 pm;Fri: 11:00 am - 10:00 pm;Sat: 11:00 am - 10:00 pm;Sun: 11:00 am - 9:00 pm,,0
Lithia Springs,,230 Thornton Road,,Lithia Springs,GA,30122,United States,770-745-5555,33.79474,-84.635152,Mon: 11:00 am - 9:00 pm;Tues: 11:00 am - 9:00 pm; Wed: 11:00 am - 9:00 pm;Thurs: 11:00 am - 9:00 pm;Fri: 11:00 am - 10:30 pm;Sat: 11:00 am - 10:30 pm;Sun: 11:00 am - 9:00 pm,,0
Lawrenceville,,3157 Sugarloaf Parkway,,Lawrenceville,GA,30045,United States,678-985-8288,33.9211804,-84.0103286,Mon: 11:00 am - 9:00 pm;Tues: 11:00 am - 10:00 pm; Wed: 11:00 am - 10:00 pm;Thurs: 11:00 am - 10:00 pm;Fri: 11:00 am - 10:00 pm;Sat: 11:00 am - 10:00 pm;Sun: 11:00 am - 9:00 pm,,0
LaGrange,,1506 LaFayette Pkwy,,LaGrange,Ga,30241,United States,,33.0419897,-84.9804067,Mon: 11:00 am - 9:00 pm;Tues: 11:00 am - 9:00 pm; Wed: 11:00 am - 9:00 pm;Thurs: 11:00 am - 9:00 pm;Fri: 11:00 am - 10:00 pm;Sat: 11:00 am - 10:00 pm;Sun: 11:00 am - 9:00 pm,,0
Kennesaw-Old Hwy 41,,1635 Old Hwy 41,,Kennesaw,GA,30152,United States,678-996-0911,33.9939053,-84.5994612,Mon: 11:00 am - 10:00 pm;Tues: 11:00 am - 10:00 pm; Wed: 11:00 am - 10:00 pm;Thurs: 11:00 am - 10:00 pm;Fri: 11:00 am - 11:00 pm;Sat: 12:00 pm - 10:00 pm;Sun: 12:00 pm - 10:00 pm,,0
Kennesaw,,3940 Cherokee St.,,Kennesaw,GA,30144,United States,678-355-0825,34.0487126,-84.5967447,Mon: 11:00 am - 10:00 pm;Tues: 11:00 am - 10:00 pm; Wed: 11:00 am - 10:00 pm;Thurs: 11:00 am - 10:00 pm;Fri: 11:00 am - 10:00 pm;Sat: 11:00 am - 10:00 pm;Sun: 11:00 am - 9:00 pm,,0
Jasper,,744 Noah Drive,,Jasper,Ga,30143,United States,706-253-0800,34.469918,-84.458258,Mon: 11:00 am - 9:00 pm;Tues: 11:00 am - 9:00 pm; Wed: 11:00 am - 10:00 pm;Thurs: 11:00 am - 10:00 pm;Fri: 11:00 am - 10:00 pm;Sat: 11:00 am - 10:00 pm;Sun: 12:00 pm - 9:00 pm,,0
Hiram,,5140 Jimmy Lee Smith Parkway,,Hiram,GA,30141,United States,770-439-0109,33.8873013,-84.74373,Mon: 11:00 am - 9:00 pm;Tues: 11:00 am - 9:00 pm; Wed: 11:00 am - 9:00 pm;Thurs: 11:00 am - 9:00 pm;Fri: 11:00 am - 10:00 pm;Sat: 11:00 am - 10:00 pm;Sun: 11:00 am - 9:00 pm,,0
Hickory Flat,,6124 Hickory Flat Hwy,,Hickory Flat,GA,30115,United States,770-704-6776,34.1755253,-84.419161,Mon: 11:00 am - 10:00 pm;Tues: 11:00 am - 10:00 pm; Wed: 11:00 am - 10:00 pm;Thurs: 11:00 am - 10:00 pm;Fri: 11:00 am - 10:00 pm;Sat: 11:00 am - 10:00 pm;Sun: 11:00 am - 9:00 pm,,0
Hapeville,,834 Virginia Avenue,,Hapeville,GA,30354,United States,404-766-3727,33.6588032,-84.4161062,Mon: 11:00 am - 9:00 pm;Tues: 11:00 am - 10:00 pm; Wed: 11:00 am - 10:00 pm;Thurs: 11:00 am - 10:00 pm;Fri: 11:00 am - 10:00 pm;Sat: 11:00 am - 10:00 pm;Sun: 4:00 pm - 9:00 pm,,0
Grayson,,2023 Grayson Hwy,,Grayson,GA,30017,United States,770-962-9181,33.8955149,-83.9585355,Mon: 11:00 am - 10:00 pm;Tues: 11:00 am - 10:00 pm; Wed: 11:00 am - 10:00 pm;Thurs: 11:00 am - 10:00 pm;Fri: 11:00 am - 10:00 pm;Sat: 11:00 am - 10:00 pm;Sun: 11:00 am - 10:00 pm,,0
Flowery Branch,,7363 Spout Spring Road,,Flowery Branch,GA,30542,United States,770-965-0429,34.1109644,-83.8742145,Mon: 11:00 am - 10:00 pm;Tues: 11:00 am - 10:00 pm; Wed: 11:00 am - 10:00 pm;Thurs: 11:00 am - 10:00 pm;Fri: 11:00 am - 10:00 pm;Sat: 11:00 am - 10:00 pm;Sun: 11:00 am - 10:00 pm,,0
Fayetteville,,230 North Glynn Street,,Fayetteville,GA,30214,United States,770-461-4225,33.4519698,-84.4556412,Mon: 11:00 am - 9:00 pm;Tues: 11:00 am - 9:00 pm; Wed: 11:00 am - 9:00 pm;Thurs: 11:00 am - 9:00 pm;Fri: 11:00 am - 10:00 pm;Sat: 11:00 am - 10:00 pm;Sun: 4:00 pm - 9:00 pm,,0
Dublin,,2301 Bellevue Road,,Dublin,GA,31021,United States,478-272-8966,32.5297851,-82.9426977,Mon: 11:00 am - 9:00 am;Tues: 11:00 am - 9:00 pm; Wed: 11:00 am - 9:00 pm;Thurs: 11:00 am - 9:00 pm;Fri: 11:00 am - 9:00 pm;Sat: 11:00 am - 9:00 pm;Sun: 11:30 am - 9:00 pm,,0
Douglasville,,2911 Chapel Hill Road Suite 255,,Douglasville,GA,30135,United States,678-214-8486,33.7261684,-84.7366386,Mon: 11:00 am - 10:00 pm;Tues: 11:00 am - 10:00 pm; Wed: 11:00 am - 10:00 pm;Thurs: 11:00 am - 10:00 pm;Fri: 11:00 am - 12:00 am;Sat: 11:00 am - 12:00 am;Sun: 11:00 am - 10:30 pm,,0
Douglas,,216 North Madison Ave,,Douglas,GA,31533,United States,912-393-1223,31.5106832,-82.8491943,Mon: 11:00 am - 9:00 pm;Tues: 11:00 am - 9:00 pm; Wed: 11:00 am - 9:00 pm;Thurs: 11:00 am - 9:00 pm;Fri: 11:00 am - 10:00 pm;Sat: 11:00 am - 10:00 pm;Sun: Closed,,0
Columbus,,6770 Veterans Parkway,,Columbus,GA,31909,United States,706-507-5050,32.5430294,-84.9516327,Mon: 11:00 am - 9:00 pm;Tues: 11:00 am - 9:00 pm; Wed: 11:00 am - 9:00 pm;Thurs: 11:00 am - 9:00 pm;Fri: 11:00 am - 10:00 pm;Sat: 11:00 am - 10:00 pm;Sun: 12:00 pm - 8:00 pm,,0
Cartersville,,244 Dixie Ave,,Cartersville,GA,30120,United States,678-721-0520,34.1736616,-84.7877822,Mon: 11:00 am - 9:30 pm;Tues: 11:00 am - 9:30 pm; Wed: 11:00 am - 9:30 pm;Thurs: 11:00 am - 9:30 pm;Fri: 11:00 am - 10:00 pm;Sat: 11:00 am - 10:00 pm;Sun: 12:00 pm - 9:00 pm,,0
Carrollton,,1670 US Hwy 27 S,,Carrollton,GA,30117,United States,770-830-5955,33.5367121,-85.0746154,Mon: 11:00 am - 9:00 pm;Tues: 11:00 am - 9:00 pm; Wed: 11:00 am - 9:00 pm;Thurs: 11:00 am - 9:00 pm;Fri: 11:00 am - 10:00 pm;Sat: 11:00 am - 10:00 pm;Sun: 11:00 am - 9:00 pm,,0
Canton,,559 Riverstone Parkway,,Canton,GA,30114,United States,770-345-7131,34.2454829,-84.4849272,Mon: 11:00 am - 9:00 pm;Tues: 11:00 am - 9:00 pm; Wed: 11:00 am - 9:00 pm;Thurs: 11:00 am - 9:00 pm;Fri: 11:00 am - 10:00 pm;Sat: 11:00 am - 10:00 pm;Sun: 12:00 pm - 9:00 pm,,0
Bonaire,,778 Hwy 96,,Bonaire,GA,31005,United States,478-988-0220,32.552757,-83.6604681,Mon: 11:00 am - 9:00 pm;Tues: 11:00 am - 9:00 pm; Wed: 11:00 am - 9:00 pm;Thurs: 11:00 am - 9:00 pm;Fri: 11:00 am - 10:00 pm;Sat: 11:00 am - 10:00 pm;Sun: 11:00 am - 9:00 pm,,0
Atlanta-Cheshire Bridge,,1810 Cheshire Bridge Road,,Atlanta,GA,30324,United States,404-874-8304,33.8091211,-84.3635723,Mon: 11:00 am - 11:00 pm;Tues: 11:00 am - 11:00 pm; Wed: 11:00 am - 11:00 pm;Thurs: 11:00 am - 11:00 pm;Fri: 11:00 am - 11:00 pm;Sat: 11:00 am - 11:00 pm;Sun: 4:00 pm - 10:00 pm,,0
Atlanta-Chattahoochee Ave,,1465 Chattahoochee Ave Ste 850,,Atlanta,GA,30318,United States,404-603-8043,33.8075962,-84.4343408,Mon: 11:00 am - 10:00 pm;Tues: 11:00 am - 10:00 pm; Wed: 11:00 am - 10:00 pm;Thurs: 11:00 am - 10:00 pm;Fri: 11:00 am - 10:00 pm;Sat: 11:00 am - 10:00 pm;Sun: 12:00 pm - 9:00 pm,,0
Atlanta-Cascade Road,,5495 Cascade Road SW,,Atlanta,GA,30331,United States,678-973-0634,33.73166047963664,-84.56698252019044,Mon: 11:00 am - 9:00 pm;Tues: 11:00 am - 9:00 pm; Wed: 11:00 am - 9:00 pm;Thurs: 11:00 am - 9:00 pm;Fri: 11:00 am - 10:00 pm;Sat: 11:00 am - 10:00 pm;Sun: Closed,,0
Athens,,1040 Gaines School Road,,Athens,GA,30605,United States,706-354-1515,33.9282022,-83.33853,Mon: 11:00 am - 10:00 pm;Tues: 11:00 am - 10:00 pm; Wed: 11:00 am - 10:00 pm;Thurs: 11:00 am - 11:00 pm;Fri: 11:00 am - 11:00 pm;Sat: 11:00 am - 11:00 pm;Sun: 11:00 am - 11:00 pm,,0
Alpharetta @ Sargent Rd,,11875 Jones Bridge Rd,,Alpharetta,Ga,30005,United States,770-777-8000,34.0699643,-84.20449,Mon: 11:00 am - 9:00 pm;Tues: 11:00 am - 9:00 pm; Wed: 11:00 am - 9:00 pm;Thurs: 11:00 am - 9:00 pm;Fri: 11:00 am - 9:00 pm;Sat: 11:00 am - 9:00 pm;Sun: 11:00 am - 9:00 pm,,0
Acworth,,3451 Cobb Parkway NW,,Acworth,GA,30101,United States,770-529-5300,34.0379953,-84.6910823,Mon: 11:00 am - 10:00 pm;Tues: 11:00 am - 10:00 pm; Wed: 11:00 am - 10:00 pm;Thurs: 11:00 am - 10:00 pm;Fri: 11:00 am - 11:00 pm;Sat: 11:00 am - 11:00 pm;Sun: 11:00 am - 10:00 pm,,0
