store_name,store_number,address,address2,city,state,zip_code,country,phone_number,latitude,longitude,store_hours,other_fields,coming_soon
Anchorage 5th Avenue Mall,0969,320 W 5th Ave,,Anchorage,AK,99501,,907-929-3803,,,,,
Dimond Center,0921,800 E Dimond Blvd,,Anchorage,AK,99515,,907-677-8727,,,,,
Bentley Mall,0941,32 College Rd,,Fairbanks,AK,99701,,907-374-6992,,,,,
Regency Square Mall Florence AL,0715,301 Cox Creek Pkwy,,Florence,AL,35630-1590,,256-765-3911,,,,,
Auburn Mall Auburn AL,1404,1627 Opelika Rd,,Auburn,AL,36830-2827,,334-821-4329,,,,,
Brookwood Village,1041,723 Brookwood Village,,Birmingham,AL,35209,,205-871-4178,,,,,
Wiregrass Commons Mall,1092,900 Commons Dr,,Dothan,AL,36303-2283,,334-671-8831,,,,,
Parkway Place,1205,2801 Memorial Pkwy SW,,Huntsville,AL,35801,,256-533-3824,,,,,
Riverchase Galleria,1213,2000 Riverchase Galleria,,Hoover,AL,35244,,205-987-2124,,,,,
The Shoppes at Bel Air,0563,3299 Bel Air Mall,,Mobile,AL,36606-3406,,251-473-3983,,,,,
Eastdale Mall,0102,1051 Eastdale Mall,,Montgomery,AL,36117,,334-270-0928,,,,,
University Mall Tuscaloosa AL,0778,1701 McFarland Blvd E,,Tuscaloosa,AL,35404-5824,,205-556-2661,,,,,
Tanger Outlet Center Foley AL,1705,2601 S Mckenzie St,,Foley,AL,36535,,251-971-6347,,,,,
Eastern Shore Centre,0548,30500 State Hwy 181,,Spanish Fort,AL,36527,,251-447-0955,,,,,
Colonial Pinnacle at Tutwiler Farm,1206,5048 Pinnacle Sq,,Birmingham,AL,35235,,205-655-7920,,,,,
Hot Springs Mall,0760,4501 Central Ave,,Hot Springs,AR,71913-7440,,501-520-2339,,,,,
McCain Mall,1119,3929 McCain Blvd,,North Little Rock,AR,72116,,501-812-5730,,,,,
Park Plaza,1290,6000 W Markham St,,Little Rock,AR,72205,,501-663-1260,,,,,
The Mall at Turtle Creek,1405,3000 E Highland Dr,,Jonesboro,AR,72401,,870-336-2676,,,,,
Northwest Arkansas Mall,0722,4201 N Shiloh Dr,,Fayetteville,AR,72703-5197,,479-444-7617,,,,,
Central Mall Fort Smith AR,0732,5111 Rogers Ave,,Fort Smith,AR,72903-2040,,479-484-1565,,,,,
Pinnacle Hills,1864,2203 S Promenade Blvd,,Rogers,AR,72758,,479-621-0654,,,,,
The Pines,0803,2901 Pines Mall Dr,,Pine Bluff,AR,71601-7644,,870-534-3112,,,,,
The Outlets Of Little Rock,0407,11201 Bass Pro Pkwy,,Little Rock,AR,72210,,501-407-0559,,,,,
Paradise Valley Mall,0878,4568 E Cactus Rd,,Phoenix,AZ,85032-7789,,602-765-8669,,,,,
Flagstaff Mall,0936,4650 N US Hwy 89,,Flagstaff,AZ,86004-2457,,928-714-1706,,,,,
Park Place,0939,5870 E Broadway Blvd,,Tucson,AZ,85711-3905,,520-745-5305,,,,,
Scottsdale Fashion Square,1037,7014 E Camelback Rd,,Scottsdale,AZ,85251-1239,,480-994-0597,,,,,
Tucson Mall,1210,4500 N Oracle Rd,,Tucson,AZ,85705-1606,,520-292-1945,,,,,
Chandler Fashion Center,1249,3111 W Chandler Blvd,,Chandler,AZ,85226,,480-899-7311,,,,,
San Tan Village,0574,2200 E Williams Field Rd,,Gilbert,AZ,85295,,480-899-9909,,,,,
Tucson Premium Outlets,0051,6401 W Marana Center Blvd,,Tucson,AZ,85742,,520-572-8911,,,,,
Arrowhead Towne Center,0917,7700 W Arrowhead Towne Center Dr,,Glendale,AZ,85308-8616,,623-878-5151,,,,,
Desert Ridge Marketplace,1025,21001 N Tatum Blvd,,Phoenix,AZ,85050,,480-563-8499,,,,,
Superstition Springs,1029,6555 E Southern Ave,,Mesa,AZ,85206-3728,,480-396-9440,,,,,
Prescott Gateway,1044,3250 Gateway Blvd,,Prescott,AZ,86303,,928-777-8190,,,,,
Metrocenter,1164,9617 N Metro Pkwy W,,Phoenix,AZ,85051-1400,,602-944-9264,,,,,
Arizona Mills,1270,5000 Arizona Mills Cir,,Tempe,AZ,85282,,480-838-1270,,,,,
Christown Spectrum Mall,0537,1644 W Montebello Ave,,Phoenix,AZ,85015-2517,,602-246-8710,,,,,
Yuma Palms Mall,0591,1327 S Yuma Palms Pkwy,,Yuma,AZ,85365,,928-343-9567,,,,,
Tempe Marketplace,1318,2000 E Rio Salado Pkwy,,Tempe,AZ,85281,,480-966-0055,,,,,
Oakridge Mall,0334,925 Blossom Hill Rd,,San Jose,CA,95123,,408-225-8441,,,,,
Newpark Mall,0528,2086 Newpark Mall,,Newark,CA,94560-5247,,510-797-5307,,,,,
Main Place Mall,0533,2800 N Main St,,Santa Ana,CA,92705-6608,,714-667-7915,,,,,
Stonewood Center,0534,159 Stonewood St,,Downey,CA,90241-3904,,562-923-1966,,,,,
Serramonte Center,0573,32B Serramonte Ctr,,Daly City,CA,94015,,650-758-5713,,,,,
The Promenade,0740,40820 Winchester Rd,,Temecula,CA,92591-5539,,951-296-0884,,,,,
Mt Shasta Mall,0818,900 Dana Dr,,Redding,CA,96003,,530-722-9147,,,,,
Lakewood Center,0849,20 Lakewood Center Mall,,Lakewood,CA,90712-2418,,562-529-6243,,,,,
Los Cerritos Center,0973,118 Los Cerritos Mall,,Cerritos,CA,90703-5422,,562-924-4219,,,,,
Plaza Bonita,1038,3030 Plaza Bonita Rd,,National City,CA,91950-8007,,619-267-9316,,,,,
Inland Center,1150,500 Inland Ctr Dr,,San Bernardino,CA,92408,,909-383-7800,,,,,
Northridge Mall,1153,796 Northridge Mall,,Salinas,CA,93906,,831-442-1165,,,,,
Fashion Valley Center,1185,7007 Friars Rd,,San Diego,CA,92108-1282,,619-295-6801,,,,,
Sunrise Mall Citrus Heights CA,1246,6041 Sunrise Mall,,Citrus Heights,CA,95610-6903,,916-967-3227,,,,,
Ontario Mills,1326,1 Mills Cir,,Ontario,CA,91764-5200,,909-987-1977,,,,,
Vintage Faire Mall,1335,3401 Dale Rd,,Modesto,CA,95356-0556,,209-579-9981,,,,,
Chico Mall,1346,1950 E 20th St,,Chico,CA,95928,,530-345-3146,,,,,
Plaza West Covina,1347,448 Plaza Dr,,West Covina,CA,91790-2824,,626-337-1718,,,,,
Galleria at Tyler,1438,2266 Galleria at Tyler,,Riverside,CA,92503-4137,,951-359-4287,,,,,
Galleria at Roseville,1451,1151 Galleria Blvd,,Roseville,CA,95678-1945,,916-788-2997,,,,,
Burbank Town Center,1299,201 E Magnolia Blvd,,Burbank,CA,91501,,818-559-2476,,,,,
Victoria Gardens,1308,12533 N Main St,,Rancho Cucamonga,CA,91739,,909-646-9624,,,,,
The Shops at Tanforan,1884,1150 El Camino Real,,San Bruno,CA,94066,,650-589-4310,,,,,
Shops at Las Americas,1944,4051 Camino De La Plaza,,San Diego,CA,92173,,619-690-5962,,,,,
The Mall at Yuba City,0342,1165 Colusa Ave,,Yuba City,CA,95991,,530-790-0680,,,,,
Westfield Topanga,0479,6600 Topanga Canyon Blvd,,Canoga Park,CA,91303-2615,,818-716-5214,,,,,
Hillsdale Shopping Center,0489,461 Hillsdale Mall,,San Mateo,CA,94403-3410,,650-345-8084,,,,,
Westfield Carlsbad,0509,2525 El Camino Real,,Carlsbad,CA,92008-1206,,760-434-6612,,,,,
Antelope Valley Mall,0513,1233 Rancho Vista Blvd,,Palmdale,CA,93551,,661-266-3238,,,,,
Parkway Plaza,0515,651 Parkway Plaza,,El Cajon,CA,92020-2533,,619-593-9394,,,,,
Westfield Valencia Town Center,0558,24201 W Valencia Blvd,,Valencia,CA,91355,,661-287-4398,,,,,
Westminster Mall,0581,1025 Westminster Mall,,Westminster,CA,92683-4950,,714-892-6749,,,,,
Capitola Mall,0746,1855 41st Ave,,Capitola,CA,95010,,831-462-4462,,,,,
South Coast Plaza,1398,3333 Bristol St,,Costa Mesa,CA,92626-1805,,714-751-2444,,,,,
Sun Valley Mall,0751,1 Sun Valley Mall,,Concord,CA,94520-5806,,925-825-7503,,,,,
Santa Anita Mall,1388,400 S Baldwin Ave,,Arcadia,CA,91007-1908,,626-445-4254,,,,,
Somersville Towne Center,1002,2550 Somersville Rd,,Antioch,CA,94509,,925-778-2372,,,,,
Mall Of Victor Valley,1496,14400 Bear Valley Rd,,Victorville,CA,92392,,760-241-6090,,,,,
Camarillo Outlets,1316,620 E Ventura Blvd,,Camarillo,CA,93010,,805-389-4685,,,,,
San Francisco Premium Outlets,0272,3060 Livermore Outlets Dr,,Livermore,CA,94551,,925-961-9788,,,,,
Desert Hills Premium Outlets,0182,48650 Seminole Dr,,Cabazon,CA,92230,,951-849-6042,,,,,
Brea Mall,0195,1006 Brea Mall,,Brea,CA,92821,,714-529-0110,,,,,
Del Amo Fashion Center,0228,3525 W Carson St,,Torrance,CA,90503,,310-370-7254,,,,,
Valley Plaza Mall,0340,2701 Ming Ave,,Bakersfield,CA,93304-4435,,661-835-5901,,,,,
Santa Rosa Plaza,1089,2037 Santa Rosa Plaza,,Santa Rosa,CA,95401,,707-568-7626,,,,,
Pacific View Mall,1113,3301 E Main St,,Ventura,CA,93003-5076,,805-650-5408,,,,,
Solano Town Center,1115,1350 Travis Blvd,,Fairfield,CA,94533-4646,,707-428-5732,,,,,
The Oaks,0874,210 W Hillcrest DR,,Thousand Oaks,CA,91360,,805-496-0212,,,,,
Prime Outlets at Pismo Beach,0913,333 Five Cities Dr,,Pismo Beach,CA,93449,,805-773-2642,,,,,
Moreno Valley Mall,1017,22500 Town Cir,,Moreno Valley,CA,92553,,951-653-5852,,,,,
Weberstown Mall,1020,4950 Pacific Ave,,Stockton,CA,95207,,209-957-5126,,,,,
Bayshore Mall Eureka CA,1131,3300 Broadway,,Eureka,CA,95501-0536,,707-476-8073,,,,,
Great Mall,1132,408 Great Mall Dr,,MILPITAS,CA,95035-8028,,408-262-8704,,,,,
Westfield Palm Desert,1157,72 Hwy 111,,Palm Desert,CA,92260,,760-674-5820,,,,,
Puente Hills Mall,1163,1600 S Azusa Ave,,City of Industry,CA,91748-1620,,626-913-4612,,,,,
Visalia Mall,1197,2133 S Mooney Blvd,,Visalia,CA,93277,,559-636-0374,,,,,
Valley Fair Mall Santa Clara CA,1258,2855 Stevens Creek Blvd,,Santa Clara,CA,95050,,408-554-6630,,,,,
Westfield Horton Plaza,1266,324 Horton Plaza,,San Diego,CA,92101,,619-696-3727,,,,,
Montclair Plaza,1322,5060 E Montclair Plaza Lane,,Montclair,CA,91763,,909-624-1979,,,,,
North County Mall,1325,272 E Via Rancho Pkwy,,Escondido,CA,92025-8002,,760-737-3188,,,,,
Arden Fair Mall,1425,1689 Arden Way,,Sacramento,CA,95815-4089,,916-568-6440,,,,,
Hanford Mall,1339,1675 W Lacey Blvd,,Hanford,CA,93230,,559-584-6008,,,,,
Imperial Valley,0371,3451 S Dogwood Rd,,El Centro,CA,92243,,760-353-9312,,,,,
Simi Valley Town Center,0544,1555 Simi Town Center Way,,Simi Valley,CA,93063,,805-520-3805,,,,,
Citadel Outlets,1212,100 Citadel Dr,,Los Angeles,CA,90040,,323-724-5423,,,,,
Tulare Outlet Center,0922,1493 Retherford St,,Tulare,CA,93274,,559-686-6973,,,,,
Montebello Town Center,1351,2027 Montebello Town Center,,Montebello,CA,90640-2170,,323-722-1662,,,,,
Fashion Fair,0932,591 E Shaw Ave,,Fresno,CA,93710,,559-224-7364,,,,,
Westfield Culver City,0253,6000 Sepulveda Blvd,,Culver City,CA,90230,,310-390-1923,,,,,
Glendale Galleria,0536,2166 Glendale Galleria,,Glendale,CA,91210,,818-548-2515,,,,,
236 Powell Street,0256,,,San Francisco,CA,94102,,415-393-4575,,,,,
Mesa Mall,0820,2424 US 6,,Graud Junction,CO,81505-1115,,970-241-1441,,,,,
Flatiron Crossing,0929,1 W Flatiron Crossing Dr,,Broomfield,CO,80021,,720-887-3437,,,,,
Colorado Mills,1336,14500 W Colfax Ave,,Lakewood,CO,80401,,303-279-1169,,,,,
Pueblo Mall,1945,3297 Dillon Dr,,Pueblo,CO,81008,,719-545-4499,,,,,
Town Center at Aurora,1053,14200 E Alameda Ave,,Aurora,CO,80012,,303-344-1387,,,,,
Cherry Creek Shopping Center,0960,3000 E First Ave,,Denver,CO,80206,,303-377-0918,,,,,
Foothills Mall,0072,215 E Foothills Pkwy,,Ft Collins,CO,80525,,970-223-5227,,,,,
the Citadel,1881,750 Citadel Dr E,,Colorado Springs,CO,80909-5346,,719-637-9957,,,,,
Denver Pavilions,0815,500 16th St,,Denver,CO,80202-4281,,720-932-5464,,,,,
Southwest Plaza,1193,8501 W Bowles Ave,,Littleton,CO,80123,,720-922-8537,,,,,
Park Meadows,1203,8505 Park Meadows Center Dr,,Lone Tree,CO,80124,,303-649-1442,,,,,
Greeley Mall,1385,1995 Greeley Mall,,Greeley,CO,80631,,970-352-9030,,,,,
Northfield Stapleton,1126,8340 Northfield Blvd,,Denver,CO,80238,,303-574-0880,,,,,
Connecticut Post Mall,1098,1201 Boston Post Rd,,Milford,CT,06460-2703,,203-878-4258,,,,,
Stamford Town Center,1324,100 Greyrock Pl,,Stamford,CT,06901,,203-541-8983,,,,,
Danbury Fair Mall,1199,7 Backus Ave,,Danbury,CT,06810,,203-778-5627,,,,,
Westfarms,0388,28 Westfarms Mall,,Farmington,CT,06032,,860-321-9041,,,,,
Westfield Trumbull,1021,5065 Main St,,Trumbull,CT,06611,,203-374-5354,,,,,
Westfield Meriden,1167,470 Lewis Ave,,Meriden,CT,06451,,203-379-0659,,,,,
The Shoppes at Buckland Hills,1221,194 Buckland Hills Dr,,Manchester,CT,06042,,860-648-0162,,,,,
Brass Mill Center,1237,495 Union St,,Waterbury,CT,06706,,203-755-9357,,,,,
Crystal Mall,1296,850 Hartford Turnpike,,Waterford,CT,06385-4237,,860-437-1145,,,,,
Dover Mall,1154,1365 N Dupont Hwy,,Dover,DE,19901,,302-730-0678,,,,,
Tanger Factory Outlet Rehoboth Beach DE,1378,36706 Bayside Outlet Dr,,Rehoboth Beach,DE,19971,,302-227-6857,,,,,
Concord Mall,0590,4737 Concord Pk,,Wilmington,DE,19803,,302-479-3950,,,,,
Christiana Mall,1056,538 Christiana Mall,,Newark,DE,19702,,302-286-6810,,,,,
Treasure Coast Square Mall,0162,3422 NW Federal Hwy,,Jensen Beach,FL,34957-4440,,772-692-5668,,,,,
Regency Square Mall Jacksonville FL,0502,9501 Arlington Expy,,Jacksonville,FL,32225,,904-724-3778,,,,,
Dadeland Mall,0526,7439 SW 88th St,,Miami,FL,33156,,305-740-8327,,,,,
Coastland Center,0736,1916 Tamiami Trail N,,Naples,FL,34102-4805,,239-263-2555,,,,,
Cordova Mall,0876,5100 N 9th Ave,,Pensacola,FL,32504-8735,,850-857-0780,,,,,
Gulf View Square,0887,9409 US Hwy 19,,Port Richey,FL,34668,,727-843-0523,,,,,
Pembroke Lakes Mall,0925,11401 Pines Blvd,,Pembroke Pines,FL,33026-4106,,954-447-9274,,,,,
International Plaza,1035,2223 N Westshore Blvd,,Tampa,FL,33607,,813-353-1075,,,,,
Westfield Sarasota Square,1156,8201 S Tamiami Trl,,Sarasota,FL,34238,,941-925-9847,,,,,
Indian River Mall,1243,6200 20th St,,Vero Beach,FL,32966,,772-299-3974,,,,,
The Florida Mall,1247,8001 S Orange Blossom Trail,,Orlando,FL,32809,,407-240-5729,,,,,
Orlando Vineland Premium Outlets,1272,8200 Vineland Ave,,Orlando,FL,32821-6815,,407-239-9450,,,,,
Destin Commons,1293,4327 Legendary Dr,,Destin,FL,32541,,850-654-4594,,,,,
Aventura Mall,0219,19575 Biscayne Blvd,,Aventura,FL,33180-2352,,305-935-9486,,,,,
The Oaks Mall,0242,6419 W Newberry Rd,,Gainesville,FL,32605-4338,,352-332-9595,,,,,
The Gardens of the Palm Beaches,0562,3101 PGA Blvd,,Palm Beach Gardens,FL,33410,,561-694-2901,,,,,
Lakeland Square Mall,0586,3800 US Hwy 98 N,,Lakeland,FL,33809-3832,,863-815-7027,,,,,
Tyrone Square Mall,0592,6901 22nd Ave N,,St. Petersburg,FL,33710-3943,,727-344-7888,,,,,
Seminole Towne Center,0752,200 Town Center Cir,,Sanford,FL,32771-7408,,407-324-7977,,,,,
Oviedo Market Place,0754,1460 Oviedo Mall Blvd,,Oviedo,FL,32765-7475,,407-977-4566,,,,,
Miromar Outlets,1454,10801 Corkscrew Rd,,Estero,FL,33928,,239-390-0568,,,,,
Premium Outlets Orlanda International,0924,4951 International Dr,,Orlando,FL,32819,,407-264-5001,,,,,
Pier Park,0284,204 Bluefish Dr,,Panama City Beach,FL,32413,,850-234-9365,,,,,
The Shops at Wiregrass,0055,28152 Paseo Dr,,Wesley Chapel,FL,33544-5369,,813-991-5376,,,,,
St Augustine Outlets,0240,500 Outlet Mall Blvd,,St Augustine,FL,32084-0388,,904-829-5245,,,,,
Silver Sands Factory Stores,0244,10562 Emerald Coast Pkwy,,Destin,FL,32550-4999,,850-269-1415,,,,,
The Mall at Millenia,0252,4200 Conroy Rd,,Orlando,FL,32839,,407-352-7751,,,,,
Palm Beach Outlets,0278,1741 Palm Beach Lakes Blvd,,West Palm Beach,FL,33401,,561-687-9949,,,,,
The Mall at University Town Center,0383,140 University Town Center Dr,,Sarasota,FL,34243,,941-702-9665,,,,,
Panama City Mall,1080,2150 M L King Jr Blvd,,Panama City,FL,32405-5319,,850-747-9079,,,,,
Santa Rosa Mall Mary Esther FL,1081,300 Mary Esther Blvd,,Mary Esther,FL,32569-1675,,850-243-2595,,,,,
Westfield Brandon Mall,1110,459 Brandon Town Ctr,,Brandon,FL,33511-4758,,813-654-5494,,,,,
Altamonte Mall,1118,451 E Altamonte Dr,,Altamonte Springs,FL,32701-4695,,407-261-9319,,,,,
Boynton Beach Mall,0839,801 N Congress Ave,,Boynton Beach,FL,33426-3327,,561-733-9608,,,,,
Melbourne Square,0841,1700 W New Haven Ave,,Melbourne,FL,32904-3916,,321-728-3872,,,,,
Orlando Fashion Square,1289,3317 E Colonial Dr,,Orlando,FL,32803,,407-897-6281,,,,,
Westfield Citrus Park,0868,8021 Citrus Park Town Ctr,,Tampa,FL,33625-3181,,813-926-6429,,,,,
Prime Outlets at Ellenton,0914,5181 Factory Shops Blvd,,Ellenton,FL,34222,,941-721-4658,,,,,
Volusia Mall,0919,1700 W International Speedway Blvd,,Daytona Beach,FL,32114-1387,,386-253-3533,,,,,
Westfield Broward,0920,8000 W Broward Blvd,,Plantation,FL,33388-0024,,954-382-2906,,,,,
Dolphin Mall,0983,11401 NW 12th St,,Miami,FL,33172,,305-463-5347,,,,,
Edison Mall,0985,4125 Cleveland Ave,,Ft Myers,FL,33901-9000,,239-277-9412,,,,,
The Mall at Wellington Green,1023,10300 W Forest Hills Blvd,,Wellington,FL,33414,,561-791-1014,,,,,
University Square Mall,1028,2131 University Square Mall,,Tampa,FL,33612-5515,,813-978-9702,,,,,
Port Charlotte Town Ship,1043,1441 Tamiami Trl,,Port Charlotte,FL,33948,,941-625-2546,,,,,
Governors Square Tallahassee FL,1061,1500 Apalachee Pkwy,,Tallahassee,FL,32301,,850-216-2776,,,,,
Countryside Mall,1171,27001 US Hwy 19 N,,Clearwater,FL,33761-3415,,727-712-3860,,,,,
Merritt Square Mall,1190,777 E Merritt Island Cswy,,Merritt Island,FL,32952-3501,,321-454-6990,,,,,
Town Center at Boca Raton,1195,6000 Glades Rd,,Boca Raton,FL,33431,,561-417-6959,,,,,
Desoto Square,1198,303 US 301 Blvd,,Bradenton,FL,34205-7991,,941-746-9106,,,,,
Sawgrass Mills,1286,12801 W Sunrise Blvd,,Sunrise,FL,33323,,954-846-9511,,,,,
Orange Park Mall,1292,1910 Wells Rd,,Orange Park,FL,32073,,904-269-2927,,,,,
Lincoln Road Mall,0514,603 Lincoln Rd,,Miami Beach,FL,33139,,305-672-6884,,,,,
The Loop,1428,3264 N John Young Pkwy,,Kissimmee,FL,34741,,407-343-0068,,,,,
Eagle Ridge Mall,0054,460 Eagle Ridge Dr,,Lake Wales,FL,33859-4738,,863-676-4240,,,,,
Coral Square Mall,1353,9315 W Atlantic Blvd,,Coral Springs,FL,33071-6947,,954-752-9028,,,,,
The Avenues,1440,10300 Southside Blvd,,Jacksonville,FL,32256-0770,,904-519-2999,,,,,
Paddock Mall,0287,3100 SW College Rd,,Ocala,FL,34474-4419,,352-237-3789,,,,,
Tampa Premium Outlets,0198,2398 Grand Cypress Dr,,Lutz,FL,33559,,813-948-3482,,,,,
Tanger Outlets Daytona Beach,0419,1100 Cornerstone Blvd,,Daytona Beach,FL,32117,,386-274-3678,,,,,
Sugarloaf Mills,1011,5900 Sugarloaf Pkwy,,Lawrenceville,GA,30043,,678-847-5113,,,,,
Peachtree Mall,1093,3131 Manchester Expwy,,Columbus,GA,31909-6400,,706-324-4846,,,,,
The Mall at Stonecrest,1152,8000 Mall Pkwy,,Lithonia,GA,30038,,770-482-7164,,,,,
Mount Berry Square,1866,716 Mount Berry Square NE,,Rome,GA,30165,,706-232-9098,,,,,
Albany Mall,0719,2601 Dawson Rd,,Albany,GA,31707-1674,,229-436-1436,,,,,
Oglethorpe Mall,1375,7804 Abercorn St,,Savannah,GA,31406,,912-353-8277,,,,,
The Outlet Shoppes at Atlanta,0263,915 Ridgewalk Pkwy,,Woodstock,GA,30188,,678-494-5786,,,,,
Arbor Place Mall,1078,1200 Arbor Place Mall,,Douglasville,GA,30135-7108,,770-577-2002,,,,,
West End Mall,0811,820 Oak St SW,,Atlanta,GA,30310-1912,,404-752-9036,,,,,
North Point Mall,0831,2116 N Point Cir,,Alpharetta,GA,30022-4856,,770-754-1433,,,,,
Valdosta Mall,0834,1700 Norman Dr,,Valdosta,GA,31601-7486,,229-249-9923,,,,,
Mall of Georgia,0858,3333 Buford Dr,,Buford,GA,30519,,678-482-7328,,,,,
Augusta Mall,0923,3450 Wrightsboro Rd,,Augusta,GA,30909-2516,,706-733-0750,,,,,
Georgia Square Mall,0986,3700 Atlanta Hwy,,Athens,GA,30606-3155,,706-316-3735,,,,,
Gwinnett Place,0987,2100 Pleasant Hill Rd,,Duluth,GA,30096-4701,,678-473-0880,,,,,
Houston County Galleria,1057,2922 Watson Blvd,,Centerville,GA,31028,,478-953-2864,,,,,
Cumberland Mall,1158,1000 Cumberland Mall,,Atlanta,GA,30339-3113,,678-309-1111,,,,,
Walnut Square Mall,1303,816 Walnut Square Blvd,,Dalton,GA,30721,,706-217-2556,,,,,
Town Center at Cobb,1321,400 Ernest W Bart Pkwy NW,,Kennesaw,GA,30144-4950,,770-794-4363,,,,,
Glynn Place Mall,0711,100 Mall Blvd,,Brunswick,GA,31525,,912-267-6586,,,,,
Tanger Outlet Center Commerce II,1452,800 Steven B Tanger Blvd,,Commerce,GA,30529,,706-335-0151,,,,,
North Georgia Premium Outlet,0180,800 Hwy 400 S,,Dawsonville,GA,30534-8024,,706-216-1277,,,,,
Atlantic Station,1444,264 19th St NW,,Atlanta,GA,30363,,404-249-7252,,,,,
Shoppes at River Crossing,1472,5080 Riverside Dr,,Macon,GA,31210,,478-476-1873,,,,,
Perimeter Mall,0335,4400 Ashford Dunwoody Rd,,Atlanta,GA,30346,,770-604-9813,,,,,
Tanger Outlets Savannah GA,0344,200 Tanger Outlet Blvd,,Pooler,GA,31322,,912-450-1017,,,,,
Ala Moana Center,0268,1450 Ala Moana Blvd,,Honolulu,HI,96814,,808-947-6344,,,,,
Pearlridge Center,1429,98-1005 Moanalua Rd,,Aiea,HI,96701,,808-487-1982,,,,,
Queen Ka Ahumanu Center,1434,275 W Ka'Ahumanu Ave,,Kahului,HI,96732,,808-871-7177,,,,,
Prince Kuhio Plaza,1424,111 E Puainako St,,Hilo,HI,96720,,808-981-2151,,,,,
Windward Mall,1402,46-056 Kamehameha Hwy,,Kaneohe,HI,96744,,808-247-1840,,,,,
Merle Hay Mall,0766,3800 Merle Hay Rd,,Des Moines,IA,50310-1303,,515-254-2594,,,,,
Valley West Shopping Center,0795,1551 Valley West Dr,,West Des Moines,IA,50266-1186,,515-457-9977,,,,,
Coral Ridge Mall,0845,1451 Coral Ridge Ave,,Coralville,IA,52241-2805,,319-625-2699,,,,,
Southern Hills Mall,0964,4400 Sergeant Rd,,Sioux City,IA,51106-4759,,712-276-1403,,,,,
Lindale Mall,1217,4444 1st Ave NE,,Cedar Rapids,IA,52402,,319-743-0778,,,,,
North Grand Mall,0784,2801 Grand Ave,,Ames,IA,50010-4668,,515-663-4163,,,,,
Northpark Mall Davenport IA,0837,320 W Kimberly Rd,,Davenport,IA,52806-5920,,563-391-4373,,,,,
Crossroads Center,0916,2060 Crossroads Blvd,,Waterloo,IA,50702-4495,,319-232-7238,,,,,
Jordan Creek Town Center,1031,101 Jordan Creek Pkwy,,West Des Moines,IA,50266,,515-223-0403,,,,,
Boise Towne Square,0856,350 N Milwaukee St,,Boise,ID,83704,,208-323-0286,,,,,
Grand Teton Mall,1009,2300 E 17th St,,Idaho Falls,ID,83404,,208-525-5285,,,,,
Magic Valley Mall,1046,1485 Poleline Rd E,,Twin Falls,ID,83301,,208-736-3367,,,,,
Stratford Square,0496,614 Stratford Square Mall,,Bloomingdale,IL,60108-2299,,630-980-9053,,,,,
Chicago Premium Outlet,0788,1650 Premium Outlets Blvd,,Aurora,IL,60502-2908,,630-236-9267,,,,,
Hickory Point Mall,0798,1146 Hickory Point Mall,,Forsyth,IL,62535-2005,,217-875-7594,,,,,
Orland Square Mall,0816,832 Orland Square Dr,,Orland Park,IL,60462,,708-349-7822,,,,,
University Mall Carbondale IL,0828,1207 E Main St,,Carbondale,IL,62901-3148,,618-549-8378,,,,,
Spring Hill Mall,1003,1072 Spring Hill Mall,,West Dundee,IL,60118,,847-844-7429,,,,,
St Clair Square,1005,263 St Clair Square,,Fairview Heights,IL,62208,,618-632-6833,,,,,
North Riverside Park Mall,1072,7501 W Cermak Rd,,North Riverside,IL,60546-1438,,708-442-9310,,,,,
Gurnee Mills,1413,6170 W Grand Ave,,Gurnee,IL,60031-1701,,847-855-0362,,,,,
Hawthorn Center,1449,622 Hawthorn Ctr,,Vernon Hills,IL,60061-1502,,847-362-7244,,,,,
Chicago Ridge Mall,1458,330 Chicago Ridge Mall,,Chicago Ridge,IL,60415-2608,,708-422-1041,,,,,
Market Place Shopping Center,0724,2000 N Neil St,,Champaign,IL,61820-7808,,217-355-3401,,,,,
Eastland Mall Bloomington IL,0729,1615 E Empire St,,Bloomington,IL,61701-3581,,309-661-2108,,,,,
Harlem Irving Plaza,1000,4154 N Harlem Ave,,Norridge,IL,60706,,708-453-2799,,,,,
Lincolnwood Town Center,1389,3333 W Touhy Ave,,Lincolnwood,IL,60712,,847-676-1374,,,,,
Louis Joliet,0249,3340 Mall Loop,,Joliet,IL,60431,,815-267-3941,,,,,
Fox Valley Center,0777,2168 Fox Valley Center Dr,,Aurora,IL,60504-4184,,630-236-7146,,,,,
South Park Mall,0836,4500 16th St,,Moline,IL,61265-7078,,309-797-4365,,,,,
Yorktown Center,0949,144 Yorktown Center,,Lombard,IL,60148,,630-627-1984,,,,,
Northwoods Mall,0950,2200 W War Memorial Dr,,PEORIA,IL,61613,,309-686-1868,,,,,
White Oaks Mall,0951,2501 Wabash Ave,,Springfield,IL,62704-4202,,217-698-0175,,,,,
Cherryvale Mall,0979,7200 Harrison Ave,,Rockford,IL,61112-1017,,815-332-8762,,,,,
Woodfield Mall,1369,5 Woodfield Mall,,Schaumburg,IL,60173,,847-240-5732,,,,,
Promenade Bolingbrook,1934,623 E Boughton Rd,,Bolingbrook,IL,60440,,630-783-9771,,,,,
133 S State St,0326,,,Chicago,IL,60603,,312-629-1029,,,,,
Richmond Square,0179,3801 National Rd E,,Richmond,IN,47374-3687,,765-939-6255,,,,,
Eastland Mall Evansville IN,0305,800 N Green River Rd,,Evansville,IN,47715-2471,,812-473-2637,,,,,
Markland Mall,0316,1233 S Reed Rd,,Kokomo,IN,46902,,765-854-0515,,,,,
Muncie Mall,0769,3501 N Granville Ave,,Muncie,IN,47303-1263,,765-287-1304,,,,,
Greenwood Park Mall,0770,1251 N US 31,,Greenwood,IN,46142,,317-859-8834,,,,,
Tippecanoe Mall,0848,2415 Sagamore Pkwy S,,Lafayette,IN,47905-5180,,765-447-7757,,,,,
Castleton Square,1012,6020 E 82nd St,,Indianapolis,IN,46250,,317-841-8619,,,,,
Circle Centre,1392,49 W Maryland,,Indianapolis,IN,46204,,317-635-9092,,,,,
Southlake Mall,0965,2032 Southlake Mall,,Merrillville,IN,46410,,219-756-5241,,,,,
The Shops at Perry Crossing,1495,2499 Perry Crossing Way,,Plainfield,IN,46168,,317-838-0150,,,,,
College Mall,0700,2826 E 3rd St,,Bloomington,IN,47401-5424,,812-330-9462,,,,,
Honey Creek Mall,0753,3401 S US Hwy 41,,Terre Haute,IN,47802,,812-231-8609,,,,,
University Park Mall,0865,6501 N Grape Rd,,Mishawaka,IN,46545-1007,,574-247-9265,,,,,
Glenbrook Square,0867,4201 Coldwater Rd,,Fort Wayne,IN,46805-1187,,260-496-8557,,,,,
Greentree Mall,1893,757 Lewis & Clark Pkwy E,,Clarksville,IN,47129,,812-258-0354,,,,,
Towne East Square,0568,7700 E Kellogg Dr,,Wichita,KS,67207-1790,,316-683-7444,,,,,
West Ridge Mall,0717,1801 SW Wanamaker Rd,,Topeka,KS,66604-3846,,785-228-9231,,,,,
Towne West Square,0966,4600 W Kellogg Dr,,Wichita,KS,67209-2568,,316-942-1733,,,,,
Central Mall Salina KS,1281,2259 S 9th St,,Salina,KS,67401,,785-826-1721,,,,,
Oak Park Mall,1166,11683 W 95th St,,Overland Park,KS,66214,,913-859-9418,,,,,
Manhattan Town Center,1421,100 Manhattan Town Center,,Manhattan,KS,66502-6079,,785-776-7901,,,,,
Greenwood Mall,0566,2625 Scottsville Rd,,Bowling Green,KY,42104-6381,,270-793-9716,,,,,
Florence Mall,0762,1086 Florence Mall,,Florence,KY,41042-1443,,859-371-3305,,,,,
Mall St Matthews,0817,5000 Shelbyville Rd,,Louisville,KY,40207,,502-897-1247,,,,,
Fayette Mall,0822,3401 Nicholasville Rd,,Lexington,KY,40503,,859-272-8001,,,,,
Towne Square Mall,0851,5000 Frederica St,,Owensboro,KY,42301-7424,,270-688-0710,,,,,
Kentucky Oaks Mall,1109,5101 Hinkleville Rd,,Paducah,KY,42001,,270-442-5325,,,,,
Ashland Town Center,1168,500 Winchester Ave,,Ashland,KY,41101,,606-325-8620,,,,,
Jefferson Mall,0996,4801 Outer Loop,,Louisville,KY,40219,,502-966-3991,,,,,
The Outlet Shoppes Of The Bluegrass,0297,1155 Buck Creek Rd,,Simpsonville,KY,40067,,502-722-5785,,,,,
Prien Lake Mall,0580,440 W Prien Lake Rd,,Lake Charles,LA,70601,,337-474-8041,,,,,
Southland Mall,0716,5953 W Park Ave,,Houma,LA,70364-1461,,985-223-0530,,,,,
The Mall at Cortana,0794,8903 Cortana Pl,,Baton Rouge,LA,70815-8702,,225-925-2392,,,,,
North Shore Square Mall,1013,150 Northshore Blvd,,Slidell,LA,70460,,985-646-0882,,,,,
Mall of Louisiana,1076,6401 Bluebonnet Blvd,,Baton Rouge,LA,70836-6401,,225-766-1997,,,,,
The Mall of Acadiana,1274,5725 Johnston St,,Lafayette,LA,70503,,337-273-2502,,,,,
Pierre Bossier Mall,0569,2950 E Texas St,,Bossier City,LA,71111,,318-741-1478,,,,,
Pecanland Mall,0557,4700 Milhaven Rd,,Monroe,LA,71203-7033,,318-325-1524,,,,,
Oakwood Center,0507,197 Westbank Expy,,Gretna,LA,70056,,504-362-9005,,,,,
Fremaux Town Center,0412,710 Town City Pkwy,,Slidell,LA,70458,,985-781-1005,,,,,
the Esplanade,1079,1401 W Esplanade Ave,,Kenner,LA,70065,,504-461-5066,,,,,
Mall St Vincent,1943,1133 St Vincent Ave,,Shreveport,LA,71104,,318-222-2827,,,,,
The Outlet Collection at Riverwalk,0279,500 Port Of New Orlenas Pl,,New Orleans,LA,70130,,504-523-7782,,,,,
Wrentham Village Premium Outlets,0505,1 Premium Outlet Blvd,,Wrentham,MA,02093,,508-384-2419,,,,,
Solomon Pond Mall,1182,601 Donald Lynch Blvd,,Marlboro,MA,01752,,508-485-9114,,,,,
Square One Mall,1214,Rt 1 S,,Saugus,MA,01906,,781-231-1045,,,,,
Emerald Square,1215,999 S Washington St,,North Attleboro,MA,02760,,508-695-2069,,,,,
Auburn Mall Auburn MA,1276,385 Southbridge St,,Auburn,MA,01501,,508-832-2732,,,,,
Eastfield Mall,1280,1655 Boston Rd,,Springfield,MA,01129-1388,,413-543-6683,,,,,
Cape Cod Mall,0804,769 Iyannough Rd,,Hyannis,MA,02601,,508-771-9417,,,,,
Dartmouth Mall,1187,101 N Dartmouth Mall,,Dartmouth,MA,02747,,508-992-7100,,,,,
Silver City Galleria,1204,2 Galleria Mall Dr,,Taunton,MA,02780,,508-823-8527,,,,,
South Shore Plaza,1228,250 Granite St,,Braintree,MA,02184,,781-356-8193,,,,,
Cambridgeside Galleria,1302,100 Cambridgeside Pl,,Cambridge,MA,02141,,617-577-0497,,,,,
Burlington Mall,1360,75 Middlesex Tpke,,Burlington,MA,01803,,781-229-1163,,,,,
Northshore Mall,1368,210 Andover St,,Peabody,MA,01960,,978-531-5943,,,,,
Natick Mall,1370,1245 Worcester St,,Natick,MA,01760,,508-647-1748,,,,,
Holyoke Mall,1470,50 Holyoke St,,Holyoke,MA,01040-2709,,413-534-7189,,,,,
The Mall at Whitney Fields,1911,100 Commercial Rd,,Leominster,MA,01453,,978-537-6975,,,,,
Independence Mall Kingston MA,0800,101 Independence Mall Way,,KINGSTON,MA,02364,,781-585-5034,,,,,
Berkshire Mall Lanesboro MA,0907,655 Cheshire Rd,,Lanesboro,MA,01237,,413-445-5220,,,,,
Lakeforest Mall,0901,701 Russell Rd,,Gaithersburg,MD,20877,,301-519-2478,,,,,
Francis Scott Key Mall,1039,5500 Buckeystown Pike,,Frederick,MD,21703,,240-379-6896,,,,,
Valley Mall Hagerstown MD,1066,17301 Valley Mall Rd,,Hagerstown,MD,21740,,301-582-2090,,,,,
Annapolis Mall,1095,1205 Annapolis Mall,,Annapolis,MD,21401-3008,,410-571-6697,,,,,
White Marsh Mall,1096,8200 Perry Hall Blvd,,Baltimore,MD,21236,,410-933-9715,,,,,
Towson Town Center,1099,825 Dulaney Valley Rd,,Towson,MD,21204,,410-296-1510,,,,,
The Mall in Columbia,1122,10300 Little Patuxent Pkwy,,Columbia,MD,21044,,410-740-7114,,,,,
Arundel Mills,1130,7000 Arundel Mills Cir,,Hanover,MD,21076-1382,,443-755-8767,,,,,
Centre at Salisbury,1151,2300 N Salisbury Blvd,,Salisbury,MD,21801,,410-860-1751,,,,,
Montgomery Mall Bethesda MD,0912,7101 Democracy Blvd,,Bethesda,MD,20817,,301-365-5222,,,,,
Town Mall of Westminster,1357,400 N Center St,,Westminster,MD,21157,,410-386-0520,,,,,
Harford Mall,1288,696 Bel Air Rd,,Bel Air,MD,21014,,410-399-9942,,,,,
Marley Station,1574,7900 Gov Ritchie Hwy,,Glen Burnie,MD,21061,,410-761-7923,,,,,
Wheaton Mall,0508,11160 Veirs Mill Rd,,Wheaton,MD,20902,,301-949-4703,,,,,
St Charles Towne Center,0307,11110 Mall Cir,,Waldorf,MD,20603,,301-645-3560,,,,,
Clarksburg Premium Outlets,0442,22705 Clarksburg Rd,,Clarksburg,MD,20871,,301-515-2455,,,,,
Bangor Mall,1287,663 Stillwater Ave,,Bangor,ME,04401,,207-942-9071,,,,,
Maine Mall,1045,364 Maine Mall Rd,,South Portland,ME,04106-3206,,207-253-5087,,,,,
Lakeview Square Mall,0703,5775 Beckley Rd,,Battle Creek,MI,49015-7108,,269-979-4932,,,,,
Genesee Valley Center,0710,3255 S Linden Rd,,Flint,MI,48507-3011,,810-230-0624,,,,,
Meridian Mall,1120,1982 W Grand River Ave,,Okemos,MI,48864,,517-349-2315,,,,,
the Lakes Mall,1244,5600 Harvey St,,Muskegon,MI,49444,,231-798-7833,,,,,
Great Lakes Crossing,1397,4518 Baldwin Rd,,Auburn Hills,MI,48326,,248-745-3823,,,,,
Woodland Mall,1932,3159 28th St SE,,Kentwood,MI,49512,,616-949-6798,,,,,
Grand Traverse Mall,0235,3200 S Airport Rd W,,Traverse City,MI,49684-8124,,231-947-2851,,,,,
Tanger Outlet Center Howell MI,0437,1475 N Burkhart Rd,,Howell,MI,48855,,517-540-0399,,,,,
Westland Center,0555,35000 Warren Rd,,Westland,MI,48185,,734-513-2899,,,,,
Tanger Outlets Grand Rapids,0068,350 84th St SW,,Byron Center,MI,49315,,616-583-0203,,,,,
Lakeside Mall,1088,14600 Lakeside Cir,,Sterling Heights,MI,48313,,586-566-5540,,,,,
Lansing Mall,1091,5436 W Saginaw Hwy,,Lansing,MI,48917-1915,,517-327-0211,,,,,
Briarwood Mall,0810,348 Briarwood Cir,,Ann Arbor,MI,48108,,734-222-0814,,,,,
Fashion Square Mall,1436,4868 Fashion Square Mall,,Saginaw,MI,48604,,989-497-9201,,,,,
Oakland Mall,0957,358 W 14 Mile Rd,,Troy,MI,48083,,248-577-9036,,,,,
Rivertown Crossings,0963,3700 Rivertown Pkwy,,Grandville,MI,49418,,616-257-0611,,,,,
Birchwood Mall,1026,4350 24th Ave,,Fort Gratiot,MI,48059,,810-385-4302,,,,,
The Crossroads,1027,6650 S Westnedge Ave,,Portage,MI,49024,,269-321-9160,,,,,
Southland Center,1140,23000 Eureka Rd,,Taylor,MI,48180-6039,,734-287-5764,,,,,
Twelve Oaks Mall,1366,27314 Novi Rd,,Novi,MI,48377,,248-305-8856,,,,,
Birch Run Premium Outlets,1189,12156 S Beyer Rd,,Birch Run,MI,48415,,989-624-8055,,,,,
Fairlane Town Center,0892,18900 Michigan Ave,,Dearborn,MI,48126,,313-583-1013,,,,,
Midland Mall,0997,6800 Eastman Ave,,Midland,MI,48642,,989-839-9059,,,,,
The Somerset Collection,0355,2800 W Big Beaver Rd,,Troy,MI,48084,,248-822-7159,,,,,
Northtown Mall,0192,398 Northtown Dr,,Blaine,MN,55434-1038,,763-784-6420,,,,,
Crossroads Center,0735,4101 W Division St,,St. Cloud,MN,56301-6600,,320-259-9009,,,,,
Rosedale Center,0854,139 Rosedale Ctr,,Roseville,MN,55113-3005,,651-636-6118,,,,,
Miller Hill Mall,1181,1600 Miller Trunk Hwy,,Duluth,MN,55811,,218-786-0788,,,,,
Burnsville Center,1410,1029 Burnsville Ctr,,Burnsville,MN,55306-4480,,952-892-7423,,,,,
Twin Cities Premium Outlets,0391,3965 Eagan Outlets Pkwy,,Eagan,MN,55122,,651-452-5716,,,,,
River Hills Mall,0844,1850 Adams St,,Mankato,MN,56001,,507-625-6640,,,,,
Mall of America,0524,154 N Garden,,Bloomington,MN,55425,,952-858-9923,,,,,
Maplewood Mall,1170,3001 White Bear Ave N,,Saint Paul,MN,55109,,651-777-6915,,,,,
Eden Prairie Center,1260,8251 Flying Cloud Dr,,Eden Prairie,MN,55344,,952-941-1277,,,,,
Southdale Center,0296,2770 E Southdale Ctr,,Edina,MN,55435,,952-920-0125,,,,,
Mid Rivers Mall,0529,1600 Mid Rivers Mall,,St. Peters,MO,63376,,636-397-3300,,,,,
Columbia Mall Columbia MO,0709,2300 Bernadette Dr,,Columbia,MO,65203-4607,,573-447-3023,,,,,
Independence Center,0797,18801 East 39th St S,,Independence,MO,64057-1729,,816-795-5090,,,,,
Chesterfield Mall,1014,55 Chesterfield Mall,,Chesterfield,MO,63017,,636-536-4536,,,,,
West County Centre,1883,137 West County Centre,,Des Peres,MO,63131,,314-909-5712,,,,,
Saint Louis Galleria,1824,2081 Saint Louis Galleria,,St Louis,MO,63117,,314-721-8355,,,,,
South County,0520,345A S County Center Way,,St. Louis,MO,63129,,314-892-2297,,,,,
Branson Landing,1435,803 Branson Landing,,Branson,MO,65616,,417-335-3864,,,,,
West Park Mall,0775,3049 William St,,Cape Girardeau,MO,63702,,573-332-0242,,,,,
Battlefield Mall,0780,2825 S Glenstone Ave,,Springfield,MO,65804-3732,,417-823-7095,,,,,
Northpark Mall Joplin MO,0787,101 N Rangeline Rd,,Joplin,MO,64801-4118,,417-781-1808,,,,,
East Hills Shopping Center,1201,3702 Frederick Blvd,,St. Joseph,MO,64506,,816-364-3081,,,,,
Osage Beach Premium Outlet,1362,4540 Osage Beach Pkwy,,Osage Beach,MO,65065,,573-302-7480,,,,,
Zona Rosa,0933,6986 NW 86th Terrace,,Kansas City,MO,64153,,816-587-1005,,,,,
Turtle Creek Mall,1103,1000 Turtle Creek Dr,,Hattiesburg,MS,39402,,601-261-5235,,,,,
Southaven,1406,6532 Towne Centre Loop,,Southaven,MS,38671,,662-536-4414,,,,,
Greenville Mall,0610,1651 Hwy 1 S,,Greenville,MS,38701-7800,,662-335-7090,,,,,
Bonita Lakes Mall,1483,1000 Bonita Lakes Mall,,Meridian,MS,39301,,601-484-6000,,,,,
Northpark Mall Ridgeland MS,1116,1200 E County Line Rd,,Ridgeland,MS,39157,,601-957-7507,,,,,
Edgewater Mall,0984,2600 Beach Blvd,,Biloxi,MS,39531-4606,,228-594-0720,,,,,
Mall at Barnes Crossing,0454,1001 Barnes Crossing,,Tupelo,MS,38804,,662-620-1048,,,,,
Outlets Of Mississippi,0302,200 Bass Pro Dr,,Pearl,MS,39208,,601-664-2114,,,,,
Rimrock Mall,1942,300 S 24th St W,,Billings,MT,59102,,406-652-4767,,,,,
Southgate Mall,1364,2901 Brooks St,,Missoula,MT,59801,,406-542-5231,,,,,
Cary Towne Center,0879,1105 Walnut St,,Cary,NC,27511-4762,,919-380-0339,,,,,
Independence Mall Wilmington NC,0931,3500 Oleander Dr,,Wilmington,NC,28403-0811,,910-794-9060,,,,,
Valley Hills Mall,0940,1960 Hwy 70 SE,,Hickory,NC,28602,,828-304-4619,,,,,
Cross Creek Mall,1183,419 Cross Creek Mall,,Fayetteville,NC,28303,,910-864-3976,,,,,
Carolina Place,1207,11025 Carolina Place Pkwy,,Pineville,NC,28134,,704-541-3591,,,,,
Carolina Premium Outlets,1853,1025 Outlet Center Dr,,Smithfield,NC,27577,,919-934-5040,,,,,
Carolina Mall,0516,1480 Concord Pkwy N,,Concord,NC,28025,,704-788-9040,,,,,
Jacksonville Mall,0624,309 Jacksonville Mall,,Jacksonville,NC,28546-7316,,910-355-0222,,,,,
Eastridge Westfield,0755,246 N New Hope Rd,,Gastonia,NC,28054-0020,,704-867-4780,,,,,
Holly Hill Mall,0971,141 Holly Hill Mall,,Burlington,NC,27215,,336-586-1914,,,,,
Southpark,0246,4400 Sharon Rd,,Charlotte,NC,28211,,704-367-3822,,,,,
Greenville Mall Greenville NC,0417,714 Greenville Blvd SE,,Greenville,NC,27858,,252-215-0873,,,,,
Asheville Mall,0802,3 S Tunnel Rd,,Asheville,NC,28805-2221,,828-298-1664,,,,,
Crabtree Valley Mall,0871,4325 Glenwood Ave,,Raleigh,NC,27612-4504,,919-781-5233,,,,,
Concord Mills,0962,8111 Concord Mills Blvd,,Concord,NC,28027-6462,,704-979-0530,,,,,
Four Seasons Town Centre,1161,134 Four Seasons Town Ctr,,Greensboro,NC,27427,,336-294-1872,,,,,
The Streets at Southpoint,1196,6910 Fayetteville Rd,,Durham,NC,27713,,919-361-3345,,,,,
Hanes Mall,1418,3320 Silas Creek Pkwy,,Winston-Salem,NC,27103,,336-794-2939,,,,,
Northlake Mall,1361,6801 Northlake Mall Dr,,Charlotte,NC,28216,,704-921-3056,,,,,
Berkeley Mall,1485,621-B Berkeley Blvd,,Goldsboro,NC,27534,,919-778-4929,,,,,
Triangle Town Center,0869,5959 Triangle Town Blvd,,Raleigh,NC,27616,,919-792-0835,,,,,
West Acres Shopping Center,0231,3902 13th Ave S,,Fargo,ND,58103-3357,,701-277-5010,,,,,
Kirkwood Mall,0358,746 Kirkwood Mall,,Bismarck,ND,58504,,701-258-1400,,,,,
Columbia Mall Grand Forks ND,1367,2800 S Columbia Rd,,Grand Forks,ND,58201,,701-795-0286,,,,,
Dakota Square Mall,1372,2400 10th St SW,,Minot,ND,58701,,701-852-5873,,,,,
Westroads Mall,0875,10000 California St,,Omaha,NE,68114-2335,,402-384-8277,,,,,
Oak View Mall,0209,3001 S 144th St,,Omaha,NE,68144-5234,,402-330-5551,,,,,
Westfield Gateway Shopping Center,0720,5 Gateway Mall,,Lincoln,NE,68505,,402-465-4335,,,,,
Nebraska Crossing Outlets,0325,21311 Nebraska Crossing Dr,,Gretna,NE,68028,,402-332-3862,,,,,
Fox Run Mall,1186,50 Fox Run Rd,,Newington,NH,03801-2860,,603-431-9893,,,,,
Mall at Rockingham Park,1220,1 Mall Rd,,Salem,NH,03079,,603-893-1301,,,,,
Pheasant Lane Mall,1224,310 Daniel Webster Hwy,,Nashua,NH,03060-5730,,603-888-0700,,,,,
The Mall of New Hampshire,1230,1500 S Willow St,,Manchester,NH,03103,,603-625-2688,,,,,
Settlers Green Outlet Village,1332,2 Common Court,,North Conway,NH,03860,,603-356-2876,,,,,
Monmouth Mall,0312,180 State Rt 35,,Eatontown,NJ,07724,,732-542-1991,,,,,
Moorestown Mall,0819,400 W Rt 38,,Moorestown,NJ,08057,,856-608-8750,,,,,
Cherry Hill Mall,0823,2000 RT 38,,Cherry Hill,NJ,08002,,856-663-6024,,,,,
The Outlet Collection at Jersey Gardens,1805,651 Kapkowski Rd,,Elizabeth,NJ,07201-2923,,908-558-9322,,,,,
Garden State Plaza,1032,1 Garden State Plaza,,Paramus,NJ,07652,,201-843-4343,,,,,
Rockaway Townsquare Mall,1121,301 Mt Hope Ave,,Rockaway,NJ,07866,,973-442-9509,,,,,
Quaker Bridge Mall,1180,150 Quakerbridge Mall,,Lawrenceville,NJ,08648,,609-799-3777,,,,,
Brunswick Square,1218,755 State Rt 18,,East Brunswick,NJ,08816,,732-238-0196,,,,,
Freehold Raceway Mall,1409,3710 US Hwy 9,,Freehold,NJ,07728-4815,,732-308-9709,,,,,
Willowbrook Mall,1301,2105 Willowbrook Mall,,Wayne,NJ,07470,,973-256-0679,,,,,
Bridgewater Commons,1328,400 Commons Way,,Bridgewater,NJ,08807,,908-685-3122,,,,,
Deptford Mall,0733,1750 Deptford Center Rd,,Deptford,NJ,08096-5218,,856-845-0563,,,,,
Hamilton Mall,1108,4403 Black Horse Pk,,Mays Landing,NJ,08330-3115,,609-646-5240,,,,,
Ocean County Mall,1015,1201 Hooper Ave,,Toms River,NJ,08753,,732-736-8224,,,,,
Newport Centre,1265,30 Mall Dr W,,Jersey City,NJ,07310,,201-963-1214,,,,,
Woodbridge Center,1467,391 Woodbridge Center Dr,,Woodbridge,NJ,07095,,732-634-0261,,,,,
Livingston Mall,1317,112 Eisenhower Pkwy,,Livingston,NJ,07039,,973-533-1202,,,,,
Jersey Shore Premium Outlets,1487,1 Premium Outlet Blvd,,Tinton Falls,NJ,07753,,732-493-0871,,,,,
Cumberland Mall Vineland NJ,0411,3849 S Delsea Dr,,Vineland,NJ,08360-7408,,856-825-0589,,,,,
North Plains Mall,1067,2809 N Prince St,,Clovis,NM,88101,,575-762-7114,,,,,
Cottonwood Mall,0744,10000 Coors Bypass NW,,Albuquerque,NM,87114-4040,,505-898-9101,,,,,
Coronado Center,1178,6600 Menaul Blvd NE,,Albuquerque,NM,87110-3445,,505-883-4282,,,,,
Animas Valley,0239,4601 E Main St,,Farmington,NM,87402-1701,,505-325-1860,,,,,
Santa Fe Place,0597,4250 Cerrillos Rd,,Santa Fe,NM,87507,,505-424-1999,,,,,
Mesilla Valley Mall,0786,700 S Telshor Blvd,,Las Cruces,NM,88011-4669,,575-532-5109,,,,,
Rio West Mall,1377,1300 W Maloney Ave,,Gallup,NM,87301,,505-722-9345,,,,,
Las Vegas Premium Outlet,1042,775 S Grand Central Pkwy,,Las Vegas,NV,89106,,702-382-2084,,,,,
Meadowood Mall,1176,5492 Meadowood Mall Cir,,Reno,NV,89502,,775-825-2121,,,,,
The Fashion Show,0427,3200 Las Vegas Blvd S,,Las Vegas,NV,89109,,702-732-0130,,,,,
Galleria at Sunset,0553,1300 W Sunset Rd,,Henderson,NV,89014,,702-898-3396,,,,,
Las Vegas Premium Outlet,0594,7400 Las Vegas Blvd S,,Las Vegas,NV,89123,,702-914-9982,,,,,
The Boulevard,0947,3564 S Maryland Pkwy,,Las Vegas,NV,89169,,702-732-8125,,,,,
Meadows Mall,1426,4300 Meadows Ln,,Las Vegas,NV,89107-3008,,702-258-4794,,,,,
Miracle Mile,1142,3663 Las Vegas Blvd S,,Las Vegas,NV,89109,,702-732-9407,,,,,
Town Square Mall,0029,6623 Las Vegas Blvd S,,Las Vegas,NV,89119-3245,,702-269-7236,,,,,
Westfield Sunrise Mall,0525,1 Sunrise Mall,,MASSAPEQUA,NY,11758,,516-799-2502,,,,,
Jefferson Valley Mall,0564,650 LEE BLVD,,Yorktown Heights,NY,10598,,914-962-1719,,,,,
Poughkeepsie Galleria,0821,2001 South Rd,,Poughkeepsie,NY,12601,,845-297-9240,,,,,
Staten Island Mall,0857,2655 Richmond Ave,,Staten Island,NY,10314,,718-761-3709,,,,,
Greece Ridge Center,1034,244 Greece Ridge Center Dr,,Greece,NY,14626,,585-225-0490,,,,,
Queens Center,1036,9015 Queens Blvd,,Elmhurst,NY,11373,,718-699-3485,,,,,
Galleria at White Plains,1073,100 Main St,,White Plains,NY,10601,,914-761-4542,,,,,
Smith Haven Mall,1323,300 Smith Haven Mall,,Lake Grove,NY,11755,,631-724-9138,,,,,
Westfield South Shore Mall,1129,1701 Sunrise Hwy,,Bay Shore,NY,11706-6009,,631-666-6219,,,,,
Galleria at Crystal Run,1148,1 Galleria Dr,,Middletown,NY,10940,,845-692-5725,,,,,
Destiny USA,1241,9507 Destiny USA Dr,,Syracuse,NY,13204,,315-474-0847,,,,,
Crossgates Mall,1330,1 Crossgates Mall Rd,,Albany,NY,12203,,518-456-6198,,,,,
42B W 14th St,1776,,,New York,NY,10011,,212-645-1213,,,,,
Walden Galleria,1886,1 Walden Galleria,,Buffalo,NY,14225,,716-651-0207,,,,,
Eastview Mall,0337,307 Eastview Mall,,Victor,NY,14564,,585-223-8190,,,,,
Waterloo Premium Outlets,0517,655 State Rt 318,,Waterloo,NY,13165,,315-539-8039,,,,,
Oakdale Mall,0554,601 Harry L Dr,,Johnson City,NY,13790,,607-797-2549,,,,,
Fashion Outlets at Niagara,0584,1944 Military Rd,,Niagara Falls,NY,14304,,716-297-0838,,,,,
Kings Plaza Mall,1315,5157 Kings Plaza,,Brooklyn,NY,11234,,718-253-1380,,,,,
Tanger Outlet Deer Park,0565,1538 The Arches Cir,,Deer Park,NY,11729,,631-586-0750,,,,,
458 Fulton Street,0449,,,Brooklyn,NY,11201,,718-722-7589,,,,,
Palisades Center,0813,3422 Palisades Center Dr,,West Nyack,NY,10994,,845-358-0621,,,,,
Broadway Mall,0908,669 Broadway Mall,,Hicksville,NY,11801,,516-681-5312,,,,,
Sangertown Square,0909,1 Sangertown Square,,New Hartford,NY,13413,,315-733-4090,,,,,
Arnot Mall,1049,3300 Chambers Rd,,Horseheads,NY,14845,,607-739-9688,,,,,
Market Place Mall,1256,420 Miracle Mile Dr,,Rochester,NY,14623-5823,,585-292-6550,,,,,
Boulevard Mall,1264,730 Alberta Dr,,Amherst,NY,14226,,716-837-4635,,,,,
Riverhead II Outlet Center,1291,1770 W Main St,,Riverhead,NY,11901,,631-369-7638,,,,,
McKinley Mall,1300,3701 McKinley Pkwy,,Buffalo,NY,14219,,716-821-9312,,,,,
Roosevelt Field Mall,1464,630 Old Country Rd,,Garden City,NY,11530,,516-873-7704,,,,,
Champlain Centre,1488,60 Smithfield Blvd,,Plattsburgh,NY,12901,,518-561-6278,,,,,
Salmon Run Mall,1313,21182 Salmon Run Mall Loop W,,Watertown,NY,13601,,315-782-0731,,,,,
Green Acres Mall,0103,1057 Green Acres Mall,,Valley Stream,NY,11581-1531,,516-256-2043,,,,,
626 Broadway,0255,,,New York,NY,10012,,212-388-1460,,,,,
34 W 34th Street,0300,,,New York,NY,10001,,212-695-8416,,,,,
The Mall at Bay Plaza,0336,200 Baychester Ave,,Bronx,NY,10475,,718-239-4369,,,,,
Northgate Mall,0714,9619 Colerain Ave,,Cincinnati,OH,45251-2005,,513-245-1300,,,,,
Tri County Mall,0799,11700 Princeton Pike,,Cincinnati,OH,45246-2519,,513-671-5799,,,,,
Sandusky Mall,0829,4314 Milan Rd,,Sandusky,OH,44870-7108,,419-624-8607,,,,,
Eastwood Mall,0938,5555 Youngstown Warren Rd,,Niles,OH,44446-4805,,330-544-3804,,,,,
Midway Mall Elyria OH,0972,3300 Midway Mall,,Elyria,OH,44035,,440-324-6478,,,,,
River Valley Mall,1147,1635 River Valley Cir S,,Lancaster,OH,43130-1465,,740-654-2791,,,,,
Tanger Outlets Jeffersonville OH,1208,8835 Factory Shops Blvd,,Jeffersonville,OH,43128,,740-948-0015,,,,,
Indian Mound,1250,771 S 30th St,,Heath,OH,43056,,740-522-2052,,,,,
Great Lakes Mall,1252,7850 Mentor Ave,,Mentor,OH,44060-5590,,440-974-9226,,,,,
Franklin Park,0599,5001 Monroe St,,Toledo,OH,43623,,419-472-2527,,,,,
Richland Mall Mansfield OH,1897,2201 Richland Mall,,Mansfield,OH,44906,,419-529-5355,,,,,
Summit Mall,0223,3265 W Market St,,Akron,OH,44333-3354,,330-869-0549,,,,,
Polaris Fashion Place,0551,1500 Polaris Pkwy,,Columbus,OH,43240,,614-785-1315,,,,,
Fairfield Commons,0721,2727 Fairfield Commons Blvd,,Dayton,OH,45431,,937-320-1856,,,,,
Dayton Mall,0723,2700 Miamisburg Centerville Rd,,Dayton,OH,45459-3730,,937-433-1483,,,,,
Great Northern Mall,1320,578 Great Northern Mall,,North Olmsted,OH,44070,,440-979-1306,,,,,
Southern Park Mall,0726,7401 Market St,,Youngstown,OH,44512,,330-965-9824,,,,,
Shops at Fallen Timbers,0880,3100 Main St,,Maumee,OH,43537,,419-878-3148,,,,,
Beachwood Place,0269,26300 Cedar Rd,,Beachwood,OH,44122,,216-591-0073,,,,,
Tanger Outlet Columbus,0418,400 S Wilson Rd,,Sunbury,OH,43074,,740-965-3896,,,,,
Chapel Hill Mall,0807,2000 Brittan Rd,,Akron,OH,44310-1814,,330-634-0697,,,,,
Kenwood Towne Centre,1024,7875 Montgomery Rd,,Cincinnati,OH,45236,,513-984-3243,,,,,
Eastgate Mall,1051,4601 Eastgate Blvd,,Cincinnati,OH,45245,,513-947-8205,,,,,
Belden Village Mall,1169,4325 Belden Village Mall,,Canton,OH,44718,,330-966-8135,,,,,
Lima Mall,1233,2400 Elida Rd,,Lima,OH,45805,,419-222-2738,,,,,
Southpark Center,1311,1116 Southpark Center,,Strongsville,OH,44136,,440-846-5110,,,,,
Mall at Tuttle Crossing,1384,5043 Tuttle Crossing Blvd,,Dublin,OH,43016,,614-734-1666,,,,,
Findlay Village Mall,1419,1800 Tiffin Ave,,Findlay,OH,45840,,419-420-9747,,,,,
Crocker Park,1565,34 Main St,,Westlake,OH,44145,,440-250-8938,,,,,
Upper Valley Mall,0988,1475 Upper Valley Pike,,Springfield,OH,45504,,937-322-2401,,,,,
The Greene,1016,80 Chestnut St,,Beavercreek,OH,45440,,937-429-0471,,,,,
Aurora Farms Premium Outlet,0483,549 S Chillicothe Rd,,Aurora,OH,44202,,330-995-1709,,,,,
Easton Town Center,0250,136 Easton Town Ctr,,Columbus,OH,43219,,614-478-0750,,,,,
Liberty Center,0392,7100 Foundry Row,,Liberty Township,OH,45069,,513-755-2280,,,,,
Central Mall Lawton OK,0498,200 SW C Ave,,Lawton,OK,73501-4600,,580-353-6970,,,,,
Washington Park Mall,0576,2350 SE Washington Blvd,,Bartlesville,OK,74006,,918-766-0952,,,,,
Penn Square Mall,1094,1901 NW Expy,,Oklahoma City,OK,73118-1607,,405-810-0288,,,,,
Shawnee Mall,1172,4901 N Kickapoo Ave,,Shawnee,OK,74804,,405-275-6512,,,,,
The Outlet Shoppes at Oklahoma City,1162,7624 W Reno Ave,,Oklahoma City,OK,73127,,405-495-5900,,,,,
Woodland Hills Mall,1090,7021 S Memorial Dr,,Tulsa,OK,74133-2025,,918-254-8978,,,,,
Sooner Mall,0870,3337 W Main St,,Norman,OK,73072-4806,,405-292-9640,,,,,
Tulsa Promenade,1430,4107 S Yale Ave,,Tulsa,OK,74135-6064,,918-828-2875,,,,,
Quail Springs Mall,1422,2501 W Memorial Rd,,Oklahoma City,OK,73134-8004,,405-749-0565,,,,,
Washington Square Mall,0155,9426 SW Washington Square Rd,,Portland,OR,97223-4447,,503-639-2152,,,,,
Rogue Valley Mall,0531,1600 N Riverside Ave,,Medford,OR,97501,,541-282-9794,,,,,
Lancaster Mall,1279,831 Lancaster Dr NE,,Salem,OR,97301,,503-391-6020,,,,,
Woodburn Company Stores,1396,1001 N Arney Rd,,Woodburn,OR,97071,,503-981-1123,,,,,
Clackamas Town Center,0731,12000 SE 82nd Ave,,Happy Valley,OR,97086,,503-353-9410,,,,,
Valley River Center,1269,502 Valley River Center,,Eugene,OR,97401,,541-465-3283,,,,,
Lloyd Center Mall,1570,2201 Lloyd Ctr,,Portland,OR,97232,,503-284-4640,,,,,
Salem Center,0322,480 Center St NE,,Salem,OR,97301,,503-581-1028,,,,,
Beaver Valley Mall,0494,570 Beaver Valley Mall,,Monaca,PA,15061,,724-774-1184,,,,,
The Waterfront,0541,149 W Bridge St,,Homestead,PA,15120,,412-461-6477,,,,,
Stroud Mall,0903,273 Stroud Mall,,Stroudsburg,PA,18360,,570-517-5033,,,,,
Westmoreland Mall,1008,5256 US 30,,Greensburg,PA,15601,,724-837-6051,,,,,
Capital City Mall,1065,3539 Capital City Mall Dr,,Camp Hill,PA,17011,,717-737-1866,,,,,
Plymouth Meeting Mall,1124,500 W Germantown Pike,,Plymouth Meeting,PA,19462,,610-940-4477,,,,,
York Galleria,1333,2899 Whiteford Rd,,York,PA,17402,,717-600-1414,,,,,
Millcreek Mall,1412,654 Millcreek Mall,,Erie,PA,16565-0604,,814-860-3351,,,,,
Nittany Mall,1447,2901 E College Ave,,State College,PA,16801-7518,,814-867-6791,,,,,
Park City Center,1463,725 Park City Center,,Lancaster,PA,17601,,717-393-7933,,,,,
Willow Grove Park,0448,2500 W Moreland Rd,,Willow Grove,PA,19090,,215-657-2473,,,,,
Wyoming Valley Mall,1329,20 1/2 Wyoming Vly Mall,,Wilkes-Barre,PA,18702-6809,,570-829-4935,,,,,
Century III Mall,0518,3075 Clairton Rd,,West Mifflin,PA,15123,,412-650-7798,,,,,
Ross Park Mall,1052,1000 Ross Park Mall Dr,,Pittsburgh,PA,15237,,412-366-5730,,,,,
Crossings Factory Stores,0900,1000 Rt 611,,Tannersville,PA,18372,,570-629-4271,,,,,
Berkshire Mall Wyomissing PA,0478,1665 State Hill Rd,,Wyomissing,PA,19610,,610-478-4870,,,,,
Harrisburg Mall,0958,3501 Paxton St,,Harrisburg,PA,17111,,717-561-2948,,,,,
Tanger Outlet Center Washington PA,1888,2200 Tanger Blvd,,Washington,PA,15301,,724-225-4968,,,,,
Lehigh Valley Mall,1493,141 Lehigh Valley Mall,,Whitehall,PA,18052,,610-264-4325,,,,,
Philadelphia Premium Outlets,0942,18 W Lightcap Rd,,Limerick,PA,19464,,610-705-1878,,,,,
Grove City Premium Outlets,0809,1911 Leesburg Grove City Rd,,Grove City,PA,16137-1131,,724-748-4459,,,,,
Montgomery Mall North Wales PA,0833,239 Montgomery Mall,,North Wales,PA,19454-3904,,215-412-8775,,,,,
Oxford Valley Mall,1048,2300 E Lincoln Hwy,,Langhorne,PA,19047-1824,,215-891-0661,,,,,
Viewmont Mall,1050,100 Viewmont Dr,,Scranton,PA,18508,,570-344-7221,,,,,
Exton Square Mall,1134,324 Exton Square Pkwy,,Exton,PA,19341-0325,,610-594-0254,,,,,
The Mall at Robinson,1138,100 Robinson Center Dr,,Pittsburgh,PA,15205,,412-490-9038,,,,,
Neshaminy Mall,1391,608 Neshaminy Mall,,Bensalem,PA,19020,,215-364-0731,,,,,
Logan Valley Mall,1431,5580 Goods Ln,,Altoona,PA,16602,,814-942-2056,,,,,
Galleria at Pittsburgh Mills,1499,360 Pittsburgh Mills Cir,,Tarentum,PA,15084,,724-274-7910,,,,,
South Hills Village,1453,301 South Hills Village,,Pittsburgh,PA,15241,,412-831-3136,,,,,
Plaza at King Of Prussia,1393,160 N Gulph Rd,,King Of Prussia,PA,19406-2937,,610-265-8180,,,,,
Colonial Park Mall,0946,Rt 22 at Colonial Rd,,Harrisburg,PA,17109,,717-545-5209,,,,,
Monroeville Mall,0222,126 Monroeville Mall,,Monroeville,PA,15146-2225,,412-380-9325,,,,,
The Shops at Saucon Valley,1403,2805 Center Valley Pkwy,,Center Valley,PA,18034,,610-798-0276,,,,,
Springfield Mall,0827,1250 Baltimore Pike,,Springfield,PA,19064,,610-328-1512,,,,,
Las Catalinas Mall,0737,400 Calle Betanse,,Caguas,PR,00725-5200,,787-744-1280,,,,,
Santa Rosa Mall Bayamon PR,0341,Carr #2 & Ave Main,,Bayamon,PR,00968,,787-786-6653,,,,,
Plaza Del Sol,0742,RT 167 Intersection PR 29,,Sierra Bayamon,PR,00961-4470,,787-778-1269,,,,,
the Outlet 66 Mall,1275,18400 St Rd,,Canovanas,PR,00729,,787-886-0028,,,,,
Plaza Del Norte,1349,506 Calle Parlo Pardulo,,Hatillo,PR,00659,,787-878-0908,,,,,
Centro Gran Caribe,1439,State Rd 2,,Vega Alta,PR,00692,,787-883-3429,,,,,
Aguadilla Mall,1461,Avenida Los Corazones,,Aguadilla,PR,00603,,787-891-8735,,,,,
Plaza Del Caribe Mall,0254,2050 Ponce by Pass,,Ponce,PR,00717-1313,,787-259-8233,,,,,
Mayaguez Mall,0379,975 Ave Hostos,,Mayaguez,PR,00680-1268,,787-833-2850,,,,,
Plaza Rio Hondo,0469,International Expreso De Diego,,Bayamon,PR,00961,,787-795-5110,,,,,
Plaza Carolina,0582,Avenida Jesus M Frangoso,,Carolina,PR,00983,,787-762-5910,,,,,
Plaza Fajardo,0140,Puerto Rico 3,,Fajardo,PR,00738,,787-863-7878,,,,,
Plaza Palma Real,1114,PR 53 and PR 3,,Humacao,PR,00791,,787-852-0009,,,,,
Plaza Centro,1133,Ave Rafael Cordero,,Caguas,PR,00725,,787-745-0705,,,,,
Puerto Rico Premium Outlets,1141,1 Premium Outlets Blvd,,Barceloneta,PR,00617,,787-846-6616,,,,,
Plaza Guayama,1310,PR #3 KM 134.7,,Guayama,PR,00784,,787-864-4084,,,,,
Plaza Las Americas,1468,525 Ave FD Roosevelt,,San Juan,PR,00918,,787-758-0170,,,,,
Plaza Isabela,1527,PR 2 & PR 4494,,Isabela,PR,00662,,787-872-6153,,,,,
Providence Place,0100,108 Providence Place,,Providence,RI,02903-1752,,401-383-0490,,,,,
Warwick Mall,0376,400 Bald Hill Rd,,Warwick,RI,02886,,401-737-2962,,,,,
Columbiana Center,0738,100 Columbiana Cir,,Columbia,SC,29212-2235,,803-781-2245,,,,,
Northwoods Mall,0926,2150 Northwoods Blvd,,North Charleston,SC,29406-4045,,843-569-0405,,,,,
Westgate Mall Spartanburg SC,1069,205 W Blackstock Rd,,Spartanburg,SC,29301,,864-595-6991,,,,,
Citadel Mall,1278,2070 Sam Rittenberg Blvd,,Charleston,SC,29407,,843-769-7457,,,,,
Gaffney Premium Outlets,0890,1 Factory Shops Blvd,,Gaffney,SC,29341,,864-487-8882,,,,,
Coastal Grand,0236,2000 Coastal Grand Cir,,Myrtle Beach,SC,29577-9613,,843-839-3340,,,,,
Columbia Place,0271,7201 Two Notch Rd,,Columbia,SC,29223,,803-865-2888,,,,,
Magnolia Mall,0550,2701 David H McLeod Blvd,,Florence,SC,29501,,843-292-9590,,,,,
Tanger Outlets Hilton Head II,0990,1414 Fording Island Rd,,Bluffton,SC,29910,,843-837-8007,,,,,
Tanger Outlets at Hwy 17,0333,10839 Kings Rd,,Myrtle Beach,SC,29572-6089,,843-839-0873,,,,,
Haywood Mall,1712,700 Haywood Rd,,Greenville,SC,29607-2721,,864-289-0290,,,,,
Anderson Mall,0976,3101 N Main St,,Anderson,SC,29621-2692,,864-375-9915,,,,,
Village at Sandhill,0596,495 Town Center Pl,,Columbia,SC,29229,,803-462-6772,,,,,
Tanger Outlet Centers Charleston SC,1478,4840 Tanger Outlet Blvd,,North Charleston,SC,29418,,843-566-9612,,,,,
West Empire Mall,0313,1000 W Empire Mall,,Sioux Falls,SD,57106,,605-362-6257,,,,,
Rushmore Mall,0902,2200 N Maple Ave,,Rapid City,SD,57701,,605-342-0975,,,,,
Old Hickory Shopping Center,0492,2021 N Highland Ave,,Jackson,TN,38305-4949,,731-668-4644,,,,,
Opry Mills Mall,0975,433 Opry Mills Dr,,Nashville,TN,37214,,615-823-4950,,,,,
Rivergate Mall,0995,1000 Rivergate Pkwy,,Goodlettsville,TN,37072,,615-859-5830,,,,,
Oak Court Mall,1245,4465 Poplar Ave,,Memphis,TN,38117,,901-762-0640,,,,,
Tanger Factory Outlet Sevierville TN,1248,1645 Parkway,,Sevierville,TN,37862,,865-429-7780,,,,,
Hamilton Place,1284,2100 Hamilton Place Blvd,,Chattanooga,TN,37421,,423-499-5240,,,,,
Governors Square Mall Clarksville TN,1344,2801 Wilma Rudolph Blvd,,Clarksville,TN,37040,,931-645-7768,,,,,
West Town Mall,1408,7600 Kingston Pike,,Knoxville,TN,37919-5603,,865-693-5574,,,,,
Knoxville Center,1892,3001 Knoxville Center Dr,,Knoxville,TN,37924,,865-523-1150,,,,,
Stones River Mall,0782,1720 Old Fort Pkwy,,Murfreesboro,TN,37129-3332,,615-907-2347,,,,,
The Mall at Johnson City,1111,2011 N Roan St,,Johnson City,TN,37601-3130,,423-282-9244,,,,,
Coolsprings Galleria,0814,1800 Galleria Blvd,,Franklin,TN,37067-1605,,615-771-7502,,,,,
College Square,1297,2550 E Morris Blvd,,Morristown,TN,37813,,423-318-0179,,,,,
Wolfchase Galleria,1417,2760 N Germantown Pkwy,,Memphis,TN,38133-8155,,901-266-5324,,,,,
Carriage Crossing,1399,4650 Merchants Park Cir,,Collierville,TN,38017,,901-861-6684,,,,,
Pinnacle at Turkey Creek,0583,11379 Parkside Dr,,Knoxville,TN,37934,,865-671-6723,,,,,
The Avenue Murfreesboro,0281,2615 Medical Center Pkwy,,Murfreesboro,TN,37129,,615-848-7173,,,,,
Ingram Park Mall,0175,6301 NW Loop 410,,San Antonio,TX,78238-3898,,210-681-2259,,,,,
Town East Mall,0177,2052 Town East Mall,,Mesquite,TX,75150-4118,,972-681-4825,,,,,
Irving Mall,0191,3880 Irving Mall,,Irving,TX,75062-5129,,972-257-9718,,,,,
Music City Mall,0306,4101 E 42nd St,,Odessa,TX,79762-7208,,432-363-6388,,,,,
Greenspoint Mall,0928,12300 N Fwy,,Houston,TX,77060-1814,,281-874-9216,,,,,
Barton Creek Square,0497,2901 S Capital of Texas Hwy,,Austin,TX,78746-8103,,512-327-7164,,,,,
The Parks at Arlington,0532,3811 S Cooper St,,Arlington,TX,76015-4120,,817-472-9411,,,,,
Golden Triangle Mall,0540,2201 S I-35 E,,Denton,TX,76205,,940-891-4748,,,,,
Post Oak Mall,0567,1500 Harvey Rd,,College Station,TX,77840-3713,,979-695-0002,,,,,
Pasadena Town Square Mall,0572,131 Pasadena Town Square Mall,,Pasadena,TX,77506-4894,,713-475-8048,,,,,
Sunland Park Mall,0577,750 Sunland Park Dr,,El Paso,TX,79912-6710,,915-587-8307,,,,,
Longview Mall,0759,3500 McCann Rd,,Longview,TX,75605-4416,,903-234-0677,,,,,
Westgate Mall Amarillo TX,0761,7701 W I-40,,Amarillo,TX,79121-0520,,806-352-4020,,,,,
Richland Mall Waco TX,0793,6001 W Waco Dr,,Waco,TX,76710,,254-399-6309,,,,,
Midland Park Mall,0846,4511 N Midkiff Rd,,Midland,TX,79705-3249,,432-689-0734,,,,,
Willow Brook Mall,0877,2000 Willowbrook Mall,,Houston,TX,77070-5715,,281-890-4203,,,,,
Central Mall Port Arthur TX,0935,3100 Hwy 365,,Port Arthur,TX,77642-7724,,409-722-4114,,,,,
Katy Mills,0974,5000 Katy Mills Cir,,Katy,TX,77494-8254,,281-644-2800,,,,,
First Colony Mall,1074,16535 Southwest Fwy,,Sugar Land,TX,77479-2322,,281-565-3660,,,,,
Hulen Mall,1123,4800 S Hulen St,,Ft. Worth,TX,76132-1498,,817-423-9745,,,,,
Grapevine Mills,1127,3000 Grapevine Mills Pkwy,,Grapevine,TX,76051-2018,,214-513-8994,,,,,
Lakeline Mall,1128,11200 Lakeline Mall Dr,,Cedar Park,TX,78613,,512-331-1176,,,,,
Southpark Mall,1146,2310 SW Military Dr,,San Antonio,TX,78224-1409,,210-927-3055,,,,,
Rolling Oaks Mall,1174,6909 N Loop 1604 E,,San Antonio,TX,78247-5317,,210-651-9179,,,,,
Baybrook Mall,1345,1106 Baybrook Mall,,Friendswood,TX,77546-2740,,281-218-6160,,,,,
Temple Mall,1407,3111 S 31st St,,Temple,TX,76502,,254-899-8897,,,,,
Sunset Mall,1411,4001 Sunset Dr,,San Angelo,TX,76904-5609,,325-224-4711,,,,,
Bassett Center,1460,6101 Gateway Blvd W,,El Paso,TX,79925,,915-774-8868,,,,,
Firewheel Town Center,1484,420 Cedar Sage Dr,,Garland,TX,75040,,972-530-6094,,,,,
Northpark Center,0561,8687 N Central Expy,,Dallas,TX,75225,,214-363-4920,,,,,
Midway Mall Sherman TX,0216,4800 Texoma Pkwy,,Sherman,TX,75090-2083,,903-892-1134,,,,,
Mall Del Norte,0234,5300 San Dario Ave,,Laredo,TX,78041-3036,,956-726-9187,,,,,
Sikes Center,0486,3111 Midwestern Pkwy,,Wichita Falls,TX,76308-2816,,940-691-1300,,,,,
Almeda Mall,0510,12200 Gulf Fwy,,Houston,TX,77034,,713-943-9579,,,,,
North Star Mall,0511,7400 San Pedro,,San Antonio,TX,78216-8315,,210-342-6215,,,,,
Vista Ridge Mall,0512,2401 S Stemmons Freeway,,Lewisville,TX,75067-2305,,972-315-0181,,,,,
Collin Creek Mall,0522,811 N Central Expy,,Plano,TX,75075-8866,,972-578-1174,,,,,
San Jacinto Mall,0552,1552 San Jacinto Mall,,Baytown,TX,77521-9799,,281-421-5601,,,,,
Mall of Abilene,0756,4310 Buffalo Gap Rd,,Abilene,TX,79606,,325-695-4681,,,,,
Central Mall Texarkana TX,0758,2400 Richmond Rd,,Texarkana,TX,75503,,903-831-4108,,,,,
Round Rock Premium Outlets,1838,4401 N I-35,,Round Rock,TX,78664,,512-864-2098,,,,,
Rio Grande Valley Premium Outlet,1112,5001 E Expy 83,,Mercedes,TX,78570,,956-565-2002,,,,,
Mall De Las Aguilas,0050,455 S Bibb Ave,,Eagle Pass,TX,78852-5017,,830-757-8871,,,,,
Pearland Town Center,1231,11200 Broadway St,,Pearland,TX,77584,,713-340-1428,,,,,
Paragon Outlets Grand Prairie,0243,2950 W I-20,,Grand Prairie,TX,75052,,972-602-6760,,,,,
Southlake Town Square,0260,234 State St,,Southlake,TX,76092,,817-310-3660,,,,,
Allen Premium Outlets,0270,820 W Stacy Rd,,Allen,TX,75013,,972-678-0421,,,,,
Houston Premium Outlets,1490,29300 Hempstead Rd,,Cypress,TX,77433,,281-758-4799,,,,,
The Domain II,1895,3220 Amy Donovan Plaza,,Austin,TX,78758,,512-491-0672,,,,,
The Outlets at Corpus Christi Bay,1580,500 N Hwy 77,,Robstown,TX,78380,,361-387-0129,,,,,
Outlet Shoppes at Laredo,413,1600 Water St,,Laredo,TX,78040,,956-898-3869,,,,,
Stonebriar Centre,1107,2601 Preston Rd,,Frisco,TX,75034,,972-377-0167,,,,,
North East Mall,1117,1101 Melbourne Rd,,Hurst,TX,76053-6205,,817-284-3955,,,,,
Valle Vista Mall,0835,2000 S Expy 83,,Harlingen,TX,78552-5902,,956-421-3605,,,,,
La Plaza Mall,0905,2200 S 10th St,,McAllen,TX,78503-5435,,956-994-1168,,,,,
Parkdale Mall,0952,6155 Eastex Fwy,,Beaumont,TX,77706-6700,,409-924-0707,,,,,
Ridgmar Mall,0954,2078 Green Oaks Rd,,Fort Worth,TX,76116-1709,,817-569-9508,,,,,
LA Palmera Mall,0955,5488 S Padre Island Dr,,Corpus Christi,TX,78411,,361-991-9643,,,,,
Broadway Square,0978,4601 S Broadway,,Tyler,TX,75703-1330,,903-561-4884,,,,,
Cielo Vista Mall,0981,8401 Gateway Blvd W,,El Paso,TX,79925-5600,,915-779-7523,,,,,
Rivercenter,0994,849 E Commerce St,,San Antonio,TX,78205-3913,,210-354-1836,,,,,
West Oaks Mall,1136,100 West Oaks Mall,,Houston,TX,77082-1700,,281-556-1912,,,,,
Sunrise Mall Brownsville TX,1137,2370 N Expy,,Brownsville,TX,78526-4508,,956-541-8813,,,,,
Lufkin Mall,1143,4600 S Medford Dr,,Lufkin,TX,75901,,936-639-9844,,,,,
Victoria Mall,1144,7800 N Navarro St,,Victoria,TX,77904-2611,,361-485-0470,,,,,
Brazos Mall,1227,100 Hwy 332 W,,Lake Jackson,TX,77566,,979-285-0042,,,,,
South Plains Mall,1307,6002 Slide Rd,,Lubbock,TX,79414,,806-785-0568,,,,,
The Galleria II,1376,5085 Westheimer,,Houston,TX,77056,,713-961-0300,,,,,
Killeen Mall,1420,2100 S WS Young Dr,,Killeen,TX,76543-5399,,254-680-2870,,,,,
Memorial City,1423,674 Memorial City Way,,Houston,TX,77024,,713-984-2784,,,,,
The Shops at La Cantera,1283,15900 La Cantera Pkwy,,San Antonio,TX,78256,,210-641-1957,,,,,
The Woodlands Mall,1386,1201 Lake Woodlands Dr,,The Woodlands,TX,77380,,281-292-6932,,,,,
Tanger Outlet Center San Marcos TX,1019,4015 S I-35,,San Marcos,TX,78666,,512-754-6750,,,,,
Galleria Dallas,1482,13350 Dallas Pkwy,,Dallas,TX,75240,,972-385-8270,,,,,
Outlet Shoppes at El Paso,0154,7051 S Desert Blvd,,Canutillo,TX,79835-8558,,915-877-4408,,,,,
Deerbrook Mall,1331,20131 Hwy 59 N,,Humble,TX,77338,,281-319-4599,,,,,
Sharpstown Center,1374,7500 Bellaire Blvd,,Houston,TX,77036-5018,,713-271-8203,,,,,
Uptown Village at Cedar Hill,0948,305 W FM 1382,,Cedar Hill,TX,75104,,972-293-1182,,,,,
Galveston Houston Tanger Outlets,0274,5885 Gulf Freeway,,Texas City,TX,77591,,281-534-4617,,,,,
Valley Fair Mall West Valley City UT,0315,3601 S 2700 W,,West Valley City,UT,84119,,801-982-0838,,,,,
Newgate Mall,0771,3651 Wall Ave,,Ogden,UT,84405-1504,,801-622-8814,,,,,
Provo Towne Centre,0792,1200 Towne Centre Blvd,,Provo,UT,84601-5947,,801-852-5747,,,,,
The Gateway,1006,60 S Rio Grande St,,Salt Lake City,UT,84101,,801-456-0322,,,,,
Red Cliffs Mall,1251,1770 Red Cliffs Dr,,St. George,UT,84790-8159,,435-688-0684,,,,,
University Mall Orem UT,0598,575 E University Pkwy,,Orem,UT,84097,,801-226-2133,,,,,
South Towne Center,0774,10450 S State St,,Sandy,UT,84070-4135,,801-501-7493,,,,,
Fashion Place Mall,1106,6191 S State St,,Murray,UT,84107-7258,,801-266-3708,,,,,
Layton Hills Mall,0832,1201 N Hill Field Rd,,Layton,UT,84041-2103,,801-444-3161,,,,,
Park City Outlet Center,1312,6699 N Landmark Dr,,Park City,UT,84098,,435-658-1566,,,,,
Outlets at Traverse Mountain,0265,3700 N Cabelas Blvd,,Lehi,UT,84043,,801-901-1334,,,,,
City Creek Center,0408,51 S Main St,,Salt Lake City,UT,84111,,801-363-1738,,,,,
Valley Mall Harrisonburg VA,0160,1925 E Market St,,Harrisonburg,VA,22801-3432,,540-438-5882,,,,,
Chesterfield Towne Center,0707,11500 Midlothian Tpke,,Richmond,VA,23235-4761,,804-897-2889,,,,,
Chesapeake Square,0734,4200 Portsmouth Blvd,,Chesapeake,VA,23321-2100,,757-465-6010,,,,,
Apple Blossom Mall,0743,1850 Apple Blossom Dr,,Winchester,VA,22601-5187,,540-662-9609,,,,,
Valley View Mall Roanoke VA,1070,4802 Valley View Blvd NW,,Roanoke,VA,24012-2019,,540-366-4550,,,,,
Potomac Mills,1149,2700 Potomac Mills Cir,,Woodbridge,VA,22192-4625,,703-491-1294,,,,,
Short Pump Town Center,1211,11800 W Broad St,,Richmond,VA,23233,,804-364-3328,,,,,
Pembroke Mall,1400,4554 Virginia Beach Blvd,,Virginia Beach,VA,23462,,757-456-0083,,,,,
Lynnhaven Mall,0560,701 Lynnhaven Pkwy,,Virginia Beach,VA,23452-7299,,757-486-7476,,,,,
New River Valley Mall,0530,782 New River Rd,,Christiansburg,VA,24073,,540-381-0493,,,,,
Fashion Center at Pentagon City,0081,1100 S Hayes St,,Arlington,VA,22202-4907,,703-415-2480,,,,,
Springfield Town Center,0303,6559 Springfield Mall,,Springfield,VA,22150,,703-924-5173,,,,,
Charlottesville Fashion Square,0785,1600 Rio Rd E,,Charlottesville,VA,22901-1402,,434-973-0712,,,,,
River Ridge Mall,1086,3405 Candlers Mountain Rd,,Lynchburg,VA,24502-2241,,434-239-0136,,,,,
Greenbrier Mall,1087,1401 Greenbrier Pkwy,,Chesapeake,VA,23320-2890,,757-424-6436,,,,,
Piedmont Mall,0842,325 Piedmont Dr,,Danville,VA,24540-4028,,434-791-3080,,,,,
Dulles Town Center,0918,21100 Dulles Town Cir,,Dulles,VA,20166-2400,,703-450-7718,,,,,
Patrick Henry Mall,1226,12300 Jefferson Ave,,Newport News,VA,23602,,757-930-1579,,,,,
Fair Oaks Mall,1356,11946U Fair Oaks Mall,,Fairfax,VA,22033,,703-218-0764,,,,,
Macarthur Center,1382,300 Monticello Ave,,Norfolk,VA,23510,,757-616-0516,,,,,
Regency Square Mall Richmond VA,0527,1404 N Parham Rd,,Richmond,VA,23229,,804-740-1173,,,,,
Manassas Mall,0587,8300 Sudley Rd,,Manassas,VA,20109,,703-330-0682,,,,,
Spotsylvania Towne Centre,1480,480 Spotsylvania Mall,,Fredericksburg,VA,22407,,540-548-3632,,,,,
Tysons Corner Center,0343,1916 Chain Bridge Rd,,McLean,VA,22102,,703-448-0371,,,,,
Premium Outlets at Williamsburg,1305,5555 Richmond Rd,,Williamsburg,VA,23188,,757-220-8445,,,,,
Peninsula Town Center,0251,2366 Mcmenamin St,,Hampton,VA,23666,,757-827-0731,,,,,
University Mall Burlington VT,1898,155 Dorset St,,South Burlington,VT,05403,,802-863-5623,,,,,
South Hill Mall,0739,3500 S Meridian,,Puyallup,WA,98373-3774,,253-840-5409,,,,,
Bellis Fair Mall,0763,One Bellis Fair Pkwy,,Bellingham,WA,98226-5590,,360-734-8141,,,,,
Southcenter Westfield Mall,0789,2800 Southcenter Mall,,Seattle,WA,98188-2819,,206-244-1161,,,,,
Valley Mall Union Gap WA,0904,2529 Main St,,Union Gap,WA,98903,,509-248-7118,,,,,
Capital Shopping Centre,1414,625 Black Lake Blvd,,Olympia,WA,98502-8601,,360-705-2352,,,,,
Vancouver Westfield,1462,8700 NE Vancouver Mall Dr,,Vancouver,WA,98662,,360-882-4174,,,,,
Seattle Premium Outlet,1381,10600 Quil Ceda Blvd,,Tulalip,WA,98271,,360-716-3928,,,,,
Alderwood Mall,0730,3000 184th St SW,,Lynnwood,WA,98037,,425-775-3503,,,,,
Spokane Valley Mall,0862,14700 E Indiana Ave,,Spokane,WA,99216,,509-892-1537,,,,,
Columbia Center,0982,1321 N Columbia Center Blvd,,Kennewick,WA,99336-1164,,509-374-0135,,,,,
North Town Mall,0991,4750 N Division St,,Spokane,WA,99207-1431,,509-489-3036,,,,,
The Outlet Collection Seattle,1135,1101 Supermall Way,,Auburn,WA,98001,,253-735-3560,,,,,
Cascade Mall,1159,725 Cascade Mall Dr,,Burlington,WA,98233-3253,,360-757-4064,,,,,
Kitsap Mall,1188,10315 Silverdale Way NW,,Silverdale,WA,98383,,360-698-0139,,,,,
Northgate Shopping Center,1229,401 NE Northgate Way,,Seattle,WA,98125,,206-417-5199,,,,,
Tacoma Mall,1466,4502 S Steele St,,Tacoma,WA,98409-7225,,253-671-1352,,,,,
Southridge Mall,1040,5300 S 76th St,,Greendale,WI,53129,,414-423-5425,,,,,
West Towne Mall,1830,8 West Towne Mall,,Madison,WI,53719,,608-827-6102,,,,,
Valley View Mall,0359,3800 State Rd 16,,La Crosse,WI,54601,,608-779-0516,,,,,
East Towne Mall,0701,124 East Towne Mall,,Madison,WI,53704-3744,,608-245-1779,,,,,
Fox River Mall,0747,4301 W Wisconsin Ave,,Appleton,WI,54913,,920-991-1838,,,,,
Pleasant Prairie Premium Outlet,0953,11601 108Th St,,Pleasant Prairie,WI,53158,,262-857-2824,,,,,
Oakwood Mall,0765,4800 Golf Rd,,Eau Claire,WI,54701,,715-839-0677,,,,,
Regency Mall,1225,5784 Durand,,Racine,WI,53406,,262-598-0598,,,,,
Mayfair Mall,1253,2500 N Mayfair Rd,,Wauwatosa,WI,53226,,414-476-1058,,,,,
Bay Park Square,1262,233 Bay Park Square,,Green Bay,WI,54304,,920-497-8896,,,,,
Outlets at The Dells,1885,210 N Gasser Rd,,Baraboo,WI,53913,,608-253-5691,,,,,
Bayshore Mall Glendale WI,1060,5800 N Bayshore Dr,,Glendale,WI,53217,,414-963-6379,,,,,
Janesville Mall,0945,2500 Milton Ave,,Janesville,WI,53545,,608-756-3859,,,,,
Brookfield Square Mall,0245,95 N Moorland Rd,,Brookfield,WI,53005-6053,,262-641-0801,,,,,
Charleston Town Center Mall,0772,3000 Charleston Town Center,,Charleston,WV,25389-2085,,304-344-4209,,,,,
Morgantown Mall,0899,9319 Mall Rd,,Morgantown,WV,26501-8536,,304-983-6179,,,,,
Huntington Mall,0927,500 Mall Rd,,Barboursville,WV,25504,,304-736-1666,,,,,
Crossroads Mall,0767,5475 Robert C Byrd Dr,,Mt Hope,WV,25880,,304-253-9521,,,,,
Meadowbrook Mall,1387,2399 Meadowbrook Rd,,Bridgeport,WV,26330,,304-842-2596,,,,,
Grand Central Mall,0998,247 Grand Central Ave,,Vienna,WV,26105,,304-485-5768,,,,,
Frontier Mall,0863,1400 Dell Range Blvd,,Cheyenne,WY,82009-4826,,307-635-1870,,,,,
Eastridge Mall,1373,601 SE Wyoming Blvd,,Casper,WY,82609,,307-234-9433,,,,,
