store_name,store_number,address,address2,city,state,zip_code,country,phone_number,latitude,longitude,store_hours,other_fields,coming_soon
LEBEDAS BOOT HIDE AWAY,,232 old sand rd,,fairfield,NJ,07004-1500,US,,40.89064000000000,-74.27484300000000,,,0
CUT N RUN BOOTERY,,859 n  route 17,,paramus,NJ,07652-3103,US,201-444-3527,40.97836800000000,-74.08306500000000,,,0
CHAAR SADDLERY,,1635 airport rd,,allentown,PA,18109-9123,US,610-437-9978,40.63252000000000,-75.43932500000000,,,0
4 SEASONS COUNTRY LIVING,,9057 hamilton blvd,,breingsville,PA,18031-1519,US,610-841-5199,40.54033200000000,-75.63525400000000,,,0
HOWARD MERKEL SHOES &AMP; SNEAKERS,,1070 e philadelphia ave,,gilbertsville,PA,19525,US,610-369-2870,40.32327900000000,-75.61729400000000,,,0
MICKEY FINN STORES INC,,874 berlin turnpike,,berlin,CT,06037-2456,US,860-828-6547,41.62668700000000,-72.74079100000000,,,0
COWTOWN COWBOY OUTFITTERS,,761 rt 40,,woodstown,NJ,08098-2912,US,856-769-1761,39.66250000000000,-75.37594600000000,,,0
TABCOM.LLC,,1 maplewood drive,,hazle township,PA,18202-9790,US,570-384-5555,40.93201900000000,-76.04599000000000,,,0
NEW SHOE STORE PLUS,,700 hunter hwy ste 1,,tunkhannock,PA,18657-7986,US,570-836-3575,41.53868800000000,-75.94658800000000,,,0
BEST OF THE WEST LLC,,1472 riverdale st,,w springfield,MA,01089-4640,US,413-732-8800,42.14395300000000,-72.62942800000000,,,0
KILLER HATS,,3000 lincoln hwy,,gordonville,PA,17529-9527,US,717-687-7666,40.01262500000000,-76.14285500000000,,,0
ALLIES TACK &AMP; FEED,,3700 quaker ln,,n kingstown,RI,02852-3010,US,401-294-9121,41.59688000000000,-71.49585700000000,,,0
MARKS OUTFITTERS,,22 s main st,,hughesville,PA,17737-1408,US,570-584-2616,41.24090700000000,-76.72461700000000,,,0
CAPE HORN CORNER TACK SHOP,,3040 windsor rd,,red lion,PA,17356-9119,US,717-244-6425,39.90280600000000,-76.58089100000000,,,0
TALL PINES COUNTRY STORE,,796 kressler rd,,millersburg,PA,17061,US,717-362-3025,40.60372700000000,-76.85155000000000,,,0
CHICKS HARNESS &AMP; SUPPLY INC,,18011 s dupont hwy,,harrington,DE,19952-2135,US,302-398-4630,38.91022000000000,-75.56959600000000,,,0
POTPOURRI GROUP INC,,3 disribution center cir,,littleton,MA,01460-6248,US,978-256-4100,42.11199500000000,-71.67698800000000,,,0
DOUBLE M WESTERN WEAR,,678 state route 67,,malta,NY,12020-3713,US,518-885-9543,42.96877200000000,-73.82135200000000,,,0
WAYNES WESTERN WORLD,,276 w main st,,northborough,MA,01532-2136,US,508 393-9378,42.30872500000000,-71.65730500000000,,,0
BACK TO BASICS WESTERN WEAR,,735 harrisburg pike,,dillsburg,PA,17019-1622,US,717-432-2668,40.12428900000000,-77.02551600000000,,,0
GONZALEZ CLOTHING INC,,4446 lennox blvd,,lennox,CA,90304-2305,US,310-677-0366,33.93817100000000,-118.35435100000000,,,0
BOOT BARN INC #7,,18420 hawthorne blvd,,torrance,CA,90504,US,310-214-8555,33.86330100000000,-118.35212100000000,,,0
BROKEN HORN INC,,1026 leorita st,,baldwin park,CA,91706-5847,US,626-337-5142,34.06600800000000,-117.98798400000000,,,0
SURPLUS DISTRIBUTORS INC,,6279 van nuys blvd,,van nuys,CA,91401-2711,US,818-782-0990,34.18466300000000,-118.44890400000000,,,0
BOOT BARN INC #18,,3462 katella ave,,los alamitos,CA,90720-2334,US,562-430-7752,33.80289800000000,-118.07336800000000,,,0
BOOT BARN INC #19,,7020 topanga canyon blvd,,canoga park,CA,91303-1960,US,818-593-4200,34.19797600000000,-118.60548200000000,,,0
BOOT BARN INC #9,,659 w arrow hwy,,san dimas,CA,91773,US,909-599-1955,34.10567900000000,-117.81883700000000,,,0
BOOT BARN INC #5,,27564 sierra hwy,,canyon country,CA,91351,US,661-251-0888,34.41570300000000,-118.45613700000000,,,0
BOOT BARN INC #1,,607 n tustin st,,orange,CA,92867-7137,US,714-538-2668,33.79703700000000,-117.83525600000000,,,0
BOOT BARN INC - CONTAINER,,11251 beech avenue ste 200,,fontana,CA,92337,US,,33.69438000000000,-117.92888400000000,,,0
BOOT BARN INC #210,,8353 n booth ave,,kansas city,MO,64157,US,,33.66460100000000,-117.76258800000000,,,0
BOOT BARN INC #700,,11251 beech avenue suite #200,,fontana,CA,92337,US,888-440-2668,33.66487500000000,-117.76091900000000,,,0
BOOT BARN INC #37,,960 6th st ste 104,,norco,CA,92860,US,718-288-8181,33.93791400000000,-117.54228800000000,,,0
BOOT BARN INC #8,,23762 b mercury road,,lake forest,CA,92630,US,949-455-0211,33.62371000000000,-117.71643300000000,,,0
BOOT BARN INC #0201,,3271 marketplace drive ste a-5,,council bluff,IA,51501,US,,34.04891900000000,-117.47196200000000,,,0
BOOT BARN #215,,5641 lonetree way #101,,brentwood,CA,94513,US,,34.04891900000000,-117.47196200000000,,,0
BOOT BARN #212,,6420 eastex freeway,,beaumont,TX,77708-4338,US,,34.04891900000000,-117.47196200000000,,,0
BOOT BARN INC #0226,,7940 lyles lane nw,,concord,NC,28027-7111,US,,34.04891900000000,-117.47196200000000,,,0
BOOT BARN #214,,7800 rivers ave ste 1930,,north charleston,SC,29406-4078,US,,34.04891900000000,-117.47196200000000,,,0
ALCALA MENS WEAR,,1733 w chicago ave,,chicago,IL,60622-5009,US,312-226-0152,41.89599200000000,-87.67103600000000,,,0
MARIAS FASHIONS,,4136 w 26th st,,chicago,IL,60623-4312,US,773-762-2610,41.84421200000000,-87.72816800000000,,,0
BIG R STORES #10,,15830 s bell road,,homer glen,IL,60491-8403,US,708-645-0857,41.60086200000000,-87.93141200000000,,,0
L K TACK SHOP LTD,,26359 s lagrange rd,,monee,IL,60449,US,815-469-5882,41.40937600000000,-87.88075300000000,,,0
HUB BOOTERY INC,,1198 n main st,,crown point,IN,46307-2715,US,219-663-0463,41.41841100000000,-87.36393300000000,,,0
SANCHEZ BROTHERS #3,,1046 n lake street,,aurora,IL,60506-2434,US,,41.77956600000000,-88.31650100000000,,,0
EL GALLO DE ORO,,308 s mclean blvd b-7,,elgin,IL,60123-7137,US,847-791-5880,42.02564300000000,-88.31472000000000,,,0
BOOT BARN INC #109,,6170 w grand ave,,gurne,IL,60031-4592,US,,42.38329400000000,-87.95506700000000,,,0
TIMMERMANN,,29550 w roberts rd,,island lake,IL,60042-8421,US,847-526-8066,42.26571000000000,-88.19592400000000,,,0
BIG R STORES #11,,1860 n richmond road,,mchenry,IL,60051-5416,US,,42.35321400000000,-88.26507900000000,,,0
RURAL KING SUPPLY #55,,15606 w route 34,,plano,IL,60545-9686,US,630.552.8754,41.65562100000000,-88.56199600000000,,,0
BIG R STORES #6,,2655 sycamore dr,,morris,IL,60450,US,815-942-2153,41.38500500000000,-88.42352700000000,,,0
FAMILY FARM AND HOME #03,,1391 cinema way,,benton harbor,MI,49022-2328,US,269-927-1983,42.07631100000000,-86.42636800000000,,,0
AL BAR RANCH WEAR,,55345 fir rd,,mishawaka,IN,46545-4213,US,574-259-1188,41.69584400000000,-86.30568700000000,,,0
RURAL KING SUPPLY #35,,2707 s 11th st,,niles,MI,49120-4419,US,269-687-9420,41.77430700000000,-86.25068200000000,,,0
BIG R STORES #16,,1240 north 7th st,,rochelle,IL,61068-1198,US,815-461-6622,41.93686700000000,-89.07047200000000,,,0
BIG R STORES #1,,1200 e walnut st,,watseka,IL,60970-1804,US,815-432-4504,40.77559700000000,-87.70905800000000,,,0
CAMS INC,,4275 w layton ave,,greenfield,WI,53221-2045,US,414-325-7208,42.95927700000000,-87.96849100000000,,,0
HORSE SADDLE SHOP,,1205 w plymouth st ste c,,bremen,IN,46506-1972,US,574-546-2216,41.44644100000000,-86.16103000000000,,,0
WESTERN CATTLE CO,,1320 38th st,,peru,IL,61354-1104,US,815-224-2668,41.35870580000000,-89.12242660000000,,,0
ACADEMY,,2404 s.w. frwy,,houston,TX,77098,US,713-520-1795,29.72972700000000,-95.42012200000000,,,0
ACADEMY,,10375 n frwy,,houston,TX,77036,US,,29.69775700000000,-95.37535700000000,,,0
CAVENDERS BOOT CITY #020,,13580 e frwy,,houston,TX,77015,US,713-450-3434,29.78178800000000,-95.43932500000000,,,0
BOOT BARN INC #151,,5080 richmond ave,,houston,TX,77056-7402,US,,29.73185000000000,-95.46432400000000,,,0
CAVENDERS BOOT CITY #023,,2505 s loop  w 610,,houston,TX,77054-2633,US,713-664-8999,29.67702700000000,-95.41507200000000,,,0
ACADEMY,,12700 n.w. frwy,,houston,TX,77092,US,713-895-7395,29.81732400000000,-95.46710900000000,,,0
ACADEMY,,8723 katy frwy,,houston,TX,77024,US,713-465-9565,29.78369900000000,-95.50408900000000,,,0
CAVENDERS BOOT CITY #017,,10102 gulf frwy,,houston,TX,77034-1813,US,713-944-5788,29.64529700000000,-95.24690800000000,,,0
ACADEMY,,565 uvalde,,houston,TX,77015,US,713-453-8366,29.78754400000000,-95.18643400000000,,,0
ACADEMY,,8236 s gessner,,houston,TX,77036,US,713-271-1679,29.68918200000000,-95.53280500000000,,,0
ACADEMY,,10414 gulf frwy i 45 @ edgebrook,,edgebrook,TX,77034,US,713-944-7511,29.64846900000000,-95.22045900000000,,,0
BOOT BARN INC #206,,10515 katy fwy #b and #c,,houston,TX,77024-1022,US,,29.78276000000000,-95.55748200000000,,,0
ACADEMY,,5500 spencer hwy,,pasadena,TX,77505,US,281-998-1632,29.66462300000000,-95.15672500000000,,,0
CAVENDERS BOOT CITY #030,,12141 katy frwy,,houston,TX,77079-1501,US,281-597-1110,29.78376100000000,-95.59997800000000,,,0
CAVENDERS BOOT CITY #031,,5970 fairmont pkwy,,pasadena,TX,77505-4020,US,281-998-2668,29.64897600000000,-95.14879600000000,,,0
CAVENDERS BOOT CITY #021,,14045 nw frwy,,houston,TX,77040,US,713-462-1122,29.88925700000000,-95.58244900000000,,,0
ACADEMY,,14500 westheimer,,houston,TX,77077,US,281-870-0105,29.73584400000000,-95.64151800000000,,,0
ACADEMY,,9805 fm 1960 e. bypass,,humble,TX,77338,US,281-446-2013,30.00161000000000,-95.27415100000000,,,0
BOOT BARN INC #181,,9795 fm 1950,,humble,TX,77338,US,,30.00500300000000,-95.27493200000000,,,0
CAVENDERS BOOT CITY #019,,2345 cypress creek pkwy,,houston,TX,77068,US,281-444-4588,30.00565100000000,-95.46512600000000,,,0
CAROLS WESTERN APPAREL,,7347 ritchie hwy,,glen burnie,MD,21061-3104,US,410-761-1992,39.13873200000000,-76.60090400000000,,,0
CAROLS WESTERN WEAR,,9600 fort meade rd.,,laurel,MD,20707-4404,US,,39.09573300000000,-76.84118400000000,,,0
WEST WORLD,,275 leedy rd,,gettysburg,PA,17325-7536,US,717-334-6808,39.90371500000000,-77.19005300000000,,,0
LOST CREEK SHOE SHOP INC,,643 oakland rd,,mifflintown,PA,17059-8659,US,717-463-3117,40.62299700000000,-77.31759400000000,,,0
WJ COLT FAIRFAX,,2832 dorr ave ste b,,fairfax,VA,22031-1524,US,703-698-0113,38.87506800000000,-77.23475800000000,,,0
KAUFFMANS STORE,,22 meadow ln,,loganton,PA,17747-0064,US,570-725-3679,41.03715700000000,-77.30781700000000,,,0
STOCKMAN FEEDS,,7315 w buckeye rd,,phoenix,AZ,85043-4202,US,623-936-5549,33.43624100000000,-112.21706500000000,,,0
SABAS #3,,7254 main st,,scottsdale,AZ,85251-4413,US,480-949-7404,33.49331000000000,-111.92471300000000,,,0
SABAS #2,,3965 n brown rd,,scottsdale,AZ,85251-4409,US,480-947-7664,33.49389000000000,-111.92422100000000,,,0
COWTOWN BOOTS #3,,2710 w thunderbird rd,,phoenix,AZ,85053-7713,US,915-593-2565,33.61231700000000,-112.11929500000000,,,0
SABAS #9,,10020 w mcdowell rd ste 104,,avondale,AZ,85323,US,623-873-6889,33.46477100000000,-112.27617800000000,,,0
SABAS #4,,7231 e shea blvd,,scottsdale,AZ,85260-6423,US,480-948-9201,33.58187400000000,-111.92453200000000,,,0
BOOT BARN INC #34,,1710 s alma school rd,,mesa,AZ,85210-3008,US,714-288-8181,33.38371800000000,-111.85776000000000,,,0
SABAS STORES INC,,3270 n colorado st,,chandler,AZ,85225-1165,US,480-969-7122,33.35270000000000,-111.83874700000000,,,0
BOOT BARN INC #133,,8698 east raintree dr,,scottsdale,AZ,85260-2614,US,,33.62080900000000,-111.89316200000000,,,0
BOOT BARN INC #33,,7909 w campo bello dr,,glendale,AZ,85308,US,623-334-2322,33.64090500000000,-112.23150000000000,,,0
DAVIDS WESTERN STORE INC,,67 w boston st,,chandler,AZ,85225-7801,US,480-963-4496,33.30201200000000,-111.84225400000000,,,0
SHOPPER SUPPLY - CHANDLER,,2880 s alma school rd,,chandler,AZ,85286-4397,US,480-646-1026,33.26324300000000,-111.86172200000000,,,0
C A L RANCH STORES #25,,2075 n pebble creek parkway,,goodyear,AZ,85395-2535,US,,33.46974200000000,-112.38992700000000,,,0
DICKS MERCH &AMP; SUPPLY CHAIN DC #851,,4651 n cotton ln,,goodyear,AZ,85395-9217,US,,33.50230700000000,-112.42217600000000,,,0
ACADEMY,,165 s.w. military dr.,,san antonio,TX,78221,US,210-927-0509,29.35773000000000,-98.49334900000000,,,0
BOOTS N HATS INC,,1922 s w military dr,,san antonio,TX,78221,US,210-922-6332,29.35549600000000,-98.52477200000000,,,0
BOOT BARN INC #357,,3127 se military drive,,san antonio,TX,78223-3989,US,,29.35388200000000,-98.43994800000000,,,0
COWTOWN BOOTS,,4522 fredricksburg rd ste b-50,,san antonio,TX,78201-6536,US,210-736-0990,29.49285100000000,-98.55018900000000,,,0
CAVENDERS BOOT CITY #042,,303 nw loop 410,,san antonio,TX,78216,US,210-377-4241,29.52117100000000,-98.49660200000000,,,0
CAVENDERS BOOT CITY #028,,5075 nw loop 410,,san antonio,TX,78229-5313,US,210-520-2668,29.48753800000000,-98.58837000000000,,,0
TEXAS WW SOUTHSIDE LLC,,6161 nw loop 410 # 103,,san antonio,TX,78238-3302,US,210-549-4843,29.48400100000000,-98.59829000000000,,,0
BOOT BARN INC #309,,6201 nw loop 410,,san antonio,TX,78238-3303,US,,29.47107800000000,-98.61755600000000,,,0
ACADEMY,,2727 n.e. loop 410,,san antonio,TX,78217,US,210-590-0500,29.51718800000000,-98.40976100000000,,,0
ACADEMY,,7555 n.w. loop 410,,san antonio,TX,78245,US,210-523-5191,29.44402300000000,-98.63962400000000,,,0
CAVENDERS BOOT CITY #025,,8640 fourwinds dr,,windcrest,TX,78239,US,210-590-2668,29.52538900000000,-98.37186100000000,,,0
ACADEMY,,2024 n loop 1604 east,,san antonio,TX,78232,US,210-507-4001,29.60663200000000,-98.46056600000000,,,0
BOOT BARN INC #173,,8154 agora pkwy ste 100,,live oak,TX,78154-1317,US,,29.56316100000000,-98.32618100000000,,,0
BOOT BARN INC #147,,17815 la cantera pkwy ste #104,,san antonio,TX,78257,US,,29.60927900000000,-98.59594700000000,,,0
WHEELER'S FEED AND OUTFITTERS,,32450 ih 10 west,,boerne,TX,78006-9225,US,830-249-2656,29.76500600000000,-98.71623600000000,,,0
BILLYS WESTERN WEAR LLC,,1490 s main st,,boerne,TX,78006-3304,US,830-249-3843,29.77344800000000,-98.72190800000000,,,0
D &AMP; D RETAIL LP,,516 e ih 10,,seguin,TX,78155-1417,US,830-379-7340,29.59880100000000,-97.96050500000000,,,0
BENS,,109 n front st,,cotulla,TX,78014-2259,US,830-879-2526,29.72469300000000,-99.07078800000000,,,0
JANETTS,,302 main st,,bandera,TX,78003-1749,US,830-796-8176,29.72469300000000,-99.07078800000000,,,0
CAVENDERS BOOT CITY #040,,4331 i h 35 s,,san marcos,TX,78666,US,512-805-8210,29.82242400000000,-97.99040600000000,,,0
BOOT BARN INC #12,,4411 mercury st #100 a,,san diego,CA,92111-2421,US,858-571-5741,32.82065700000000,-117.14883100000000,,,0
BOOT BARN INC #10,,2405 w vista way,,oceanside,CA,92054-6168,US,760-757-1392,33.18129800000000,-117.33577000000000,,,0
BOOT BARN INC #6,,3394 tyler st,,riverside,CA,92503,US,951-354-9200,33.90566000000000,-117.45628600000000,,,0
BOOT BARN INC #306,,8549 gaylord parkway ste 100,,frisco,TX,75034-1911,US,,33.95183300000000,-117.48198900000000,,,0
BOOT BARN INC #4,,464 east redlands blvd,,san bernardino,CA,92408,US,909-890-1124,34.06323900000000,-117.27530200000000,,,0
BOOT BARN MLB #601,,11251 beech ave ste 200,,fontana,CA,92337,US,,34.04796900000000,-117.47109600000000,,,0
BOOT BARN INC #211,,19380 interstate 45,,spring,TX,77373-5328,US,,34.04796900000000,-117.47109600000000,,,0
BOOT BARN INC #213,,6590 youree dr,,shreveport,LA,71105-4628,US,,34.04796900000000,-117.47109600000000,,,0
BOOT BARN #208,,2727 iowa street,,lawrence,KS,66046,US,,34.04796900000000,-117.47109600000000,,,0
BOOT BARN INC #150,,2911 rio grande blvd #200,,euless,TX,76039-1335,US,,34.04796900000000,-117.47109600000000,,,0
WILD BIILS WESTERN WEAR,,311 n market st,,dallas,TX,75202,US,214-954-1050,32.78113570000000,-96.80698520000000,,,0
EL NUEVO ESTILO WESTERN HATS,,512 w jefferson blvd,,dallas,TX,75208-4924,US,214-948-1649,32.74302700000000,-96.83081700000000,,,0
HUDSON NEWS WESTERN BOOTS,,400 union bower ct ste 442,,irving,TX,75061-5848,US,201-965-5595,32.82434400000000,-96.90612000000000,,,0
SHOEBACCA,,2205 e pioneer dr,,irving,TX,75061-8805,US,,32.81846300000000,-96.91669400000000,,,0
ACADEMY,,8050 forest lane,,dallas,TX,75243,US,214-221-2284,32.90915600000000,-96.76625300000000,,,0
BRONCO WESTERN WEAR LLC,,11500 harry hines blvd ste 115,,dallas,TX,75229-8118,US,972-484-4004,32.89950000000000,-96.89196100000000,,,0
CAVENDERS BOOT CITY #018,,18865 i - h 635,,mesquite,TX,75150-4151,US,972-270-4455,32.79453300000000,-96.62556800000000,,,0
BOOT BARN INC #362,,5850 lyndon b johnson frwy,,dallas,TX,75230-6302,US,,32.92490800000000,-96.80621100000000,,,0
BOOT BARN INC #311,,18500 lbj freeway,,mesquite,TX,75150-5626,US,,32.80469000000000,-96.62562600000000,,,0
CAVENDERS BOOT CITY #014,,2833 lbj fwy,,dallas,TX,75234,US,972-239-1375,32.91130500000000,-96.88356100000000,,,0
ACADEMY,,3677 emporium circle,,mequite,TX,75150,US,972-279-1409,32.81579200000000,-96.62417900000000,,,0
VAQUEROS WESTERN WEAR,,2930 s 1st street ste 500,,garland,TX,75041-3452,US,214-704-3121,32.88076100000000,-96.63048700000000,,,0
CAVENDERS BOOT CITY #039,,2515 centennial dr,,arlington,TX,76011-6610,US,817-640-8899,32.74652200000000,-97.06362500000000,,,0
BOOT BARN INC #305,,2500 e centennial drive,,arlington,TX,76011-6611,US,,32.74542300000000,-97.06508500000000,,,0
ACADEMY,,2428 s. stemmons frwy,,lewisville,TX,75067,US,972-316-5200,33.00553300000000,-96.96590100000000,,,0
ACADEMY,,"3305 dallas pkwy, suite 301",,plano,TX,75093,US,972-781-2970,33.04658700000000,-96.83154300000000,,,0
G C RANCHERS INC,,200 pecan creek st,,red oak,TX,75154-6375,US,817-521-2725,32.51068700000000,-96.81021000000000,,,0
CAVENDERS BOOT CITY #011,,3317 n central expwy,,plano,TX,75023-6900,US,972-881-2668,33.04113700000000,-96.70375500000000,,,0
ACADEMY,,4045 central expressway,,plano,TX,75023,US,972-516-7020,33.04654700000000,-96.70012500000000,,,0
CAVENDERS BOOT CITY #043,,1610 s stemmons fwy,,lewisville,TX,75067,US,972-353-8407,33.02268100000000,-96.98533300000000,,,0
BOOT BARN INC #27,,12915 monterey hwy,,san martin,CA,95046-9576,US,408-683-2686,37.07910700000000,-121.60762400000000,,,0
L A HEARNE CO,,8525 n prunedale,,prunedale,CA,93907,US,408-385-4841,36.79530400000000,-121.66735900000000,,,0
OK CORRAL WESTERN &AMP; WORK WEAR,,1581 e monte vista ave,,vacaville,CA,95688-3111,US,707-437-1137,37.75667400000000,-122.41861500000000,,,0
BOOT BARN INC #46,,1475 n davis rd,,salinas,CA,93907-1994,US,949-453-4400,36.70875000000000,-121.66524200000000,,,0
MANUEL CERVANTES SERVIN,,645 e alisal st,,salinas,CA,93905-2606,US,831-751-6258,36.67377000000000,-121.63330600000000,,,0
EL NUEVO RANCH GRANDE,,720 e alisal st,,salinas,CA,93905-2604,US,408-754-4480,36.67287400000000,-121.63099200000000,,,0
BOOT BARN INC #44,,2225 plaza parkway,,modesto,CA,95350,US,831-449-7724,37.67346100000000,-121.03599000000000,,,0
BOOT BARN INC #28,,331 6th st,,turlock,CA,95380,US,209-667-0141,37.48820200000000,-120.84862200000000,,,0
BOOT BARN INC #32,,4670 central way,,fairfield,CA,94534,US,707-863-8155,38.22009400000000,-122.13251300000000,,,0
CONLIN SUPPLY CO INC #327,,576 warnerville rd,,oakdale,CA,95361-9404,US,209-847-8977,37.74781200000000,-120.83767700000000,,,0
BOOT BARN INC #193,,1269 commerce ave,,atwater,CA,95301-5223,US,,37.34305200000000,-120.61257700000000,,,0
LA MENS WEAR,,304 broadway street,,king city,CA,93930-3133,US,831-386-0312,36.21280900000000,-121.12654400000000,,,0
WOODLAND WESTERN WEAR,,353 w main st ste j,,woodland,CA,95695-6828,US,530-666-6400,38.67763900000000,-121.80032500000000,,,0
LEES FEED &AMP; WESTERN STORE,,4110 mother lode dr,,shingle springs,CA,95682-0550,US,530-677-4891,38.66252000000000,-120.93307900000000,,,0
BOOT BARN INC #185,,3324 w shaw ave,,fresno,CA,93711-3437,US,,36.76235900000000,-119.84699200000000,,,0
BOOT BARN INC #43,,285 west shaw ave,,clovis,CA,93612-3669,US,559-323-4895,36.80901700000000,-119.71554100000000,,,0
ALLENS BOOT CENTER,,1522 s congress ave,,austin,TX,78704-2437,US,512-447-1413,30.24826000000000,-97.75060200000000,,,0
ACADEMY,,4103 n interregional hwy,,austin,TX,78722,US,512-453-7261,30.29195700000000,-97.72125800000000,,,0
BOOT BARN INC #353,,5451b north ih 35,,austin,TX,78723-2429,US,,30.31489000000000,-97.70455600000000,,,0
CAVENDERS BOOT CITY #032,,4435 s lamar,,austin,TX,78745-1553,US,512-892-4747,30.23193900000000,-97.79634300000000,,,0
ACADEMY,,4970 west us hwy 290,,austin,TX,78735,US,512-899-3401,30.23358100000000,-97.81833300000000,,,0
ACADEMY,,6601 burnet rd,,austin,TX,78757,US,512-451-6408,30.34186700000000,-97.73808000000000,,,0
ACADEMY,,801 e. william cannon dr.,,austin,TX,78745,US,512-444-9573,30.18913300000000,-97.77287300000000,,,0
CAVENDERS BOOT CITY #024,,8809 burnet rd,,austin,TX,78757-7009,US,512-451-7474,30.37071700000000,-97.72644400000000,,,0
BOOT BARN INC #354,,9900 south ih 35 bldg b,,austin,TX,78748-3886,US,,30.15727900000000,-97.79238300000000,,,0
ACADEMY,,12250 research blvd,,austin,TX,78759,US,512-343-8800,30.42589700000000,-97.75597700000000,,,0
ALLENS BOOT CENTER,,1051 s ih 35,,round rock,TX,78664-6645,US,512-310-7600,30.47591900000000,-97.67161100000000,,,0
CAVENDERS WESTERN OUTFITTER #77,,5840 n elizabeth st,,pueblo,CO,81008-2177,US,,30.02399600000000,-98.14390200000000,,,0
CAVENDERS BOOT CITY #999,,4295 hays avenue,,tyler,TX,75707-1809,US,903-509-9509,30.02399600000000,-98.14390200000000,,,0
MDH VENTURES LLC,,4200 ih 35 south ste 200,,san marcos,TX,78666-9397,US,,29.82270000000000,-97.98628800000000,,,0
WANDERING COWBOY #3,,4250 clear creek rd unit 413,,fort hood,TX,76544,US,254-532-9898,31.09497600000000,-97.72105700000000,,,0
CAVENDERS BOOT CITY #060,,3110 e central tx expy,,killeen,TX,76543,US,254-519-2668,31.11711900000000,-97.72779600000000,,,0
ACADEMY,,1407 marlandwood rd.,,temple,TX,76502,US,254-899-1597,31.06279400000000,-97.36862600000000,,,0
RURAL KING SUPPLY #79,,860 us hwy 31 s,,greenwood,IN,46143-2403,US,217-254-0555,39.56176400000000,-86.09075300000000,,,0
OUTPOST,,113 n state rd 135,,trafalgar,IN,46181-9507,US,317-878-5928,39.41788600000000,-86.15768600000000,,,0
TRACTOR SUPPLY #114 DIST CTR,,320 enterprise dr,,pendleton,IN,46065,US,317-243-3944,39.99954200000000,-85.77258300000000,,,0
RURAL KING SUPPLY #67,,1800 w state road 44,,shelbyville,IN,46176-1814,US,317-392-7739,39.52219700000000,-85.74934500000000,,,0
RURAL KING SUPPLY #31,,1800 s ohio st,,martinsville,IN,46151-3320,US,765-352-2980,39.41098300000000,-86.42624000000000,,,0
BURDGE BOOTS,,15 putnam plaza,,greencastle,IN,46135,US,765-630-8247,39.67078500000000,-86.75443400000000,,,0
COWPOKES WESTERN OUTFITTERS,,1812 e 53rd st,,anderson,IN,46013-2832,US,765-642-3911,40.06229200000000,-85.65672200000000,,,0
RURAL KING SUPPLY #42,,2401 east wabash st,,frankfort,IN,46041-9400,US,765-659-9321,40.27728200000000,-86.48129800000000,,,0
RURAL KING SUPPLY #32,,2985 n national rd,,columbus,IN,47201-3215,US,812-378-0280,39.22845200000000,-85.89903100000000,,,0
MILROY SHOES,,9214 s state rd 3,,milroy,IN,46156-9694,US,765-629-2109,39.47896400000000,-85.47861100000000,,,0
RURAL KING SUPPLY #29,,127 s memorial dr,,new castle,IN,47362-4947,US,765-593-0590,39.92930500000000,-85.38336600000000,,,0
RURAL KING SUPPLY #43,,1807 n broadway ave,,greensburg,IN,47240-8217,US,812-663-8200,39.35413400000000,-85.48442900000000,,,0
RURAL KING SUPPLY #24,,2947 s washington st,,kokomo,IN,46902-3507,US,765-864-0043,40.45153500000000,-86.12873600000000,,,0
BIG R STORES #19,,1601 us highway 231 s,,crawfordsville,IN,47933,US,865-362-0802,40.15618100000000,-86.90473400000000,,,0
RURAL KING SUPPLY #25,,4000 bethel ave,,munice,IN,47304-5442,US,217-235-7101,40.22118500000000,-85.43358800000000,,,0
RURAL KING SUPPLY #62,,3201 w state route 45 rd,,bloomington,IN,47403,US,812-339-5559,39.11807800000000,-86.62154300000000,,,0
GALVIN ENTERPRIZES,,3438 n broadway ave,,muncie,IN,47303-1307,US,765-288-6329,40.22076800000000,-85.37161700000000,,,0
THE BOOT BOX,,60 w main st,,hagerstown,IN,47346-1215,US,765-489-5605,39.91108000000000,-85.16198700000000,,,0
RURAL KING SUPPLY #23,,2500 teal rd,,lafayette,IN,47905-2221,US,765-471-0804,40.39552800000000,-86.86685400000000,,,0
BIG R STORES #21,,1401 w 26th st,,marion,IN,46953-2811,US,765-662-9163,40.53772500000000,-85.67794200000000,,,0
BOOT BARN INC #113,,249 blanding blvd,,orange park,FL,32073-3358,US,,30.17405200000000,-81.74490900000000,,,0
CALLIE KAYS GENERAL STORE,,553027 us hwy #1,,hilliard,FL,32046-2813,US,904-845-6924,30.72211400000000,-81.94028100000000,,,0
AB &AMP; SON DEPT STORE,,107 n main st,,nahunta,GA,31553,US,912-462-5175,31.20774500000000,-81.98042600000000,,,0
RUSSELLS WESTERN WEAR # 7,,7015 west us hwy 90,,lake city,FL,32055-8036,US,813-877-1363,30.19420800000000,-82.74449400000000,,,0
BOOT BARN INC #108,,3443 williston rd,,gainesville,FL,32608-5050,US,,29.60192100000000,-82.37228900000000,,,0
RUSSELLS WESTERN WEAR,,3890 n w blichton rd,,ocala,FL,34475-6770,US,,29.20713700000000,-82.18735000000000,,,0
BOOT BARN INC #101,,2230 nw 10th street,,ocala,FL,34475-5338,US,,29.19658900000000,-82.16006900000000,,,0
BOOT BARN INC #105,,2520 n hwy 441-27,,fruitland park,FL,34731-2135,US,,28.87128900000000,-81.90666400000000,,,0
BOOT BARN INC #115,,3120 n oak street ext,,valdosta,GA,31602-1003,US,,30.88020000000000,-83.29230000000000,,,0
RURAL KING SUPPLY #74,,1801 nw us highway 19,,crystal river,FL,34428-6119,US,,28.88160500000000,-82.58233000000000,,,0
BOOT BARN INC #336,,829 north dobson rd,,mesa,AZ,85201-7585,US,,28.46789200000000,-81.44798900000000,,,0
BOOT BARN INC #334,,5232 international drive,,orlando,FL,32819-9425,US,,28.46789200000000,-81.44798900000000,,,0
WE LOVETT INC,,5519 mccall rd,,rincon,GA,31326-3908,US,912-826-2461,32.25480100000000,-81.21959100000000,,,0
THE BOOT STORE,,458 virgina ave n,,tifton,GA,31794,US,229-387-8858,31.46050600000000,-83.52813500000000,,,0
RICKS RANCHWEAR,,5009 mercantile ln,,kissimmee,FL,34758,US,,28.24416100000000,-81.48333800000000,,,0
WAY OUT WEST,,43370 hwy 27,,davenport,FL,33837,US,,28.23030600000000,-81.64915300000000,,,0
RUSSELLS FAMOUS TEXAS BOOTS,,4969 us hwy 98 n,,lakeland,FL,33809-3657,US,813-926-4488,28.18167300000000,-81.99728300000000,,,0
RAINBOW AG SERVICES - LAKEPORT,,1975 argonaut rd,,lakeport,CA,95453-9394,US,707-279-0550,38.99310800000000,-122.87658100000000,,,0
RAINBOW AG SERVICES,,235 e perkins st,,ukiah,CA,95482-4401,US,707-462-2404,39.15014800000000,-123.20513400000000,,,0
RODS WESTERN PALACE,,3141 silver dr,,columbus,OH,43224-3946,US,614-268-5276,40.03864200000000,-83.00050300000000,,,0
KEITHS SADDLE SHOP,,12751 worthington rd sw,,pataskala,OH,43062-9726,US,740-927-3321,40.07763800000000,-82.72637200000000,,,0
RURAL KING SUPPLY #54,,23625 s us hwy 23 lot 3a,,cicrcleville,OH,43113-9770,US,740.474.6705,39.64796400000000,-83.06125800000000,,,0
TOWN &AMP; COUNTRY INC,,11142 st rt 41,,west union,OH,45693-9397,US,937-544-2913,40.20347000000000,-83.38710200000000,,,0
RURAL KING SUPPLY #88,,1000 n main st,,marysville,OH,43040-8829,US,,40.24949500000000,-83.36555100000000,,,0
BOOT BARN INC #121,,800 green river rd #452,,evansville,IN,47715-2471,US,,39.39383600000000,-82.97228300000000,,,0
RURAL KING SUPPLY #49,,233 america blvd,,marion,OH,43302,US,740-389-2674,40.57932500000000,-83.07665200000000,,,0
SCIOTO SHOE MART INC,,206 james way,,marion,OH,43302-5818,US,740-389-5775,40.57989100000000,-83.07906900000000,,,0
SCIOTO SHOE MART INC,,780 western ave,,chillicothe,OH,45601-2138,US,740-773-2933,39.33359500000000,-83.00633600000000,,,0
RURAL KING SUPPLY #87,,1476 upper valley pike,,springfield,OH,45504,US,,39.94573200000000,-83.85024900000000,,,0
RURAL KING SUPPLY #92,,2770 maysville pike,,zanesville,OH,43701-8855,US,,39.89445000000000,-82.03914800000000,,,0
RURAL KING SUPPLY #61,,1900 progress drive,,xenia,OH,45385,US,937-372-0993,39.69074600000000,-83.96051300000000,,,0
RURAL KING SUPPLY #57,,7611 old troy pike,,huber heights,OH,45424-2038,US,937-237-8836,39.86454100000000,-84.13812500000000,,,0
RURAL KING SUPPLY #66,,779 south second st,,coshocton,OH,43812-1973,US,740-622-0772,40.27776700000000,-81.86863200000000,,,0
PINKY FORTUNE BOOT SHOP,,23024 cr 621,,coshocton,OH,43812-1612,US,740-622-0086,40.28864700000000,-81.85708700000000,,,0
HENDERSON WESTERN WEAR,,739 van fossan w rd,,jackson,OH,45640,US,740-988-4700,39.00683400000000,-82.76937000000000,,,0
NEW BEDFORD HARNESS SHOP,,33897 sr 643,,baltic,OH,43804,US,330-897-1421,40.44450900000000,-81.76505700000000,,,0
BOOT BARN INC #192,,3109 w us 74,,monroe,NC,28110,US,,35.02325000000000,-80.58199500000000,,,0
NELSON ROYAL WESTERN STORE,,193 e plaza hwy 150,,mooresville,NC,28115-8042,US,704-664-2708,35.59044900000000,-80.84432200000000,,,0
DONNYS WESTERN STORE,,12725 highway 52,,gold hill,NC,28071-9398,US,704-279-2229,35.53327900000000,-80.35384600000000,,,0
JACOBS WESTERN STORE,,555 parks rd,,woodleaf,NC,27054,US,704-278-4973,35.75666600000000,-80.59001200000000,,,0
COWBOY COUNTRY,,3115 sulphir springs rd ne,,hickory,NC,28601-7707,US,828-256-8200,35.76963000000000,-81.26097900000000,,,0
SIGMONS FASHIONS INC,,2730 hickory blvd,,hudson,NC,28638,US,828-728-6725,35.86015600000000,-81.48650600000000,,,0
RURAL KING SUPPLY #96,,1227 burkemont ave,,morgantown,NC,28655-4541,US,,35.71582500000000,-81.69367400000000,,,0
H G GREENE,,3203 clingman rd,,ronda,NC,28670-8707,US,336-984-3481,36.16524700000000,-80.93290400000000,,,0
BARN LOFT,,1475  national hwy,,thomasville,NC,27360,US,336-882-4086,35.92176700000000,-80.05677600000000,,,0
COWBOY CONNECTION,,3218 boiling springs rd,,boiling springs,SC,29316-6008,US,864-578-6003,35.04100260000000,-81.97564890000000,,,0
BOOT BARN INC #148,,152 stratford commons court #5,,winston-salem,NC,27103-5530,US,,36.06851600000000,-80.30438200000000,,,0
WALKER SHOE OUTLET,,414 east dixie dr,,asheboro,NC,27204,US,336-625-1815,35.68868200000000,-79.81099800000000,,,0
HARRISONS WORKWEAR,,2660 reidville rd ste 2,,spartanburg,SC,29301-3512,US,864-327-9395,34.94164100000000,-81.99103400000000,,,0
ZAPATERIA LEON,,712 waughtown st,,winston-salem,NC,27107,US,336-771-0808,36.06921700000000,-80.22355200000000,,,0
GRASSY CREEK CLOTHING,,12451 s 226 hwy,,spruce pine,NC,28777-8906,US,828-766-7502,35.88743000000000,-82.06308900000000,,,0
WATSONATTA WESTERN WORLD,,711 w king st,,boone,NC,28607-3423,US,828-264-4540,36.21913800000000,-81.68497400000000,,,0
PISTOL CREEK WEST,,4350-m saint andrews rd,,columbia,SC,29210-4169,US,803-750-0839,34.04868700000000,-81.15076400000000,,,0
PURGASONS LEATHER PRODUCTS,,4901 auburn rd,,summerfield,NC,27358-9233,US,336-643-5353,36.19297300000000,-79.89273700000000,,,0
SHILOH OUTFITTERS,,1893 shiloh ln,,mt pleasant,IA,52641-8068,US,319-986-5156,36.19297300000000,-79.89273700000000,,,0
FINCHERS,,115 e exchange ave,,fort worth,TX,76164-8294,US,817-624-7302,32.78912200000000,-97.34837200000000,,,0
CAVENDERS STOCKYARDS #201,,2601 north main street,,fort worth,TX,76164,US,817-625-2391,32.79191200000000,-97.34974300000000,,,0
JUST RIGHT CUSTOM BOOT INC,,5941 posey lane,,haltom city,TX,76117-5238,US,817-332-8100,32.73005400000000,-97.37124600000000,,,0
ATWOODS RANCH &AMP; HOME #59,,6001 lake worth blvd,,fort worth,TX,76135-3719,US,580-237-0302,32.80363000000000,-97.41425500000000,,,0
CAVENDERS BOOT CITY #022,,5600 sw loop 820,,fort worth,TX,76132-1905,US,817-294-4400,32.68620900000000,-97.41008900000000,,,0
ACADEMY,,7441 n.e. loop 820,,n. richland hills,TX,76180,US,817-428-1618,32.83606200000000,-97.22229200000000,,,0
ACADEMY,,6101 bryant irvin rd.,,fort worth,TX,76132-3609,US,817-346-6622,32.66044600000000,-97.42457100000000,,,0
CAVENDERS BOOT CITY #007,,628 ne loop 820,,hurst,TX,76053-4832,US,817-595-0462,32.82036600000000,-97.20445200000000,,,0
BOOT BARN INC #358,,9320 sage meadow trail,,fort worth,TX,76177-8271,US,,32.91094000000000,-97.31449500000000,,,0
C B FINCHERS,,12208 south fwy,,burleson,TX,76028-9803,US,817-293-0620,32.58022400000000,-97.32065600000000,,,0
ACADEMY,,1100 w arbrook blvd.,,arlington,TX,76015,US,817-472-9700,32.68017000000000,-97.12492600000000,,,0
BOOT BARN INC #174,,1131 n burleson blvd,,burleson,TX,76028-7009,US,,32.56684100000000,-97.31933900000000,,,0
ACADEMY,,1523 state hwy 114 west,,grapevine,TX,76501,US,817-410-4200,32.92988600000000,-97.09643000000000,,,0
TESKEYS CIRCLE T SADDLERY LLP,,3001 w i-20,,weatherford,TX,76087,US,817-599-3400,32.75116100000000,-97.68256000000000,,,0
LEES WESTERN STORE,,1505 s broadway,,joshua,TX,76058-0447,US,817-558-3334,32.43959500000000,-97.38331400000000,,,0
JUSTIN DISCOUNT BOOT WAREHOUSE,,101 hwy 156,,justin,TX,76247-0067,US,,33.08466300000000,-97.29585800000000,,,0
WALLACES BARGAIN BLOCK INC,,,,justin,TX,,US,940-648-2797,33.08484400000000,-97.29612900000000,,,0
SCOTT COLBURN SADDLERY,,20411 farmington rd,,livonia,MI,48152-1414,US,248-476-1262,42.43952200000000,-83.37681300000000,,,0
FAMILY FARM AND HOME #07,,66875 gratiot,,richmond,MI,48062-1910,US,586-727-4364,42.79355800000000,-82.73729500000000,,,0
STONEY CREEK OUTFITTERS,,19693 state route 2,,monroe,WA,98272-1537,US,360-863-9300,42.84426000000000,-82.88442400000000,,,0
RURAL KING SUPPLY #99,,10400 highland rd,,hartland,MI,48353-8621,US,,42.63344200000000,-83.74535600000000,,,0
HOWELL WESTERN WEAR LLC,,121 n michigan ave ste a,,howell,MI,48843-2273,US,517-552-8010,42.60783100000000,-83.92897800000000,,,0
FAMILY FARM AND HOME #31X,,1392 s main street,,adrian,MI,48817-4307,US,,41.87864700000000,-84.04323600000000,,,0
SONSEEAHRAY WESTERN &AMP; ENGLISH STORE,,6911 fremont pike ( rt 20 &amp; tracy),,perrysburg,OH,43551-9245,US,,41.51896000000000,-83.52858600000000,,,0
THE WIRE HORSE,,12500 corunna rd,,lennon,MI,48449,US,810-621-5300,42.99967400000000,-83.92593500000000,,,0
J &AMP; J WESTERN STORE,,14241 us 12,,brooklyn,MI,49230-9008,US,,42.05050800000000,-84.26992100000000,,,0
RURAL KING SUPPLY #64,,1800 east state st,,freemont,OH,43420-4000,US,419-355-8230,41.34073500000000,-83.08522200000000,,,0
FAMILY FARM AND HOME #08,,558 n cedar st,,mason,MI,48854-1015,US,517-676-9870,42.58754200000000,-84.45226400000000,,,0
BOOT BARN INC #11,,853 arnele ave,,el cajon,CA,92020-1921,US,619-441-8111,41.25957800000000,-82.61178100000000,,,0
BOOT BARN INC #3,,1414 7th st,,upland,CA,91786,US,909-626-2296,41.25957800000000,-82.61178100000000,,,0
AVON BOOT SHOP INC,,38450 chester rd,,avon,OH,44011,US,440-934-3230,41.46810300000000,-82.05302000000000,,,0
TOMS WESTERN STORE,,8982 east m 21,,ovid,MI,48866-9612,US,989-834-5446,42.99904400000000,-84.33995700000000,,,0
RURAL KING SUPPLY #63,,1880 west state route 20,,norwalk,OH,44857-9246,US,419-660-0363,41.19186300000000,-82.61400900000000,,,0
RURAL KING SUPPLY #51,,430 oberlin rd,,elyria,OH,44035-7724,US,440.322.0171,41.34433100000000,-82.11546200000000,,,0
RURAL KING SUPPLY #56,,2300 state route 18,,tiffon,OH,44883,US,419-443-1663,41.12433000000000,-83.12414100000000,,,0
THE LEATHER COMPANY,,324 southpark center,,strongsville,OH,44136,US,440-878-0290,41.31063400000000,-81.81757600000000,,,0
VALLEY TACK SHOP INC,,6780 center rd,,valley city,OH,44280-9501,US,330-483-3366,41.23659400000000,-81.93169100000000,,,0
CAVENDERS WESTERN OUTFITTERS #067,,8889 gateway blvd,,el paso,TX,79925-6538,US,,31.77148200000000,-106.37326700000000,,,0
BROWNBILTS SHOES &AMP; WSTRN WEAR,,111 manzanares,,socorro,NM,87801,US,575-835-0730,31.69382600000000,-106.40020600000000,,,0
DOLLAR BOOTS &AMP; JEANS,,2850 n whitesands blvd,,alamogordo,NM,88310-6122,US,575-437-4721,32.92427000000000,-105.95945100000000,,,0
BOOTS &AMP; JEANS,,134 sudderth dr,,ruidoso,NM,88345-6099,US,575-630-8034,33.32366200000000,-105.62777800000000,,,0
BENNIES BOOTS &AMP; WESTERN WEAR,,205 w main st,,artesia,NM,88210-2131,US,575-746-2542,32.84222500000000,-104.39878900000000,,,0
WB/ROSWELL LIVESTOCK FARM #265,,1105 e 2nd street,,roswell,NM,88201-7311,US,575-622-9164,33.39418000000000,-104.50759200000000,,,0
GHOLSON &AMP; BOX LLC,,1820 balmorhea hwy,,pecos,TX,79772,US,432-447-2149,31.42291200000000,-103.49322900000000,,,0
POLLOCKS WESTERN STORE,,610 w 5th st,,safford,AZ,85546-2813,US,928-428-0093,32.83439300000000,-109.71414600000000,,,0
OLD MILL WESTERN MERC INC,,19763 n hwy 314,,belen,NM,87002-8253,US,505-865-5432,34.74114000000000,-106.75106000000000,,,0
MARTIN BOOT CO,,201 east broadway,,hobbs,NM,88240-8452,US,575-397-2668,32.70045000000000,-103.13482100000000,,,0
BOOTSIES WESTERN STORE,,503 w navajo rd,,hobbs,NM,88240-8424,US,575-393-6862,32.74018000000000,-103.13174600000000,,,0
JOHNSON FEED &AMP; SUPPLY,,2600 e hwy 90,,alpine,TX,79831-9620,US,432-837-5792,30.43904400000000,-103.31253000000000,,,0
ANDY LUNA,,1910 main st,,los lunas,NM,87031-8247,US,505-865-5888,34.81366000000000,-106.75739300000000,,,0
C A L RANCH STORES #24,,673 n hwy 90,,sierra vista,AZ,85635,US,208-523-3359,31.56058800000000,-110.25726000000000,,,0
PET CLUB RAMSEY CANYON FEED,,3993 south hwy 92,,sierra vista,AZ,85650,US,,31.49656300000000,-110.25731700000000,,,0
BOOT BARN INC #21,,6600 menaul ne,,albuquerque,NM,87110,US,505-883-6909,35.10791300000000,-106.57422700000000,,,0
BOOT BARN INC #68,,6210 san mateo ne,,albuquerque,NM,87109,US,505-883-7161,35.14693000000000,-106.58576500000000,,,0
MD/ST DANS BOOTS &AMP; SADDLES,,6903 4th st nw,,albuquerque,NM,87107,US,505-345-2220,35.16159400000000,-106.63684900000000,,,0
COWBOY CORNER INC,,3698 goodman rd e,,southaven,MS,38672,US,662-890-3380,34.96333500000000,-89.92464900000000,,,0
HEWLETT &AMP; DUNN,,111 n center st,,collierville,TN,38017-2615,US,901-853-2636,35.04292100000000,-89.66555100000000,,,0
STOCKDALES,,6250 hwy 64,,oakland,TN,38060-5181,US,615-793-8011,35.22730200000000,-89.53152600000000,,,0
VF IMAGEWEAR,,800 s main st,,henning,TN,38041-7372,US,757-481-7758,35.67964100000000,-89.56850100000000,,,0
PETES TOWN,,5911 harrisburg rd,,jonesboro,AR,72401,US,870-935-9920,35.73404100000000,-90.66350000000000,,,0
LAZY BAR L WESTERN STORE,,14 dell st,,batesville,MS,38606-2534,US,662-563-7267,34.31819800000000,-89.94152600000000,,,0
CARTERS CORNER,,2810 e nettleton,,jonesboro,AR,72401-4531,US,870-932-9538,35.82868300000000,-90.67113200000000,,,0
MORGANS SHOES &AMP; BOOTERY,,2755 e franklin blvd,,gastonia,NC,28054,US,704-866-8033,36.06653300000000,-89.39760800000000,,,0
FOUR SEASONS NURSERY,,2489 hwy 45 s,,jackson,TN,38301,US,731-424-0736,35.53938100000000,-88.79430100000000,,,0
R &AMP; J FEED SUPPLY,,1030 s highland ave,,jackson,TN,38301-7391,US,731-427-3548,35.58725200000000,-88.81346600000000,,,0
RUSTIC SOUL,,1926 emporium dr ste c,,jackson,TN,38305-6060,US,731-300-0560,35.66613900000000,-88.84913100000000,,,0
STOCKDALES,,581 mulberry ave,,selmer,TN,38375-2309,US,731-645-3238,35.16130600000000,-88.58320700000000,,,0
PROGRESSIVE SHOE STORE,,11 w marion st,,pontotoc,MS,38863-2833,US,662-489-3342,34.24754600000000,-88.99931400000000,,,0
JOES SHOE STORE,,206 n fillmore st,,corinth,MS,38834-5634,US,662-286-8064,34.93308000000000,-88.52112000000000,,,0
HAYS INC #2,,3223 e race ave,,searcy,AR,72143-4866,US,501-729-5626,35.25045700000000,-91.69895300000000,,,0
SCRUGGS FARM LAWN &AMP; GARDEN,,3575 tom watson dr,,saltillo,MS,38866,US,662-844-9835,34.31183200000000,-88.69840500000000,,,0
SHOE &AMP; BOOT OUTLET,,357 b s gloster,,tupelo,MS,38801-4747,US,662-842-4152,34.25371600000000,-88.71592500000000,,,0
BRAWNERS COUNTRY STORE,,204 s front st,,greenfield,TN,38230-1927,US,731-235-3110,36.15231400000000,-88.79948000000000,,,0
REDMOND WORK &AMP; WESTERN WEAR,,7829 leary way,,redmond,WA,98052,US,425-883-3484,47.67335300000000,-122.12355900000000,,,0
CHARLYS BOOTS &AMP; WESTERN WEAR,,10516 silverdale way,,silverdale,WA,98383-0587,US,360-692-0589,47.65903100000000,-122.68428800000000,,,0
BETH WEST WESTERN STORES,,16315 sr 9 se bldg 2,,snohomish,WA,98296-8792,US,360-863-2579,47.85567100000000,-122.11459100000000,,,0
COUNTRY SQUARE,,4337 auburn way n,,auburn,WA,98002-1316,US,253-859-1400,47.34267000000000,-122.22232900000000,,,0
COASTAL FARM &AMP; RANCH SUPPLY,,1425 supermall way,,auburn,WA,98001-6527,US,,47.29766400000000,-122.25107000000000,,,0
WILCO FARM STORE #553,,3408 hunt st nw,,gig harbor,WA,98335-2038,US,,47.31587200000000,-122.58458700000000,,,0
WILCO FARM STORE #603,,10409 e canyon rd,,puyallup,WA,98373-4252,US,,47.16119500000000,-122.35594200000000,,,0
COASTAL FARM &AMP; HOME SUPPLY,,990 e washington bldg a ste 101,,sequim,WA,98382-3517,US,,48.07723800000000,-123.08751300000000,,,0
BONY PONY,,2415 old hwy 99 s rd,,mt vernon,WA,98273-9016,US,360-424-3500,48.40307800000000,-122.33553900000000,,,0
COASTAL FARM &AMP; HOME SUPPLY,,2021 market st,,mount vernon,WA,98273-5428,US,,48.43955200000000,-122.33928700000000,,,0
CENTERVILLE COUNTRY #1,,1500 lum rd,,centralia,WA,98531-1822,US,360-736-4800,46.73355000000000,-122.97754300000000,,,0
LAUREL FARM SUPPLY,,325 w laurel rd,,bellingham,WA,98226,US,360-398-1216,48.85455000000000,-122.50099200000000,,,0
ARNOLDS RANCH &AMP; HOME,,615 s main st,,ellensburg,WA,98926-3638,US,509-925-6181,46.98658500000000,-120.54924200000000,,,0
STANS MERRY MART INC,,733 s wenatchee,,wenatchee,WA,98801-3071,US,509-662-5858,47.35082100000000,-120.31941400000000,,,0
COASTAL FARM &AMP; RANCH SUPPLY,,260 highline dr,,east wenatchee,WA,98802-5343,US,509-886-1560,47.40262800000000,-120.28382600000000,,,0
WILCO FARM STORE #563,,200 kelso dr,,kelso,WA,98626-3112,US,800-382-5339,46.14327200000000,-122.89438300000000,,,0
BOOT BARN INC #193,,1269 commerce ave ste #,,atwater,CA,95301-5223,US,,46.13691100000000,-122.93447400000000,,,0
BIG R STORE OF YAKIMA,,2112 s 1st st,,yakima,WA,98903-2232,US,509-457-2447,46.57145400000000,-120.48913100000000,,,0
WILCO FARMERS,,815 w main st,,battleground,WA,98604,US,360-687-3113,45.77924800000000,-122.54621900000000,,,0
LONGS OF HUTCHINSON INC,,110 north main street,,hutchinson,KS,67501-5219,US,620-663-1561,39.68212500000000,-104.98759200000000,,,0
FURMO,,1355 s colorado blvd suite c901,,denver,CO,80222-3305,US,303-321-1793,39.69198600000000,-104.94164700000000,,,0
WESTERN CORRAL INC,,4900 allison st,,arvada,CO,80002-4414,US,303-425-0055,39.78568600000000,-105.08540700000000,,,0
BOOT BARN INC #310,,10300 bannock street,,northglenn,CO,80260-6067,US,,39.88298900000000,-104.98892400000000,,,0
MURDOCHS RANCH &AMP; HOME SUPPLY,,9150 wadsworth pkwy,,westminster,CO,80021-4544,US,303-422-9100,39.86287300000000,-105.08337800000000,,,0
BIG R OF THORNTON,,3904 east 120th ave,,thornton,CO,80233,US,303-920-1511,39.91390800000000,-104.95216200000000,,,0
BOOT BARN INC #304,,8500 e orchard road,,greenwood village,CO,80111-5012,US,,39.60677200000000,-104.89018900000000,,,0
BOOT BARN INC #143,,14384 lincoln st,,thornton,CO,80023-9243,US,,39.95539200000000,-104.98535500000000,,,0
CAVENDERS WESTERN OUTFITTER #071,,9667 e county line rd,,centennial,CO,80112-3502,US,303-706-0049,39.56636500000000,-104.88857900000000,,,0
BOOT BARN INC #199,,6360 s parker rd,,aurora,CO,80016-1056,US,,39.60085200000000,-104.80347200000000,,,0
MURDOCHS RANCH &AMP; HOME SUPPLY,,12154 n dumont way,,littleton,CO,80125-9784,US,303-791-7800,39.53954900000000,-105.03720500000000,,,0
WHITESIDES #2 INC,,855 bridge st,,brighton,CO,80601-2250,US,303-637-9774,39.98718900000000,-104.81208100000000,,,0
MURDOCHS RANCH &AMP; HOME SUPPLY,,9853 s parker rd,,parker,CO,80134,US,,39.53759100000000,-104.77047300000000,,,0
BOOT BARN INC #204,,1268 s hover rd,,longmont,CO,80501-7902,US,,40.14322800000000,-105.13063100000000,,,0
MURDOCHS RANCH &AMP; HOME SUPPLY,,2255 n main,,longmont,CO,80501,US,303-682-5111,40.19783200000000,-105.10245300000000,,,0
BIG R OF ELIZABETH,,650 beverly st,,elizabeth,CO,80107,US,719-336-7483,39.35811400000000,-104.61141200000000,,,0
VANDERBILTS #7,,202 se 19th,,loveland,CO,80537-7349,US,970-669-7808,40.37228300000000,-105.07385700000000,,,0
BOOT BARN INC #134,,2651 west 29th street,,greeley,CO,80631-8503,US,,40.39158400000000,-104.72441000000000,,,0
AGLAND FARM &AMP; HOME,,1607 2nd ave,,greeley,CO,80631,US,970-454-3391,40.41022700000000,-104.68032400000000,,,0
MURDOCHS RANCH &AMP; HOME #25,,310 8th st,,greeley,CO,80631-2434,US,970-352-0544,40.42433200000000,-104.68243600000000,,,0
RURAL KING SUPPLY #90,,465 south st,,front royal,VA,22630-2115,US,,38.91099700000000,-78.18631000000000,,,0
WORKINGMAN STORE INC,,325 w boscawen st,,winchester,VA,22601-3809,US,540-662-2263,39.18570500000000,-78.17170200000000,,,0
TRACTOR SUPPLY CO #498 DIST CTR,,11935 hopewell rd,,hagerstown,MD,21740-2191,US,240-527-6000,39.63983500000000,-77.76701700000000,,,0
T TOWN TACK,,1251 tappahannock blvd,,tappahannock,VA,22560,US,804-443-4614,37.90282400000000,-76.86744900000000,,,0
STICKELLS GENERAL STORE,,5489 buchanan trail west,,greencastle,PA,17225,US,717-597-7227,39.80511300000000,-77.80611500000000,,,0
MYRNAS BOOTS &AMP; BITS,,1112 carmia way,,richmond,VA,23235,US,804-794-6774,37.50747300000000,-77.60342300000000,,,0
HOMETOWN WESTERN WEAR,,16846 dunning hwy,,duncansville,PA,16635-4631,US,814-317-5247,40.42606100000000,-78.44243100000000,,,0
CARETAKE INC,,26854 garrett rd,,mchenry,MD,21541-9611,US,301-387-4550,39.53296700000000,-79.35353400000000,,,0
SMART PAK EQUINE LLC,,30 worcester st,,natick,MA,01760,US,,42.30413900000000,-71.32772400000000,,,0
WALTER DYER LEATHER,,282 worcester rd,,framingham,MA,01702-5315,US,508-879-4654,42.29796500000000,-71.40596800000000,,,0
HANSON GRAIN,,968 w washington st,,hanson,MA,02341-1541,US,781-447-6621,42.05784100000000,-70.90290200000000,,,0
HAYWARDS TRADING POST,,rt 101 a,,milford,NH,03055-0036,US,603-673-1321,42.82101000000000,-71.65754100000000,,,0
THE CHESHIRE HORSE,,8 whittmore farm rd,,swanzey,NH,03446,US,603-358-3001,42.89901200000000,-72.30929500000000,,,0
SANTA FE NORTH,,2050 white mountian hwy,,north conway,NH,03860-1100,US,603-356-2700,43.95936100000000,-71.19802600000000,,,0
FARM WAY INC,,286 waits river rd,,bradford,VT,05033-8942,US,802-222-9316,43.98077400000000,-72.11660800000000,,,0
GASS HORSE SUPPLY,,476 main st,,orono,ME,04473-3436,US,207-866-8593,44.85415800000000,-68.69456500000000,,,0
RUNNINGS SUPPLY #97,,5865 success dr,,rome,NY,13440-1744,US,315-356-8520,43.23301400000000,-75.50327300000000,,,0
RICKS RANCHWEAR,,132 2nd ave north,,nashville,TN,37201-1902,US,615-259-8922,36.16308100000000,-86.77540800000000,,,0
BOOT BARN INC #149,,240 longhollow pike ste b,,goodlettsville,TN,37072-1880,US,,36.16147400000000,-86.77699300000000,,,0
BOOT COUNTRY,,304 broadway,,nashville,TN,37201-2006,US,330-629-9797,36.16169000000000,-86.77641200000000,,,0
FRENCHS SHOES AND BOOTS,,126 b 2nd ave n,,nashville,TN,37201-1902,US,615-736-2934,36.16290300000000,-86.77529500000000,,,0
FRENCHS SHOES AND BOOTS LLC,,302 hill ave ste a,,nashville,TN,37210-4725,US,,36.13572200000000,-86.72895500000000,,,0
BOOT BARN INC #125,,405 opry mills drive,,nashville,TN,37214-2443,US,,36.20418000000000,-86.69495400000000,,,0
NASHVILLE BOOT CO,,603 8th ave s,,nashville,TN,37203-4102,US,615-353-9838,36.10372500000000,-86.86931800000000,,,0
TRACTOR SUPPLY CO,,,,brentwood,TN,,US,615-440-4400,36.03650800000000,-86.78474600000000,,,0
NASHVILLE TRAIL INC,,1183 w main st,,hendersonville,TN,37075-2822,US,615-826-0380,36.30926600000000,-86.66547300000000,,,0
BOOT BARN INC #106,,240 longhollow pike ste a,,goodlettsville,TN,37072-1800,US,,36.32567300000000,-86.70399200000000,,,0
BOOT BARN INC #122,,8105 moores lane #205,,brentwood,TN,37027-8564,US,,36.32567300000000,-86.70399200000000,,,0
BOOT BARN INC #120,,4057 common wealth avenue,,eau claire,WI,54701-9000,US,,36.32567300000000,-86.70399200000000,,,0
ACADEMY,,1915 mallory lane,,franklin,TN,37067,US,615-771-0184,35.95546100000000,-86.81874700000000,,,0
BOOT BARN INC #129,,1008 cumberland center blvd,,lebanon,TN,37087,US,,36.18388400000000,-86.29608400000000,,,0
THE WESTERN LOOK,,630 n cumberland st,,lebanon,TN,37087-2361,US,615-547-7159,36.21711700000000,-86.29022100000000,,,0
TRACTOR SUPPLY DC #499 DIST CTR,,100 raines dr,,franklin,KY,42134-6201,US,270-586-5392,36.71010200000000,-86.51205800000000,,,0
RURAL KING SUPPLY #22,,1141 ft campbell blvd,,clarksville,TN,37042-6426,US,931-542-0051,36.55314900000000,-87.39354800000000,,,0
BOOT BARN INC #196,,2625 scottsville rd ste #500,,bowling green,KY,42104-6381,US,,36.94906100000000,-86.42771400000000,,,0
FRENCHS SHOES AND BOOTS,,1271 s walnut st,,cookeville,TN,38501,US,931-528-2779,36.13674900000000,-85.50821500000000,,,0
LANGSTONS CO DIRECT SALES,,2034 nw 7th street,,oklahoma city,OK,73106-4669,US,405-602-5516,35.47534200000000,-97.54683200000000,,,0
LANGSTONS CO #09,,2235 exchange ave,,oklahoma city,OK,73108-2628,US,405-235-9536,35.45314600000000,-97.55434900000000,,,0
TENERS WESTERN OUTFITTERS,,4320 w reno ave,,oklahoma city,OK,73107-6595,US,,35.46367200000000,-97.59820400000000,,,0
BOOT BARN INC #302,,812 meridian,,oklahoma city,OK,73108-1604,US,,35.45612700000000,-97.59974700000000,,,0
CAVENDERS WESTERN OUTFITTERS #73,,6339 sw 3rd street,,oklahoma city,OK,73128-1047,US,,35.46164700000000,-97.62984600000000,,,0
ACADEMY,,4261 n.w. 63rd st.,,oklahoma city,OK,73116,US,405-840-4822,35.53742600000000,-97.59575500000000,,,0
LANGSTONS CO #03,,1417 s midwest blvd,,midwest city,OK,73110-4915,US,405-732-2704,35.45040500000000,-97.38853900000000,,,0
HUGHES BUILDING,,1201 s broadway,,edmond,OK,73034-3950,US,405-844-4757,35.64114000000000,-97.48416000000000,,,0
ACADEMY,,324 bryant ave,,edmond,OK,73034,US,405-330-0174,35.65770900000000,-97.46041700000000,,,0
LANGSTONS CO #07,,1105 garth brooks blvd ste a,,yukon,OK,73099-4125,US,405-350-2255,35.49101400000000,-97.76046800000000,,,0
BOOT BARN INC #205,,600 ed noble pkwy,,norman,OK,73072-4876,US,,35.21231900000000,-97.48490700000000,,,0
ATWOODS RANCH AND HOME #20,,1719 se 24th ave,,norman,OK,73072,US,405-579-1100,35.19801600000000,-97.47598800000000,,,0
ATWOODS RANCH AND HOME #06,,716 w ayre,,shawnee,OK,74801,US,405-275-5000,35.34634300000000,-96.93425600000000,,,0
W R JONES CO INC  #2,,3309 n kickapoo ave,,shawnee,OK,74804-1705,US,405-275-8010,35.36436000000000,-96.92926500000000,,,0
ATWOODS RANCH AND HOME #39,,1213 s main st,,kingfisher,OK,73750-4401,US,,35.84914200000000,-97.93252500000000,,,0
ATWOODS RANCH AND HOME #29,,2221 ponderosa dr,,chickasha,OK,73018-6841,US,405-224-3006,35.02382500000000,-97.92811300000000,,,0
COWBOY TRAVEL,,522 s peach st,,orlando,OK,73073-2024,US,,36.11578900000000,-97.33614800000000,,,0
CAVENDERS WESTERN OUTFITTERS #059,,1925 n perkins rd,,stillwater,OK,74075,US,405-624-1853,36.14098800000000,-97.05098200000000,,,0
ATWOODS RANCH AND HOME #05,,2211 n perkins rd,,stillwater,OK,74075,US,405-624-3200,36.14388500000000,-97.05074100000000,,,0
RURAL KING SUPPLY #48,,2960 highway 62,,jeffersonville,IN,47130-5914,US,812-285-1099,38.34378400000000,-85.70478800000000,,,0
DICKS SPORTING GOODS DROP SHIP,,7603 trade port dr,,louisville,KY,40258-1879,US,610-491-7771,38.12593300000000,-85.89479900000000,,,0
TROUTMANS DRY GOODS,,165 w 2nd st,,shepardsville,KY,40165,US,502-543-7662,37.98698700000000,-85.71578300000000,,,0
RURAL KING SUPPLY #52,,181 boone station rd,,shelbyville,KY,40065-9539,US,502-633-4443,38.21561000000000,-85.20411400000000,,,0
RURAL KING SUPPLY #94,,5985 n  dixie hwy,,elizabethtown,KY,42701,US,,37.77033800000000,-85.90401600000000,,,0
QUARTER ACRES WESTERN SHOP,,1124 bloomfield rd,,bardstown,KY,40004,US,,37.82917500000000,-85.41821500000000,,,0
RURAL KING SUPPLY #84,,1320 james avenue,,bedford,IN,47421-3592,US,,38.86390100000000,-86.51781000000000,,,0
RURAL KING SUPPLY #10,,1920 s lube way,,jasper,IN,47546-2668,US,812-482-4840,38.36450900000000,-86.94037700000000,,,0
RURAL KING SUPPLY #11,,1475 18th st,,charleston,IL,61920-2948,US,217-345-8030,38.36450900000000,-86.94037700000000,,,0
EL RODEO,,1753 alexanderia dr,,lexington,KY,40504-3111,US,859-276-3591,38.03813600000000,-84.55220900000000,,,0
R T OUTFITTERS,,1104 fashion ridge rd,,dryridge,KY,41035,US,859-823-2221,38.68643700000000,-84.60246800000000,,,0
WESTWARD HO INC,,3090 lexington rd,,nicholasville,KY,40356-9797,US,859-885-6629,37.93707200000000,-84.54809700000000,,,0
NEW WAY BOOT SHOP,,1145 commercial dr,,lexington,KY,40505,US,859-381-1214,38.07203100000000,-84.48159600000000,,,0
BOOT BARN INC #145,,2200 war admiral way ste #110,,lexington,KY,40509-2499,US,,38.03932200000000,-84.42697400000000,,,0
TOWN &AMP; COUNTRY SHOES,,2767 stanford rd,,lancaster,KY,40444-9774,US,859-792-6311,37.60094100000000,-84.59054400000000,,,0
LC SHOES,,1050 us hwy 27s ste 3,,cynthiana,KY,41031-8800,US,859-234-3325,38.37810600000000,-84.31298800000000,,,0
RURAL KING SUPPLY #12,,601 commerce dr,,owensboro,KY,42303-0564,US,270-683-3488,37.77846800000000,-87.08158700000000,,,0
CENTERVILLE WESTERN WEAR,,17500 se mcloughlin,,milwaukie,OR,97267,US,,45.39622600000000,-122.61602200000000,,,0
WILCO FARM,,1901 c ne 162nd st,,vancouver,WA,98684-3007,US,,45.63659900000000,-122.50479400000000,,,0
COASTAL FARM &AMP; RANCH SUPPLY,,1900 mcloughlin blvd se ste 120,,oregon city,OR,97045-2077,US,503-657-5780,45.36762300000000,-122.60096900000000,,,0
COASTAL FARM &AMP; HOME SUPPLY,,2865 ne hogan dr,,gresham,OR,97030,US,503-674-5337,45.51767100000000,-122.41355600000000,,,0
BOOT BARN INC #92,,1108 ne frontage rd,,troutdale,OR,97060-9541,US,,45.54370400000000,-122.39823400000000,,,0
WILCO FARM STORE,,19224 s molalla ave,,oregon city,OR,97045,US,503-656-0616,45.32818000000000,-122.58370000000000,,,0
COASTAL FARM &AMP; RANCH SUPPLY,,3865 baseline rd,,cornelius,OR,97113,US,541-640-4241,45.51928600000000,-123.02431000000000,,,0
WILCO FARMERS - STORE D,,197 s hazel dell way,,canby,OR,97013-7824,US,503-266-2213,45.26653900000000,-122.67384600000000,,,0
WILCO FARMERS,,664 baseline street,,cornelius,OR,97113-8306,US,503-992-1346,45.52047800000000,-123.06359700000000,,,0
WILCO FARMERS,,2300 e hancock st,,newberg,OR,97132,US,501-845-6122,45.30112000000000,-122.95641700000000,,,0
COASTAL FARM &AMP; HOME SUPPLY,,1550 mt hood ave,,woodburn,OR,97071-3660,US,503-981-6322,45.14972500000000,-122.83561700000000,,,0
WILCO FARMERS,,2741 n hwy 99w,,mcminnville,OR,97128-9209,US,503-472-6154,45.23084000000000,-123.16949600000000,,,0
DAMIC INC,,4198 silverton rd ne,,salem,OR,97305-2053,US,503-362-4973,44.96938300000000,-122.97936200000000,,,0
WILCO FARMERS,,3285 se commercial street,,salem,OR,97302-4535,US,,44.90911600000000,-123.04529500000000,,,0
COASTAL FARM &AMP; HOME SUPPLY,,1355 goldfish farm rd se,,albany,OR,97321-7705,US,541-928-2511,44.62756700000000,-123.04724800000000,,,0
WILCO FARM STORE #543,,2950 s santiam hwy,,lebanon,OR,97355-3868,US,,44.52005900000000,-122.90291700000000,,,0
WILCO FARM STORE #533,,1905 n e four acre place,,corvallis,OR,97330-4209,US,,44.58725700000000,-123.25045900000000,,,0
COWTOWN BOOTS #51,,1080 e flamingo rd,,las vegas,NV,89119-7436,US,702-737-8469,36.11508900000000,-115.14045100000000,,,0
C A L RANCH STORES #20,,232 n jones blvd,,las vegas,NV,89107,US,702-430-7002,36.17529400000000,-115.22395600000000,,,0
BOOT BARN INC #186,,2315 summa dr ste 160,,las vegas,NV,89135-1450,US,,36.14962700000000,-115.33507400000000,,,0
BOOT BARN INC #62,,1955 s casino dr ste 228,,laughlin,NV,89029,US,702-298-9296,35.16233900000000,-114.57603000000000,,,0
ADAMS BOOT REPAIR,,511 e st george  blvd ste d,,st george,UT,84770-2977,US,435-673-3280,37.11009800000000,-113.57231600000000,,,0
INTERMOUNTAIN FARMERS ASSC #77,,310 n industrial road,,saint george,UT,84770-3113,US,435-673-3631,37.11365600000000,-113.55992600000000,,,0
C A L RANCH STORES #19,,2849 e 850 n,,st george,UT,84790-5841,US,435-634-6910,37.12291400000000,-113.53184700000000,,,0
INTERMOUNTAIN FARMERS ASSC #73,,905 s main st,,cedar city,UT,84720-3726,US,435-586-2205,37.66030800000000,-113.07141900000000,,,0
C A L RANCH STORES #11,,750 s main st,,cedar city,UT,84720-3558,US,435-586-4826,37.66428500000000,-113.06825000000000,,,0
JOLLEYS RANCHWEAR,,52 n main,,cedar city,UT,84720-2635,US,435-586-8108,37.67826200000000,-113.06174300000000,,,0
BOOT BARN INC #14,,13785 park ave ste h,,victorville,CA,92392-2484,US,760-241-3361,34.50082400000000,-117.32656800000000,,,0
BROWNINGS BULLSEYE,,109 w hobson way,,blythe,CA,92225-1616,US,760-702-0692,33.61041700000000,-114.59716100000000,,,0
C A L RANCH STORES #16,,1048 willow creek road,,prescott,AZ,86301-1642,US,928-526-4300,34.56244700000000,-112.48317200000000,,,0
BOOT BARN INC #57,,7321 pav way,,prescott valley,AZ,86314-2259,US,828-777-6665,34.58474100000000,-112.33714600000000,,,0
BOOT BARN INC #59,,700 s telshor sp #1208,,las cruces,NM,88001,US,505-532-1096,34.58474100000000,-112.33714600000000,,,0
BOOT BARN INC #0225,,858 dawsonville hwy,,gainesville,GA,30501-2617,US,,34.04891900000000,-117.47196200000000,,,0
SOUTH FORTY WESTERN WEAR,,3487 a hwy d,,west bend,WI,53090,US,262-334-2240,43.45568300000000,-88.21528000000000,,,0
HORSEY HABIT SADDLERY &AMP; TACK,,4000 redwood dr,,manitowoc,WI,54220-8735,US,920-686-3890,44.13450100000000,-87.71026400000000,,,0
SHOE BOX,,hwy 14 and mills,,black earth,WI,53515-0505,US,608-767-3447,43.14294800000000,-89.74795200000000,,,0
BURNIPS EQUIPMENT CO,,3260 142nd ave,,dorr,MI,48323-9522,US,616-896-9190,42.72427600000000,-85.86609900000000,,,0
GIDDY UP WESTERN WEAR &AMP;,,2780 east deerfield ave,,suamico,WI,54173-7928,US,920-660-7155,44.61785400000000,-88.04860900000000,,,0
NEW SPRING PARTNERS LLC,,510 68th street sw,,grand rapids,MI,49548-7122,US,616-281-0777,42.83891900000000,-85.67681500000000,,,0
STRONGS PRAIRIE CATTLE CO,,n 6441 5th ave,,plainfield,WI,54966-9554,US,715-335-4100,44.21198700000000,-89.52343600000000,,,0
BOOT BARN INC #65,,10020 coors bypass nw,,albuquerque,NM,87114,US,505-898-6662,35.20484600000000,-106.64764700000000,,,0
BOOT BARN INC #66,,4250 cemillos rd,,santa fe,NM,87507,US,505-471-8775,35.63643900000000,-106.01419500000000,,,0
BIG R OF SANTA FE LLC,,725 st michaels drive,,santa fe,NM,87505-7605,US,,35.66086700000000,-105.96121100000000,,,0
BIG R OF LAS VEGAS,,206 mills ave,,las vegas,NM,87701-4125,US,,35.60140700000000,-105.23237100000000,,,0
T &AMP; R FEED &AMP; ROPE CENTER,,6 miles north hwy 491,,gallup,NM,87305,US,505-722-4366,35.37668200000000,-108.64131500000000,,,0
"BONA LEATHER, INC",,230 w coal ave,,gallup,NM,87301-6306,US,505-863-5252,35.52689700000000,-108.74366200000000,,,0
BOOT BARN INC #64,,804 north us hwy 491,,gallup,NM,87301,US,505-863-4944,35.53372800000000,-108.75887600000000,,,0
NAVAJO ARTS AND CRAFTS ENT,,lot4 n rt 12 rd 54 bldg 2757,,ft defiance,AZ,86515,US,928-871-4090,35.66340600000000,-109.05448500000000,,,0
BIG R OF FARMINGTON LLC,,908 e main st,,farmington,NM,87401,US,505-326-7711,36.73481600000000,-108.19025400000000,,,0
BOOT BARN INC #67,,4601 e main,,farmington,NM,87402-8667,US,505-327-5314,36.77031300000000,-108.16813500000000,,,0
BOOT BARN INC #84,,830 s camino del rio,,durango,CO,81301-6803,US,814-288-8181,37.24058500000000,-107.87145700000000,,,0
BOOT BARN INC #50,,3776 south 16th ave,,tucson,AZ,85713,US,520-622-4500,32.17866300000000,-110.98250100000000,,,0
BOOT BARN INC #53,,6701 e broadway,,tucson,AZ,85710,US,520-885-4385,32.22130800000000,-110.84935500000000,,,0
BOOT BARN INC #51,,3719 n oracle,,tucson,AZ,85705,US,520-293-1808,32.29192900000000,-110.97834700000000,,,0
BOOT BARN INC #55,,284 west mariposa,,nogales,AZ,85621,US,520-761-1850,31.36718400000000,-110.93443700000000,,,0
PET CLUB CASA GRANDE,,1348 e florence blvd # 5,,casa grande,AZ,85222-5361,US,520-876-4100,32.87991300000000,-111.72843500000000,,,0
C A L RANCH STORES # 22,,1116 e florence blvd,,casa grande,AZ,85122-4216,US,520-316-7980,32.88078600000000,-111.73900900000000,,,0
TRACTOR SUPPLY #111 DIST CTR,,1337 w peters road,,casa grande,AZ,85139-7813,US,,32.86478200000000,-111.98059400000000,,,0
PET CLUB QUEEN CREEK,,40649 n gantzel rd,,santan valley,AZ,85140-7009,US,602-315-9014,33.24819700000000,-111.56321500000000,,,0
SABAS #7,,4935 e carefree hwy ste 102,,cave creek,AZ,85331,US,480-595-0959,33.25405500000000,-111.63220500000000,,,0
PET CLUB  POWER RANCH,,23954 s power road,,queen creek,AZ,85142-8413,US,602-354-3245,33.23121700000000,-111.68747600000000,,,0
SHOPPERS SUPPLY - APACHE JCT,,1477 w apache trl,,apache jct,AZ,85120-3681,US,,33.41408200000000,-111.57815000000000,,,0
SABAS #8,,6321 e southern ave ste 102,,mesa,AZ,85206,US,480-981-3730,33.39382300000000,-111.69774500000000,,,0
EVANS FEED &AMP; LIVESTOCK,,79 w orange,,porterville,CA,93257,US,559-781-8685,36.06086900000000,-119.01823300000000,,,0
TOGGERY,,115 n main st,,bishop,CA,93514-2736,US,760-872-3211,37.36174800000000,-118.39548000000000,,,0
BOOT BARN INC #16,,1340 spring st,,paso robles,CA,93446-2248,US,805-238-3453,35.62901300000000,-120.69155600000000,,,0
BOOT BARN INC #26,,3913 buck owens blvd,,bakersfield,CA,93308,US,661-327-6770,35.39575600000000,-119.04379500000000,,,0
EMPORIUM WESTERN STORE,,1031 19th st,,bakersfield,CA,93301-4701,US,661-325-8476,35.37594000000000,-119.01352300000000,,,0
T &AMP; B BOOTS INC,,72 s main st,,templeton,CA,93465-9787,US,805-544-3570,35.27778600000000,-120.66438600000000,,,0
BOOT BARN INC #47,,935 topsy lane,,carson city,NV,89705-8414,US,775-885-1481,39.15500700000000,-119.76692800000000,,,0
BOOT BARN INC #45,,1445 santa rosa ave ste a1-a4,,santa rosa,CA,95404,US,707-528-1554,39.15500700000000,-119.76692800000000,,,0
BOOT BARN INC #42,,1705 highway 273,,anderson,CA,96007,US,530-365-6185,39.15500700000000,-119.76692800000000,,,0
C A L RANCH STORES # 18,,2035 n carson st,,carson city,NV,89706-2248,US,775-461-2213,39.18024500000000,-119.76620100000000,,,0
BOOT BARN INC #48,,3345 kietzke ln,,reno,NV,89502,US,775-825-0666,39.49182200000000,-119.78968800000000,,,0
BOOT BARN INC #0219,,2770 reynolds ranch pwky,,lodi,CA,95240-6853,US,,34.04891900000000,-117.47196200000000,,,0
KANSAS CITY TACK CO,,3320 merriam ln,,kansas city,KS,66106-4620,US,913-262-7600,39.04485200000000,-94.66744200000000,,,0
NIGROS WESTERN STORE #2,,10509 shawnee mission pkwy,,shawnee,KS,66203-3505,US,913-631-2226,39.01445900000000,-94.70881800000000,,,0
FELDMANS FARM &AMP; HOME,,1332 w kansas st,,liberty,MO,64068-2379,US,,39.24284000000000,-94.44440400000000,,,0
CAVENDERS WESTERN OUTFITTER #050,,1867 village w pkwy ste d105,,kansas city,KS,66111-1819,US,913-328-0444,39.12606500000000,-94.82810500000000,,,0
ROGERS SPORTING GOODS LLC,,1760 n church rd,,liberty,MO,64068-7175,US,816-781-9026,39.26873000000000,-94.44231500000000,,,0
BOOT BARN INC #191,,15185 w 119th street,,olathe,KS,66062-5291,US,,38.91268600000000,-94.76075000000000,,,0
CHUCKS BOOTS INC (LS),,346 sw blue pkwy,,lees summit,MO,64063-3893,US,816-554-2668,38.90905100000000,-94.38977700000000,,,0
BOOT BARN INC #142,,1010 ne cornado dr,,blue springs,MO,64014-2971,US,,39.02379700000000,-94.25002300000000,,,0
FAMILY CENTER FARM AND HOME,,2601 cantrell rd,,harrisonville,MO,64701-4002,US,816-380-7282,38.65915500000000,-94.37318900000000,,,0
VANDERBILTS #10,,1548 e 23rd st,,lawrence,KS,66046-5012,US,913-841-2109,38.94333000000000,-95.21581500000000,,,0
FAMILY CENTER OF PAOLA,,808 baptiste dr,,paola,KS,66071-1339,US,,38.57611300000000,-94.86601300000000,,,0
THE FORT #031,,3800 south belt hwy,,st joseph,MO,65403,US,,39.72414800000000,-94.78770300000000,,,0
KLEINSCHMIDTS WSTN STORE,,19715 outer rd,,higginsville,MO,64037-9423,US,660-584-3733,39.00201100000000,-93.74409300000000,,,0
ST JOE BOOT CO INC,,3749 pacific,,st joseph,MO,64507-2259,US,816-232-8128,39.74830200000000,-94.80162100000000,,,0
FAMILY CENTER FARM &AMP; HOME,,1301 riverside rd,,st joesph,MO,64507,US,,39.77678400000000,-94.76757500000000,,,0
SWISHERS,,907 n simpson dr,,warrensburg,MO,64093-9277,US,,38.77652500000000,-93.73591300000000,,,0
VANDERBILTS #6,,3021 s topeka blvd,,topeka,KS,66611-2122,US,785-266-3720,39.01292700000000,-95.68770100000000,,,0
VANDERBILTS #13 UNIT 1,,14375 hwy 71,,savannah,MO,64485-1897,US,816-324-0180,39.01292700000000,-95.68770100000000,,,0
VANDERBILTS #1,,510 lincoln ave,,wamego,KS,66547-1634,US,785-456-9199,39.20255700000000,-96.30464400000000,,,0
BLUESTEM FARM &AMP; RANCH,,2611 w hwy 50,,emporia,KS,66801-6380,US,620-342-5502,38.41118600000000,-96.24204600000000,,,0
PET CLUB CAVE CREEK,,4725 e carefree highway,,cave creek,AZ,85331-4740,US,,33.79854100000000,-111.97912300000000,,,0
ACREDALE SADDLERY,,5248 indian river rd,,virginia beach,VA,23464-6129,US,757-467-3183,36.79727500000000,-76.17396400000000,,,0
DEYONGS BOOTS &AMP; WESTERN WEAR,,6139  jefferson ave ste g,,newport news,VA,23605-1560,US,757-838-1000,37.02354100000000,-76.44733900000000,,,0
264 SHOES AND APPAREL,,3910 hwy 264 east,,greenville,NC,27834-8189,US,828-667-0085,35.62567500000000,-77.32775200000000,,,0
COUNTRY VIEW WESTERN STORE,,4070 us 70 e,,goldsboro,NC,27534-9811,US,919-778-2452,35.35822400000000,-77.92804800000000,,,0
TRACIES BOOTS AND BUCKLES LLC,,12281 capitol blvd,,wake forest,NC,27587-6200,US,919-570-0088,35.98181800000000,-78.53893800000000,,,0
COUNTRY CONNECTION,,1975 hwy 70 e,,garner,NC,27529-4045,US,919-779-0000,35.68584000000000,-78.54441300000000,,,0
JACKS FAMOUS TEXAS BOOTS,,213 a western blvd,,jacksonville,NC,28546-5730,US,910-353-1634,34.75128800000000,-77.38047600000000,,,0
FOOTWEAR PLUS LLC,,2744 durham rd,,roxboro,NC,27573-6176,US,336-597-8075,36.35764200000000,-78.98266200000000,,,0
"DOUBLE LL TACK &AMP; FEED, INC",,1221 nc 55 w,,coats,NC,27521-9124,US,910-897-7461,35.42982300000000,-78.68055600000000,,,0
WESTERN WAYS,,111 vista centere dr,,forest,VA,24551-9560,US,434-385-8011,37.37735800000000,-79.25218800000000,,,0
LEGGETT INVESTMENT CORP,,335 mt cross rd,,danville,VA,24540,US,434-797-9300,36.59191100000000,-79.42548800000000,,,0
WILD WEST,,110 carolina rd hwy 501,,conway,SC,29526,US,843-347-9378,35.71755600000000,-79.17886600000000,,,0
DICKS MERCH &AMP; SUPPLY CHAIN DC #651,,3909 n commerce dr,,east point,GA,30344-8143,US,,33.64692700000000,-84.50471500000000,,,0
HIGH PLAINS,,349 n cobb pkwy,,marietta,GA,30062-3508,US,770-426-5111,33.95982500000000,-84.52808400000000,,,0
OAK TREE CORP,,1231 shallowford rd,,marietta,GA,30066-1101,US,770-926-7346,34.05490300000000,-84.51358100000000,,,0
HORSETOWN EAST,,1959 dogwood rd,,snellville,GA,30078-2311,US,770-736-1888,33.86980200000000,-84.01778400000000,,,0
HORSETOWN SOUTH INC,,4583 bill gardner pkwy,,locust grove,GA,30248,US,770 898-6330,33.35273700000000,-84.13053900000000,,,0
SARZAC INC,,1332 bankhead hwy,,carrollton,GA,30116-8585,US,770-832-9013,33.59958900000000,-85.03139300000000,,,0
BROAD STREET BOOTS LLC,,131 n broad st,,monroe,GA,30655-1869,US,678-635-3362,33.79564700000000,-83.71351700000000,,,0
MARKEL DIST INC,,5859 suemandy dr,,st peters,MO,63376-4327,US,636-349-6633,34.21064400000000,-84.79906700000000,,,0
SACKETTS INC,,100 shelby ln,,jasper,GA,30143,US,678-454-4677,34.40141600000000,-84.41824400000000,,,0
COWBOY SHOP,,938 n hwy 27 ste c,,roopville,GA,30170,US,770-854-6913,33.47911900000000,-85.10612000000000,,,0
UNION SPRINGS INC,,3622 camp rd,,jasper,GA,30143,US,706-253-9462,34.45985700000000,-84.45688000000000,,,0
BOOTS ETC OUTLET INC,,30465 highway 441 s,,commerce,GA,30529-6365,US,706-335-2668,34.26017200000000,-83.46565700000000,,,0
ACE HARDWARE OF ELLIJAY INC,,305 s main st,,ellijay,GA,30540-3202,US,706-635-2236,34.68900000000000,-84.48949300000000,,,0
CIRCLE M WESTERN WEAR #1,,4418 columbus rd,,macon,GA,31206-4117,US,478-471-9799,32.82494200000000,-83.71335500000000,,,0
RURAL KING SUPPLY #65,,2468 commercial way,,spring hill,FL,34606-3518,US,352-686-1064,32.87632800000000,-85.18421100000000,,,0
DISCOUNT SPORTING GOODS,,3106 e walnut ave,,dalton,GA,30721-6670,US,706-226-1604,34.77622200000000,-84.91813100000000,,,0
ALEXANDERS TRUE VALUE HDWR,,4482 town creek school rd,,blairsville,GA,30512-6900,US,706-745-6450,34.82521100000000,-83.87264200000000,,,0
TRACTOR SUPPLY CO #120 DIST CTR,,151 tractor drive,,macon,GA,31216-4944,US,,32.72709400000000,-83.73141600000000,,,0
AMERICAN COWBOY STORE,,513 murphy hwy ste d,,blairsville,GA,30512-3168,US,706-745-4146,34.88258000000000,-83.98445200000000,,,0
BIG R OF COLORADO SPRINGS NORTH,,5845 constitution avenue,,colorado springs,CO,80915-1216,US,,38.87201500000000,-104.71909100000000,,,0
CAVENDERS WESTERN OUTFITTER # 064,,5770 s carefree cr,,colorado springs,CO,80917,US,719-597-1009,38.87802900000000,-104.72041800000000,,,0
BIG R OF COLORADO SPRINGS,,165 fountaine blvd,,colorado springs,CO,80911-2110,US,,38.73646300000000,-104.72610300000000,,,0
BIG R OF MONUMENT LLC,,840 spanish bit dr,,colorado springs,CO,80921,US,,39.04750600000000,-104.84216000000000,,,0
BIG R OF CANON CITY,,1711 fremont dr,,canon city,CO,81212-2405,US,719-275-3250,38.44871100000000,-105.22323500000000,,,0
BIG R OF PUEBLO INC,,1020 bonforte blvd,,pueblo,CO,81001-1834,US,719-542-1835,38.28713200000000,-104.59536300000000,,,0
MURDOCHS RANCH &AMP; HOME SUPPLY,,201 e rainbow blvd,,salida,CO,81201-2519,US,719-539-2767,38.52298200000000,-106.00178200000000,,,0
WOLF BROS,,7001 dodge st,,omaha,NE,68132-2753,US,402-558-3005,41.25933300000000,-96.02087800000000,,,0
BOOT BARN INC #356,,970 south 72nd street,,omaha,NE,68114-4634,US,,41.25040300000000,-96.02495600000000,,,0
LAKESIDE COUNTRY STORE,,4040 s expressway,,council bluffs,IA,51501-8213,US,712-366-8111,41.22028900000000,-95.85163300000000,,,0
TRACTOR SUPPLY #399 DIST CTR,,12851 dover st,,waverly,NE,68462,US,402-786-6100,40.90358200000000,-96.54355500000000,,,0
THE FORT #012,,903 central ave,,nebraska city,NE,68410-2408,US,402-873-7395,40.67646700000000,-95.85656900000000,,,0
FORT TUFF #014,,815 central ave,,nebraska city,NE,68410-2408,US,866-THE-FORT,40.67659900000000,-95.85525500000000,,,0
WESTERN WORLD / GATEWAY MALL,,6100 o street ste 198,,lincoln,NE,68505,US,,40.81474600000000,-96.63691400000000,,,0
TONYS SADDLE SHOP,,365 e us hwy 30,,valparaiso,IN,46383-9554,US,219-464-8216,41.05526600000000,-96.87036100000000,,,0
M M SHOE REPAIR &AMP; INC,,6041 st route 30 ste 25,,greensburg,PA,15601-7466,US,724-837-4136,41.40979100000000,-97.36817400000000,,,0
KERLIN TRLRS MTRSPRT &AMP; WSTN,,3298 us 30e,,warsaw,IN,46580,US,574-268-9400,41.40979100000000,-97.36817400000000,,,0
THE FORT #022,,3315 21st street,,columbus,NE,68601-3056,US,,41.43705500000000,-97.36832500000000,,,0
BOOT BARN INC #118,,440 sergent rd,,sioux city,IA,51106-4725,US,,42.44777100000000,-96.34816500000000,,,0
WESTERN EDGE,,701 n lincoln ave,,york,NE,68467-2948,US,402-362-4881,40.86806860000000,-97.59300540000000,,,0
BOMGAARS #00/99,,1805 zenith dr,,sioux city,IA,51103-5208,US,712-226-2000,42.49215500000000,-96.43183900000000,,,0
RENEGADE STORES LLC,,1700 market ln ste 390,,norfolk,NE,68701-0863,US,,42.01844500000000,-97.43047100000000,,,0
RUSTS WESTERN SHED,,506 lake ave,,storm lake,IA,50588-2350,US,712-732-2537,42.64370200000000,-95.20126500000000,,,0
BOOT BARN INC #60,,2700 s woodlands ste #500,,flagstaff,AZ,86001,US,928-773-9016,41.26284800000000,-93.80918800000000,,,0
CAMPBELL SUPPLY OF VERMILLION,,1108 w. cherry,,vermillion,SD,57069,US,605-624-9112,42.78622700000000,-96.95421400000000,,,0
SOUTHERN IOWA SADDLE SHOP,,112 e jefferson st,,osceola,IA,50213,US,641-342-3252,41.03322000000000,-93.76492800000000,,,0
JR MOORE &AMP; SONS,,865 thrift rd,,gulf,NC,27256,US,919-898-2998,35.55730400000000,-79.28521600000000,,,0
BOOT BARN INC #188,,1485 boone station drive,,burlington,NC,27215,US,,36.06901200000000,-79.51587600000000,,,0
JOHNSONS SPORTING GOODS LLC,,973 burton rd,,ruffin,NC,27326-9109,US,336-939-2238,36.43759300000000,-79.60346100000000,,,0
GRIFS WESTERN INC,,6211 orange dr,,davie,FL,33314-3422,US,954-587-9000,26.06592900000000,-80.23047000000000,,,0
JC WESTERN SUPPLY #2,,729 n military trail,,w palm beach,FL,33415-2141,US,561-684-7331,26.68803800000000,-80.11230300000000,,,0
RURAL KING SUPPLY #70,,26831 south tamiami trl,,bonita springs,FL,34134,US,217-254-3105,26.34917400000000,-81.80559500000000,,,0
ELIS WESTERN WEAR INC #1,,907 nw park street,,okeechobee,FL,34972-4117,US,863-763-2984,27.24368900000000,-80.83944500000000,,,0
HAYLOFT,,4300 lexington ave,,fort myers,FL,33905-3240,US,239-694-4916,26.68135000000000,-81.80216700000000,,,0
ELIS WESTERN WEAR INC #2,,1011 e oak st,,arcadia,FL,34266,US,863-494-6088,27.21204100000000,-81.84773500000000,,,0
BYRDS WESTERN STORE,,4855 w new haven ave,,w melbourne,FL,32904-9727,US,321-768-2345,28.07877200000000,-80.70500400000000,,,0
REDNECK OUTPOST,,4401 ashton rd unit f,,sarasota,FL,34233-2269,US,941-444-7829,27.27715900000000,-82.48042000000000,,,0
ELIS WESTERN WEAR INC #3,,27995 hwy 27,,dundee,FL,33838,US,863-439-6655,28.03838900000000,-81.63838500000000,,,0
SOUTHSIDE STORES LLC,,3014 james redman pkwy,,plant city,FL,33566,US,813-752-2379,27.97926000000000,-82.12148800000000,,,0
RUSSELLS FAMOUS TEXAS BOOTS,,3709 hwy 60 east,,dover,FL,33527-6138,US,,27.93764800000000,-82.21906400000000,,,0
BOOT BARN INC #107,,386 north garden,,bloomington,MN,55425-5519,US,,44.85545200000000,-93.24264500000000,,,0
SPORTSMANS GUIDE INC,,411 farwell ave,,south st paul,MN,55075-2428,US,651-451-3030,44.88529400000000,-93.02653400000000,,,0
IMPORT SPECIALTIES INC,,8085 century blvd,,chaska,MN,55318-3056,US,952-361-3640,44.85747400000000,-93.59247800000000,,,0
PLEASANT HILLS SADDLE SHOP,,16350 kenrick loop,,lakeville,MN,55044-9448,US,763-428-8636,44.71249600000000,-93.28261800000000,,,0
RM TACK AND APPAREL,,1671 county road i,,somerset,WI,54025-7109,US,715-247-5517,45.10300000000000,-92.67272400000000,,,0
CABLE CONNECTION &AMP; SUPPLY CO,,1505 30th st nw,,faribault,MN,55021-1801,US,507-334-6417,44.32126700000000,-93.29042500000000,,,0
BOOT SHACK,,2221 roosevelt rd,,st cloud,MN,56301-5161,US,320-251-6872,45.53620400000000,-94.16549800000000,,,0
LET IT RIDE TACK &AMP; APPAREL LLC,,4755 w frontage rd,,owatonna,MN,55060,US,507-455-1487,44.11693500000000,-93.24715700000000,,,0
BOOT BARN INC #117,,4201 divisoin st west,,st cloud,MN,56301-6601,US,,45.55346400000000,-94.21044500000000,,,0
CABELAS INC,,33901 st hwy 35,,prairie du chien,WI,53821,US,608-326-5600,44.43238400000000,-92.01060300000000,,,0
DAHLBERG BOOT,,2325 highway 12 e,,willmar,MN,56201-5823,US,320-235-4180,45.12487000000000,-95.01392500000000,,,0
WEAVERS LEATHER STORE,,112 n main st,,buffalo center,IA,50424-7752,US,641-562-2992,43.48319400000000,-93.91875300000000,,,0
J &AMP; B WESTERN,,1860 scearcyville dr sw,,pillager,MN,56473-2247,US,218-829-8144,46.33924500000000,-94.37734700000000,,,0
BOOT HOUSE INC,,3596 orchid ave,,manly,IA,50456-8054,US,641-454-2075,43.27696900000000,-93.21105000000000,,,0
BLAIRVIEW SADDLE SHOP,,6320 hwy 29 south,,alexandria,MN,56308,US,320-762-5664,45.83265900000000,-95.38794800000000,,,0
FRANKS SHOE REPAIR,,943 3rd ave,,windom,MN,56101,US,507-831-5011,43.86605400000000,-95.11631800000000,,,0
RUNNINGS SUPPLY INC #99,,911 michigan rd,,marshall,MN,56258,US,507-532-9566,44.46590300000000,-95.80348600000000,,,0
A BIT OF TACK,,16498 us highway 10,,verndale,MN,56481,US,218-445-5849,46.40068400000000,-95.02051200000000,,,0
MEDORA BOOT &AMP; WESTERN WEAR,,316 pacific avenue,,medora,ND,58645,US,701-623-1005,43.65334300000000,-90.79634500000000,,,0
ACADEMY,,6120 east 41st south,,tulsa,OK,742135,US,918-641-5770,36.10387200000000,-95.90835400000000,,,0
ATWOODS RANCH AND HOME #22,,730 e charles page blvd,,sand springs,OK,74063,US,918-241-1700,36.13655800000000,-96.09906100000000,,,0
CAVENDERS WESTERN OUTFITTER #047,,8035 e 31st st,,tulsa,OK,74145-1302,US,918-664-2668,36.11933500000000,-95.88721300000000,,,0
DRYSDALES #1,,3220 s memorial dr,,tulsa,OK,74145-1314,US,,36.11584900000000,-95.88748500000000,,,0
ACADEMY,,7850 s. 107 ave. east.,,tulsa,OK,74133,US,918-249-5700,36.07019500000000,-95.85664100000000,,,0
DRYSDALES INC #3,,10127 e 71st,,tulsa,OK,74133,US,918-252-7917,36.06101200000000,-95.86482300000000,,,0
ATWOODS RANCH AND HOME #02,,806 e taft,,sapulpa,OK,74066,US,918-227-3262,35.98728300000000,-96.10261600000000,,,0
ATWOODS RANCH AND HOME #18,,11510 n garnett,,owasso,OK,74055,US,918-371-8100,36.32155300000000,-95.84977200000000,,,0
ATWOODS RANCH AND HOME #21,,2351 e kenosha,,broken arrow,OK,74012,US,918-355-1300,36.06097000000000,-95.76312400000000,,,0
ATWOODS RANCH AND HOME #08,,680 s lynn riggs blvd,,claremore,OK,74017,US,918-341-0060,36.30570100000000,-95.62198500000000,,,0
CAVENDERS WESTERN OUTFITTERS #55,,2350 se washington blvd,,bartlesville,OK,74006-7211,US,936-788-2668,36.71530700000000,-95.93188900000000,,,0
ATWOODS RANCH AND HOME #10,,3101 se washington blvd,,bartlesville,OK,74006-7625,US,918-331-9000,36.74759500000000,-95.93541600000000,,,0
ATWOODS RANCH AND HOME #36,,2004 e main st,,cushing,OK,74023,US,580-223-3702,35.98678400000000,-96.74032100000000,,,0
ATWOODS RANCH AND HOME #24,,728 e illinois,,vinita,OK,74301,US,918-256-1100,36.63599100000000,-95.14698300000000,,,0
ATWOODS RANCH AND HOME #40,,1741 s muskogee ave ste 5,,tahlequah,OK,74464-5432,US,580-237-0301,35.88846700000000,-94.97690100000000,,,0
ATWOODS RANCH AND HOME #58,,401 e prospect ave,,ponca city,OK,74601,US,,36.73869300000000,-97.07963600000000,,,0
CLIP-ITY CLOP SADDLE SHOP,,12930 chippewa rd,,brecksville,OH,44141-2100,US,440-526-2965,41.32162100000000,-81.59401000000000,,,0
SCHNEIDER SADDLERY CO,,8255 e washington st,,chagrin falls,OH,44023-4507,US,440-543-2700,41.41336200000000,-81.34758900000000,,,0
GREAT LAKES OUTDOOR SUPPLY,,14855 n state ave,,middlefield,OH,44062-9747,US,440-632-9151,41.46258800000000,-81.07309300000000,,,0
BIG DEE'S,,9440 st ste 14,,streetsboro,OH,44241-5364,US,330 626-5000,41.13176700000000,-81.18724200000000,,,0
MR HYDES LEATHER,,4441 whipple ave nw,,canton,OH,44718-2645,US,330-492-2320,40.84076000000000,-81.39008400000000,,,0
RURAL KING SUPPLY #30,,3541 lincoln way west,,wooster,OH,44691-3758,US,330-264-5475,40.80253800000000,-82.00647500000000,,,0
MAYSVILLE HARNESS SHOP,,8572 mt hope rd,,apple creek,OH,44606-9495,US,330-695-9977,40.69509500000000,-81.78376200000000,,,0
ARCAROS SADDLERY,,4761 - rt 193,,kingsville,OH,44048,US,440-224-0724,41.85611500000000,-80.66668900000000,,,0
RICKS RANCHWEAR,,3722 starrs centre dr,,canfield,OH,44406-8038,US,330-533-6877,41.02576300000000,-80.71431800000000,,,0
RICKS RANCHWEAR,,7336 market st,,youngstown,OH,44512-5610,US,,41.02330300000000,-80.66272500000000,,,0
HOLMES OUTDOOR SUPPLIES,,7222 township rd 328,,holmesville,OH,44633-9773,US,330-674-0560,40.59590600000000,-81.88100600000000,,,0
BERLIN LEATHER &AMP; PETS,,4359 state rd 39,,millersburg,OH,44654,US,330-893-7038,40.55015900000000,-81.77977000000000,,,0
SALTWELL WESTERN STORE,,2000 seven mile rd,,new philadelphia,OH,44663-1435,US,330-343-0388,40.52883200000000,-81.42826500000000,,,0
WILD BILLS JEANS,,4541 valley pike,,stephens city,VA,22655,US,540-869-4430,37.67267400000000,-97.41793600000000,,,0
BOOT BARN INC #301,,6501 w kellogg,,wichita,KS,67209-2211,US,,37.67207900000000,-97.41691600000000,,,0
VANDERBILTS #3,,8080 w kellogg,,wichita,KS,67209,US,316-682-5026,37.67026500000000,-97.44462700000000,,,0
DANDALES OUTFITTERS LLC,,10929 e kellogg,,wichita,KS,67207-1919,US,316-683-8231,37.67920600000000,-97.21029700000000,,,0
ATWOODS RANCH AND HOME #19,,6235 n broadway,,wichita,KS,67219,US,316-744-8888,37.79662200000000,-97.33592300000000,,,0
CAVENDERS WESTERN OUTFITTERS #080,,2632 north greenwich court,,wichita,KS,67226-8226,US,,37.73059000000000,-97.20785900000000,,,0
ATWOODS RANCH AND HOME #17,,333 red powell dr,,derby,KS,67037,US,316-789-1800,37.56549900000000,-97.27539700000000,,,0
ATWOODS RANCH AND HOME #47,,426 s andover rd,,andover,KS,67002-7870,US,,37.68043100000000,-97.13325700000000,,,0
TRIPLE S RANCH SUPPLY,,2635 se hwy 54,,el dorado,KS,67042,US,316-321-7514,37.78638300000000,-96.84420700000000,,,0
BIG R OF LA JUNTA INC,,26980 w hwy 50,,la junta,CO,81050,US,719-384-7721,38.02747100000000,-97.90640300000000,,,0
A 5 WESTERN LLC,,102 n main st,,mc pherson,KS,67460-4304,US,620-241-2660,38.36949800000000,-97.66687900000000,,,0
VANDERBILTS #4,,3005 enterprise dr,,salina,KS,67401,US,785-823-7027,38.78314200000000,-97.60700400000000,,,0
RURAL KING SUPPLY #41,,550 e industrial park dr,,murphysboro,IL,62966-3947,US,618-684-3123,38.36454100000000,-98.76371900000000,,,0
WOW LLC,,4800 w garriott rd,,enid,OK,73703,US,580-233-5186,36.39185600000000,-97.94048700000000,,,0
ATWOODS RANCH AND HOME #01,,5400 w owen k garriott,,enid,OK,73703,US,580-233-3700,36.39087300000000,-97.94460300000000,,,0
CAVENDERS WESTERN OUTFITTER #062,,91 westbank expy ste 210,,gretna,LA,70053,US,504-227-1110,29.91519900000000,-90.04797500000000,,,0
ACADEMY,,50 westside n. sahopping mall,,grenta,LA,70053,US,504-363-8283,29.91043400000000,-90.05132500000000,,,0
BOOT BARN INC #183,,127 northshore blvd  st 2,,slidell,LA,70460-6821,US,,30.30868800000000,-89.82582300000000,,,0
BOOTS ETC #3,,2641 w hwy 30,,gonzales,LA,70737,US,225-644-8000,30.21126200000000,-90.89786300000000,,,0
BEAR CREEK WESTERN STORE,,35999 hwy 16,,montpelier,LA,70422-8163,US,225-777-4578,30.67978600000000,-90.65273600000000,,,0
CAVENDERS WESTERN OUTFITTERS #065,,186 bass pro blvd,,denham springs,LA,70726,US,,30.45041400000000,-90.96113800000000,,,0
BOOT BARN INC #179,,10533 south mall dr,,baton rouge,LA,70809-4807,US,,30.37341700000000,-91.06027800000000,,,0
BOOTS &AMP; MORE,,11135 airline hwy,,baton rouge,LA,70816-6004,US,,30.40177100000000,-91.05662300000000,,,0
BOOT OUTLET GULPORT,,15151 airport road,,gulfport,MS,39503-4703,US,,30.41955900000000,-89.09131100000000,,,0
ACADEMY,,15130 crossroads pkwy,,gulfport,MS,39503,US,228-539-4144,30.43666200000000,-89.09167700000000,,,0
BOOT STORE,,9125 florida blvd,,baton rouge,LA,70815-4031,US,225-926-4716,30.45359300000000,-91.09180800000000,,,0
ACADEMY,,8464 airline hwy.,,baton rouge,LA,70815,US,225-928-3131,30.45672500000000,-91.09992200000000,,,0
RUSHING SHOE STORE,,407 w presley,,mccomb,MS,39648-5425,US,601-684-1217,31.22697500000000,-90.46045400000000,,,0
THE BOOT OUTLET,,6706 hwy 63,,moss point,MS,39563-9539,US,,30.43755800000000,-88.52572800000000,,,0
GULOTTAS INC,,916 s lewis st,,new iberia,LA,70560-9808,US,337-367-9958,29.98745200000000,-91.81937700000000,,,0
BOOT COUNTRY,,6467 hwy 49,,hattiesburg,MS,39401,US,601-336-5494,31.34680900000000,-89.33365700000000,,,0
ACADEMY,,4533 johnston st.,,lafayette,LA,70503,US,337-984-9868,30.19103200000000,-92.05965800000000,,,0
CAVENDERS WESTERN OUTFITTERS #066,,130 tucker drive,,lafayette,LA,70503-5327,US,,30.17411700000000,-92.07180100000000,,,0
BOOT BARN INC #178,,3320 ambassador caffery pkwy,,lafayette,LA,70502,US,,30.18096400000000,-92.07503000000000,,,0
MOBILE SHOE HOSPITAL,,7210 airport blvd,,mobile,AL,36608-4504,US,251-344-4211,30.68764700000000,-88.21125300000000,,,0
BOOT BARN INC #15,,43517 13th st w,,lancaster,CA,93534-5937,US,661-726-5420,34.71126200000000,-118.15414800000000,,,0
G J JEDLICKA SADDLERY INC,,2605 de la vina st,,santa barbara,CA,93105-3823,US,805-687-0747,34.43461200000000,-119.72457800000000,,,0
WHARF,,980 e front st,,ventura,CA,93001-3017,US,805-648-5035,34.27694000000000,-119.28591900000000,,,0
BOOT BARN INC #2,,431 west esplande drive,,oxnard,CA,93036-1298,US,805-477-0133,34.24698800000000,-119.19835200000000,,,0
BOOT BARN INC #29,,101 s broadway,,santa maria,CA,93454,US,805-614-9222,34.95293500000000,-120.43611600000000,,,0
CARRS BOOT SHOP,,1515 s broadway,,santa maria,CA,93454-7213,US,805-922-5228,34.93317400000000,-120.43655600000000,,,0
RIDING WAREHOUSE,,181 suburban road,,san luis obispo,CA,93401-1118,US,800-620-9145,35.24240100000000,-120.66936000000000,,,0
PANIOLO TRADING INC,,1450 ala moana blvd,,honolulu,HI,96814-4604,US,808-941-0135,21.29128800000000,-157.84296500000000,,,0
BOOT BARN INC #41,,3300 broadway ste 308,,eureka,CA,95501-3809,US,707-444-0949,40.77929600000000,-124.19059300000000,,,0
CASCADE FARM &AMP; OUTDOOR #402,,3111 ocean blvd se,,coos bay,OR,97420-3533,US,541-252-4031,43.38222400000000,-124.24979900000000,,,0
BOOT BARN INC #0218,,5920 sw huntoon st,,topeka,KS,66604,US,,34.04891900000000,-117.47196200000000,,,0
BOOT BARN INC #227,,10105 w mc dowell rd ste 102,,avondale,AZ,85392,US,,34.04891900000000,-117.47196200000000,,,0
BOOT BARN INC #0220,,2280 w warm springs rd,,las vegas,NV,89119-4006,US,,34.04891900000000,-117.47196200000000,,,0
BOOT BARN INC #223,,1775 vann dr,,jackston,TN,38305-2095,US,,34.04891900000000,-117.47196200000000,,,0
BOOT BARN INC #229,,1905 b edwards lake rd,,birmingham,AL,35235-3717,US,,34.04891900000000,-117.47196200000000,,,0
RURAL KING SUPPLY #46,,9525 collinsville rd,,collinsville,IL,62234-1821,US,618-344-0105,38.66001300000000,-90.02458400000000,,,0
CAVENDERS WESTERN OUTFITTERS #067,,8889 gateway blvd ste #640,,el paso,TX,79925-6538,US,,38.68141600000000,-90.39469800000000,,,0
RURAL KING SUPPLY #7,,740 north market st,,waterloo,IL,62298-1070,US,618-939-0011,38.35088800000000,-90.14937900000000,,,0
CAVENDERS WESTERN OUTFITTERS #75,,18451 convenience way,,chesterfield,MO,63005,US,,38.67468700000000,-90.66130700000000,,,0
BOOT BARN INC #168,,3201 n hwy 75 suite #102,,sherman,TX,75090-9375,US,,38.44848700000000,-90.79766800000000,,,0
RURAL KING SUPPLY #45,,1 wentzille center,,wentzville,MO,63385-1024,US,636-332-9003,38.80940500000000,-90.87305100000000,,,0
THE HAYLOFT,,634 pkwy ste #19,,gatlinburg,TN,37738-3237,US,865-436-6944,37.96801100000000,-90.04891000000000,,,0
RURAL KING SUPPLY #4,,1324 hudson dr,,litchfield,IL,62056-3014,US,217-324-6154,39.17522400000000,-89.67139700000000,,,0
FAMILY CENTER,,165 walker rd,,farmington,MO,63640,US,573-756-7101,37.77635500000000,-90.44668100000000,,,0
RURAL KING SUPPLY #3,,1616 veterans ave,,vandalia,IL,62471-3317,US,618-283-1216,38.97705900000000,-89.11234000000000,,,0
FIFTH GEAR,,301 sunoco dr,,louisiana,MO,63353-2800,US,573-754-8647,39.43308200000000,-91.06879100000000,,,0
RURAL KING SUPPLY #40,,62 rend lake plaza,,benton,IL,62812-2907,US,618-439-4159,38.00503900000000,-88.93996000000000,,,0
RURAL KING SUPPLY #17,,1702 w main st,,carbondale,IL,62901-2122,US,618-529-8618,37.72835400000000,-89.23752900000000,,,0
HORSE CREEK OUTFITTERS,,600 a s dirksen pkwy,,springfield,IL,62703-2111,US,217-544-2740,39.79574800000000,-89.60595100000000,,,0
MCKINNEYS WESTERN STORE,,802 halfway rd,,marion,IL,62959-4925,US,618-997-6974,37.73873700000000,-88.96535400000000,,,0
RURAL KING SUPPLY #16,,1301 enterprise way,,marion,IL,62959-4442,US,318-993-0660,37.74045500000000,-88.93996800000000,,,0
BUCHHEIT STORE #10,,2801 s old orchard rd,,jackson,MO,63755,US,573-204-1700,37.35614300000000,-89.61156600000000,,,0
RURAL KING SUPPLY #6,,201 walk ave,,effingham,IL,62401-2942,US,217-347-2533,39.08629300000000,-88.54585300000000,,,0
BOOT BARN INC #231,,12030 east fwy,,houston,TX,77029-1916,US,,34.04891900000000,-117.47196200000000,,,0
ACADEMY,,4914 s padre island dr,,corpus christi,TX,78411,US,361-992-9022,27.71446900000000,-97.38167100000000,,,0
CAVENDERS BOOT CITY #029,,4914 south padre island dr ste 105,,corpus christi,TX,78411,US,361-992-9225,27.71446900000000,-97.38167100000000,,,0
BOOTS N BRITCHES,,5420 mcardle rd,,corpus christi,TX,78411,US,361-992-3501,27.71295400000000,-97.37148900000000,,,0
BOOT BARN INC #169,,1220 airline rd ste #100,,corpus christi,TX,78412-3473,US,,27.70860900000000,-97.36255300000000,,,0
OUTDOOR COUNTRY,,621 s hwy 77,,bishop,TX,78343-2927,US,361-584-2562,27.57768900000000,-97.78910300000000,,,0
QUICK SERVICE BOOT SHOP,,307 w corpus christi st,,beeville,TX,78102-5674,US,361-358-7366,28.40071200000000,-97.75025600000000,,,0
HIGH BREHM HAT,,6603 n navarro,,victoria,TX,77904-1515,US,361-576-4287,28.85731600000000,-96.99743200000000,,,0
ALLIED FEEDS INC,,1551 n esplande st,,cuero,TX,77954-3484,US,361-275-5711,29.10417900000000,-97.28481400000000,,,0
EXIQUIO SAENZ,,5242 hwy 1017,,san isidro,TX,78588-0234,US,956-481-3346,26.72252400000000,-98.50735100000000,,,0
BULLRIDER WESTERN WEAR,,1606 s 77 sunshine strip,,harlingen,TX,78550-8198,US,956-425-7291,26.17563600000000,-97.67657000000000,,,0
BOOTS N JEANS,,2005 west expressway 83,,weslaco,TX,78596-4510,US,956-968-8150,26.17191270000000,-98.01087200000000,,,0
THE BOOT JACK,,504 s main st,,mcallen,TX,78501-4914,US,,26.19910200000000,-98.23561200000000,,,0
ACADEMY,,716 east expressway 83,,mcallen,TX,78503,US,956-686-1742,26.18881600000000,-98.21272800000000,,,0
BOOT BARN INC #355,,507 w expressway 83,,mcallen,TX,78503-3050,US,,26.18744500000000,-98.22768400000000,,,0
D F &AMP; G WILDLIFE SUPPLY,,350 s main,,dilley,TX,78017-3810,US,830-965-1622,28.66692000000000,-99.17084800000000,,,0
ACADEMY,,4305 old hwy 77,,brownsville,TX,78520,US,956-554-6900,25.96690300000000,-97.51467300000000,,,0
CAVENDERS WSTRN OUTFITTERS #053,,4455 n expy 77/83,,brownsville,TX,78520,US,956-350-3355,25.96261000000000,-97.51115100000000,,,0
GRAHAMS BOOTS WORK &AMP; W/W,,847 bypass rd,,winchester,KY,40391-2606,US,859-744-6441,37.99391000000000,-84.17673500000000,,,0
BOOT RANCH,,233 wilmont dr,,mt sterling,KY,40353-9503,US,859-498-5900,38.04755300000000,-83.94354500000000,,,0
RANDYS CLOTHING &AMP; FOOTWEAR,,205 w shelby st,,falmouth,KY,41040,US,859-654-8271,38.67721900000000,-84.33128400000000,,,0
BOOT RANCH,,101 brenham avenue,,morehead,KY,40351,US,,38.17730700000000,-83.43765600000000,,,0
WILDCAT DISCOUNT BOOTS &AMP; TACK,,308 dog patch,,london,KY,40741,US,812-374-2419,37.14678000000000,-84.11369900000000,,,0
RANDYS RUGGED WEAR,,1400 gloria terrell dr,,wilder,KY,41076,US,859-781-8271,39.00899400000000,-84.47119200000000,,,0
SOMERSET BOOTS,,3311 s hwy 27 ste a,,somerset,KY,42501-3179,US,606-451-0287,37.04755200000000,-84.62687900000000,,,0
RUSSELL COUNTY FARM STORE,,579 w steve wariner dr,,russel springs,KY,42642-4508,US,270-866-3482,37.06317300000000,-85.08055500000000,,,0
FRANKS SHOE REPAIR,,4921 clairton blvd,,pittsburgh,PA,15236-2101,US,412-885-1711,40.35748200000000,-80.00208600000000,,,0
FRANKS SHOES,,1730 park manor blvd,,pittsburgh,PA,15205-4807,US,412-788-4333,40.45304300000000,-80.16859100000000,,,0
LOWRYS WESTERN SHOP,,935 henderson ave,,washington,PA,15301-6026,US,724-228-1225,40.19925900000000,-80.27051400000000,,,0
DICKS MERCH &AMP; SUPPLY CHAIN DC #51,,159 painter rd,,smithton,PA,15479-8722,US,724-633-4000,40.17860400000000,-79.74579800000000,,,0
LOCUST GROVE COUNTRY SHOP,,3153 garvers ferry rd,,apollo,PA,15613-8904,US,724-478-1846,40.60730000000000,-79.52845800000000,,,0
ALTMEYERS WESTERN WEAR,,101 clearview cir,,butler,PA,16001,US,724-545-1271,40.89545000000000,-79.90516200000000,,,0
RURAL KING SUPPLY #93,,4265 mall drive,,steubenville,OH,43952-3011,US,,40.36839000000000,-80.67600000000000,,,0
CABELAS INC,,one cabela dr,,triadelphia,WV,26059,US,304-238-0120,40.05964800000000,-80.59735100000000,,,0
CHEROKEE TRADING POST INC,,76 jenkins ln,,triadelphia,WV,26059-1460,US,304-547-1660,40.05257300000000,-80.62841000000000,,,0
BATKAS BOOT BOX INC,,1806 s center street,,grove city,PA,16127-3334,US,724-748-9100,41.15441800000000,-80.10257500000000,,,0
ICR EQUIPMENT RENTAL &AMP; SUPPLY,,67661 mall ring rd,,st clairsville,OH,43950-1708,US,740-676-1917,40.06821000000000,-80.86820300000000,,,0
RURAL KING SUPPLY #59,,67501 mall ring road,,st clairsville,OH,43950-1708,US,740-695-2520,40.06430600000000,-80.86763500000000,,,0
NORTH 40 OUTFITTERS,,1227 koala dr,,omak,WA,98841,US,,48.42225000000000,-119.50412400000000,,,0
RAWSONS SHOES &AMP; BOOTS,,200 queen st,,okanogan,WA,98840-1310,US,509-422-2760,48.36388900000000,-119.58235000000000,,,0
NORTH 40 OUTFITTERS,,1150 s main st,,colville,WA,99114,US,509-684-1444,48.53525300000000,-117.90537700000000,,,0
KURTZ BOOTS LLC,,438 main st,,milford,OH,45150-1128,US,419-706-5469,39.17616900000000,-84.29383400000000,,,0
RURAL KING SUPPLY #53,,1416 hamilton richmond rd,,hamilton,OH,45013-1004,US,513-737-0436,39.42339000000000,-84.59343900000000,,,0
RURAL KING SUPPLY #60,,1879 deerfield rd,,lebanon,OH,45036-8602,US,513-934-0015,39.40727500000000,-84.21091200000000,,,0
RODEO SHOP,,811 us route 40 w,,eaton,OH,45320-9801,US,937-678-4981,39.74394100000000,-84.63662000000000,,,0
RABERS SHOES,,1324 duffey rd,,peebles,OH,45660,US,937-386-9927,38.90265900000000,-83.51862600000000,,,0
THE BOOTERY,,521 s broadway st,,greenville,OH,45331-1928,US,937-548-4830,40.10056000000000,-84.63064900000000,,,0
BIG R STORES #12,,975 n cable road,,lima,OH,45805-1703,US,419-223-0113,40.75449300000000,-84.14895000000000,,,0
RURAL KING SUPPLY #28,,1501 n wayne st,,angola,IN,46703-2352,US,260-624-2220,41.73116800000000,-84.93286300000000,,,0
FAMILY FARM AND HOME #01,,910 east chicago rd,,coldwater,MI,49036-2055,US,517-279-0461,41.93455700000000,-84.96361800000000,,,0
RINEHOLD TACK,,4445 cr 22,,waterloo,IN,46793-9744,US,260-837-7385,41.44850900000000,-84.98388800000000,,,0
RURAL KING SUPPLY #39,,811 fox rd,,van wert,OH,45891-2473,US,419-232-4004,40.85161300000000,-84.59850800000000,,,0
HARMONS WESTERN WEAR,,5122 carrollton pike,,woodlawn,VA,24381-2930,US,276-236-4884,36.71743300000000,-80.82702800000000,,,0
CAVENDERS BOOT CITY #076,,1880 ih 30,,rockwall,TX,75087,US,,32.91846200000000,-96.42166600000000,,,0
DENNARDS WESTERN WEAR,,8767 hwy 377 s,,pilot point,TX,76258-6026,US,,33.32866200000000,-96.97118200000000,,,0
WESTERN WORLD,,3404 13th st ste #149,,grand island,NE,68803-2389,US,308-233-1730,40.93434900000000,-98.38089520000000,,,0
WESTERN EDGE,,111 diers ave,,grand island,NE,68803-4919,US,308-398-3343,40.91748400000000,-98.38404200000000,,,0
PET CLUB SUPERSTITION FEED,,3003 w apache trl ste 3,,apache junction,AZ,85120,US,928-232-0072,39.56231800000000,-97.65741400000000,,,0
STAGECOACH WEST,,rte 5 and 20,,irving,NY,14081,US,716-934-4771,42.56796300000000,-79.10458700000000,,,0
BOOT BARN INC #126,,8111 concord milld blvd #538,,concord,NC,28027-6563,US,,42.53121200000000,-78.68812600000000,,,0
CIRCLE B WESTERN WEAR INC,,8064 ridge rd w,,brockport,NY,14420-1731,US,585-637-2530,43.23004800000000,-77.91346400000000,,,0
BOOT BOX,,11894 pennsylvania ave,,meadville,PA,16335-3628,US,814-336-3049,41.63035200000000,-80.16244100000000,,,0
TRIPLE H STORES,,163 e 14th st,,elmira heights,NY,14903-1317,US,607-733-4665,42.12871800000000,-76.82368800000000,,,0
RURAL KING SUPPLY #86,,260 plaza dr,,clearfield,PA,16830-6008,US,,41.02891700000000,-78.41643600000000,,,0
CRWW LLC NORTH,,5719 san dario ave,,laredo,TX,78041-3015,US,956-723-0303,27.55498300000000,-99.50270300000000,,,0
MIKES WESTERN WEAR,,4519 san bernardo,,laredo,TX,78041-5770,US,956-722-0927,27.54209200000000,-99.50377900000000,,,0
KELLYS WESTERN WEAR,,4220 santa ursula,,laredo,TX,78041,US,956-729-1126,27.53812200000000,-99.50369000000000,,,0
CORRAL WESTERN WEAR,,4205 loop 20 ste a-2,,laredo,TX,78043-4792,US,956-717-6090,27.60702500000000,-99.49405200000000,,,0
CAVENDERS WESTERN OUTFITTERS #063,,2455 monarch drive ste #102,,laredo,TX,78045-6329,US,,27.61090700000000,-99.46973800000000,,,0
LONE STAR STORE,,1308 n us highway 83,,zapata,TX,78076-2831,US,956-765-4325,26.89076200000000,-99.26143400000000,,,0
DANNYS WESTERN WEAR,,2125 e garrison st,,eagle pass,TX,78852-5043,US,830-773-6014,28.70667700000000,-100.48554900000000,,,0
ROCKIN R WESTERN WEAR LLC,,2045 e main st,,uvalde,TX,78801-4851,US,830-278-1143,29.21748600000000,-99.76801600000000,,,0
ALL OUT COUNTRY,,902 s jackson street,,mt carroll,IL,61053-9763,US,815-244-2242,42.08836800000000,-89.97511500000000,,,0
LONGHORN SADDLERY &AMP; W W,,4506 dodge st,,dubuque,IA,52003-2628,US,563-583-0116,42.48639100000000,-90.74531900000000,,,0
THEISEN SUPPLY CO,,6201 chavenelle rd,,dubuque,IA,52002,US,563-556-4738,42.49191800000000,-90.76266400000000,,,0
RURAL KING SUPPLY #50,,1350 38th street,,peru,IL,61354,US,815.220.0361,41.35869000000000,-89.12286700000000,,,0
DOLLAR WESTERN WEAR #1,,5011 slide rd,,lubbock,TX,79414,US,806-793-2818,33.54864200000000,-101.92232000000000,,,0
BOOT BARN INC #359,,6002 slide road,,lubbock,TX,79414-4310,US,,33.53942400000000,-101.92565600000000,,,0
BOOT CITY INC,,6645 w 19th st,,lubbock,TX,79407-1303,US,806-797-8782,33.57693900000000,-101.96261700000000,,,0
MASSOS,,105 e 6th,,plainview,TX,79072-8001,US,806-293-2092,34.18598500000000,-101.70266000000000,,,0
TEXAS PRODUCER COOP,,222 n main,,sudan,TX,79371,US,806-227-2461,34.06769400000000,-102.52455300000000,,,0
WESTERN ALLEE,,513 n 25 mile ave,,hereford,TX,79045-3003,US,806-364-5332,34.83452400000000,-102.40545100000000,,,0
WARDS BOOT &AMP; SADDLE SHOP,,1109 s gregg st,,big spring,TX,79720-4320,US,432-267-8512,32.24390800000000,-101.47474900000000,,,0
BAR G WESTERN WEAR,,115 w 2nd,,portales,NM,88130-6201,US,575-359-0794,34.18561000000000,-103.33687200000000,,,0
WEST TEXAS WESTERN STORE INC,,1206 23rd st,,canyon,TX,79015-5320,US,806-655-9612,34.97086900000000,-101.91981000000000,,,0
WOODS BOOTS,,891 e interstate 20,,colorado city,TX,79512-3101,US,325-728-3722,32.38785200000000,-100.85694400000000,,,0
CAVENDERS BOOT CITY #048,,2605 west loop 250 north,,midland,TX,79705,US,432-689-9378,32.03510900000000,-102.11841700000000,,,0
WOODS BOOTS INC # 5,,4803 andrews hwy,,midland,TX,79703,US,432-332-5551,31.99920700000000,-102.14592000000000,,,0
CAVENDERS BOOT CITY #034,,7920 i 40 w,,amarillo,TX,79106,US,806-358-1400,35.18788300000000,-101.92848800000000,,,0
WOODS BOOTS # 2,,812 w interstate 20,,midland,TX,79701,US,432-689-4774,31.97334300000000,-102.07558800000000,,,0
ACADEMY,,4400 soncy rd.,,amarillo,TX,79124,US,806-468-6314,35.25702700000000,-101.93840400000000,,,0
CAVENDERS WESTERN OUTFITTERS #068,,7160 e highway 191,,odessa,TX,79765,US,,31.91352300000000,-102.29633400000000,,,0
BOOT BARN INC #360,,5125 e 42nd street,,odessa,TX,79762-5207,US,,31.89532100000000,-102.32950000000000,,,0
OLD FORT WESTERN STORE,,2028 e lee hwy suite b,,wytheville,VA,24382-9622,US,276-223-1118,36.94255200000000,-80.97031100000000,,,0
D BAR M WESTERN STORE,,1020 e 4th,,reno,NV,89512-3504,US,775-329-9107,39.53250100000000,-119.80009400000000,,,0
MD/ST WESTERN BIG R,,3325 reno hwy,,fallon,NV,89406,US,651-698-8831,39.48145100000000,-118.82427500000000,,,0
BOOT BARN INC #82,,1460 w winnemucca blvd,,winnemucca,NV,89445,US,775-625-2622,40.96369400000000,-117.74445100000000,,,0
FREY OUTFITTERS,,1425 e laurel ave,,eunice,LA,70535,US,337-546-0208,30.49487900000000,-92.39715000000000,,,0
A &AMP; A WESTERN STORE,,2813 s macarthur dr,,alexandria,LA,71301-2924,US,318-487-1961,31.26891000000000,-92.45815000000000,,,0
BOOT BARN INC #177,,2201memorial dr,,alexandria,LA,71301-3612,US,,31.27909000000000,-92.45875000000000,,,0
D &AMP; B SUPPLY CO #12,,6945 w overland rd,,boise,ID,83709-1908,US,,43.58902500000000,-116.26801700000000,,,0
BOOT BARN INC #95,,8525 west franklin rd,,boise,ID,83709-0630,US,,43.60492400000000,-116.28820900000000,,,0
D &AMP; B SUPPLY CO #8,,6650 glenwood,,boise,ID,83703,US,208-853-5884,43.66368100000000,-116.27925900000000,,,0
D &AMP; B SUPPLY CO #6,,1725 e fairview,,meridian,ID,83642-5703,US,208-887-0949,43.61879600000000,-116.37173200000000,,,0
D &AMP; B SUPPLY CO #9,,3200 12th ave s,,nampa,ID,83651,US,208-466-7681,43.57427400000000,-116.56573300000000,,,0
D &AMP; B SUPPLY CO #13,,111 highway 16,,emmett,ID,83617-9491,US,,43.83279900000000,-116.47366300000000,,,0
D &AMP; B SUPPLY CO #800,,3303 e linden,,caldwell,ID,83605-6077,US,208-459-7446,43.64931900000000,-116.65737200000000,,,0
D &AMP; B SUPPLY CO #1,,3816 cleveland blvd,,caldwell,ID,83605-6573,US,208-459-7444,43.64205200000000,-116.65731300000000,,,0
IDAHOS COWBOY SUPPLY,,415 n 21st ave,,caldwell,ID,83605-4355,US,208-459-1571,43.66085600000000,-116.66942300000000,,,0
BOOT BARN INC #94,,1175 addison ave east,,twin falls,ID,83301-5224,US,,42.56319100000000,-114.45843200000000,,,0
VICKERS WESTERN STORE,,2309 addison ave e,,twin falls,ID,83301-6001,US,208-733-7096,42.56360500000000,-114.43808900000000,,,0
BAR W B,,234 nw front st,,prairie city,OR,97869,US,541-820-3675,44.46344200000000,-118.70354600000000,,,0
C A L RANCH STORES #5,,226 n overland ave,,burley,ID,83318-1025,US,208-678-7610,42.55156400000000,-113.79420900000000,,,0
D &AMP; B SUPPLY CO #2,,10101 e 1st st,,la grande,OR,97850-8403,US,541-963-8466,45.34089900000000,-118.04524700000000,,,0
D &AMP; B SUPPLY CO #3,,519 sw 19th,,ontario,OR,97914-3138,US,541-889-9119,45.34089900000000,-118.04524700000000,,,0
D &AMP; B SUPPLY CO #4,,2964 addison ave e,,twin falls,ID,83301-6814,US,208-733-9233,45.34089900000000,-118.04524700000000,,,0
D &AMP; B SUPPLY CO #5,,555 airbase rd,,mountain home,ID,83647-3397,US,208-587-3207,45.34089900000000,-118.04524700000000,,,0
MURDOCHS RANCH &AMP; HOME,,520 shoup st,,salmon,ID,83467-4211,US,,45.17651800000000,-113.89374400000000,,,0
D &AMP; B SUPPLY CO #11,,850 southgate,,pendleton,OR,97801-3949,US,208-453-2430,45.65875200000000,-118.80875200000000,,,0
BOOT BARN INC #130,,1681 3rd ave west unit #9,,dickinson,ND,58601-3025,US,,33.50506400000000,-86.86408200000000,,,0
ACADEMY,,251 lakeshore pkwy,,homewood,AL,35209-6705,US,205-945-9998,33.44589500000000,-86.82607100000000,,,0
ACADEMY,,1612 gadsden hwy,,trussville,AL,35173,US,205-661-1140,33.60040800000000,-86.64115000000000,,,0
DON WALKERS WESTERN WEAR,,100 s colonial dr ste 2100,,alabaster,AL,35007-4667,US,,33.25971600000000,-86.83627900000000,,,0
JACKS WESTERN WEAR,,114 schwaiger road,,cullman,AL,35055,US,256-739-3612,34.11701000000000,-86.86239000000000,,,0
WHARF,,220 mcfarland blvd,,northport,AL,35476-3326,US,205-752-2075,33.23638800000000,-87.55378800000000,,,0
BRALEX CONSTRUCTIONS INC,,2003 32nd st,,northport,AL,35476-5323,US,205-339-0387,33.23846900000000,-87.57760200000000,,,0
COWBOY WAY WESTERN WEAR,,7361 hwy 5 ste c,,nauvoo,AL,35578-6336,US,205-384-4034,34.01512100000000,-87.49108000000000,,,0
BOOTS PLUS INC,,730 us hwy 431,,boaz,AL,35957-1951,US,256-593-0198,34.19729600000000,-86.14926200000000,,,0
TRADING POST WESTERN &AMP; OUTDOOR,,6284 us hwy 431,,albertville,AL,35950-2019,US,,34.26691200000000,-86.19311200000000,,,0
PRESTON WESTERN WEAR INC,,1703 hwy 72 e,,athens,AL,35611-4413,US,256-233-0813,34.78295900000000,-86.93355700000000,,,0
EL KIDD WESTERN WEAR,,40276 hwy 45 s,,hamilton,MS,39746-9709,US,662-343-5105,33.70967800000000,-88.44926300000000,,,0
SHOE STATION INC #20,,2710 enterprise dr,,opelika,AL,36801,US,,32.62209900000000,-85.40962700000000,,,0
P &AMP; K WESTERN STORE,,9321 hwy 17,,florence,AL,35634-5516,US,256-766-5535,34.81714000000000,-87.66631800000000,,,0
SIKES &AMP; KOHN COUNTRY MALL,,22150 troy hwy,,pine level,AL,36065-0060,US,334-584-7402,32.06429700000000,-86.05503100000000,,,0
ROY &AMP; ROGER WSTRN APPAREL INC,,1708 huntsville hwy,,fayetteville,TN,37334-3612,US,931-438-4052,35.12831700000000,-86.56600800000000,,,0
LAWSONS CLOTHING SHOES,,536 n military st,,loretto,TN,38469-2347,US,931-853-4877,35.09096300000000,-87.42412400000000,,,0
HAV FAMOUS TEXAS BOOTS,,9502 n newport hwy ste b,,spokane,WA,99218-1147,US,509-466-2000,47.74441600000000,-117.40603200000000,,,0
NORTH 40 OUTFITTERS,,8307 e trent,,spokane,WA,99212-2327,US,509-922-1090,47.67939600000000,-117.29183700000000,,,0
NORTH 40 OUTFITTERS,,n 15228 newport hwy,,mead,WA,99021,US,409-587-5846,47.79524300000000,-117.34965700000000,,,0
HAV WESTERN WEAR INC,,14902 e sprague ave,,spokane,WA,99216,US,509-924-4945,47.65711000000000,-117.20443200000000,,,0
NORTH 40 OUTFITTERS,,170 e kathleen ave,,coeur d' alene,ID,83815-9285,US,,47.71528200000000,-116.80309700000000,,,0
NORTH 40 OUTFITTERS,,477181 highway 95,,ponderay,ID,83852-5009,US,,48.31038200000000,-116.54613800000000,,,0
NORTH 40 OUTFITTERS,,2981 thain grade,,lewiston,ID,83501-4727,US,208-746-1368,46.36962900000000,-116.92300300000000,,,0
NORTH 40 OUTFITTERS,,1147 w broadway,,moses lake,WA,98837,US,406-761-6623,47.12101100000000,-119.29252300000000,,,0
CASCADE FARM &AMP; OUTDOOR #401,,598 n wilbur ave,,walla walla,WA,99362-1549,US,509-876-8095,46.07858400000000,-118.30458100000000,,,0
RANCH &AMP; HOME,,85342 hwy 11,,milton freewater,OR,97862-7308,US,509-737-9115,45.99068500000000,-118.38922800000000,,,0
RANCH &AMP; HOME #295,,516 n oregon ave,,pasco,WA,99301-4238,US,509-547-5513,46.23756800000000,-119.08290000000000,,,0
RANCH &AMP; HOME #392,,845 n columbia ctr blvd,,kennewick,WA,99336,US,816-243-8222,46.21876700000000,-119.22500400000000,,,0
BOOT BARN INC #146,,75 treeline rd,,kalispell,MT,59901-1217,US,,48.23717000000000,-114.33323100000000,,,0
WESTERN OUTDOOR,,48 main st,,kalispell,MT,59901-4450,US,406-756-5818,48.19781700000000,-114.31388100000000,,,0
MURDOCHS RANCH &AMP; HOME SUPPLY,,2330 hwy 93 s,,kalispell,MT,59901-7531,US,406-755-4747,48.17417700000000,-114.29897000000000,,,0
HAWKEYE TACK &AMP; WSTN SUPPLY INC,,720 e 30th st,,des moines,IA,50317-2407,US,515-264-1622,41.59847700000000,-93.55856500000000,,,0
BOOT BARN INC #112,,1551 valley west dr #187,,des moines,IA,50266-1139,US,,41.59750100000000,-93.74951200000000,,,0
WESTERN EDGE,,2224 229th place,,ames,IA,50014,US,515-232-0620,42.02460800000000,-93.73562800000000,,,0
WAGON WHEELS WEST,,175 hwy 6,,grinnell,IA,50112-8223,US,641-236-0500,41.74361100000000,-92.72472200000000,,,0
LONG CREEK OUTFITTERS,,1601 w 1st st,,leon,IA,50144-1453,US,641-446-3535,40.73963100000000,-93.75768000000000,,,0
WESTERN EDGE,,1940 250th st,,humboldt,IA,50548-8749,US,515-332-2834,42.68793500000000,-94.25735000000000,,,0
SILVER SPUR SADDLE SHOP,,3574 w shaulis rd,,waterloo,IA,50701-9218,US,319-988-4539,42.44291200000000,-92.42894000000000,,,0
RANCHERO SADDLE SHOP,,4192 logan ave,,waterloo,IA,50703-9673,US,319-232-6263,42.55840300000000,-92.33593700000000,,,0
CAVENDERS WESTERN OUTFITTER #046,,2604 w pleasant crossing dr,,rogers,AR,72758-8248,US,479-751-4680,36.17547100000000,-94.19003000000000,,,0
ATWOODS RANCH AND HOME #54,,1112 w monroe ave,,lowell,AR,72745,US,580-233-3702,36.25468200000000,-94.16035300000000,,,0
ATWOODS RANCH AND HOME #23,,1451 hwy 412 bypass,,siloam springs,AR,72761,US,479-238-8000,36.17228800000000,-94.52660700000000,,,0
ATWOODS RANCH AND HOME #60,,200 hwy 64  w,,alma,AR,72921-3307,US,,35.48209800000000,-94.21908200000000,,,0
TIP TOP WESTERN WEAR INC,,512 garrison,,ft smith,AR,72901-2507,US,479-783-0840,35.38728600000000,-94.42601700000000,,,0
ATWOODS RANCH AND HOME #14,,1401 hwy 71 south,,fort smith,AR,72901,US,479-649-8100,35.32870100000000,-94.41889000000000,,,0
HARNESS SHOE CORPORATION,,110 n willow,,harrison,AR,72601-4232,US,870-741-5750,36.23012200000000,-93.10884500000000,,,0
SILVER SPUR WESTERN WEAR,,3210 w hwy 76,,branson,MO,65616-3544,US,417-334-5026,36.63791200000000,-93.27963800000000,,,0
J R'S WESTERN STORE,,51 hwy 59,,diamond,MO,64840-9700,US,417-358-2007,37.00635000000000,-94.31557300000000,,,0
PURE COUNTRY WESTERN WEAR INC,,115 w main st,,branson,MO,65616-7214,US,417-337-7774,36.64416400000000,-93.21780000000000,,,0
CAVENDERS WESTERN OUTFITTER #058,,502 s range line rd,,joplin,MO,64801-4113,US,417-626-2668,37.08603300000000,-94.47729900000000,,,0
ATWOODS RANCH AND HOME #12,,2301 north broadway,,poteau,OK,74953,US,918-647-9400,35.07369500000000,-94.62895600000000,,,0
ATWOODS RANCH AND HOME #15,,1899 s madison ave,,webb city,MO,64870,US,417-673-3408,37.12442000000000,-94.47546900000000,,,0
WOODYS BOOT &AMP; REPAIR,,511 east 4th street,,russellville,AR,72801-5220,US,479-968-8980,35.27520000000000,-93.12754200000000,,,0
ATWOODS RANCH AND HOME #52,,2804 s arkansas ave,,russelville,AR,72802-2052,US,405-203-4616,35.24969400000000,-93.13770800000000,,,0
BERNARDS NEW IMAGE #2,,410 e 1st st,,heavener,OK,74937-3202,US,918-653-7391,34.88759100000000,-94.60117800000000,,,0
BOOT BARN #207,,12720 westport pkwy bldg 5,,omaha,NE,68138-4013,US,,34.04891900000000,-117.47196200000000,,,0
BOOT BARN INC #0222,,3406 adventure lane,,kodak,TN,37764,US,,34.04891900000000,-117.47196200000000,,,0
BOOT BARN INC #232,,1200 e lewis &amp; clark parkway,,clarksville,IN,47129-7754,US,,34.04891900000000,-117.47196200000000,,,0
BOOT BARN INC #230,,5605 east sprague ave,,spokane valley,WA,99212-0827,US,,34.04891900000000,-117.47196200000000,,,0
DON WALKER WESTERN WEAR LLC,,814 b hwy 231,,troy,AL,36081-3131,US,334-566-0044,31.83314000000000,-85.99106900000000,,,0
KIMS BOOT &AMP; SHOES,,2479 airport thruway,,columbus,GA,31904,US,706-323-8070,32.51957600000000,-84.95719600000000,,,0
THE BARN OF DOTHAN LLC,,1481 westgate pkwy,,dothan,AL,36303-2132,US,334-803-0981,31.19130400000000,-85.40368100000000,,,0
WESTERNER INC,,1095 hwy 90,,chipley,FL,32428-2114,US,850-638-1124,30.78003500000000,-85.52768800000000,,,0
CAVENDERS WESTERN OUTFITTER #038,,2340 airline dr,,bossier city,LA,71111-5811,US,318-742-2323,32.54478500000000,-93.70855100000000,,,0
CAVENDERS WESTERN OUTFITTERS #061,,7580 youree dr,,shreveport,LA,71105-5534,US,318-798-0700,32.43527500000000,-93.71523800000000,,,0
ACADEMY,,140 east bert louns industrial loop,,shreveport,LA,71106-8131,US,318-861-4844,32.40007500000000,-93.74748700000000,,,0
RANCHLAND,,3025 bert kouns industrial loop,,shreveport,LA,71118-3024,US,318-688-4291,32.40163100000000,-93.81141500000000,,,0
BOOT BARN INC #159,,e 1300 pinecrest dr ste 600,,marshall,TX,75670,US,,32.52692900000000,-94.35391400000000,,,0
ACADEMY,,445 forest square street,,longview,TX,75605,US,903-242-9301,32.58770900000000,-94.68973500000000,,,0
CAVENDERS BOOT CITY #003,,1306 w loop 281,,longview,TX,75604-2925,US,903-759-1207,32.53123800000000,-94.77192300000000,,,0
BOOT BARN INC #166,,2419 gilmer rd,,longview,TX,75604-2135,US,,32.53164600000000,-94.78850300000000,,,0
ATWOODS RANCH AND HOME #28,,1811 us hwy 259 north,,kilgore,TX,75662,US,903-983-3200,32.41432200000000,-94.83827700000000,,,0
PATTONS WESTERN WEAR LLC,,814 n trenton st,,ruston,LA,71270-3329,US,318-225-3990,32.53559600000000,-92.63879700000000,,,0
TOWN &AMP; COUNTRY INC,,838 s high st,,hillsboro,OH,45133-7344,US,937-393-2020,33.43379000000000,-94.02465000000000,,,0
FISHER SHOE &AMP; SADDLE SHOP,,201 madisonburg pike,,madisonburg,PA,16852-9704,US,814-349-8266,33.43379000000000,-94.02465000000000,,,0
CAVENDERS BOOT CITY #005,,3901 mall ln,,texarkana,TX,75501-2659,US,903-794-7677,33.44805700000000,-94.09629800000000,,,0
BOOT BARN INC #153,,2309 hwy 79 s,,henderson,TX,75654-4420,US,,32.13123200000000,-94.80627500000000,,,0
BOOT BARN INC #172,,4123 gibson rd,,texarkana,TX,75503-0000,US,,33.45829200000000,-94.09914500000000,,,0
ATWOODS RANCH AND HOME #53,,4001 north st,,nacogdoches,TX,75965-1815,US,936-559-9637,31.64120900000000,-94.65391700000000,,,0
BOOT BARN INC #155,,3801 n st ste 4,,nacogdoches,TX,75961-1749,US,,31.60281100000000,-94.65540100000000,,,0
CAVENDERS BOOT CITY #600,,820 w main st,,whitehouse,TX,75791,US,866-826-4865,32.22664600000000,-95.21405100000000,,,0
RURAL KING SUPPLY #68,,1203 front st,,new philadelphia,OH,44663-2066,US,330-308-5075,40.49078700000000,-81.47020800000000,,,0
CHARM HARNESS SHOP,,4441 cr 70,,charm,OH,44617-9999,US,330-893-0402,40.50697200000000,-81.78449400000000,,,0
TYLER BROS TRUE VALUE,,116 railroad ave,,wagener,SC,29164-9322,US,803-564-3174,33.65079000000000,-81.36184700000000,,,0
GENE LEMMONS SADDLE SHOP,,6160 neely ferry rd,,laurens,SC,29360,US,864-871-2298,34.44065200000000,-82.15112900000000,,,0
J H NEWTON SHOES INC,,116 w shockley ferry rd,,anderson,SC,29624-3733,US,864-225-8433,34.47781200000000,-82.65055200000000,,,0
ACADEMY LTD #897,,1 academy dr,,jeffersonville,GA,31044-7454,US,281-646-5200,32.62758400000000,-83.36797000000000,,,0
BOOT BARN INC #195,,211 rolling hills cir,,easley,SC,29640,US,,34.82764400000000,-82.54557700000000,,,0
MCDONALDS HORSE SUPPLY,,hwy 247 bldg 495,,bonaire,GA,31005,US,478-923-3991,32.55691500000000,-83.59747700000000,,,0
BIG R STORES #20,,4301 s franklin st,,michigian city,IN,46360-7806,US,219-879-8317,33.04161200000000,-80.13582400000000,,,0
BOOT JACK INC,,1953 c sam rittenburg blvd,,charleston,SC,29407-4918,US,843-747-8340,32.79649700000000,-80.02493600000000,,,0
WAYNES WESTERN WEAR,,1504 n hobart,,pampa,TX,79065-4126,US,806-665-2925,35.55154400000000,-100.97193200000000,,,0
ROPES,,1107 south first street,,clayton,NM,88415-2101,US,575-374-8787,36.44137700000000,-103.17808100000000,,,0
CRAZY HOUSE INC,,702 e pancake blvd,,liberal,KS,67901-4327,US,620-624-0400,37.03237000000000,-100.91361500000000,,,0
ATWOODS RANCH AND HOME #07,,2901 s main,,elk city,OK,73644,US,580-225-4030,35.42039600000000,-99.40472100000000,,,0
ATWOODS RANCH AND HOME #11,,2220 north main,,altus,OK,73521,US,580-477-1995,34.66243500000000,-99.33296900000000,,,0
ATWOODS RANCH AND HOME #03,,3013 williams ave,,woodward,OK,73801,US,580-256-5466,36.41742600000000,-99.38481700000000,,,0
SHARPES DEPT STORE #13,,800 s wood drive,,okmulgee,OK,74447-0616,US,580-254-3487,36.43595800000000,-99.38954600000000,,,0
ATWOODS RANCH AND HOME #04,,2237 gary freeway,,clinton,OK,73601,US,580-323-4445,35.51560600000000,-98.96730700000000,,,0
JACKSON WESTERN STORE,,1110 w superior st,,wayland,MI,49348-1229,US,269-792-2550,42.67357700000000,-85.65323000000000,,,0
FAMILY FARM AND HOME #50,,1250 perry ave,,big rapids,MI,49037-2115,US,231-796-5849,43.68784200000000,-85.50239800000000,,,0
BOOT BARN INC #197,,4511 outer loop,,louisville,KY,40219-3856,US,,43.75844100000000,-85.58232400000000,,,0
BOOT BARN INC #209,,420 congaree rd,,greenville,SC,29607-2729,US,,43.75844100000000,-85.58232400000000,,,0
FAMILY FARM AND HOME #05,,7600 north alger rd,,alma,MI,48801-9319,US,989-463-9400,43.40097100000000,-84.66674800000000,,,0
CLARABELLA GROUP LLC,,307 n mcewan st,,clare,MI,48617-1454,US,989-386-7271,43.81694000000000,-84.76841500000000,,,0
BIG R STORES #14,,3501 s main st,,elkhart,IN,46517-3123,US,574-333-3887,41.64581600000000,-85.93613400000000,,,0
INTERMOUNTAIN FARMERS,,1147 w 2100s,,salt lake city,UT,84130-1533,US,801-972-2122,40.72541200000000,-111.85810400000000,,,0
A A CALLISTER CO,,3615 s redwood rd,,salt lake city,UT,84119-3820,US,801-973-7058,40.69329800000000,-111.93811500000000,,,0
C A L RANCH STORES #13,,2735 w 7800 south,,west jordan,UT,84088,US,801-569-2368,40.60858800000000,-111.96150900000000,,,0
REAMS #11,,2640 w 9000 s,,west jordan,UT,84088-8543,US,801-566-3747,40.58795500000000,-111.95678400000000,,,0
REAMS #9,,10670 s 700 e,,sandy,UT,84070-4979,US,801-571-4758,40.55732500000000,-111.87335400000000,,,0
INTERMOUNTAIN FARMERS ASSC #58,,1926 west 12600 south,,riverton,UT,84065-7027,US,801-254-3501,40.52361500000000,-111.94312600000000,,,0
REAMS #14,,1020 n main,,layton,UT,84041-4816,US,801-547-9872,41.07530600000000,-111.97996700000000,,,0
C A L RANCH STORES #10,,862 n main st,,tooele,UT,84074,US,435-882-5020,40.54756800000000,-112.29817900000000,,,0
INTERMOUNTAIN FARMERS ASSC #59,,562 north 900 west,,american fork,UT,84003-5135,US,801-756-9604,40.38446100000000,-111.82253900000000,,,0
C A L STORES #8,,175 nw state st,,american fork,UT,84003-1485,US,801-763-7777,40.37999400000000,-111.81569100000000,,,0
CABELAS INC,,1961 w outfitters ave,,tooele,UT,84074,US,,40.53077800000000,-112.29828000000000,,,0
BOOT BARN INC #93,,5320 south freeway park dr,,riverdale,UT,84405-4013,US,,41.16676500000000,-112.02060400000000,,,0
REAMS #3,,472 n main,,heber city,UT,84032,US,801-485-8451,40.51383900000000,-111.41331500000000,,,0
INTERMOUNTAIN FARMERS ASSC #55,,1069 w 12th,,ogden,UT,84404-1533,US,970-565-3077,41.24221100000000,-112.00549300000000,,,0
GUNNIES INC,,396 s state st,,orem,UT,84058-5424,US,801-226-7080,40.28998500000000,-111.69237600000000,,,0
C A L RANCH STORES #9,,955 n 2000 w,,farr west,UT,84404,US,801-732-9348,41.27520100000000,-112.02821100000000,,,0
SMITH &AMP; EDWARDS,,3936 n hwy 126,,ogden,UT,84404-9604,US,801-731-1120,41.33446700000000,-112.03650500000000,,,0
C A L RANCH STORES #7,,950 n main,,spanish fork,UT,84660,US,801-794-2810,40.12198500000000,-111.65342600000000,,,0
PAUL REAM ENTERPRISES INC,,160 n main st,,spanish fork,UT,84660-1725,US,801-794-3156,40.11199000000000,-111.65475400000000,,,0
THAT BOOT STORE,,3207 e highway 98,,panama city,FL,32401-5503,US,850-785-1132,30.18005400000000,-85.70359200000000,,,0
FRANKLIN FARMERS COOP,,2229 decherd blvd,,decherd,TN,37324-3827,US,931-967-5511,35.21239000000000,-86.09695100000000,,,0
SEARS SHOE STORE,,2778 lafayette rd,,ft oglethorpe,GA,30742-3727,US,,34.94877800000000,-85.25930800000000,,,0
STOCKDALES LLC,,5450 hwy 153,,hixson,TN,37343,US,615-793-8440,35.13988700000000,-85.24543100000000,,,0
RURAL KING SUPPLY #95,,7340 norris fwy,,knoxville,TN,37918-5746,US,,36.08353000000000,-83.93150800000000,,,0
FRENCHS SHOES AND BOOTS #16,,11147 turkey drive,,knoxville,TN,37934,US,,35.90307000000000,-84.15439400000000,,,0
FRENCHS FAMOUS TEXAS BOOTS,,105 knifeworks lane ste 3,,sevierville,TN,37876-5530,US,,35.93317400000000,-83.58407600000000,,,0
FRENCHS SHOES AND BOOTS,,2746 parkway,,pigeon forge,TN,37863-3212,US,,35.80114800000000,-83.57340500000000,,,0
STAGES WEST WESTERN STORE,,2765 parkway,,pigeon forge,TN,37863-3214,US,865-453-8086,35.80163800000000,-83.57111300000000,,,0
BOOT JUNKIES,,3189 parkway,,pigeon forge,TN,37863,US,865-430-1949,35.79245100000000,-83.55941500000000,,,0
OUTBACK LEATHER,,3409 parkway,,pigeon forge,TN,37863-3807,US,865-429-5000,35.78819800000000,-83.55476400000000,,,0
RICKS RANCHWEAR,,4135 parkway,,pigeon forge,TN,37863-4009,US,865-428-7100,35.77516400000000,-83.54065500000000,,,0
COWBOY WAY,,611 parkway ste c6,,gatlinburg,TN,37738-3213,US,865-430-4303,35.71318100000000,-83.51338000000000,,,0
SWEETWATER WESTERN STORE,,321 hwy 68,,sweetwater,TN,37874,US,423-337-0443,35.59763700000000,-84.50419400000000,,,0
BOOT HILL LEATHER,,1044 tsalagi rd,,cherokee,NC,28719,US,828-497-7981,35.47685500000000,-83.32496800000000,,,0
GILLEYS WESTERN STORE,,7960 w andrew johnson hwy,,mosheim,TN,37818-4205,US,423-422-6800,36.18720300000000,-82.94574500000000,,,0
WORK BOOTS &AMP; MORE,,53 frazier st,,waynesville,NC,28786-2871,US,828-454-0707,35.50405300000000,-82.99205600000000,,,0
W E FOX &AMP; CO LLC,,73 w palmer st,,franklin,NC,28734-3046,US,828-342-1998,35.17947600000000,-83.38635100000000,,,0
FRENCHS SHOES AND BOOTS,,455 thurman ave,,crossville,TN,38555,US,931-456-7744,35.94958100000000,-85.02667200000000,,,0
B &AMP; H SHOES #5,,14396 us hwy 25 e ste e,,corbin,KY,40701,US,606-528-0521,36.96137800000000,-84.09321600000000,,,0
JACKSON TRADING CO INC,,641 patton ave,,asheville,NC,28806-3834,US,,35.58902600000000,-82.58089900000000,,,0
B JS WESTERN STORE,,3728 cookeville hwy,,cookeville,TN,38506-7962,US,931-498-5577,36.27346600000000,-85.38684500000000,,,0
ACADEMY LTD #893,,4500 academy rd,,cookeville,TN,38506-3436,US,,36.28602100000000,-85.29109200000000,,,0
BOOTS &AMP; MORE,,1060 high st,,jackson,MS,39202-3509,US,601-353-9050,32.30425100000000,-90.17212000000000,,,0
MID SOUTH UNIFORM &AMP; SUPPLY INC,,1825 university blvd,,jackson,MS,39204-5008,US,601-373-3613,32.28225700000000,-90.21004900000000,,,0
SOUTHERN CONNECTION POLICE SPLY,,274 commerce park dr ste-m,,ridgeland,MS,39157-2238,US,601-853-3106,32.42847600000000,-90.13230900000000,,,0
BOOTS &AMP; MORE,,2851 hwy 49 south,,florence,MS,39073,US,,32.14175600000000,-90.09586100000000,,,0
RANKIN COUNTY CO-OP,,2861 hwy 80 east,,brandon,MS,39042-7208,US,601-825-5051,32.27906100000000,-89.94478100000000,,,0
BRITCHES &AMP; BOOTS,,9800 i-hwy 55,,terry,MS,39170,US,601-878-0021,32.09052700000000,-90.30827600000000,,,0
COUNTRY BOYS FARM,,1200 east 2nd street,,pelahatchie,MS,39145,US,601-759-5037,32.31491600000000,-89.78935600000000,,,0
WILLIAMS BROS INC,,10360 rd 375,,philadelphia,MS,39350-9302,US,601-656-2651,32.75919400000000,-89.14298500000000,,,0
VILLAGE WSTR WEAR &AMP; SHOE RE,,1185 bonita lakes crossing,,meridian,MS,39301-6101,US,601-693-6040,32.36154300000000,-88.66957400000000,,,0
SPORTSMAN INC,,1511 hwy 1 s,,greenville,MS,38701-7143,US,662-335-5018,33.38073200000000,-91.03926200000000,,,0
SULLIVANS FEED &AMP; FARM SUPPLY,,3236 front st,,winnsboro,LA,71295-2661,US,318-435-3104,32.18529900000000,-91.72726200000000,,,0
CLOTHING WORLD,,i-20 &amp; rd 53 exit 82,,elgin,SC,29045-0370,US,803-736-6576,32.48667300000000,-91.96399400000000,,,0
PAULS MART INC,,612 n davis avenue,,cleveland,MS,38732-2356,US,662-843-2719,33.75196600000000,-90.71572700000000,,,0
CAVENDERS #069,,3571 pecanland mall drive,,monroe,LA,71203-7018,US,,32.49940100000000,-92.07713400000000,,,0
J &AMP; H BOOTS &AMP; JEANS INC,,5218 cypress st,,west monroe,LA,71291-7504,US,318-396-2407,32.51638700000000,-92.18849800000000,,,0
ATWOODS RANCH AND HOME #50,,202 hwy 426 so,,monticello,AR,71655-4610,US,,33.62860000000000,-91.78510000000000,,,0
POINTER HILL SADDLERY,,3219 w houghton ave,,west branch,MI,48661,US,989-345-5055,44.27624700000000,-84.24389600000000,,,0
FAMILY FARM AND HOME #53,,760 n van dyke,,bad axe,MI,48413-9012,US,,43.81922900000000,-83.00096400000000,,,0
CAMPBELL SUPPLY OF SIOUX FALLS,,301 east 10th st,,sioux falls,SD,57103,US,605-336-2494,43.54597900000000,-96.72380400000000,,,0
CAMPBELLS SUPPLY 82590,,1526 north industrial ave,,sioux falls,SD,57104,US,605-331-5470,43.56597300000000,-96.74866600000000,,,0
CAMPBELL SUPPLY HOME &AMP; AUTO,,3835 s. western,,sioux falls,SD,57105,US,605-332-8700,43.51099500000000,-96.75108700000000,,,0
RENEGADE STORE,,4100 west 41st street ste 920a,,sioux falls,SD,57106-0717,US,,43.51510700000000,-96.77614900000000,,,0
BOOT BARN INC #124,,2805 w 41st street,,sioux falls,SD,57105-4255,US,,43.51469400000000,-96.77369200000000,,,0
HAEGLES SADDLE SHOP,,2800 w 41st st,,sioux falls,SD,57105-4202,US,605-332-8712,43.51469400000000,-96.77369200000000,,,0
CAMPBELL SUPPLY OF ROCK RAPIDS,,1104 1st. ave.,,rock rapids,IA,51246,US,712-472-2559,43.43190200000000,-96.17982600000000,,,0
CAMPBELL SUPPLY OF MADISON,,535 3rd st. n.e.,,madison,SD,57042,US,605-256-4545,44.00781900000000,-97.10636400000000,,,0
SHOE SHOW INC,,2201 trinity church rd,,concord,NC,28027,US,704-782-4143,43.18116800000000,-95.85619800000000,,,0
HILLS WESTERN OUTFITTERS,,45787 203a st,,white,SD,57276-5918,US,605-690-2638,44.31144200000000,-96.77605100000000,,,0
RETTEDALS DEPT STORE,,551 main st,,scotland,SD,57059,US,605-583-4115,43.14957800000000,-97.71963500000000,,,0
CAMPBELL SUPPLY OF MITCHELL,,1400 s. burr st.,,mitchell,SD,57301,US,605-996-8305,43.69653000000000,-98.01559400000000,,,0
MERCHANDISE OUTLET STORE,,301 n main,,mitchell,SD,57301-3417,US,605-996-3431,43.71147100000000,-98.02554200000000,,,0
MOODYS WESTERN WEAR,,n 305 main st,,mitchell,SD,57301,US,605-995-5879,43.71151000000000,-98.02554100000000,,,0
DOUBLE D WESTERN LLC,,800 21st st sw #8,,huron,SD,57350,US,605-352-5792,44.34162000000000,-98.22825200000000,,,0
SPORTSMANS DISTRIBUTION CO #902,,2300 e turner,,springfield,MO,65803,US,417-873-5000,37.23760900000000,-93.25069100000000,,,0
PFI WESTERN STORE,,2816 s ingram mill rd,,springfield,MO,65804-4042,US,417-889-2668,37.16058000000000,-93.22566500000000,,,0
DON ANDERSON ENTERPRISES,,9805 e 20th st,,mountain grove,MO,65711-2819,US,417-926-3320,37.14909300000000,-92.26135400000000,,,0
JOHNS SPORT CENTER,,1806 n broadway,,pittsburg,KS,66762-2810,US,620-231-7740,37.42382700000000,-94.70485400000000,,,0
H BS BOOT CORRAL LLS,,3003 porter wagoner blvd,,west plains,MO,65775-4143,US,417-256-4978,36.76596700000000,-91.87711700000000,,,0
SILVER SPUR WESTERN STORE,,1629 e state rt #73,,waynesville,OH,45068-9509,US,513-897-9745,37.95656200000000,-91.79019800000000,,,0
FAMILY CENTER OF ROLLA,,1200 east 72 hwy,,rolla,MO,65402,US,,37.93779600000000,-91.75588800000000,,,0
CROSS COUNTRY TRAIL RIDE,,hwy 19 e,,eminence,MO,65466-0015,US,573-226-3492,37.17167200000000,-91.36002500000000,,,0
BIG R STORES #15,,70 cherry tree shpg cntr,,washington,IL,61571-2170,US,309-481-5009,40.70364800000000,-89.40731200000000,,,0
BIG R STORES #13,,3315 court st,,pekin,IL,61554-6201,US,815-432-3440,40.54643900000000,-89.60098500000000,,,0
JC SALES,,1615 e empire st.  space 1305,,bloomington,IL,61701,US,309-664-1091,40.48588900000000,-88.95640100000000,,,0
HAYCRAFT CIRCLE H BOOTS,,700 n walnut circle,,wapella,IL,61777-0050,US,217-935-6286,40.22793500000000,-88.96605800000000,,,0
BIG R STORES #5,,1027 w reynolds,,pontiac,IL,61764,US,815-844-7000,40.87369300000000,-88.64096800000000,,,0
FARM KING,,730 n bower ave,,macomb,IL,61455-2512,US,309-837-9929,40.46775100000000,-90.63796500000000,,,0
DIAMOND D WESTERN STORE,,1625 west jackson street,,macomb,IL,61455-1998,US,309-25-6230,40.45902000000000,-90.69527900000000,,,0
ROCKIN R OUTFITTERS,,8440 us hwy 136,,colchester,IL,62326-1758,US,309-833-1555,40.44511700000000,-90.74402100000000,,,0
RURAL KING SUPPLY #37,,1920 s mount zion rd,,decatur,IL,62521-9716,US,217-864-5700,39.81976400000000,-88.87816300000000,,,0
BOOT BARN INC #111,,320 west kimberly rd #206,,davenport,IA,52806-5927,US,,41.56257000000000,-90.57542000000000,,,0
RURAL KING SUPPLY #44,,913 west marketview dr,,champaign,IL,61821-1394,US,217-403-1011,40.13799000000000,-88.25844000000000,,,0
RURAL KING SUPPLY #18,,1700 e grove ave,,rantoul,IL,61866-2738,US,217-893-4221,40.31100100000000,-88.12397800000000,,,0
BOOT BARN INC #13,,27250 madison #b,,temecula,CA,92590-5640,US,951-296-6500,40.42417100000000,-91.13683700000000,,,0
PARDS WESTERN SHOP INC,,306 n maple st,,urbana,IL,61801-2701,US,217-367-4912,40.11034000000000,-88.20221500000000,,,0
COASTAL FARM &AMP; HOME SUPPLY,,2200 w 6th st,,eugene,OR,97402-7615,US,541-687-5810,44.05384400000000,-123.12594700000000,,,0
WILCO FARMERS - STORE B,,1401 21st street,,springfield,OR,97477-3478,US,541-726-0950,44.05863000000000,-122.99430500000000,,,0
DOUGLAS COUNTY FARMERS,,3171 ne stephens,,roseburg,OR,97470,US,541-673-0601,43.24599300000000,-123.35105800000000,,,0
COASTAL FARM &AMP; HOME SUPPLY,,782 ne garden valley blvd,,roseburg,OR,97470-2043,US,503-957-0741,43.22695500000000,-123.34642100000000,,,0
BOOT BARN INC #89,,2221 northeast 3rd st,,bend,OR,97701-3614,US,,44.07210800000000,-121.30273300000000,,,0
WILCO FARM STORE #573,,2717 ne hwy 20,,bend,OR,97701-9595,US,,44.05377400000000,-121.26208200000000,,,0
COASTAL FARM &AMP; HOME,,3141 south hwy 97,,redmond,OR,97756-8906,US,541-548-4095,44.24741800000000,-121.19007300000000,,,0
SIERRA TRADING POST,,5121 campstool rd,,cheyenne,WY,82007,US,307-775-8057,41.12643000000000,-104.74373400000000,,,0
MURDOCHS RANCH &AMP; HOME SUPPLY,,3773 e lincoln way,,cheyenne,WY,82001,US,307-632-7888,41.14081100000000,-104.76359000000000,,,0
BOOT BARN INC #70,,4519 frontier mall dr,,cheyenne,WY,82009,US,307-635-5810,41.16010400000000,-104.80117600000000,,,0
MURDOCHS RANCH &AMP; HOME SUPPLY,,3322 east grand ave,,laramie,WY,82070-5147,US,307-721-1733,41.30766700000000,-105.55332200000000,,,0
BOOT BARN INC #140,,2640 west university dr ste 1270,,denton,TX,76201,US,,33.23216300000000,-97.16609200000000,,,0
RURAL KING SUPPLY #27,,1004 n main st,,monticello,IN,47960-1503,US,574-583-9989,40.75701700000000,-86.76517600000000,,,0
RIVERSIDE ACRES TACK SHOP,,14148 river rd,,st marys,OH,45885-9437,US,419-394-3562,40.55570200000000,-84.39547800000000,,,0
COLEMAN BOOT SHOP,,129 w main,,princeton,KY,42445-1546,US,270-365-7224,37.10894000000000,-87.88271100000000,,,0
RURAL KING SUPPLY #20,,145 copper creek dr,,powderly,KY,42367-5491,US,270-338-3555,37.23152900000000,-87.16111100000000,,,0
RURAL KING SUPPLY #36,,1650 s main st,,madisonville,KY,42431-3348,US,270-821-1214,37.30552800000000,-87.50941000000000,,,0
CAVENDERS BOOT CITY #016,,2919 s general bruce dr,,temple,TX,76504-6318,US,254-773-0297,31.09201000000000,-97.37771700000000,,,0
JMCA ENTERPRISE INC,,1512 e main st,,gatesville,TX,76528-1635,US,254-865-1372,31.43457200000000,-97.74084200000000,,,0
HOFFPAUIRS RANCH &AMP; SUPPLY,,1189 n hwy 281,,lampasas,TX,76550-1170,US,512-556-5444,31.05858300000000,-98.18138700000000,,,0
TRACTOR SUPPLY CO #398 DIST CTR,,2801 corporation pkwy,,waco,TX,76712-6955,US,254-420-4848,31.48657400000000,-97.15950300000000,,,0
CAVENDERS BOOT CITY #035,,4637 s jack kultgen fwy,,waco,TX,76706,US,254-741-6161,31.52508100000000,-97.17690300000000,,,0
RITCHIE'S WESTERN WEAR,,4533 w waco dr,,waco,TX,76710-7046,US,254-776-8036,31.52487800000000,-97.17457600000000,,,0
BOOT BARN INC #171,,240 n new road,,waco,TX,76710,US,,31.52483400000000,-97.17081600000000,,,0
ATWOODS RANCH AND HOME #46,,4501 interstate 35 n,,lacy lakeview,TX,76705-7006,US,,31.60638500000000,-97.10797400000000,,,0
HARRYS DEPARTMENT STORE,,403 e wallace st,,san saba,TX,76877-3527,US,325-372-3636,31.19585800000000,-98.71739900000000,,,0
FOSTERS SADDLE SHOP,,6409 i 35 n,,denton,TX,76207-1437,US,940-383-1549,33.25389900000000,-97.17735300000000,,,0
LONE STAR BOOT OUTLET,,201 i 35 se,,hillsboro,TX,76645-2719,US,254-582-0716,32.01191200000000,-97.09665700000000,,,0
RUSTYS BOOT OUTLET,,1349 e milam st,,mexia,TX,76667,US,254-562-7767,31.68558600000000,-96.45851700000000,,,0
LONE STAR WESTERN WEAR,,1734 w 7th ave,,corsicana,TX,75110,US,903-677-5775,32.08331600000000,-96.48043500000000,,,0
APOS BOOT OUTLET,,110 east chambers st,,cleburne,TX,76031-4902,US,817-645-0818,32.34683900000000,-97.38511500000000,,,0
MI RANCHITO WESTERN WEAR,,6309 boathouse rd unit c,,wilmington,NC,28403-3576,US,910-520-8312,34.21224900000000,-77.83422700000000,,,0
BOOT COUNTRY INC,,1179 us route 50,,milford,OH,45150-9571,US,513-772-2238,0.00000000000000,0.00000000000000,,,0
TRADER HORN BOOT CENTER,,1070 sagamore pkwy w,,w lafayette,IN,47906-1446,US,765-463-2313,40.45340600000000,-86.92068800000000,,,0
RURAL KING SUPPLY #26,,3919 us hwy 24 e,,logansport,IN,46947,US,574-753-2030,40.76434500000000,-86.50245700000000,,,0
BIG R STORES #3,,3363 n vermillion,,danville,IL,61832,US,217-442-5800,40.17763500000000,-87.62995600000000,,,0
BIG R STORES #4,,1625 s georgetown rd,,tilton,IL,61833,US,217-446-0800,40.09419000000000,-87.63536100000000,,,0
BIG R STORES #17,,2100 peach tree village,,rochester,IN,46975-2655,US,574-223-2447,41.05296300000000,-86.22006300000000,,,0
BIG R STORES #18,,1550 n cass st,,wabash,IN,46992,US,260-569-6700,40.81604800000000,-85.84062900000000,,,0
RURAL KING SUPPLY #2,,1103 n main st,,paris,IL,61944-8300,US,217-463-3250,39.62979700000000,-87.69580600000000,,,0
RURAL KING SUPPLY #5,,3235 washburn ave,,terre haute,IN,47803-1519,US,812-234-5800,39.46582500000000,-87.31155300000000,,,0
WOODS BOOTS INC # 4,,4301 tanglewood,,odessa,TX,79762-5922,US,432-362-4757,31.89441200000000,-102.34301200000000,,,0
CAVENDERS #072,,2520 southwest blvd,,san angelo,TX,76901-5625,US,,31.43995300000000,-100.49698200000000,,,0
MR BOOTS,,2130 w beauregard,,san angelo,TX,76901-3815,US,325-949-3921,31.45134500000000,-100.46413500000000,,,0
BILLS MANS SHOP INC,,137 w beauregard ave,,san angelo,TX,76903,US,325-655-7545,31.46138600000000,-100.44004900000000,,,0
DRI ENT INC,,188 country rd 4226,,decatur,TX,76234-1693,US,,33.17217700000000,-97.55528000000000,,,0
DRI ENT INC,,4650 us hwy 287,,decatur,TX,76234,US,940-627-3949,33.22355100000000,-97.59446500000000,,,0
CAVENDERS WORK AND WESTERN  #702,,502 field st,,gainesville,TX,76240-3855,US,940-665-7142,33.62874200000000,-97.15331900000000,,,0
RURAL KING SUPPLY #34,,2800 n st joesph ave,,w evansville,IN,47720-1336,US,812-422-0445,38.00481600000000,-87.60173100000000,,,0
RURAL KING SUPPLY #14,,2300 e morgan ave,,evansville,IN,47711-4316,US,812-473-5750,37.99302100000000,-87.52148000000000,,,0
RURAL KING SUPPLY #8,,1700 green st,,henderson,KY,42420-4349,US,270-831-2525,37.81598200000000,-87.61488900000000,,,0
RURAL KING SUPPLY #9,,2007 w broadway st,,princeton,IN,47670-1084,US,812-385-4078,38.35502100000000,-87.59118300000000,,,0
RURAL KING SUPPLY #21,,2655 n 6th st,,vincennes,IN,47591-3622,US,812-886-9600,38.68971800000000,-87.50433000000000,,,0
RURAL KING SUPPLY #47,,701 n commercial st,,harrisburg,IL,62946-3335,US,618.252.2628,37.74426100000000,-88.52532500000000,,,0
MILLERS FEED &AMP; TACK,,2876 n 1150 st,,flat rock,IL,62427,US,618-584-3254,38.89236600000000,-87.73153500000000,,,0
FARM &AMP; RANCH WESTERN WEAR,,3000 s west dr,,abilene,TX,79605-6526,US,325-692-8034,32.41408900000000,-99.77387700000000,,,0
ACADEMY,,3950 john knox drive,,abilene,TX,79606,US,915-698-5490,32.40461700000000,-99.76840100000000,,,0
GREERS WESTERN STORE,,1414 e main st,,eastland,TX,76448,US,254-629-3989,32.40168200000000,-98.79174800000000,,,0
JMCA ENTERPRISE INC,,420 early blvd,,early,TX,76802-2119,US,,31.73755900000000,-98.95862400000000,,,0
PARKER COUNTY GIBSON PROD,,411 s main st,,weatherford,TX,76086-5201,US,817-594-8711,32.75385500000000,-97.79645800000000,,,0
CAVENDERS BOOT CITY #57,,3905 lawrence rd,,wichita falls,TX,76308,US,940-691-2668,33.87286000000000,-98.53991300000000,,,0
BOOT BARN INC #176,,3111 midwestern pkwy spc 750,,wichita falls,TX,76308-2823,US,,33.87050600000000,-98.53280700000000,,,0
ATWOODS RANCH AND HOME #16,,2047 loop 11,,witchita falls,TX,76306,US,940-855-9100,33.91353000000000,-98.53612300000000,,,0
ACADEMY,,6250 eastex frwy,,beaumont,TX,77708,US,409-898-1569,30.12940600000000,-94.15999800000000,,,0
CAVENDERS BOOT CITY #041,,6185 eastex fwy,,beaumont,TX,77706,US,409-347-1770,30.12861000000000,-94.16260500000000,,,0
SAFETY WEAR #01,,519 i 10 frwy,,orange,TX,77630-5630,US,409-883-5712,30.14491000000000,-94.01759900000000,,,0
BOOT BARN INC #184,,7745 memorial blvd,,port arthur,TX,77640,US,,29.93606600000000,-93.98076100000000,,,0
BOOT BARN INC #157,,1001 main st,,liberty,TX,77575-3717,US,,30.06521800000000,-94.79571700000000,,,0
PATTONS WESTERN WEAR,,3620 ryan street,,lake charles,LA,70605-1610,US,,30.19183100000000,-93.21899400000000,,,0
FRANKS SHOE SERVICE,,2601 ryan st,,lake charles,LA,70601-7325,US,337-436-5131,30.20660200000000,-93.21830300000000,,,0
BOOT BARN INC #175,,2990 eash prien lake rd,,lake charles,LA,70615-5403,US,,30.19645000000000,-93.17484400000000,,,0
ACADEMY,,3401 derek drive,,lake charles,LA,70607,US,337-562-4000,30.19568200000000,-93.17302900000000,,,0
BOOT BARN INC #182,,6550 garth rd,,baytown,TX,77521,US,,29.79678200000000,-94.98071400000000,,,0
CAVENDERS BOOT CITY #036,,4511 ih 10,,baytown,TX,77521,US,281-839-2202,29.80353200000000,-94.99109600000000,,,0
BOOT BARN INC #160,,327 s wheeler,,jasper,TX,75951,US,,30.91809800000000,-93.99684900000000,,,0
RANDYS SHOE REPAIR,,210 n travis,,cleveland,TX,77327-4013,US,281-592-6102,30.34389500000000,-95.08731600000000,,,0
BOOT BARN INC #154,,620 pan american dr,,livingston,TX,77351-3900,US,,30.71102900000000,-94.93299000000000,,,0
CAVENDERS BOOT CITY #026,,9225 fm 1960 bypass,,humble,TX,77338,US,281-548-3755,30.00848400000000,-95.26744500000000,,,0
INTERMOUNTAIN FARMERS ASSC #63,,250 arrowhead trail rd,,spanish fork,UT,84660-9232,US,801-798-7418,40.08420700000000,-111.67341900000000,,,0
INTERMOUNTAIN FARMERS ASSC #64,,460 south main st,,ephraim,UT,84627-4016,US,435-283-4529,39.35164900000000,-111.58730200000000,,,0
BOOT BARN INC #114,,3902 13th ave sw,,fargo,ND,58103-3325,US,,46.86179900000000,-96.84626300000000,,,0
STOCKMENS SUPPLY INC,,802 w main ave,,west fargo,ND,58078-1125,US,701-282-3255,46.87667100000000,-96.88462600000000,,,0
BOOT BARN INC #116,,2800 south columbia rd ste 450,,grand forks,ND,58201-6076,US,,47.89312300000000,-97.07120000000000,,,0
HITCH N POST,,2601 6th ave se,,aberdeen,SD,57401-5203,US,605-229-1655,45.45920000000000,-98.45146400000000,,,0
TRAVS OUTFITTER INC,,515 10th st nw,,watertown,SD,57201-2149,US,605-882-1739,44.90710100000000,-97.13197800000000,,,0
BOOT BARN INC #123,,3134 north 11th street,,bismark,ND,58503,US,,46.84062600000000,-100.77558900000000,,,0
LANCO PORTABLE BUILDINGS,,4001 north douglas,,malden,MO,63863-1251,US,573-281-2668,0.00000000000000,0.00000000000000,,,0
RURAL KING SUPPLY #104,,225 west ave,,new boston,OH,45662-4977,US,,0.00000000000000,0.00000000000000,,,0
DICKS MERCH &AMP; SUPPLY CHAIN DC #651,,3909 north commerce drive,,east point,GA,30344-8143,US,,0.00000000000000,0.00000000000000,,,0
BIG R STORES #22,,1800 tiffin road,,findlay,OH,45840-6789,US,,0.00000000000000,0.00000000000000,,,0
TRACTOR SUPPLY CO #2130,,10713 dixie hwy ste 101,,louisville,KY,40272-4301,US,,0.00000000000000,0.00000000000000,,,0
CAVENDERS WESTERN OUTFITTERS #83,,7025 cabela dr,,huntsville,AL,35806-2925,US,,0.00000000000000,0.00000000000000,,,0
RURAL KING SUPPLY #100,,2999 10th street,,ocala,FL,34475-4554,US,,0.00000000000000,0.00000000000000,,,0
BIG R OF PUEBLO WEST #27,,115 west industrial blvd,,pueblo west,CO,81007,US,,0.00000000000000,0.00000000000000,,,0
CAVENDERS WESTERN OUTFITTERS #82,,220 bass pro drive,,round rock,TX,78665,US,,0.00000000000000,0.00000000000000,,,0
BOOT FACTORY OUTLET,,1842 winefield dunn pkwy,,sevierville,TN,37876-1579,US,,0.00000000000000,0.00000000000000,,,0
BIG R STORES #23,,11 north point drive,,streator,IL,61364-1159,US,,0.00000000000000,0.00000000000000,,,0
WICHITA DISTRIBUTION CENTER #735,,4950 s laura dock a,,wichita,KS,67216-2011,US,,0.00000000000000,0.00000000000000,,,0
R &AMP; M SHOES,,100 west main st,,springfield,KY,40069-2202,US,270-469-6152,0.00000000000000,0.00000000000000,,,0
RURAL KING SUPPLY #101,,7246 gall blvd,,zephyrhills,FL,33541-4306,US,,0.00000000000000,0.00000000000000,,,0
CAVENDERS WESTERN OUTFITTERS #81,,201 bass pro drive,,pearl,MS,39208,US,,0.00000000000000,0.00000000000000,,,0
BIG R STORES #24,,3101 norhtview dr,,elkhart,IN,46514-6748,US,,0.00000000000000,0.00000000000000,,,0
LOU TAUBERT RANCH OUTFITTERS,,123 n broadway,,billings,MT,59101-2042,US,406-245-2248,45.78290900000000,-108.50588100000000,,,0
ALS BOOTERY,,1820 1st ave n,,billings,MT,59101-2441,US,406-245-4827,45.78754300000000,-108.49338300000000,,,0
JEVCO INC,,1945 grand ave,,billings,MT,59102-2747,US,406-259-9889,45.78435600000000,-108.56637000000000,,,0
SHIPTONS BIG R HEIGHTS,,1908 main st,,billings,MT,59105-4048,US,406-384-0099,45.83332900000000,-108.47116000000000,,,0
SHIPTONS BIG R  WEST,,2600 gabel rd,,billings,MT,59102-7300,US,406-252-5707,45.74564700000000,-108.58021200000000,,,0
TOWN &AMP; COUNTRY SUPPLY ASSOC.,,800 e main st,,laurel,MT,59044,US,406-628-6314,45.67233000000000,-108.76157000000000,,,0
TOWN &AMP; COUNTRY SUPPLY ASSOC.,,225 w railway st,,hardin,MT,59034-2360,US,406-665-1103,45.72890700000000,-107.60999300000000,,,0
WAYNES BOOT SHOP,,1250 sheridan ave,,cody,WY,82414-3630,US,307-587-5234,44.52577300000000,-109.06315000000000,,,0
BOOT BARN INC #73,,1625 stampede dr,,cody,WY,82414,US,307-587-4493,44.51916700000000,-109.05536500000000,,,0
DONS,,120 2nd ave s,,lewistown,MT,59457-3026,US,406-538-9408,47.06603300000000,-109.42480200000000,,,0
MURDOCHS RANCH AND HOME SUPPLY,,2420 s park street,,livingston,MT,59047,US,,45.67057100000000,-110.54604500000000,,,0
BOOT BARN INC #75,,150 north main,,sheridan,WY,82801,US,307-672-5622,44.79894700000000,-106.95624200000000,,,0
SHIPTONS BIG R SHERIDAN,,2049 sugarland dr,,sheridan,WY,82801-5747,US,,44.77551300000000,-106.93853900000000,,,0
MURDOCHS RANCH &AMP; HOME SUPPLY,,2275 n 7th ave,,bozeman,MT,59715-2536,US,406-586-8466,45.70160500000000,-111.04751300000000,,,0
BOOT BARN INC #141,,915 w main st,,bozeman,MT,59715-3247,US,,45.67992000000000,-111.04955100000000,,,0
ROCKY MOUNTAIN SUPPLY INC,,350 jackrabbit lane,,belgrade,MT,59714,US,406-388-4008,45.77541000000000,-111.18417600000000,,,0
MURDOCHS RANCH &AMP; HOME SUPPLY,,822 jackrabbit lane,,bozeman,MT,59718,US,,45.68576800000000,-111.18568700000000,,,0
MILES CITY SADDLERY,,808 main st,,miles city,MT,59301-3221,US,406-232-2512,46.40673900000000,-105.84739000000000,,,0
MURDOCHS RANCH &AMP; HOME SUPPLY,,620 meadow dr,,miles city,MT,59301,US,406-232-3422,46.39049400000000,-105.81330100000000,,,0
ATWOODS RANCH AND HOME #30,,3000 w northwest loop 323,,tyler,TX,75702-1336,US,902-526-6030,32.35710600000000,-95.34329400000000,,,0
CAVENDERS BOOT CITY #004,,2025 w sw loop 323,,tyler,TX,75701-8430,US,903-561-2510,32.30367900000000,-95.30807900000000,,,0
BOOT BARN INC #156,,4530 s broadway,,tyler,TX,75703-1305,US,,32.30028800000000,-95.30058500000000,,,0
CAVENDERS WESTERN OUTFITTER #79,,6112 us hwy 98,,hattiesburg,MS,39402,US,,32.29711000000000,-95.25784700000000,,,0
STAGE STORES DISTRIBUTION CENTER,,506 bealls blvd,,jacksonville,TX,75766-5122,US,713-838-4260,31.98736700000000,-95.27219500000000,,,0
CODE WESTERN,,2000 crockett rd ste 101-2,,palestine,TX,75801-5937,US,,31.73891800000000,-95.61101150000000,,,0
CAVENDERS BOOT CITY #008,,2748 s loop 256,,palestine,TX,75801-6934,US,903-729-8106,31.73311600000000,-95.62279300000000,,,0
CIRCLE E WESTERN STORE,,220 shannon rd,,sulphur springs,TX,75482-4638,US,903-885-4481,33.11582800000000,-95.59932600000000,,,0
ATWOODS RANCH AND HOME #43,,817 gilmer st,,sulpher springs,TX,75482-4316,US,903-885-2029,33.12707500000000,-95.59905100000000,,,0
BOOT BARN INC #161,,725 e villa maria ste 4700,,bryan,TX,77802,US,,30.64460400000000,-96.34920700000000,,,0
CAVENDERS BOOT CITY #012,,2300 earl rudder frwy s,,college station,TX,77840-3749,US,979-696-8800,30.62326300000000,-96.29969900000000,,,0
ACADEMY,,2351 earl rudder freeway south,,college station,TX,77845,US,979-695-6000,30.62284800000000,-96.29536200000000,,,0
SOUTH TEXAS TACK,,4765 hwy 290 e,,brenham,TX,77833-7838,US,979-421-8800,30.13838700000000,-96.32633900000000,,,0
BOOT BARN INC #158,,118 colonel ethridge blvd,,huntsville,TX,77340,US,,30.71534000000000,-95.57279900000000,,,0
CAVENDERS BOOT CITY #013,,1720 11th st,,huntsville,TX,77340-3723,US,409-295-8551,30.72004500000000,-95.56313100000000,,,0
ACADEMY,,1420 n. loop 336 w.,,conro,TX,77304,US,936-788-1888,30.33394800000000,-95.47685100000000,,,0
BOOT BARN INC #163,,1908 n frazier,,conroe,TX,77301,US,,30.33122100000000,-95.46611800000000,,,0
BOOT BARN INC #170,,28593 tomball pkwy,,tomball,TX,77375-4545,US,,30.08936100000000,-95.63251500000000,,,0
BOOT BARN INC #189,,25855 northwest fwy,,cypress,TX,77429,US,,29.97939600000000,-95.71478500000000,,,0
ACADEMY,,28522 sh249,,tomball,TX,77375,US,281-351-2506,30.00838800000000,-95.58970500000000,,,0
POTTERS WESTERN STORE,,2106 hwy 71 s,,columbus,TX,78934-3004,US,979-732-2288,29.76674000000000,-96.62513600000000,,,0
BOOT BARN INC #180,,24421 katy freeway,,katy,TX,77494,US,,29.78357700000000,-95.79348900000000,,,0
ACADEMY,,23155 i-10 west,,katy,TX,77449-2826,US,281-693-2600,29.78471200000000,-95.77425600000000,,,0
ACADEMY,,25010 rayford rd.,,spring,TX,77386,US,281-3678-1010,30.09265300000000,-95.34859800000000,,,0
RURAL KING SUPPLY #98,,7456 lee highway,,radford,VA,24141-8591,US,,37.14274300000000,-80.57998600000000,,,0
RURAL KING SUPPLY #89,,261 mercer mall rd #2,,bluefield,WV,24701-9098,US,,37.29758600000000,-81.16836000000000,,,0
GIBSON PRODUCTS CO,,111 w main st,,kerrville,TX,78028-5217,US,830-257-3511,30.05260100000000,-99.14738800000000,,,0
BILLYS WESTERN WEAR,,1731 sidney baker n,,kerrville,TX,78028-2669,US,830-257-0505,30.01888600000000,-99.14211200000000,,,0
HUGHES BUILDING CORP,,3801 n w cache rd ste 19a,,lawton,OK,73505-3742,US,,34.62415500000000,-98.44203200000000,,,0
ATWOODS RANCH AND HOME #13,,1820 northwest 52nd street,,lawton,OK,73505,US,580-595-9000,34.62723800000000,-98.45723700000000,,,0
ASAP ENERGY INC,,1501 airport rd,,weatherford,OK,73096,US,580-772-6076,35.51472500000000,-98.65864200000000,,,0
STEPPIN OUT WESTERN STYLE,,35646 hwy 29,,pauls valley,OK,73075,US,405-665-2123,34.65181900000000,-97.25046800000000,,,0
CHEROKEE TRADING,,23107 n frontage rd,,clinton,OK,73601-7457,US,580-323-0001,35.51783900000000,-98.86810900000000,,,0
BRADS WESTERN &AMP; WORK WEAR,,132 holiday drive,,ardmore,OK,73401-2513,US,580-319-4012,34.17662300000000,-97.16612300000000,,,0
COASTAL FARM &AMP; RANCH SUPPLY,,2600 w 6th street,,the dalles,OR,97058-4168,US,,45.61563700000000,-121.21214500000000,,,0
BOOT BARN INC #56,,242 w 32nd st,,yuma,AZ,85364,US,928-341-0123,32.67084100000000,-114.62117300000000,,,0
GRANGE CO-OP,,2525 washburn way,,klamath falls,OR,97603-4513,US,541-884-7733,42.20460000000000,-121.75639700000000,,,0
COASTAL FARM &AMP; HOME,,1776 avalon st,,klamath falls,OR,97603-4624,US,541-882-5448,42.20617400000000,-121.71175800000000,,,0
BOOT BARN INC #91,,840 biddle road,,medford,OR,97504-6117,US,,42.33830100000000,-122.87170800000000,,,0
COASTAL FARM &AMP; HOME,,7303 crater lake hwy 62,,white city,OR,97503-1661,US,541-830-3713,42.42254400000000,-122.85404100000000,,,0
GRANGE CO-OP,,1710 w schutzwohl ln,,grants pass,OR,97527-8102,US,541-476-7771,42.41780100000000,-123.36614600000000,,,0
ACADEMY,,100 gulf frwy,,league city,TX,77573,US,281-332-2839,29.50359200000000,-95.11395300000000,,,0
CAVENDERS BOOT CITY #033,,20835 gulf frwy,,webster,TX,77598-6414,US,281-338-4040,29.52618100000000,-95.12770900000000,,,0
BOOT BARN INC #165,,3445 gulf freeway,,dickinson,TX,77539,US,,29.45728700000000,-95.08415200000000,,,0
CATTLEMAN WESTERN STORE INC,,2437 hwy 35 bypass n,,alvin,TX,77511-2337,US,281-585-5626,29.44477900000000,-95.23676600000000,,,0
ACADEMY,,4523 ft. crockett blvd,,galveton,TX,77550,US,409-941-6550,29.27481200000000,-94.81611300000000,,,0
CAVENDERS WSTRN OUTFITTERS #054,,528 s george nigh expy,,mcalester,OK,74501-6711,US,918-423-4422,34.91704100000000,-95.74282100000000,,,0
ATWOODS RANCH AND HOME #09,,1510 s george nigh expy,,mcalester,OK,74501-7409,US,918-429-1000,34.89795900000000,-95.75938000000000,,,0
JOHNNYS SHOE STORE,,6001 unicoi dr,,johnson city,TN,37601-9801,US,423-926-0691,36.24904200000000,-82.32078300000000,,,0
O KELLEY ROD INC,,11800 s hwy 41,,terre haute,IN,47802-9506,US,812-299-8379,39.42249600000000,-87.41570900000000,,,0
INTERMOUNTAIN FARMERS ASSC #52,,241 s 200 w,,tremonton,UT,84337-1807,US,435-257-5419,41.70875100000000,-112.16876900000000,,,0
C A L RANCH STORES #6,,1300 n main st ste 13,,logan,UT,84341-6899,US,435-753-0611,41.75431300000000,-111.83440600000000,,,0
INTERMOUNTAIN FARMERS ASSC #51,,2250 north main st,,north logan,UT,84341-1716,US,435-563-1604,41.80597000000000,-111.83336500000000,,,0
SMITHFIELD IMPLEMENT CO,,99 n main st,,smithfield,UT,84335-1957,US,435-563-3211,41.83821500000000,-111.83375800000000,,,0
BOOT BARN INC #79,,1850 harrison blvd,,evanston,WY,82930,US,307-789-4778,41.26412600000000,-110.97679500000000,,,0
ROMCO INC,,108 pasture drive,,evanston,WY,82930,US,303-883-1166,41.28389800000000,-110.97465500000000,,,0
MURDOCHS RANCH &AMP; HOME SUPPLY,,120 beckers circle,,evanston,WY,82930,US,307-789-4900,41.26522300000000,-110.95835100000000,,,0
RURAL KING.COM # 13,,815 reasor dr,,charleston,IL,61920-9405,US,800-561-1752,39.49084500000000,-88.41394600000000,,,0
PRINEVILLE MENS WEAR,,231 main st,,prineville,OR,97754-1890,US,,44.29993300000000,-120.84711900000000,,,0
BRITCHES &AMP; BOOTS,,4237 lakeland drive,,flowood,MS,39232-9212,US,601-933-4112,38.39763300000000,-111.64209200000000,,,0
B BAR L STYLE CENTER,,16 n main,,richfield,UT,84701-2551,US,435-896-4846,38.76834300000000,-112.08475200000000,,,0
BROWNS SHOE &AMP; BOOT,,154 n main st,,richfield,UT,84701-2154,US,435-896-4582,38.77055400000000,-112.08476100000000,,,0
INTERMOUNTAIN FARMERS ASSC #65,,670 n main st,,richfield,UT,84701-1838,US,435-896-6461,38.77737900000000,-112.08475200000000,,,0
INTERMOUNTAIN FARMERS ASSC #69,,498 west main st,,delta,UT,84624-9230,US,435-864-2110,39.35249600000000,-112.58637600000000,,,0
COWBOY SHOP,,1460 e hwy 89a,,cottonwood,AZ,86326-4559,US,928-634-7758,34.72905600000000,-112.01143400000000,,,0
LOU TAUBERT RANCH OUTFITTERS,,125 e 2nd,,casper,WY,82601-2501,US,307-234-2992,42.84862600000000,-106.32418800000000,,,0
BOOT BARN INC #76,,3510 e 2nd street,,casper,WY,82609-2279,US,307-235-6020,42.84906600000000,-106.28005700000000,,,0
MURDOCHS RANCH &AMP; HOME SUPPLY,,370 miracle dr,,evansville,WY,82636-9524,US,307-266-0734,42.85569900000000,-106.26688100000000,,,0
BOOT BARN INC #78,,727 n federal,,riverton,WY,82501,US,307-856-6156,43.03128100000000,-108.37992800000000,,,0
DOUGLAS HARDWARE HANK LLC,,1120 e richards st,,douglas,WY,82633-2933,US,307-358-2925,42.74848700000000,-105.37200800000000,,,0
BOOT BARN INC #77,,2610 s douglas hwy ste# 100,,gillette,WY,82718-6474,US,307-682-6200,44.27060900000000,-105.49410600000000,,,0
WHEATLAND COOP ASSOC,,301 16th street,,wheatland,WY,82201-3200,US,307-322-2978,42.05072700000000,-104.96296300000000,,,0
BOOT BARN INC #74,,1683 sunset dr,,rock springs,WY,82901,US,307-382-9155,41.57694600000000,-109.25521100000000,,,0
MURDOCHS RANCH &AMP; HOME SUPPLY,,2401 foothills blvd,,rock springs,WY,82901-5611,US,,41.57927900000000,-109.26403600000000,,,0
MURDOCHS RANCH &AMP; HOME SUPPLY,,2355 w victory way,,craig,CO,81625,US,970-824-4100,40.51412000000000,-107.57417600000000,,,0
BOOT BARN INC #80,,840 west broadway,,jackson,WY,83002,US,307-733-0247,43.47340000000000,-110.78100000000000,,,0
BOYERS BOOTS &AMP; SHOE REPAIR,,420 n 36th,,quincy,IL,62305,US,217-223-9709,39.93641000000000,-91.35782300000000,,,0
FARM AND HOME SUPPLY,,525 n 48th st,,quincy,IL,62305-0000,US,,39.93503700000000,-91.33936100000000,,,0
TNT WESTERN STORE,,318 hwy m,,poplar bluff,MO,63901,US,573-785-9823,36.72893200000000,-90.46262400000000,,,0
THE COWBOY WAY,,8100 t p white dr,,cabot,AR,72023-8641,US,501-982-0904,34.94032500000000,-92.07437100000000,,,0
RURAL KING SUPPLY #19,,850 university st,,martin,TN,38237-1626,US,731-587-5464,36.34870400000000,-88.87542600000000,,,0
VINCENT JOBBING CO,,106 church st,,martin,TN,38237-2403,US,731-587-2334,36.34564600000000,-88.85227400000000,,,0
RURAL KING SUPPLY #38,,629 north 13th st,,decatur,IN,46733-1203,US,260-724-6990,40.83477700000000,-84.93779500000000,,,0
MURDOCHS RANCH &AMP; HOME SUPPLY,,2801 w broadway st,,missoula,MT,59808-1620,US,406-549-2355,46.89070500000000,-114.03058900000000,,,0
BOOT BARN INC #132,,3666 brooks street,,missoula,MT,59801,US,,46.83720700000000,-114.03757200000000,,,0
MURDOCHS RANCH &AMP; HOME SUPPLY,,1189 s 1st street,,hamilton,MT,59840-3021,US,406-363-7644,46.23015800000000,-114.15645900000000,,,0
MURDOCHS RANCH &AMP; HOME SUPPLY,,170 heritage lane,,polson,MT,59860-8902,US,,47.68609200000000,-114.12103300000000,,,0
MURDOCHS RANCH &AMP; HOME SUPPLY,,3939 harrison ave,,butte,MT,59701-6813,US,406-494-6188,45.96095200000000,-112.51004600000000,,,0
MURDOCHS RANCH &AMP; HOME SUPPLY,,3050 n montana ave,,helena,MT,59601,US,406-457-1700,46.61592300000000,-112.02246200000000,,,0
MURDOCHS HOME &AMP; RANCH,,3115 mt highway 40 west,,columbia falls,MT,59912,US,,48.37178100000000,-114.24237400000000,,,0
FAUGHTS INC,,133 w central st,,browning,MT,59417,US,406-338-2275,48.55595600000000,-113.01294600000000,,,0
MURDOCHS RANCH &AMP; HOME SUPPLY,,851 n montana st,,dillon,MT,59725-9424,US,406-683-6855,45.23173700000000,-112.62481300000000,,,0
HOGLUNDS,,306 1st ave s,,great falls,MT,59401-3603,US,406-452-6911,47.50416200000000,-111.30197800000000,,,0
NORMANS WESTERN WEAR INC,,601 w main st,,cut bank,MT,59427-2899,US,406-873-5313,48.63820400000000,-112.34234400000000,,,0
PET CLUB PAYSON,,101 west aero dr,,payson,AZ,85541-5402,US,,34.22829500000000,-111.32862000000000,,,0
C A L RANCH STORES #21,,161 e duce of clubs,,show low,AZ,85901-4839,US,928-251-1315,34.25126300000000,-110.04089900000000,,,0
BOOT BARN INC #63,,4481 s white mountian rd ste 4,,show low,AZ,85901,US,928-537-0600,34.20904100000000,-110.02140800000000,,,0
ACADEMY,,8102 n. davis hwy,,pensacola,FL,32514,US,850-479-2033,30.51138600000000,-87.21806700000000,,,0
CIRCLE V SADDLERY,,21090 hwy 59 s,,robertsdale,AL,36567-0729,US,251-947-1614,30.53276900000000,-87.70834700000000,,,0
SHOE STATION INC #10,,30500 st hwy 181 ste 140,,spanish fort,AL,36527-5809,US,,30.66638200000000,-87.84865500000000,,,0
EASTERN SHORE SHOE HOSPITAL,,25251 us hwy 98,,daphine,AL,36526-4829,US,251-621-1583,30.59346200000000,-87.89822200000000,,,0
ANGELLS DEPT &AMP; WEST STORE,,107 n allen st,,centralia,MO,65240-1301,US,573-682-2555,39.21196100000000,-92.13882800000000,,,0
BOOT BARN INC #119,,1208 20th ave sw,,minot,ND,58701-6450,US,,48.21075200000000,-101.30973300000000,,,0
BRAYS SADDLERY,,215 s main st,,minot,ND,58701-3949,US,701-838-1705,48.23488500000000,-101.29300000000000,,,0
WALL DRUG,,510 main st,,wall,SD,57790,US,605-279-2175,43.99326100000000,-102.24184700000000,,,0
CAMPBELL SUPPLY OF STURGIS,,2425 lazelle,,sturgis,SD,57785,US,605-347-6352,44.41694200000000,-103.52609100000000,,,0
A &AMP; J #2,,1020 laurel,,whitewood,SD,57793,US,605-269-2224,44.46107800000000,-103.63837000000000,,,0
RAYS WESTERN WEAR &AMP; SADDLERY,,west hwy 16,,oacoma,SD,57365,US,605-734-6046,43.80669800000000,-99.41094700000000,,,0
BOOT BARN INC #128,,2431 e colorado blvd,,spearfish,SD,57783-4225,US,,44.47706300000000,-103.81983800000000,,,0
BOOT BARN INC #137,,1183 eglin street,,rapid city,SD,57701,US,,44.09965300000000,-103.18788000000000,,,0
BOOT BARN INC #190,,416 pinnacle parkway,,bristol,TN,37620-8629,US,,36.59096400000000,-82.26448400000000,,,0
MORRELLS SHOE,,17427 lee hwy,,abingdon,VA,24210-7833,US,276-698-3188,36.67364900000000,-82.05176100000000,,,0
WILKINSONS INC,,1212 harrison st,,conway,AR,72032-4119,US,501-329-6819,35.09563400000000,-92.43809300000000,,,0
CRUSE UNIFORMS &AMP; EQUIPMENT,,1201 barrow rd,,little rock,AR,72205-6525,US,501-223-2778,34.74158900000000,-92.37228500000000,,,0
CAVENDERS WESTERN OUTFITTERS #74,,10720 bass pro pkwy,,little rock,AR,72210,US,,34.65754600000000,-92.41040800000000,,,0
DILLARDS DC #0024,,11701 otter creek south,,marelvale,AR,72103-1635,US,,34.65196400000000,-92.40854200000000,,,0
ATWOODS RANCH AND HOME #57,,2004 albert pike,,hot springs,AR,71913-4007,US,,34.49389500000000,-93.09835600000000,,,0
RODEO WESTERN WEAR INC,,2915 hwy 79 n,,jewett,TX,75846,US,903-626-4434,33.83014000000000,-92.40406300000000,,,0
MURDOCHS RANCH &AMP; HOME SUPPLY,,1207 w platte ave,,fort morgan,CO,80701-2948,US,970-542-1515,40.25400900000000,-103.81603700000000,,,0
CABELAS INC,,3200 road 101,,sidney,NE,69160-0001,US,308-254-5505,41.13421100000000,-103.08851400000000,,,0
GALLS LEXINGTON RECEIVING,,1340 russell cave rd,,lexington,KY,40555-5208,US,,0.00000000000000,0.00000000000000,,,0
T &AMP; E HOLDING LLC,,3005 east race ave,,searcy,AR,72143-4866,US,501-268-0800,0.00000000000000,0.00000000000000,,,0
MONICA COLLINS,,3064 hwy 52a,,chatsworth,GA,30705-5849,US,706-695-0028,0.00000000000000,0.00000000000000,,,0
GREEN MOUNTAIN HORSE &AMP; TACK,,1327 sharon copley rd,,wadsworth,OH,44281,US,234-248-4245,0.00000000000000,0.00000000000000,,,0
RURAL KING SUPPLY #97,,2801 nw 13th street,,gainesville,FL,32609-2833,US,,0.00000000000000,0.00000000000000,,,0
ANDERSONS CLOTHING,,141 w 3rd st,,chadron,NE,69337-2313,US,308-432-3285,42.82940500000000,-103.00117100000000,,,0
NORTH 40 OUTFITTERS,,1753 hwy 2 nw ste 42,,havre,MT,59501-3258,US,406-265-9566,48.59562800000000,-109.33703400000000,,,0
C A L RANCH STORES #1,,1027 s 25th e,,ammon,ID,83406,US,208-523-3431,43.51199900000000,-112.01993300000000,,,0
VICKERS WESTERN STORE,,2665 n. holmes,,idaho falls,ID,83401,US,208-522-5030,43.52018900000000,-112.02486300000000,,,0
BOOT BARN INC #131,,1951 south 25th east,,ammon,ID,83406-5710,US,949-543-4400,43.47976800000000,-111.98299300000000,,,0
C A L RANCH STORES #3,,250 n meridian st,,blackfoot,ID,83221-1623,US,208-785-2941,43.19545000000000,-112.35601900000000,,,0
C A L RANCH STORES #2,,125 valley river drive #109,,rexburg,ID,83440-1654,US,208-356-3343,43.83419500000000,-111.77778600000000,,,0
RIVERSIDE BOOT &AMP; SADDLE,,742 w hwy 39,,blackfoot,ID,83221-5304,US,208-684-4328,43.19673900000000,-112.44330800000000,,,0
VICKERS WESTERN STORE,,1460 yellowstone,,pocatello,ID,83201-4216,US,,42.90223100000000,-112.45113200000000,,,0
C A L RANCH STORES #4,,4115 yellowstone,,chubbuck,ID,83202-2431,US,208-233-4288,42.87637800000000,-112.45829600000000,,,0
SHOE STATION INC #1,,450 bel air blvd,,mobile,AL,36606,US,,30.67230200000000,-88.11864900000000,,,0
ACADEMY,,3725 airport blvd,,mobile,AL,36608,US,251-344-0047,30.67501600000000,-88.13628700000000,,,0
SHOE STATION INC #15,,741-c hillcrest rd,,mobile,AL,36695,US,,30.67677500000000,-88.18981900000000,,,0
BENNYS BOOT HILL,,166 barnett run rd,,bridgeport,WV,26330-9228,US,304-842-8760,39.30898100000000,-80.27563600000000,,,0
BOOT BARN INC #164,,120 hwy 332 w ste 4,,lake jackson,TX,77566-4018,US,,29.05009100000000,-95.46000800000000,,,0
ACADEMY,,120 hwy 332 w.,,lake jackson,TX,77566,US,979-297-8100,29.05009100000000,-95.46000800000000,,,0
VANDERBILTS #5,,2704 vine st ste a,,hays,KS,67601-1953,US,785-628-3257,38.88559600000000,-99.31769600000000,,,0
HOOKS DEPARTMENT STORE,,119 n washington st # 121,,deridder,LA,70634-4057,US,337-463-4869,39.23452800000000,-99.29831000000000,,,0
D &AMP; G SPORTS &AMP; WESTERN,,215 4th st s,,glasgow,MT,59230-2420,US,406-228-9363,48.19336000000000,-106.63550100000000,,,0
C A L RANCH STORES #12,,2540 e idaho st,,elko,NV,89801,US,775-753-7000,40.85154100000000,-115.74463800000000,,,0
BOOT BARN INC #81,,1920 e idaho,,elko,NV,89801,US,775-738-6865,40.84583800000000,-115.74925700000000,,,0
MURDOCHS RANCH &AMP; HOME SUPPLY,,2151 s towsend ave,,montrose,CO,81401,US,970-249-9991,38.46343300000000,-107.86508100000000,,,0
LONESTAR BOOTS,,59 s main st,,moab,UT,84532-2522,US,806-773-3551,38.57895700000000,-109.55122200000000,,,0
CAVENDERS BOOT CITY #006,,5201 wesley,,greenville,TX,75402-6316,US,903-454-3781,33.11739800000000,-96.10879800000000,,,0
KAPH,,2524 texoma pkwy,,sherman,TX,75090-2402,US,903-813-0544,33.66668700000000,-96.59669500000000,,,0
DENNARDS WESTERN WEAR,,3716 town center,,sherman,TX,75090-2571,US,903-870-1802,33.66981500000000,-96.61178900000000,,,0
BOOT BARN INC #168,,3201 n hwy 75,,sherman,TX,75090-9375,US,,33.67143800000000,-96.60741300000000,,,0
DENNARDS FARM SUPPLY,,541 highway 377 north,,whitesboro,TX,76273-1705,US,903-564-3386,33.66314200000000,-96.89936300000000,,,0
RICKS BOOTS &AMP; MORE INC,,800 service rd,,calera,OK,74730,US,580-434-8500,33.99057500000000,-96.37673600000000,,,0
ATWOODS RANCH AND HOME #56,,811 e hwy 82,,gainesville,TX,76240-2209,US,,33.64003700000000,-97.16325200000000,,,0
ALLENS BOOTS,,1051 s ih-35,,round rock,TX,78664,US,(512) 310-7600,33.69105800000000,-97.16200500000000,,,0
ATWOODS RANCH AND HOME #44,,903 s 1st st,,madill,OK,73446-3843,US,580-677-9460,34.08273900000000,-96.76741200000000,,,0
JIMMYS WESTERN WEAR,,2428 w broadway st,,ardmore,OK,73401,US,580-223-0002,34.17342900000000,-97.15512300000000,,,0
BOBS SHOE &AMP; SADDLERY,,515 broadway st,,cape girardeau,MO,63701-5623,US,573-335-6362,37.30647000000000,-89.52426100000000,,,0
SCHAFER LEATHER STORE,,140 front st,,marietta,OH,45750-3123,US,740-373-5101,39.41173600000000,-81.45258000000000,,,0
BIT BY BIT,,201 s cleveland st,,winfield,TX,75493,US,903-524-2002,33.16544400000000,-95.11202100000000,,,0
CRAZY HOUSE WESTERN WEAR,,6655 lamar rd,,reno,TX,75462-7110,US,903-785-2100,33.66376200000000,-95.46172800000000,,,0
ATWOODS RANCH AND HOME #26,,2445 north main,,paris,TX,75460,US,903-784-0505,33.68573000000000,-95.55458200000000,,,0
