store_name,store_number,address,address2,city,state,zip_code,country,phone_number,latitude,longitude,store_hours,other_fields,coming_soon
KeyBank Zillah,,100 7th St,,Zillah,WA,98953,United States,(509) 829-5200,46.40125883603979,-120.25948315858841,MONDAY:9:00-17:00;TUESDAY:9:00-17:00;WEDNESDAY:9:00-17:00;THURSDAY:9:00-17:00;FRIDAY:9:00-18:00;SATURDAY: ;SUNDAY: ;,,0
KeyBank Hawks Prairie,,8303 Martin Way East,,Lacey,WA,98516,United States,(360) 438-9558,47.056422,-122.763872,MONDAY:9:00-17:00;TUESDAY:9:00-17:00;WEDNESDAY:9:00-17:00;THURSDAY:9:00-17:00;FRIDAY:9:00-18:00;SATURDAY:1:000-1330;SUNDAY: ;,,0
KeyBank Taft Corners,,300 Interstate Corp Ctr,Ste 120,Williston,VT,05495,United States,(802) 878-3004,44.44904528687727,-73.11205960345433,MONDAY:830-17:00;TUESDAY:830-17:00;WEDNESDAY:830-17:00;THURSDAY:830-17:00;FRIDAY:830-17:00;SATURDAY:830-12:00;SUNDAY: ;,,0
KeyBank West Jordan,,1435 W 9000 South,,West Jordan,UT,84088,United States,(801) 569-2348,40.587283,-111.932302,MONDAY:9:00-17:00;TUESDAY:9:00-17:00;WEDNESDAY:9:00-17:00;THURSDAY:9:00-17:00;FRIDAY:9:00-18:00;SATURDAY:9:00-12:00;SUNDAY: ;,,0
KeyBank Willow Grove Branch,,9 Easton Road,,Willow Grove,PA,19090,United States,(215) 659-6600,40.14159768288865,-75.11674495964598,MONDAY:9:00-17:00;TUESDAY:9:00-17:00;WEDNESDAY:9:00-17:00;THURSDAY:9:00-18:00;FRIDAY:9:00-19:00;SATURDAY:9:00-13:00;SUNDAY: ;,,0
KeyBank Woodburn,,941 N Pacific Hwy,,Woodburn,OR,97071,United States,(503) 981-2154,45.143304,-122.838975,MONDAY:9:00-17:00;TUESDAY:9:00-17:00;WEDNESDAY:9:00-17:00;THURSDAY:9:00-17:00;FRIDAY:9:00-18:00;SATURDAY: ;SUNDAY: ;,,0
KeyBank Liberty,,3198 Belmont Ave,,Youngstown,OH,44505,United States,(330) 759-3333,41.14089572057791,-80.665944814682,MONDAY:9:00-16:00;TUESDAY:9:00-16:00;WEDNESDAY:9:00-16:00;THURSDAY:9:00-16:00;FRIDAY:9:00-18:00;SATURDAY:9:00-13:00;SUNDAY: ;,,0
KeyBank Youngstown Branch,,421 Second St,,Youngstown,NY,14174,United States,(716) 278-2424,43.249692334725246,-79.04852039647267,MONDAY:9:00-16:00;TUESDAY:9:00-16:00;WEDNESDAY:9:00-16:00;THURSDAY:9:00-17:00;FRIDAY:9:00-17:00;SATURDAY: ;SUNDAY: ;,,0
KeyBank Westfield Branch,,10 Broad Street,,Westfield,MA,01085,United States,(413) 747-1360,42.12037721928257,-72.74826868442688,MONDAY:830-17:00;TUESDAY:830-17:00;WEDNESDAY:830-17:00;THURSDAY:830-17:00;FRIDAY:830-17:00;SATURDAY:9:00-13:00;SUNDAY: ;,,0
KeyBank Yarmouth,,188 Main St,Unit 1,Yarmouth,ME,04096,United States,(207) 846-5501,43.80019368883835,-70.18629401922226,MONDAY:830-17:00;TUESDAY:830-17:00;WEDNESDAY:830-17:00;THURSDAY:830-17:00;FRIDAY:830-17:00;SATURDAY:830-12:00;SUNDAY: ;,,0
KeyBank Zionsville,,1610 West Oak Street,,Zionsville,IN,46077,United States,(317) 733-4030,39.9506301,-86.283231,MONDAY:9:00-17:00;TUESDAY:9:00-17:00;WEDNESDAY:9:00-17:00;THURSDAY:9:00-17:00;FRIDAY:9:00-18:00;SATURDAY:9:00-12:00;SUNDAY: ;,,0
KeyBank Blue Lakes,,1665 Blue Lakes Blvd North,,Twin Falls,ID,83301,United States,(208) 733-3121,42.591488,-114.460728,MONDAY:9:00-17:00;TUESDAY:9:00-17:00;WEDNESDAY:9:00-17:00;THURSDAY:9:00-17:00;FRIDAY:9:00-18:00;SATURDAY: ;SUNDAY: ;,,0
Key Private Bank - Palm Beach Gardens,,3507 Kyoto Gardens Dr,Suite 100,Palm Beach Gardens,FL,33410,United States,(561) 775-6527,26.8481096,-80.09139569999999,MONDAY:9:00-16:00;TUESDAY:9:00-16:00;WEDNESDAY:9:00-16:00;THURSDAY:9:00-16:00;FRIDAY:9:00-16:00;SATURDAY: ;SUNDAY: ;,,0
KeyBank Yalesville Branch,,316 Main Street,,Yalesville,CT,06492,United States,(203) 679-4240,41.484837643082436,-72.8230869323005,MONDAY:830-17:00;TUESDAY:830-17:00;WEDNESDAY:830-17:00;THURSDAY:830-17:00;FRIDAY:830-17:00;SATURDAY:9:00-12:00;SUNDAY: ;,,0
KeyBank Wasilla,,201 N Lucille St,Ste 7,Wasilla,AK,99654,United States,(844) 433-2066,61.58143329971097,-149.4501072245369,MONDAY:9:00-17:00;TUESDAY:9:00-17:00;WEDNESDAY:9:00-17:00;THURSDAY:9:00-17:00;FRIDAY:9:00-18:00;SATURDAY:11:00-14:00;SUNDAY: ;,,0
KeyBank Soldotna,,44260 Sterling Hwy,,Soldotna,AK,99669,United States,(844) 433-2071,60.484330821527784,-151.06546463558198,MONDAY:9:00-17:00;TUESDAY:9:00-17:00;WEDNESDAY:9:00-17:00;THURSDAY:9:00-17:00;FRIDAY:9:00-17:00;SATURDAY:11:00-14:00;SUNDAY: ;,,0
KeyBank Palmer,,1150 S Colony Way,Ste 7,Palmer,AK,99645,United States,(844) 433-2065,61.5952319,-149.1180251,MONDAY:930-17:00;TUESDAY:930-17:00;WEDNESDAY:930-17:00;THURSDAY:930-17:00;FRIDAY:930-17:00;SATURDAY: ;SUNDAY: ;,,0
KeyBank Kodiak,,422 W Marine Way,,Kodiak,AK,99615,United States,(844) 433-2070,57.788554581199726,-152.4070966243744,MONDAY:9:00-17:00;TUESDAY:9:00-17:00;WEDNESDAY:9:00-17:00;THURSDAY:9:00-17:00;FRIDAY:9:00-1730;SATURDAY: ;SUNDAY: ;,,0
KeyBank Ketchikan,,2501 Tongass Ave,,Ketchikan,AK,99901,United States,(844) 433-2068,55.349335374864154,-131.67610245767207,MONDAY:9:00-17:00;TUESDAY:9:00-17:00;WEDNESDAY:9:00-17:00;THURSDAY:9:00-17:00;FRIDAY:9:00-17:00;SATURDAY: ;SUNDAY: ;,,0
KeyBank Kenai,,801 Frontage Rd,,Kenai,AK,99611,United States,(844) 433-2072,60.554051,-151.256072,MONDAY:9:00-17:00;TUESDAY:9:00-17:00;WEDNESDAY:9:00-17:00;THURSDAY:9:00-17:00;FRIDAY:9:00-18:00;SATURDAY: ;SUNDAY: ;,,0
KeyBank Eagle River,,10928 Eagle River Rd,Suite 110,Eagle River,AK,99577,United States,(907) 205-3060,61.3188184,-149.5729053,MONDAY:1:000-17:00;TUESDAY:1:000-17:00;WEDNESDAY:1:000-17:00;THURSDAY:1:000-17:00;FRIDAY:1:000-1730;SATURDAY:11:00-14:00;SUNDAY: ;,,0
KeyBank Augusta,,5300 Willis Rd,,Ypsilanti,MI,48197,United States,(734) 483-5821,42.156325238695054,-83.6535219848156,MONDAY:9:00-1630;TUESDAY:9:00-1630;WEDNESDAY:9:00-1630;THURSDAY:9:00-1630;FRIDAY:9:00-18:00;SATURDAY: ;SUNDAY: ;,,0
KeyBank Washtenaw,,2225 Washtenaw Ave,,Ypsilanti,MI,48197,United States,(734) 528-5400,42.24835849999999,-83.64805419999999,MONDAY:9:00-1630;TUESDAY:9:00-1630;WEDNESDAY:9:00-1630;THURSDAY:9:00-1630;FRIDAY:9:00-18:00;SATURDAY:9:00-12:00;SUNDAY: ;,,0
KeyBank East Michigan,,1442 E Michigan Ave,,Ypsilanti,MI,48198,United States,(734) 485-9301,42.24558157013198,-83.58141884207726,MONDAY:9:00-1630;TUESDAY:9:00-1630;WEDNESDAY:9:00-1630;THURSDAY:9:00-1630;FRIDAY:9:00-18:00;SATURDAY:9:00-12:00;SUNDAY: ;,,0
KeyBank Unalaska/Dutch Harbor,,487 Salmon Way,Suite 101,Dutch Harbor,AK,99692,United States,(907) 581-1300,53.882987383620254,-166.5524432715028,MONDAY:930-1730;TUESDAY:930-1730;WEDNESDAY:930-1730;THURSDAY:930-1730;FRIDAY:930-1730;SATURDAY: ;SUNDAY: ;,,0
KeyBank Sterling,,115 N 3rd St,,Sterling,CO,80751,United States,(970) 522-3098,40.624524,-103.20831,MONDAY:8:00-17:00;TUESDAY:8:00-17:00;WEDNESDAY:8:00-17:00;THURSDAY:8:00-17:00;FRIDAY:8:00-17:00;SATURDAY: ;SUNDAY: ;,,0
KeyBank 72nd & Federal,,7198 Federal Blvd,,Westminster,CO,80030,United States,(303) 650-3040,39.82697451661598,-105.02440720796591,MONDAY:9:00-17:00;TUESDAY:9:00-17:00;WEDNESDAY:9:00-17:00;THURSDAY:9:00-17:00;FRIDAY:9:00-18:00;SATURDAY:9:00-12:00;SUNDAY: ;,,0
KeyBank the Orchard at Westminster,,14412 Orchard Parkway,Ste 100,Westminster,CO,80023,United States,(720) 872-6460,39.958116,-104.993108,MONDAY:9:00-17:00;TUESDAY:9:00-17:00;WEDNESDAY:9:00-17:00;THURSDAY:9:00-17:00;FRIDAY:9:00-18:00;SATURDAY:9:00-12:00;SUNDAY: ;,,0
KeyBank Parker Main Street,,10951 S Parker Road,,Parker,CO,80134,United States,(303) 840-7162,39.5180857,-104.7657533,MONDAY:9:00-17:00;TUESDAY:9:00-17:00;WEDNESDAY:9:00-17:00;THURSDAY:9:00-17:00;FRIDAY:9:00-18:00;SATURDAY:9:00-12:00;SUNDAY: ;,,0
KeyBank Loveland Downtown,,125 E 7th St,,Loveland,CO,80537,United States,(970) 667-3083,40.39890910964709,-105.07496148347855,MONDAY:9:00-17:00;TUESDAY:9:00-17:00;WEDNESDAY:9:00-17:00;THURSDAY:9:00-17:00;FRIDAY:9:00-18:00;SATURDAY: ;SUNDAY: ;,,0
KeyBank Louisville Mccaslin,,409 South McCaslin Blvd,Ste 100,Louisville,CO,80027,United States,(303) 664-4400,39.965727,-105.164214,MONDAY:9:00-17:00;TUESDAY:9:00-17:00;WEDNESDAY:9:00-17:00;THURSDAY:9:00-17:00;FRIDAY:9:00-18:00;SATURDAY: ;SUNDAY: ;,,0
KeyBank Longmont,,2361 Clover Basin Dr,Ste 100,Longmont,CO,80503,United States,(303) 845-2000,40.142332,-105.131594,MONDAY:9:00-17:00;TUESDAY:9:00-17:00;WEDNESDAY:9:00-17:00;THURSDAY:9:00-17:00;FRIDAY:9:00-18:00;SATURDAY: ;SUNDAY: ;,,0
KeyBank Lone Tree,,10470 Park Meadows Dr,Ste 210,Lone Tree,CO,80124,United States,(303) 262-8086,39.536807862876216,-104.87357506994061,MONDAY:9:00-17:00;TUESDAY:9:00-17:00;WEDNESDAY:9:00-17:00;THURSDAY:9:00-17:00;FRIDAY:9:00-18:00;SATURDAY:9:00-12:00;SUNDAY: ;,,0
KeyBank Mendenhall,,8800 Glacier Hwy,Ste 101,Juneau,AK,99801,United States,(844) 433-2073,58.3640096,-134.5787799,MONDAY:9:00-17:00;TUESDAY:9:00-17:00;WEDNESDAY:9:00-17:00;THURSDAY:9:00-17:00;FRIDAY:9:00-17:00;SATURDAY:11:00-14:00;SUNDAY: ;,,0
KeyBank East College,,33 College Rd,,Fairbanks,AK,99701,United States,(844) 433-2069,64.85090688102322,-147.7063476785736,MONDAY:9:00-17:00;TUESDAY:9:00-17:00;WEDNESDAY:9:00-17:00;THURSDAY:9:00-17:00;FRIDAY:9:00-18:00;SATURDAY:1:000-14:00;SUNDAY: ;,,0
KeyBank Fairbanks Main,,100 Cushman St,,Fairbanks,AK,99701,United States,(844) 433-2064,64.8433691435239,-147.72176027297974,MONDAY:9:00-17:00;TUESDAY:9:00-17:00;WEDNESDAY:9:00-17:00;THURSDAY:9:00-17:00;FRIDAY:9:00-17:00;SATURDAY: ;SUNDAY: ;,,0
KeyBank Behrends,,234 Seward St,Ste 101,Juneau,AK,99801,United States,(844) 433-2067,58.301469906340266,-134.40894633862308,MONDAY:9:00-17:00;TUESDAY:9:00-17:00;WEDNESDAY:9:00-17:00;THURSDAY:9:00-17:00;FRIDAY:9:00-17:00;SATURDAY: ;SUNDAY: ;,,0
KeyBank South Anchorage,,9041 Old Seward Hwy,Suite 302,Anchorage,AK,99515,United States,(907) 267-3865,61.138618754661195,-149.8625949025153,MONDAY:9:00-18:00;TUESDAY:9:00-18:00;WEDNESDAY:9:00-18:00;THURSDAY:9:00-18:00;FRIDAY:9:00-18:00;SATURDAY:11:00-14:00;SUNDAY: ;,,0
KeyBank Thornton,,3505 East 104th Ave,,Thornton,CO,80233,United States,(303) 262-8126,39.88547,-104.943988,MONDAY:9:00-17:00;TUESDAY:9:00-17:00;WEDNESDAY:9:00-17:00;THURSDAY:9:00-17:00;FRIDAY:9:00-18:00;SATURDAY:9:00-12:00;SUNDAY: ;,,0
KeyBank 128th Thornton,,12801 Colorado Blvd,Ste 100,Thornton,CO,80241,United States,(303) 451-4730,39.928804488640615,-104.9409730732441,MONDAY:9:00-17:00;TUESDAY:9:00-17:00;WEDNESDAY:9:00-17:00;THURSDAY:9:00-17:00;FRIDAY:9:00-18:00;SATURDAY: ;SUNDAY: ;,,0
KeyBank Fifth Avenue,,601 W Fifth Ave,Suite 302,Anchorage,AK,99501,United States,(907) 257-5502,61.21786600000001,-149.8940136,MONDAY:9:00-17:00;TUESDAY:9:00-17:00;WEDNESDAY:9:00-17:00;THURSDAY:9:00-17:00;FRIDAY:9:00-17:00;SATURDAY: ;SUNDAY: ;,,0
KeyBank Key Bank Center,,101 West Benson Blvd.,Suite 302,Anchorage,AK,99503,United States,(907) 564-0243,61.194378,-149.884594,MONDAY:9:00-18:00;TUESDAY:9:00-18:00;WEDNESDAY:9:00-18:00;THURSDAY:9:00-18:00;FRIDAY:9:00-18:00;SATURDAY:1:000-14:00;SUNDAY: ;,,0
Key Private Bank-Alaska/Anchorage,,101 West Benson Blvd,Suite 302,Anchorage,AK,99503,United States,(907) 564-0292,61.1947826,-149.8847516,MONDAY:8:00-17:00;TUESDAY:8:00-17:00;WEDNESDAY:8:00-17:00;THURSDAY:8:00-17:00;FRIDAY:8:00-17:00;SATURDAY: ;SUNDAY: ;,,0
KeyBank Golden,,1222 Arapahoe St,,Golden,CO,80401,United States,(720) 497-8580,39.75441169034571,-105.22243201732635,MONDAY:9:00-17:00;TUESDAY:9:00-17:00;WEDNESDAY:9:00-17:00;THURSDAY:9:00-17:00;FRIDAY:9:00-18:00;SATURDAY: ;SUNDAY: ;,,0
