store_name,store_number,address,address2,city,state,zip_code,country,phone_number,latitude,longitude,store_hours,other_fields,coming_soon
,,"Ground Floor, Commerce House 1 Mouza Dhanbad, (Mouza No. 51), Shastri Nagar,",,Dhanbad,,,India,,23.783335,86.416169,10:45 - 23:30,,0
,,"65-A, Rajpur Road",,Dehradun,,,India,,30.333715,78.050882,10:45 - 23:30,,0
,,"KFC Restaurant, Unit no 17, Grd floor",,Delhi,,,India,,28.7151080000000000,77.1162830000000000,,,0
,,"Eminent Towers, Opp to Bapuji Dental College, MCC ""B"" Block",,Davangere,,,India,,14.452686,75.91546,10:45 - 23:30,,0
,," Old Bellevue Hotel, 5A, Nehru Road, Darjeeling",,Darjeeling,,,India,,27.039513,88.280093,10:45 - 23:30,,0
,,"Osl Tower 3, Traffic Tower, Badambadi, Cuttack - 753009, Beside Kotak Mahindra Bank ATM (Map)",,Cuttack,,,India,,20.460094,85.880954,10:45 - 23:30,,0
,,"Fun Republic Mall, E-City Ventures ltd, # 474, Avinashi Road, Peelamedu",,Coimbatore,,,India,,11.025506,77.010863,10:45 - 23:30,,0
,,"Noel Focus Mall, Sea Port Air Port Road, Chittethukara, CSEZ PO",,Cochin,,,India,,10.000638,76.349628,10:45 - 23:30,,0
,,"No.208A,",,Chennai,,,India,044-33994444,13.0439820000000000,80.1837570000000000,,,0
,,"Ground Floor Piccadilly Square Mall, Sector 34 C",,Chandigarh,,,India,,30.723495,76.767567,10:45 - 23:30,,0
,,"Holiday City Centre, Bank Road, Opp. Kurusupally, Kozhikode",,Calicut,,,India,,11.259793,75.780617,10:45 - 23:30,,0
,,"Hotel New Marrion, 6, Janpath, Unit 3, Kharvel Nagar",,Bhubaneshwar,,,India,,20.27702,85.84399,10:45 - 23:30,,0
,,"3rd floor DB City Mall, Khasra No 1509 and 1511, Sanjay Nagar, Arera Hills",,Bhopal,,,India,,23.232318,77.430201,10:45 - 23:30,,0
,,"Ground floor, Surya Treasure Island Mall , Near Apollo BSR Hospital, Junwani Road",,Bhilai,,,India,,21.217719,81.322516,10:45 - 23:30,,0
,,"Ground Floor, Bhuchan Kalan Tehsil Pathana, Barnala Road",,Bhatinda,,,India,,30.222759,75.062716,10:45 - 23:30,,0
,,RMZ Ecoworld 8A The Bay Market,,Bengaluru,,,India,,12.926280,77.675990,,,0
,,"Dhillon Silicon Square, Chandigarh-Ambala National Highway",,Zirakpur,,,India,,30.619868,76.82414,10:45 - 22:30,,0
,,"JNMC Campus,Nehru Nagar",,Bengaluru,,,India,,15.884438,74.519032,10:45 - 23:30,,0
,,"Phoenix United Mall, Ground Floor Bareilly-Pilibhit Bypass Road",,Bengaluru,,,India,,28.39491,79.456992,10:45 - 23:30,,0
,,"Vaishnavi Sapphire, Tumkur Road, Next to Yeshwanthpur Railway Station, Yeshwanthpur",,Bengaluru,,,India,,13.024591,77.54855,10:45 - 23:30,,0
,,"KFC- Total Mall, Sarjapur, Kikondarahalli,Varthur Hobli, Sarjapura Main Road",,Bengaluru,,,India,,12.91698,77.671368,10:45 - 23:30,,0
,,"KFC Total Mall, (Old Kempfort) Municipal Corp #97, Old Airport Road",,Bengaluru,,,India,,12.95901,77.656957,10:45 - 23:30,,0
,,"Total Mall - Madivala, BANGALORE",,Bengaluru,,,India,,12.921888,77.620083,10:45 - 23:30,,0
,,"SJR Koramangala, Shop No:13,16 & 17, Egipura Village, Intermediate Ring Road, Koramangala",,Bengaluru,,,India,,12.937599,77.627015,10:45 - 23:30,,0
,," NO. GS-11, GS-12, GS-13 at Signature Tower #6, Nagavara Palya, C.V. Raman Nagar, Old Madras Road",,Bengaluru,,,India,,12.993269,77.661826,10:45 - 23:30,,0
,," #177, RT Nagar Main Road, Matadahalli, Opposite BATA Showroom",,Bengaluru,,,India,,13.019618,77.592323,10:45 - 23:30,,0
,,"#121, Door NO. 226, 1st floor, Royal Meenakshi Mall, #121, Door NO. 226, 1st floor Opp. to Meenakshi Temple, Bannerghatta Road",,Bengaluru,,,India,,12.876072,77.595476,10:45 - 23:30,,0
,," Ground and 1st flr, Survey No.8, Chokkasandra village, Tumkur Road, Jalahalli cross",,Bengaluru,,,India,,13.0405344,77.5161342,10:45 - 23:30,,0
,,"Opp to Brigade Millennium, Kothnur Main Road, JP Nagar 7th Phase",,Bengaluru,,,India,,12.892733,77.581647,10:45 - 23:30,,0
,,"Unit No.UG-35 B, 2nd Floor, Phoenix Market City, Food Court, Mahadevpura, Nr. Krishnarajapuram flyover",,Bengaluru,,,India,,12.996294,77.696431,10:45 - 23:30,,0
,,"No. 117 shop # 1 AEGS Layout, New Bel Road",,Bengaluru,,,India,,13.032121,77.570021,10:45 - 23:30,,0
,,"Nulyne Avenue, 16, Mosque Road Fraser Town",,Bengaluru,,,India,,12.997852,77.61482,10:45 - 23:30,,0
,,"Manyata Embassy Business Tech Park , 2nd Floor, Classic Court, Richmond Road",,Bengaluru,,,India,,12.965965,77.606035,10:45 - 23:30,,0
,,"Mantri Square, Upper Ground Floor, Shop #1, Sampige Rd, Malleshwaram",,Bengaluru,,,India,,12.991442,77.571368,10:45 - 23:30,,0
,,"Mantri Square Food Court, 3rd Floor, Shop # 2 & 3, Sampige Road",,Bengaluru,,,India,,12.991543,77.570555,10:45 - 23:30,,0
,,"KBR Mall, Outer ring road, Marathalli",,Bengaluru,,,India,,12.948241,77.698506,10:45 - 23:30,,0
,," KFC Restaurant, 4M-403, Ground Floor, 80 Ft Kammanahalli Main Road, HRBR 3rd Block, Kalyan Nagar,",,Bengaluru,,,India,,13.023092,77.63695,10:45 - 23:30,,0
,,"948, 24th Main Road, 2nd Phase, J P Nagar",,Bengaluru,,,India,,12.915056,77.586031,10:45 - 23:30,,0
,,"32nd ""C"" Cross, 11th Main, 4th Block",,Bengaluru,,,India,,12.926655,77.586374,10:45 - 23:30,,0
,,"G-10D, Tech Park Mall, International Tech Park, White Field Road",,Bengaluru,,,India,,12.986872,77.736454,10:45 - 23:30,,0
,,"Hyper City Brookfield, Survey No. 6/2 and 6/3 situated at Kundalahalli Gate, Thoobarahalli Village, Arthur Hobli, SouthTaluk,",,Bengaluru,,,India,,12.958064,77.715986,10:45 - 23:30,,0
,,"Gound & First Floor,Plot No.30, HSR Layout, Sector-4, 14th Main Road, Opp-BDA Complex",,Bengaluru,,,India,,12.913278,77.638436,10:45 - 23:30,,0
,,"KFC Restaurant,Garuda Mall, Municpal # cts 15,17,18,27, 4th floor, Mc Grath Road",,Bengaluru,,,India,,12.96995,77.609909,10:45 - 23:30,,0
,,"79/1, Aishwarya Sampurna Vani Vilas Road, Basavangudi,Gandhi Bazaar",,Bengaluru,,,India,,12.947995,77.568983,10:45 - 23:30,,0
,,"KFC Restaurant, Forum Value Mall, No. 62,Whitefield Main Road",,Bengaluru,,,India,,12.95961,77.74726,10:45 - 23:30,,0
,,"The Forum Mall Unit 18 & 19 Hosur road, Koramangala",,Bengaluru,,,India,,12.9342708,77.6086814,10:45 - 23:30,,0
,,"Pyramid Food Court, Intermediate Ring Road, Domlur,Embassy Golf Link",,Bengaluru,,,India,,12.950146,77.645112,10:45 - 23:30,,0
,,"4th Floor, Food Court, Elements Mall, Nagvara Village, Thanisandra Main Road",,Bengaluru,,,India,,13.045739,77.62658,10:45 - 23:30,,0
,,"No.56, Survey No. 66, Opp to Wipro gate 5, KFC Electronic city phase -1, Next to Hotel Svenska",,Bengaluru,,,India,,12.839633,77.659266,10:45 - 23:30,,0
,,"Site # 14, Ground Floor, HM Geneva House,Cunningham road",,Bengaluru,,,India,,12.988472,77.594042,10:45 - 23:30,,0
,,"No 63,64, Commercial street",,Bengaluru,,,India,,12.982578,77.607582,10:45 - 23:30,,0
,,"No 1/1A (CMH Road), Indira Nagar",,Bengaluru,,,India,,12.978163,77.640544,10:45 - 23:30,,0
,,"Survey no 180,67th KM Milestone, Mudugere Village, Mallur Hobli, Chennapatna, Bangalore-Mysore Highway",,Bengaluru,,,India,,12.613248,77.070443,10:45 - 23:30,,0
,,"Ground Floor, Chandra Layout Main Road, Next to HP Petrol Pump",,Bengaluru,,,India,,12.960975,77.52813,10:45 - 23:30,,0
,,"Central-III,Survey No 5/78/7, 78/8 & 89/6, Bellandur Village,Varthur Hobli",,Bengaluru,,,India,,12.926258,77.675161,10:45 - 23:30,,0
,,"KFC Restaurant, No. 55 Bommasandra Village, Attibele Hobli, Opp. SKF, Anekal Taluk Bangalore",,Bengaluru,,,India,,12.823174,77.685986,10:45 - 23:30,,0
,,"#729 Modi Hospital Junction, Modi Hospital Road 2nd stage, Basveshwar Nagar",,Bengaluru,,,India,,12.997351,77.546505,10:45 - 23:30,,0
,,"Meu Square, Bannerghatta Road, Opp to Coupon Mall",,Bengaluru,,,India,,28.321651,77.359199,10:45 - 23:30,,0
,,"KFC Restaurant #1, 80 Ft Road, 6th Block, 3rd Stage, Banashankari",,Bengaluru,,,India,,12.926508,77.551029,10:45 - 23:30,,0
,,"Gopalan Arch Mall Shop No12, Nayandahalli Village, Kengeri Hobli, Raja Rajeshwari Nagar Opposite The Club Mysore Road",,Bengaluru,,,India,,12.935993,77.517464,10:45 - 23:30,,0
,,"Pal Heights , J/7, Jaidev Vihar",,Bhubaneshwar,,,India,,20.298633,85.823169,10:45 - 23:30,,0
,,"3/1063 C1- C7, Hilite City Mall, Guruvayoorappan College Po, Nr.Thondayad bye Pass",,Calicut,,,India,,11.248361,75.833751,10:45 - 23:30,,0
,,"PLOT NO 178 & 178A, INDUSTRIAL AREA & BUSINESS PARK,PHASE- I,Punjab",,Chandigarh,,,India,,30.70553,76.801212,10:45 - 23:30,,0
,,"KFC, Sector 35 C Market, S.C.O 425-426",,Chandigarh,,,India,,30.722401,76.761497,10:45 - 23:30,,0
,,"SCO 1,2,3, Sector 8C ,Madhya Marg",,Chandigarh,,,India,,30.740372,76.792186,10:45 - 23:30,,0
,," # 185, 3rd cross street, Tambaram main road, Vijaya Nagar, Velachery",,Chennai,,,India,,12.972504,80.219247,10:45 - 22:30,,0
,,"Plot No. 18, Thiyagaraya Road, T. Nagar",,Chennai,,,India,,13.039767,80.241847,10:45 - 23:30,,0
,,"No. 55 A, Ground Floor, Opp Nilgiris, Santhome High road",,Chennai,,,India,,13.02634,80.275546,10:45 - 23:30,,0
,,"No 1/445, Ground Floor, Mount Poonamallee road, Opp.Ramachandra Hospital, Porur",,Chennai,,,India,,13.036704,80.140427,10:45 - 23:30,,0
,,"Plot No-46,Survey number 89/2B, Madavilagam Nazarethpattai, Ponnamalle, Chennai-Bangalore Highway",,Chennai,,,India,,13.045237,80.070289,10:45 - 23:30,,0
,,"70ft Road, Periyar Nagar, Near Sheeba Hospital",,Chennai,,,India,,13.117102,80.227953,10:45 - 23:30,,0
,,"#180 & 181, Raju Nagar Opp. To AKDR Golf village Okkiyam, Thoraipakkam ,OMR",,Chennai,,,India,,12.935909,80.233749,10:45 - 23:30,,0
,,"No. 81, Swasthik Complex, Nungambakkam High Road",,Chennai,,,India,,13.061777,80.245606,10:45 - 23:30,,0
,,"# 1/C1, kambar Salai, Near Vavin Oppsite to Grand sweets, Mogaippair West",,Chennai,,,India,,13.084701,80.169861,10:45 - 23:30,,0
,,"Old survey No, 32/21, Manapakkam Village, Mount Poonamalle High Road",,Chennai,,,India,,13.020481,80.184189,10:45 - 23:30,,0
,,"Gound Floor, situated at #239,, Jawahar Lal Nehru Salai, Koyembedu",,Chennai,,,India,,13.072257,80.202544,10:45 - 23:30,,0
,,"KFC Resturants, #32-A, Medivakkam Main Road, keelkattalai Near Mahatha Petroleum",,Chennai,,,India,,12.953358,80.186774,10:45 - 23:30,,0
,,"Upper Ground floor, NSK Salai, Arcot Road, Vadapalani",,Chennai,,,India,,13.0447519,80.1377526,10:45 - 23:30,,0
,,"Express Avenue, No.49/50 L, 3rd Floor, Food Court, Whites Road, Royapettah",,Chennai,,,India,,13.05861,80.264453,10:45 - 23:30,,0
,,"No-1/174, East Coast Road, Kottivakkam",,Chennai,,,India,,12.96799,80.257337,10:45 - 23:30,,0
,,"2nd Floor,SHA, Food Court, Kamaraj Domestic Airport, Tamil Nadu",,Chennai,,,India,,12.995408,80.170974,10:45 - 22:30,,0
,,"No. 33, Coromandel Plaza, Old Mahabalipuram Road, Navallur, Chennai, Tamil Nadu 603103",,Chennai,,,India,,12.850428,80.226145,10:45 - 23:30,,0
,,"Shop No T-2 Citi Centre, Dr. Radha Krishnan Salai, Mylapore",,Chennai,,,India,,13.043009,80.273821,10:45 - 23:30,,0
,,"Door No 5, GST Road, Tamabaram",,Chennai,,,India,,12.943328,80.134319,10:45 - 23:30,,0
,,"#H-136/1, H-136/2 6th Avenue, Elliot Beach Besant Nagar",,Chennai,,,India,,13.000523,80.270836,10:45 - 23:30,,0
,,"Old No 96 & 97, New No 43 & 44, 11th Avenue Ashok Nagar",,Chennai,,,India,,13.031663,80.211536,10:45 - 22:30,,0
,," Plot No 995-J, New No 172, 2nd Avenue, Anna Nagar",,Chennai,,,India,,13.085824,80.204016,10:45 - 23:30,,0
,,"Ampa Skywalk Mall, Shop No-4, 1 Nelson Manikam Road 627, Poonamalee High Road",,Chennai,,,India,,13.074071,80.222962,10:45 - 23:30,,0
,," Lulu International Shopping Mall, 50/2392 50/2392, NH 47,Edappally",,Cochin,,,India,,10.027324,76.3078,10:45 - 23:30,,0
,,"KFC Gold Souk Grande, Ground Floor Shop No 1, Edapalli Bypass Road Near Vythilla Junction",,Cochin,,,India,,9.977769,76.31693,10:45 - 23:30,,0
,,"Centre Square Mall, Next to hotel Abad Plaza, MG Road",,Cochin,,,India,,9.977685,76.316973,10:45 - 22:30,,0
,,"Shop No - T 10, 3rd Floor, Brookefields Estates, 67/71 Krishnasamy Road",,Coimbatore,,,India,,11.009607,76.959161,10:45 - 22:30,,0
,,"1258-1260, Survey No 333, Avinashi Road, Peelamedu",,Coimbatore,,,India,,11.018116,76.990499,10:45 - 23:30,,0
,,"W-2/14, Upper Ground Floor, West Patel Nagar",,Delhi,,,India,,28.645647,77.169111,10:45 - 22:30,,0
,," ARSS Mall, Plot No: 40, Block -A, opposite Jawalaheri Market, Paschim Vihar",,Delhi,,,India,,28.668938,77.101626,10:45 - 22:30,,0
,,"Food Court, Lower ground floor, TDI Mall, Nehru Place Metro Station.",,Delhi,,,India,,28.551486,77.251673,10:45 - 22:30,,0
,,"2ND FLOOR. FOOD COURT,SHOP NO 12,13. PLOT NO 67., PATEL ROAD",,Delhi,,,India,,28.657037,77.146719,10:45 - 22:30,,0
,,"J 23 A Central Market, Lajpat Nagar 2",,Delhi,,,India,,28.569351,77.242954,10:45 - 22:30,,0
,,"Plot # 38 UA,Bangalow Road, Kamal Nagar",,Delhi,,,India,,28.680499,77.208181,10:45 - 22:30,,0
,,"F-4, Kalka ji",,Delhi,,,India,,28.542129,77.253708,10:45 - 22:30,,0
,,"KFC, Vikas Surya Plaza, Sector 4, Dwarka",,Delhi,,,India,,28.5978,77.050472,10:45 - 22:30,,0
,,"Food Street, Terminal 1 D, Domestic Airport",,Delhi,,,India,,28.565824,77.118885,10:45 - 22:30,,0
,,"6 & 7,Scindia House,outer circle, Connaught Place,",,Delhi,,,India,,28.629978,77.221374,10:45 - 22:30,,0
,,"A-12,Inner circle, CP",,Delhi,,,India,,28.633081,77.217743,10:45 - 22:30,,0
,,"Shop No 8-11, Satyam Complex, Janakpuri District Center, New Delhi, Delhi 110058",,Delhi,,,India,,28.630278,77.083,10:45 - 22:30,,0
,,"Plot no. C-1/133, Janak Pur",,Delhi,,,India,,28.620888,77.081492,10:45 - 22:30,,0
,,"3rd Floor, Food Court, Ambience Mall, Vasantkunj",,Delhi,,,India,,28.541369,77.156467,10:45 - 22:30,,0
,,"Ground Floor, h.no:1-7-762,763 & 764, Block no:07, Beside Deo Office,Adalath, Hanmakonda",,Warangal,,,India,,17.996365,79.550917,10:45 - 22:30,,0
,,"Suryabagh situated in N.T.S.No.1678, Block No.47 Alipuram",,Visakhapatnam,,,India,,17.712789,83.301178,10:45 - 22:30,,0
,,"Shop No. 11, E Wing, Kingston Court, Opposite Old Viva College",,Virar,,,India,,19.458023,72.804262,10:45 - 22:30,,0
,,"Old Survey No 213/3, New Survey No. 238/2, Plot No 10 to 21, Pattanur Village, Thiruchitrambalam Panchayat",,Viluppuram,,,India,,11.960689,79.794787,10:45 - 22:30,,0
,,"Sri Karpaga Vinayagar Nagar, Sathanur Village, Chennai -Trichy Highway, GST Road, Near GMR Toll Plaza",,Vikravandi,,,India,,12.043585,79.544363,10:45 - 22:30,,0
,,"3rd Floor, PVP Square, Mogalrajpuram, M G Road",,Vijayawada,,,India,,16.50332,80.642405,10:45 - 22:30,,0
,,"Central Mall, Genda Circle, Wadi Wadi Road, Opposite Central Square Mall,Baroda",,Vadodra,,,India,,22.318233,73.169712,10:45 - 22:30,,0
,,"GF, LAKE CITY MALL PLOT NO. 1 ASHOK NAGAR, MAIN ROAD",,Udaipur,,,India,,24.586543,73.710306,10:45 - 22:30,,0
,," Vela van Hypermarket, Ground floor, Gin Factory road",,Tuticorin,,,India,,8.803896,78.14387,10:45 - 22:30,,0
,,"Beside Bank of Baroda ( Near municipal office junction), VV Mahal road",,Tirupati,,,India,,13.637138,79.422078,10:45 - 22:30,,0
,,"Bharathiyar salai, Cantonment",,Tiruchirappalli,,,India,,10.799951,78.686476,10:45 - 22:30,,0
,,"Selex East Mall, East Fort, Thrissur",,Thrissur,,,India,,10.52395,76.224644,10:45 - 22:30,,0
,,"Door No: 001 QRS Mall Square,Opposite Raymond Showroom MG Road.",,Thiruvananthapuram,,,India,,8.493537,76.947324,10:45 - 22:30,,0
,," 43/642 abhidhana tower, narangapuram",,Thalassery,,,India,,11.748162,75.493946,10:45 - 22:30,,0
,,"Old Survey No 213/3, New Survey No 238/2",,Tamil Nadu,,,India,,11.960255,79.794379,,,0
,,"Ground Floor, Surat Central, IRIS Mall, Opposite Valantine Mall, Surat - Dumus Road",,Surat,,,India,,21.155318,72.764634,10:45 - 22:30,,0
,,"AMR KASSEL GRAND PLAZA, KUNDLI,SONIPAT",,Sonipat,,,India,,28.869422,77.120161,10:45 - 22:30,,0
,,"Upper Ground Floor, K K Tower, D. No. 42-1-52D & 52E, Acheraya Ranga Nagar, MG Road",,Vijayawada,,,India,,16.499765,80.651973,10:45 - 22:30,,0
,,"Vinaynagar, Vajjhala Square, Opp RTC Complex, GVMC Lane,Asilmetta Junction",,Visakhapatnam,,,India,,17.723952,83.308642,10:45 - 22:30,,0
,,"""KFC Restaurant,4th Floor, Food Court,Vega Circle Mall",,Silliguri,,,India,,,,11am - 11pm,,0
,,"3rd Floor, Goldighi Mall, Premtala",,Silchar,,,India,,24.823023,92.799545,10:45 - 22:30,,0
,,"Meghna Complex, Block A, First Floor, The Mall",,Shimla,,,India,,31.103318,77.177648,10:45 - 22:30,,0
,,"2nd Floor -Marbahub , Police Bazar, Shillong",,Shillong,,,India,,25.577125,91.880786,10:45 - 22:30,,0
,,"Omalur Main Road, opp to TVS bunk",,Salem,,,India,,11.666364,78.144917,10:45 - 22:30,,0
,,"KFC Restaurant , Shop No -16,17,18, 2nd floor . Euro Park,Plot no-39, Site -4, NH-24, LINK Road Shaibabad (U.P)",,Sahibabad,,,India,,28.646508,77.320417,10:45 - 22:30,,0
,,"Shop no.80,Third floor, Circular Road",,Ranchi,,,India,8757689567			,,,,,0
,,"Miles Mall (Haveli), Between Sirhind & Rajpura NH-1, Dist-Fatehgarh Sahib, Punjab",,Rajpura,,,India,,30.549933,76.487392,10:45 - 22:30,,0
,,"Magneto Mall, Labhandi, NH 06,",,Raipur,,,India,,21.239853,81.684141,10:45 - 22:30,,0
,,"Food hub, Mumbai Pune Expressway, Village Sanjgaon, Dist. Raigad.",,Raigad,,,India,,18.808053,73.299543,10:45 - 22:30,,0
,,"Westend Mall,",,Pune,,,India,,18.5611270000000000,73.8074330000000000,,,0
,,"New # 65, Old # 45, Corner of Rangapillai street & M.G. Road",,Pondicherry,,,India,,11.937374,79.828802,10:45 - 22:30,,0
,,No.19/425 A & B,,Perinthalmanna,,,India,,10.977018,76.218704,,,0
,,"Sree Dhanya Boulevard, Opposite Big Bazaar, keshavadasapuram",,Pattom,,,India,,8.528372,76.939527,10:45 - 22:30,,0
,,"Vasundhara Mall, Boring Canal Road Near Rajapur pul",,Patna,,,India,,25.622961,85.125857,10:45 - 22:30,,0
,,"SCO - 2 & 3. OPP. GOPAL SWEETS, Leela Bhavan Chowk, near SURYA COMPLEX.",,Patiala,,,India,,30.335188,76.386143,10:45 - 22:30,,0
,,"KFC Orion Mall,MP Associates",,Panvel,,,India,,18.993117,73.116112,,,0
,,"RG Complex, Opposite Keshava Palace, Bailey Road PO Bihar Veterinary College",,Patna,,,India,,25.605879,85.08302,10:45 - 22:30,,0
,,Regent Theatre East Gandhi Maidan Shastri Nagar,,Patna,,,India,,25.618049,85.149272,10:45 - 22:30,,0
,,"Radhey Shree Tower, Ground Floor, Kankarbagh, Patna Main Road",,Patna,,,India,,25.602903,85.152994,10:45 - 22:30,,0
,,"Ground Floor, TIARA building, Village Baner, Haveli,",,Pune,,,India,,18.564968,73.774418,10:45 - 22:30,,0
,,"Spot 18 Building, Shivar Chowk, Rahatni, Pimpri Chinchwad",,Pune,,,India,,18.594073,73.786004,10:45 - 22:30,,0
,,"KFC R-Deccan Mall, Shop no 1,2,3,&4,ground floor Opposite to deccan PMT Bus stand near Deccan Gymkhana,J.M Marg",,Pune,,,India,,18.517724,73.842683,10:45 - 22:30,,0
,,"KFC Phoenix Market City Mall, Level 2 Food Court,Nagar Road",,Pune,,,India,,18.563298,73.91746,10:45 - 22:30,,0
,,"KFCH Restaurants Pvt Ltd, MSM Mall, Unit No 2 Ground Floor, Garware College, Karve Road",,Pune,,,India,,18.511591,73.83876,10:45 - 22:30,,0
,,"City One Mall, Store No. G1C, G1B, Building No. 2, Morwadi, PCMC",,Pune,,,India,,18.594073,73.786014,10:45 - 22:30,,0
,,"unit no eb-ff42 & 42d, Amanora Town Centre,, Amanora Park Township Village Sadesatra Nali,Magarpatta, Hadapsar,",,Pune,,,India,,18.519653,73.935352,10:45 - 22:30,,0
,," Unit Nos. 08 - 09, Kumar Pacific Mall, CTS No 42 & 43, Shankarseth Road, Gultekdi",,Pune,,,India,,18.501628,73.872408,10:45 - 22:30,,0
,,"Shop # 10,11,12. Siromtoli Chowk., Old H B Road",,Ranchi,,,India,,23.354522,85.332771,10:45 - 22:30,,0
,,"Shop No A 02 / 03, City Centre Mall, Matigara, Ambuja Reality, Uttorayon, Siliguri",,Silliguri,,,India,,26.724032,88.394958,10:45 - 22:30,,0
,,"Ashoka Complex, Near Payal Cinema Hall, Sevoke Road",,Silliguri,,,India,,26.728925,88.43066,10:45 - 22:30,,0
,," SCO - 328., SECTOR - 9.",,Panchkula,,,India,,30.696665,76.849762,10:45 - 22:30,,0
,,"Shop No 7,Food court level -2nd floor",,Noida,,,India,,28.567222,77.327129,,,0
,,,,New Delhi,,,India,,,,11AM-11PM,,0
,,"Opp D Y Patil Stadium Nerul East,",,Navi Mumbai,,,India,,19.046063,73.024132,10:45 - 22:30,,0
,,"G1, G2, Ground Floor, Eternity Mall, Variety Square, Sitaburdi",,Nagpur,,,India,,21.143119,79.080314,10:45 - 22:30,,0
,,Indranagar Extension,,Mysore,,,India,,12.321481,76.620984,10:45 - 22:30,,0
,,"Second Floor, Food Court, Opp. Eastern Express Highway, Panchpakhadi, Thane",,Mumbai,,,India,,19.208771,72.972494,10:45 - 23:30,,0
,,"SCF 76-77, SAS Nagar , Phase-3 , B2 , Mohali",,Mohali,,,India,,30.710142,76.720871,10:45 - 23:30,,0
,,"G-39, Chanmari.",,Mizoram,,,India,,23.731292,92.7151392,10:45 - 22:30,,0
,," Shopprix Mall, Major Dhyan Chand Nagar, Hapur Bypass, Delhi Road, Near Sanjay Van, Sports Goods Complex",,Meerut,,,India,,28.948219,77.674842,10:45 - 22:30,,0
,,"Shop no.1, Shiroor tower, Udipi mian road",,Manipal,,,India,,13.348732,74.781868,10:45 - 22:30,,0
,,"Times Sqaure Mall, Kadri Main Road,",,Mangalore,,,India,,12.88035,74.859528,10:45 - 23:30,,0
,,"RS NO. 474/98, WARD NO. 16 , I.T. Trade Center, PANAKKAD VILLAGE",,Mallapuram,,,India,,11.051197,76.071758,10:45 - 23:30,,0
,,"KFC Resturants, #61/4B, Bye pass Road, Ram nagar opp: World of TITIAN, Near to EMAR Mahal",,Madurai,,,India,,9.916974,78.094282,10:45 - 23:30,,0
,,"G.K County, GK - S.C.O 3 , 4 , & 5 , Chandhigarh Ludhiana Highway, Punjab",,Ludhiana,,,India,,30.868605,75.973858,10:45 - 22:30,,0
,,"3rd Floor, Food Court,One Awadh center Mall",,Lucknow,,,India,,,,11AM-11PM,,0
,,"KFC Restaurant,Manjooran Tower, KK road, Kanjikuzhy",,Kottayam,,,India,,9.588089,76.53998,10:45 - 23:30,,0
,,"Ground Floor, Shalimar Eldee Plaza, Plot No. 5/CT 105, Bhootnath Market , Indra Nagar",,Lucknow,,,India,,26.855624,80.945786,10:45 - 23:30,,0
,,"Shop Mo 3,4,5 Saharaganj Mall, Shahnajaf Road, Lucknow,",,Lucknow,,,India,,26.855423,80.945757,10:45 - 23:30,,0
,,"Phoenix United Mall Food Court, LDA Colony, Lucknow, Uttar Pradesh, 226005",,Lucknow,,,India,,26.798359,80.896827,10:45 - 23:30,,0
,,"CP-2, City Mall, Vipul Khand - 4, Gomti Nagar,",,Lucknow,,,India,,26.845992,80.987633,10:45 - 23:30,,0
,,"KFC West End Mall, Shop No 13 & 14 Ferozpur",,Ludhiana,,,India,,30.886042,75.788226,10:45 - 23:30,,0
,," Shop No TF04, Third Floor, Food Court Silver Arc Mall, Gurdev Nagar, Firozpur Road",,Ludhiana,,,India,,30.901545,75.828851,10:45 - 23:30,,0
,,"Khasra No-23/21/2,22/25/21/1,25/2/2, Village Mohan Pura, Tehsil Khanna, GT Road",,Ludhiana,,,India,,30.728671,76.163564,10:45 - 23:30,,0
,,"Ground Floor, Govardhan City Mall, Opp Ludhiana Railway Station",,Ludhiana,,,India,,30.887052,75.788447,10:45 - 23:30,,0
,,"SCO-3, 4 &5, Chandigarh To Ludhiana Highway",,Ludhiana,,,India,,30.897863,75.821507,10:45 - 23:30,,0
,,"Ansal Plaza, Firozpur Road",,Ludhiana,,,India,,30.897652,75.821633,10:45 - 23:30,,0
,,"KFC Restaurant, City Centre mall, UG 24,K.S Rao Road, Hampankatta",,Mangalore,,,India,,12.880434,74.859485,10:45 - 23:30,,0
,,"Kiosk no 16,17 & 18, Food court, Entertainment floor, North Country Mall, NH-21, Mohali",,Mohali,,,India,,30.737197,76.678822,10:45 - 23:30,,0
,,"Spice Court, Sheetal Classic corner, Sai Karishma CHS, Near Shivar Garden, Mira- bhayendar highway, Mira Road (E)",,Mumbai,,,India,,,,10:45 - 22:30,,0
,,"KFC R-City Mall(Food Court), LBS Road Ghatkopar(West)",,Mumbai,,,India,,19.101304,72.915707,10:45 - 23:30,,0
,,"KFC, Powai Hiranandani Complex",,Mumbai,,,India,,19.120666,72.911737,10:45 - 23:30,,0
,,"Oberoi Mall, Goregoan East",,Mumbai,,,India,,19.17346,72.85997,10:45 - 23:30,,0
,,"W5 -3028, LEVEL-3 DOMESTIC FOOD COURT , TERMINAL -2",,Mumbai,,,India,,19.052349,72.901703,10:45 - 23:30,,0
,,"Kenilworth Mall, Linking road Bandra(W)",,Mumbai,,,India,,19.065691,72.834114,10:45 - 23:30,,0
,,"KFC Restaurant, Korum Mall, Unit R4, Korum Mall Foodcourt, 3rd floor, Off Eastern Express Highway Next to Cadburys, Thane west.",,Mumbai,,,India,,19.20279,72.965567,10:45 - 23:30,,0
,,"Unit # 7 / 11, 12, 13 & 14, Food Court ,Third Floor, Near Diamond Garden Circle Sion Trombay Road, Chembur",,Mumbai,,,India,,19.05238,72.90166,10:45 - 23:30,,0
,,"Departure gate-B, Chhatrapati Shivaji International Airport",,Mumbai,,,India,,18.940025,72.835159,10:45 - 23:30,,0
,,"Shop NO. TF-328,3rd Floor-Food Court, Infinity Mall, Link Road, Malad(West),",,Mumbai,,,India,,19.184886,72.833585,10:45 - 23:30,,0
,,"T05, Third floor, food Court, Growels Mall, Kandivali (East), Mumbai",,Mumbai,,,India,,19.203353,72.859974,10:45 - 23:30,,0
,,"Terminal 1 A,1 C Food court, Domestic Airport.",,Mumbai,,,India,,,,10:45 - 23:30,,0
,," S-20, 2nd Floor-Food Court Level, Phoenix Market City,, L.B.S. Marg, Kurla(West)",,Mumbai,,,India,,19.086592,72.890219,10:45 - 22:30,,0
,,"BM Habitat Mall, Upper ground Foor, situated at 22/B,, Vinoba Road, Jayalakshmipuram",,Mysore,,,India,,12.32145,76.620855,10:45 - 23:30,,0
,,"G-37/38,Vashi Inorbit Mall,Sector-30a, Vashi 400705",,Navi Mumbai,,,India,,19.065843,73.000597,10:45 - 22:30,,0
,,Unit No-G01 Gr Flr and 101 First Floor,,New Delhi,,,India,,,,,,0
,,"Terminal -3, Airport Arrival Food Court",,New Delhi,,,India,,,,,,0
,, KFC Logix Mall ,,Noida,,,India,,77.353109,28.574178,,,0
,,"P -21, Atta Market, Sector 18., Noida, Sec18",,Noida,,,India,,28.567654,77.324325,10:45 - 22:30,,0
,,"H-1 A/29,Sec 63, Noida, Uttar Pradesh- 201307",,Noida,,,India,,28.627035,77.37677,10:45 - 22:30,,0
,,"Shop no 37, The Great India Place, SEC 38 A",,Noida,,,India,,28.567183,77.326916,10:45 - 22:30,,0
,,"KFC Restaurant , Advant Navis Business Park, Noida Expressway, Sec - 142, Noida, U.P.",,Noida,,,India,,28.500714,77.410564,10:45 - 22:30,,0
,,"Novar Plaza, Survey No. 66, Vadakkvila, Polayathode",,Kollam,,,India,,8.878692,76.608339,,,0
,,"Ground Floor, Glomax Mall, Sector 2",,Kharghar,,,India,,19.030471,73.065827,10:45 - 22:30,,0
,,"4TH FLOOR, FOOD COURT,",,KOLKATA,,,India,,22.523061,88.352234,,,0
,,"SCO-100, Sunny Business Centre Chandigarh Road",,Kharar,,,India,,30.740505,76.6757,10:45 - 23:30,,0
,,"Kallarakals Building, Press Club Junction, MG Road",,Kasargod,,,India,,12.504912,74.993214,10:45 - 23:30,,0
,," KFC - Karnal DT,Shop No. 89-15/16/17/18, 130 Milestone, NH-1, GT Road Karnal, Haryana",,Karnal,,,India,,29.732167,76.976303,10:45 - 23:30,,0
,,"Mukatampura Street, Near Telangana Chowk,",,Karimnagar,,,India,,18.437433,79.12407,10:45 - 23:30,,0
,,"Shop No.-11,12,13,14, 3rd Floor, Z Square Shopping Mall, 16/113 M.G. Road, Kanpur",,Kanpur,,,India,,26.473754,80.352291,10:45 - 23:30,,0
,,"Central Bus Terminal, K K Trading Centre Commecial Block  III Thavakkar",,Kannur,,,India,,11.866983,75.370548,10:45 - 23:30,,0
,,"Vadivel Nagar, Enathur Village, Next to Meenakshi Medical College",,Kanchipuram,,,India,,12.871335,79.720116,10:45 - 23:30,,0
,,"Simhapuri Colony, Near RTC Bus stand, Next to Joy Allukas Showroom",,Kadapa,,,India,,14.465489,78.832548,10:45 - 23:30,,0
,,"10, SNP area, Sakshi",,Jamshedpur,,,India,0657-6566678,22.807166,86.202478,10:45 - 23:00,,0
,,"KFC RESTAURANT,COUNTER NO. 1&2,SECOND FLOOR,WAVE MALL JAMMU",,Jammu,,,India,,32.709392,74.892976,10:45 - 23:30,,0
,,"KFC Jalandhar Drive Thru, Jalandhar Phagwara Highway,Khasara No 867/868,Village Paragpur,G.T Road",,Jalandhar,,,India,,31.287305,75.661449,10:45 - 23:30,,0
,,"World Trade Park, Food Court Level, Block - AB",,Jaipur,,,India,,26.853528,75.805027,10:45 - 23:30,,0
,,"Ground Floor, South Avenue Mall, Narmada Road",,Jabalpur,,,India,,23.123935,79.927348,10:45 - 23:30,,0
,,"""O"" Point Tinal,",,Itanagar,,,India,,27.101199,93.629043,,,0
,,"Shop No. G1 - G6, Evershine Tower, F-1 Amarpali Cirle,Vaishali Nagar,",,Jaipur,,,India,,26.911222,75.743195,10:45 - 23:30,,0
,,"Shop No 284/4,Panch Batti, M.I.Road, Jaipur",,Jaipur,,,India,,26.916621,75.808597,10:45 - 23:30,,0
,,"KFC, Rampa Centre Point, Main Market, Model Town",,Jalandhar,,,India,,31.306873,75.576984,10:45 - 23:30,,0
,,"Sarore Adda Bridge, Nr. Bari Brahmana",,Jammu,,,India,,32.709976,74.893549,10:45 - 23:30,,0
,,"SHREE TOWER, RAA, VIP Road",,Kolkata,,,India,,22.617757,88.43252,10:45 - 23:30,,0
,,"KFC Third Floor, Prince Anwar Shah Road South City Mall",,Kolkata,,,India,,22.501593,88.362045,10:45 - 23:30,,0
,,"139, Bidhan Sarani, Haathi Bagan Market, Shyam Bazaar",,Kolkata,,,India,,22.596147,88.371724,10:45 - 23:30,,0
,,Globsyn Cristal building. Block- EP. Salt Lake. Sector-5 Kolkata- 700091,,Kolkata,,,India,,22.588225,88.408161,10:45 - 23:30,,0
,,"1842 Rajdanga Main Road, Rene World, near Kasba New Market",,Kolkata,,,India,,22.514705,88.392273,10:45 - 22:30,,0
,,"5th Floor, 33 Sayed Amir Ali Avenue",,Kolkata,,,India,,22.538445,88.365366,10:45 - 23:30,,0
,,"20 K,Park street,",,Kolkata,,,India,,22.553036,88.35266,10:45 - 23:30,,0
,,"Nicco Park, Salt Lake City",,Kolkata,,,India,,22.56305,88.417278,10:45 - 23:30,,0
,,"KFC #1, Humayun Place, New Empire Cinema Building, (Near New market)",,Kolkata,,,India,,22.560569,88.351686,10:45 - 23:30,,0
,,"164/1,MANIKTALA MAIN ROAD,SHOP NO-313A,B&C, KOLKATA-700054",,Kolkata,,,India,,22.577631,88.400257,10:45 - 23:30,,0
,," Rail Yatri Niwas, G.T Road, Howrah Station",,Kolkata,,,India,,22.581843,88.342237,10:45 - 23:30,,0
,,"Ground Floor, DLF IT Park, Main Arterial Road, New Town, Rajarhat,",,Kolkata,,,India,,22.582552,88.448656,10:45 - 23:30,,0
,,"Shop No. 1, Plot No. 1, Between Nager Bazaar & Shyam Bazaar Crossing Jessore Road",,Kolkata,,,India,,22.615756,88.412283,10:45 - 23:30,,0
,,"KFC GF,Block C, City Centre Mall 2,New Town,Rajarhat,",,Kolkata,,,India,,22.623393,88.450645,10:45 - 23:30,,0
,,"KFC Avani River Side Mall FB-1, 3rd Floor, Food Court 32,, Jagar Banerjee Ghat Road, Howrah",,Kolkata,,,India,,22.56353,88.323816,10:45 - 23:30,,0
,,"Acropolis Mall, 3rd Floor, Food Court, 1858 Rajdanga Main Rd, Kasba",,Kolkata,,,India,,22.513284,88.39252,10:45 - 23:30,,0
,,"Ground Floor, Malhar Mega Mall, plot no 304,, AB Road",,Indore,,,India,,22.744842,75.894569,10:45 - 23:30,,0
,,"Plot No B1 Vikrampuri Colony, Kharkhana Road",,Hyderabad,,,India,,17.457617,78.499296,10:45 - 22:30,,0
,,"Ground floor, Urban Oasis Mall Opposite Gate No.2, SBI Industrial Estate, Gokul Road",,Hubli,,,India,,15.35019,75.110963,10:45 - 23:30,,0
,,"KFC Restaurant, Shop No.3, Parnil Palace, 1st Floor, RG Baruah Road,Zoo Road, Tiniali,",,Guwahati,,,India,,26.174359,91.777004,10:45 - 23:30,,0
,,"Plot no 98, ",,Gurugram,,,India,,28.4757220000000000,77.0442980000000000,,,0
,,"Shop No. GF 025, GF 026, GF 027 ILD Trade Center Sec - 47, Sohna Road",,Gurgaon,,,India,0124 3399 4444,28.425142,77.039351,10:45 - 22:30,,0
,," Plot No -# 5-87-92, Lakshmipuram Main Road",,Guntur,,,India,,16.310221,80.430548,10:45 - 23:30,,0
,," GF Shop No. 03 - 06, Ansal Plaza Mall, Plot 01/C5 Institutional Area",,Greater Noida,,,India,,28.464032,77.507853,10:45 - 23:30,,0
,,"Post Office Road, Calangute, Bardez",,Goa,,,India,,15.544278,73.765135,10:45 - 22:30,,0
,,"Shop no. 131-133, ",,Ghaziabad,,,India,,28.6287730000000000,77.4406180000000000,,,0
,,"KFC Gajraula,NH 24, Muradabad to Delhi Highway",,Gajraula,,,India,,28.837397,78.276524,10:45 - 23:30,,0
,,"Shop No E28-E38, Ground Floor, Eldeco Mall",,Faridabad,,,India,,28.386712,77.314001,10:45 - 23:30,,0
,," Shop No 17, LGF, Junction Mall, City Centre, Durgapur",,Durgapur,,,India,,23.539225,87.290841,10:45 - 23:30,,0
,,"Nagi House, Near City Tower, Circular Road",,Dimapur,,,India,,25.911481,93.72015,10:45 - 23:30,,0
,,"Chilkalthana, Aurangabad, Maharashtra 431007",,Aurangabad,,,India,,19.876399,75.372383,10:45 - 23:30,,0
,,"KFC Restaurant, Shop No.1, Galaxy Mall Ground Floor, Chitra More, Burnpur Road.",,Asansol,,,India,,23.685053,86.941616,10:45 - 23:30,,0
,,"Ground Floor, MGB Felicity Mall",,Andra Pradesh,,,India,,14.432209,79.967321,,,0
,,"Shop No : 21-22, Second Floor , Crown Interiorz Mall",,Faridabad,,,India,,28.469595,77.307335,10:45 - 23:30,,0
,,"Third Floor, Mahagun Metro Mall, Vaishali, Ghaziabad, UP",,Ghaziabad,,,India,,28.644735,77.335655,10:45 - 23:30,,0
,,"3rd Floor, Food Court, EDM Mall, Kaushambi",,Ghaziabad,,,India,,28.641455,77.316639,10:45 - 22:30,,0
,,"First Floor Paramount Symphony , Crossing Republic , NH-24 Ghaziabad",,Ghaziabad,,,India,,28.628867,77.440533,10:45 - 22:30,,0
,,"Shop No. 15, L&L Corial Pride Building, Next to New District Collectorate Office Building, Near Kadamba Bus Terminus, Panjim Highway, Margaon",,Goa,,,India,,15.289961,73.954912,10:45 - 22:30,,0
,,"Caculo Mall, Caculo Enclave, Opp. Fire HQ Opp Fire HQ, St. Inez, Panjim",,Goa,,,India,,15.48698,73.817886,10:45 - 23:30,,0
,,"The Medicity, SEC -58",,Gurgaon,,,India,0124 3399 4444,28.425274,77.039689,10:45 - 22:30,,0
,,"55th Mile stone, NH-8 Village Kukrola, Panchgaon, Gurgaon",,Gurgaon,,,India,0124 3399 4444,28.355303,76.935034,10:45 - 22:30,,0
,,"DLF City center Mall, MG Road Gurgaon",,Gurgaon,,,India,0124 3399 4444 ,28.478866,77.080611,10:45 - 22:30,,0
,," Shop No -MS0044, Upper Ground Floor, DLF Mega Mall",,Gurgaon,,,India,0124 3399 4444,28.475942,77.093031,10:45 - 22:30,,0
,,"1st Floor, Food Court Zone, DLF Cyber Hub, Cyber City",,Gurgaon,,,India,0124 3399 4444,28.496127,77.088811,10:45 - 22:30,,0
,,"Christian Basti, G.S. Road",,Guwahati,,,India,,26.154397,91.780836,10:45 - 23:30,,0
,,"Grand Plaza, Paltan Bazar, A.T. Road",,Guwahati,,,India,,26.179919,91.751293,10:45 - 23:30,,0
,,"Adityam Building, GS Road, Lalchit Nagar",,Guwahati,,,India,,26.172433,91.759816,10:45 - 23:30,,0
,,"LGBI Airport, Borjhar",,Guwahati,,,India,,26.104979,91.589481,10:45 - 23:30,,0
,,"Ground Floor, Ho No: 8-1-364/44, Plot no  44, Deluxe Colony , Shaikpet, Hakim pet, Near Galaxy Theatre , Tolichowki Road.",,Hyderabad,,,India,,17.402768,78.411334,10:45 - 23:30,,0
,,"Ground Floor, RK Cineplex Mall, Road No. 2, Banjara Hills",,Hyderabad,,,India,,17.423276,78.427859,10:45 - 23:30,,0
,," KFC,Grand Building, next to MMTS, Raj Bhavan road Somajiguda",,Hyderabad,,,India,,17.422822,78.462462,10:45 - 23:30,,0
,,"Beside Vijetha & Heritage supermarkets, Madinguda",,Hyderabad,,,India,,17.494933,78.35612,10:45 - 23:30,,0
,,"Ground Floor, Muncipal Door no 10-3-76, Humyan Nagar, Mehdipatanam",,Hyderabad,,,India,,17.396416,78.443045,10:45 - 23:30,,0
,,"Third Floor, Kukatpally, Balanagar Mandal, R.R. District",,Hyderabad,,,India,,17.489699,78.393106,10:45 - 23:30,,0
,,"Sy. No 49/7,49/14 & 49/15, Bahadurguda Village, Saroornagar Mandal, Dist -Ranga Reddy,",,Hyderabad,,,India,,17.346045,78.552568,10:45 - 23:30,,0
,,"Kukatpally Main Road, Plot No- 17,18,19 & 20,Survey no 166 A.S.Raju Nagar, Balanagar Mandal Ranga Reddy Distt.",,Hyderabad,,,India,,17.492941,78.404609,10:45 - 23:30,,0
,,"Kothapet 'X' Road, Saroornagar RR District,",,Hyderabad,,,India,,17.367561,78.540493,10:45 - 23:30,,0
,,"Beside Swagath Grand Hotel, Suchitra Circle, Qutballapur Mandal",,Hyderabad,,,India,,17.507777,78.460501,10:45 - 23:30,,0
,,"Level-B ,Zone -2, Passenger Terminal Building, Rajiv Gandhi International Airport, Shamshabad.",,Hyderabad,,,India,,17.236376,78.429767,10:45 - 23:30,,0
,,"Shop No 002, H.No 3-6-196/197, Prime plaza, Himayathnagar",,Hyderabad,,,India,,17.401549,78.484571,10:45 - 23:30,,0
,," KFC Restaurant, Shilpakalathoranam, Hitech City, Madhapur",,Hyderabad,,,India,,17.450808,78.379383,10:45 - 23:30,,0
,,"GVK one road no -01, Banjara Hills,",,Hyderabad,,,India,,17.419237,78.448324,10:45 - 23:30,,0
,,"Ground Floor, Survey No. 124,Gachibowli Village, Serlingampally Mandal, Ranga Reddy District",,Hyderabad,,,India,,17.442843,78.357245,10:45 - 23:30,,0
,," Upper Ground Floor, Forum Sujan Mall, Near Malaysian Township, Kukatpally",,Hyderabad,,,India,,17.484421,78.389086,10:45 - 23:30,,0
,," Ground & First Floor, Plot No- 1&2, Survey No- 30, Chandanagar, Sherlingampally Land Mark: Next to Bus Stop & Opp. to Pragati Jr. College",,Hyderabad,,,India,,17.495447,78.322813,10:45 - 23:30,,0
,,"Ground Floor, Ho No: 5-9-322,T. S. No. 86, Ward No. 51, Block F, Abids Road Land Mark: Opp . SBH -Bank, Gun-foundry",,Hyderabad,,,India,,17.394998,78.475958,10:45 - 23:30,,0
,,"Shop No GI,Plot no A-13,PNR SSV complex, Dr AS Rao Nagar Main Road",,Hyderabad,,,India,,17.481518,78.555164,10:45 - 23:30,,0
,,"Food Court, Level C Parking, Rajiv Gandhi International Airport, Shamshabad",,Hyderabad,,,India,,17.236621,78.429853,10:45 - 23:30,,0
,,"1 and 2 Kibe Compound, Shreemaya Square, RNT Marg Indore-452001",,Indore,,,India,,22.713592,75.874816,10:45 - 23:30,,0
,,"Circular road, Opp Basant Avenue",,Amritsar,,,India,,31.658755,74.87855,10:45 - 22:30,,0
,,"35B/36/13,The Mall Lawrence Road",,Amritsar,,,India,,31.642188,74.871171,10:45 - 22:30,,0
,,"Ground Floor, 229/71 - P Square mall, MG Road, Civil Lines",,Allahabad,,,India,,25.44939,81.83943,10:45 - 22:30,,0
,,"Shop No - 13, Ground Floor.Pushpak Hills, Prahlad Nagar - Vejalpur.",,Ahmedabad,,,India,,23.01146,72.505229,10:45 - 22:30,,0
,,"3rd Floor - Food Court,Vastrapur Lake, Alpha Mall.",,Ahmedabad,,,India,,23.040188,72.531216,10:45 - 22:30,,0
,,"3rd Eye, Building No - 2, CG Road - Panchvati, Opposite Parimal Garden",,Ahmedabad,,,India,,23.021799,72.556981,10:45 - 22:30,,0
,,"Plot No - 2022, Basai Mustquil, Opposite Indra Hospital, Fatehabad Road.",,Agra,,,India,,27.15768,78.050139,10:45 - 22:30,,0
