store_name,store_number,address,address2,city,state,zip_code,country,phone_number,latitude,longitude,store_hours,other_fields,coming_soon
CHAUSSURES YELLOW,711292246,102 - 163 MONTE MASSON,,MASCOUCHE,QC,J7K 3B4,CA,(450) 4741672,45.7248954,-73.6190167,,,0
MARK'S WORK WEARHOUSE,711292749,139 Montee Masson N,,Mascouche,QC,J7K 3B4,CA,(450) 4741140,45.7233772,-73.6198116,,,0
CHAUSSURES YELLOW,711292253,1075 BOULEVARD DES SEIGNEURS,,TERREBONNE,QC,J6W 1V2,CA,(450) 4714165,45.7013642,-73.644549,,,0
CHAUSSURES RUBINO,711292231,712 BOULEVARD DES SEIGNEURS,,TERREBONNE,QC,J6W 1T6,CA,(450) 4920373,45.7026257,-73.6370899,,,0
SEARS,711293435,900 BOULEVARD GRIGNON,CARREFOUR DU NORD,ST.-JEROME,QC,J7Y 3S7,CA,,45.7944,-74.01528,,,0
SPI SECURITE JONQUIERE,711293539,60 GASTON DUMOULIN,,BLAINVILLE,QC,J7C 0A3,CA,(450) 4202012,45.67078,-73.84967,,,0
CHAUSSURES YELLOW,711292263,1145 BOULEVARD JEAN-BAPTISTE-ROLLAND O,,SAINT-JEROME,QC,J7Y 4Y7,CA,(450) 4367699,45.7698905,-74.0193378,,,0
MARK'S WORK WEARHOUSE,711292681,1035 Boul Jean-Baptiste-Rolland O,,Saint-Jerome,QC,J7Y 4Y7,CA,(450) 5653131,45.7667932,-74.019784,,,0
CHAUSSURES RUBINO,711292230,71 RUE VALMONT,,ST-JEROME,QC,J7Y 4Y2,CA,(450) 4368480,45.7573261419217,-74.0152792095126,,,0
LITTLE BURGUNDY,711292614,19001 CHEMIN NOTRE-DAME,,MIRABEL,QC,J7J 0T1,CA,(450) 9737922,45.67489,-73.9147,,,0
BROWNS SHOE SHOP,711292032,19001 CHEMIN NOTRE-DAME,,MIRABEL,QC,J7J 0T1,CA,(450) 4301930,45.67489,-73.9147,,,0
SPI SECURITE JONQUIERE,711293532,3603 MILLAR AVENUE,,SASKATOON,SK,S7P 0B2,CA,(306) 3743635,52.1892247738693,-106.646569849246,,,0
NORTHERN FACTORY WORKWEAR,711293256,3 - 602 CIRCLE DRIVE,,SASKATOON,SK,S7K 0T9,CA,(306) 6534800,52.15795,-106.64727,,,0
WORK AUTHORITY,711293828,20 - 510 CIRCLE DRIVE E,NORTH CIRCLE PLAZA,SASKATOON,SK,S7K 7C7,CA,(306) 2495524,52.15658,-106.63958,,,0
THE SHOE COMPANY,711293590,1718 PRESTON AVENUE N,,SASKATOON,SK,S7N 4Y1,CA,,52.1511607,-106.6193252,,,0
MARK'S WORK WEARHOUSE,711292795,1715 Preston Avenue N,,Saskatoon,SK,S7N 4V2,CA,(306) 4771444,52.1482484,-106.6191317,,,0
SWANK SHOE LOUNGE,711293557,157 2ND AVENUE N,,SASKATOON,SK,S7K 2A9,CA,(306) 9795775,52.1302427,-106.6633347,,,0
MARK'S WORK WEARHOUSE,711292918,300 Confederation Drive,,Saskatoon,SK,S7L 4R6,CA,(306) 3845565,52.1308608228607,-106.72215830462,,,0
SHOE WAREHOUSE,711293482,3510  8TH STREET E,,SASKATOON,SK,S7H 0W6,CA,,52.1146262790698,-106.597194418605,,,0
TRAXX FOOTWEAR,711293732,23 - 2105 8TH STREET EAST,,SASKATOON,SK,S7H 0T8,CA,(306) 9562272,52.11479,-106.5869,,,0
MARK'S WORK WEARHOUSE,711292928,3011 Clarence Avenue S,,Saskatoon,SK,S7T 0B4,CA,(306) 6532802,52.087761,-106.6454278,,,0
RONSONS,711293297,734 GRANVILLE STREET,,VANCOUVER,BC,V6Z 1E4,CA,(604) 6820795,49.2820818367347,-123.118709387755,,,0
BROWNS SHOE SHOP,711292074,725 GRANVILLE STREET,,VANCOUVER,BC,V7Y 1G5,CA,(604) 8911403,49.2821930612245,-123.118538979592,,,0
BROWNS SHOE SHOP,711292073,701 GEORGIA STREET W,,VANCOUVER,BC,V7Y 1G5,CA,(604) 6320102,49.28246,-123.11813,,,0
LITTLE BURGUNDY,711292633,701 WEST GEORGIA STREET,,VANCOUVER,BC,V7Y 1A1,CA,(604) 6840031,49.28246,-123.11813,,,0
LITTLE BURGUNDY,711292606,1035 ROBSON STREET,,VANCOUVER,BC,V6E 1A9,CA,(778) 3289757,49.2837410204082,-123.123458571429,,,0
BROWNS SHOE SHOP,711292024,1068 ROBSON STREET,,VANCOUVER,BC,V6E 1A7,CA,(604) 6840533,49.2841920408163,-123.124187142857,,,0
ARMY & NAVY DEPT STORE LTD,711291964,36 WEST CORDOVA STREET,,VANCOUVER,BC,V6B 1C9,CA,(604) 6826644,49.2826264583333,-123.105178333333,,,0
MARK'S WORK WEARHOUSE,711292819,1885 West 4 Avenue,,Vancouver,BC,V6J 1M4,CA,(604) 7362678,49.2683224,-123.14766,,,0
RONSONS,711293291,2845 GRANVILLE STREET,,VANCOUVER,BC,V6H 3J4,CA,(604) 7368183,49.2603824489796,-123.138693469388,,,0
MARK'S WORK WEARHOUSE,711292718,117 370 East Broadway,,Vancouver,BC,V5T 4G5,CA,(604) 8728271,49.2622958,-123.0972251,,,0
GRAVITY POPE,711292515,2203 W 4TH AVE,,VANCOUVER,BC,V6K 1N9,CA,(604) 7317647,49.2682,-123.1556044,,,0
RONSONS,711293299,94 - 935 MARINE DRIVE,,NORTH VANCOUVER,BC,V7P 1S3,CA,(604) 9715303,49.32118,-123.09464,,,0
SEARS,711293438,943 MARINE DRIVE,,NORTH VANCOUVER,BC,V7P 1S1,CA,,49.3228478947368,-123.099334210526,,,0
MARK'S WORK WEARHOUSE,711292688,1074 Marine Drive,,North Vancouver,BC,V7P 1S5,CA,(604) 9849591,49.32385,-123.10381,,,0
THE SHOE COMPANY,711293606,2002 PARK ROYAL S,,WEST VANCOUVER,BC,V7T 2W4,CA,,49.3247512538703,-123.14033,,,0
ALWAYS DISCOUNT BOOTS,711291952,1435 KINGSWAY,,VANCOUVER,BC,V5N 2R6,CA,(604) 8720319,49.24971375,-123.075125,,,0
BROWNS SHOE SHOP,711292084,C772 MAIN ST-PARK ROYAL S,,WEST VANCOUVER,BC,V7T 0A5,CA,(604) 9229204,49.325809,-123.140432,,,0
RONSONS,711293298,934 PARK ROYAL SHOPPING CENTRE SOUTH,,WEST VANCOUVER,BC,V7T 1A1,CA,(604) 9226406,49.32667,-123.14425,,,0
BROWNS SHOE SHOP,711292069,650 41ST AVENUE W,,VANCOUVER,BC,V5Z 2M9,CA,(604) 2613071,49.2319615,-123.118505,,,0
RONSONS,711293288,2145 - WEST 41ST AVENUE,,VANCOUVER,BC,V6M 1Z6,CA,(604) 2615305,49.234727,-123.156726,,,0
MARK'S WORK WEARHOUSE,711292744,1329 Main Street,,North Vancouver,BC,V7J 3J7,CA,(604) 9240712,49.3065527272727,-123.037320909091,,,0
MARK'S WORK WEARHOUSE,711292901,2820 Bentall Street,,Vancouver,BC,V5M 4H4,CA,(778) 3274166,49.2591219047619,-123.032057619048,,,0
SEARS,711293321,100 - 4567 LOUGHEED HWY,BRENTWOOD SHOPPING CENTRE,BURNABY,BC,V5C 3Z7,CA,,49.2656,-123.02348,,,0
MARK'S WORK WEARHOUSE,711293166,8129 Ontario Street,,Vancouver,BC,V5X 0A7,CA,(778) 3314334,49.21109321635,-123.106565839183,,,0
RONSONS,711293289,2301 - 4700 KINGSWAY,,BURNABY,BC,V5H 4M1,CA,(604) 4331255,49.2323,-123.02353,,,0
BROWNS SHOE SHOP,711292050,4700 KINGSWAY,,BURNABY,BC,V5H 4M1,CA,(604) 4300463,49.22836,-122.99919,,,0
LITTLE BURGUNDY,711292625,4700 KINGSWAY STREET,,BURNABY,BC,V5H 4P1,CA,(604) 4306361,49.22836,-122.99919,,,0
SEARS,711293395,4750 KINGSWAY,METRO TOWN CENTRE,SOUTH BURNABY,BC,V5H 2C2,CA,,49.22786,-122.99762,,,0
DSW,711292405,2205-4751 McCLELLAND ROAD,,RICHMOND HILL,BC,V6X 2K5,CA,,49.177042,-123.0975581,,,0
RONSONS,711293300,956 - 5300 NUMBER 3 ROAD,,RICHMOND,BC,V6X 2X9,CA,(778) 2977189,49.1755327,-123.1324264,,,0
RONSONS,711293286,1503 - 6551 NUMBER 3 ROAD,,RICHMOND,BC,V6Y 2B6,CA,(604) 2732010,49.1669584,-123.1384754,,,0
BROWNS SHOE SHOP,711292070,6551 NUMBER 3 ROAD,,RICHMOND,BC,V6Y 2B6,CA,(604) 2760331,49.1669584,-123.1384754,,,0
MARK'S WORK WEARHOUSE,711293143,7250 Market Crossing,,Burnaby,BC,V5J 0A2,CA,(604) 4349143,49.2003451218805,-122.983430882333,,,0
MARK'S WORK WEARHOUSE,711292711,11380 Steveston Highway,,Richmond,BC,V7A 5J5,CA,(604) 2414016,49.13333,-123.098703117489,,,0
MARK'S WORK WEARHOUSE,711293173,8400 River Road,,Delta,BC,V4G 1B5,CA,,49.1509945087774,-122.991036473668,,,0
MIDLANDS WORKWEAR PLUS LTD,711293220,1080 CLIVEDON AVE. UNIT 2,,DELTA,BC,V3M 6G6,CA,(604) 5270080,49.1723186033457,-122.946586871562,,,0
ARMY & NAVY DEPT STORE LTD,711291965,502 COLUMBIA STREET,,NEW WESTMINSTER,BC,V3L 1B1,CA,(604) 5264661,49.2038667346939,-122.906624897959,,,0
MARK'S WORK WEARHOUSE,711292700,1090 Lougheed Highway,,Coquitlam,BC,V3K 6G9,CA,(604) 5151232,49.2346427751417,-122.862747442612,,,0
MARK'S WORK WEARHOUSE,711293077,5259 Ladner Trunk Road,,Delta,BC,V4K 1W4,CA,(604) 9468232,49.0902345454545,-123.076978181818,,,0
RONSONS,711293290,2332 - 2929 BARNET HIGHWAY,,COQUITLAM,BC,V3B 5R5,CA,(604) 9442882,49.27789,-122.81661,,,0
MARK'S WORK WEARHOUSE,711293156,7908 120 Street,,Surrey,BC,V3W 3N2,CA,(604) 5901566,49.1469732290087,-122.89023,,,0
SEARS,711293367,2929 BARNET HIGHWAY,THE COQUITLAM CENTRE,COQUITLAM,BC,V3B 5R5,CA,,49.2771137982701,-122.800372047752,,,0
WORK AUTHORITY,711293854,7241  120 STREET,,DELTA,BC,V4C 6P5,CA,(604) 5911334,49.1347805263158,-122.890444736842,,,0
CROCKERS MEN'S & BOYS WEAR LTD,711292383,130 NEWCASTLE BLVD,,MIRAMICHI,NB,E1V 2L7,CA,(506) 6224557,47.0014707692308,-65.5648411538462,,,0
MARK'S WORK WEARHOUSE,711293206,99 Douglastown Blvd,,Miramichi,NB,E1V 0A4,CA,(506) 7789500,47.0360818575544,-65.4911727424001,,,0
MISTER SAFETY SHOES INC.,711293226,101-2251 DUNDAS STREET,,LONDON,ON,N5V 0B5,CA,(519) 4530000,42.9830404,-81.2520868,,,0
HOMEWOOD HEALTH PRODUCTS,711292533,277 ADELAIDE STREET S,,LONDON,ON,N5Z 3K7,CA,(519) 6421164,42.9613970291633,-81.2182000846677,,,0
WORK AUTHORITY,711293822,1407 DUNDAS STREET,,LONDON,ON,N5W 3B7,CA,(519) 4514550,42.9977986666667,-81.200412,,,0
J. SEIGEL FOOTWEAR INC.,711292541,1295 HIGHBURY AVE N,,LONDON,ON,N5Y 5L3,CA,(519) 4529994,43.0205839,-81.2167788,,,0
FACTORY SHOE,711292456,9 SOUTHDALE ROAD E,,LONDON,ON,N6C 6B4,CA,(519) 6856199,42.9407657142857,-81.2574157142857,,,0
SEARS,711293427,785 WONDERLAND ROAD SOUTH,WESTMOUNT SHOPPING CENTRE,LONDON,ON,N6K 1M6,CA,,42.94774,-81.2891266666667,,,0
THE SHOE COMPANY,711293721,94 FANSHAW PARK ROAD E,,LONDON,ON,N5X 4C5,CA,,43.0279,-81.27819,,,0
MARK'S WORK WEARHOUSE,711292796,1737 Richmond Street,,London,ON,N5X 3Y2,CA,(519) 8509980,43.0277044897959,-81.2831842857143,,,0
THE SHOE COMPANY,711293631,3099 WONDERLAND ROAD E,,LONDON,ON,N6L 1R4,CA,,42.9363777418384,-81.2807951668508,,,0
MARK'S WORK WEARHOUSE,711292937,3110 Wonderland Road S,,London,ON,N6L 1A6,CA,(519) 6491393,42.9361137144035,-81.2807337296977,,,0
MARK'S WORK WEARHOUSE,711292828,1925 Dundas Street E,,London,ON,N5V 1P7,CA,(519) 6597462,43.00526,-81.17402,,,0
MARK'S WORK WEARHOUSE,711292708,1121 Wellington Road S,,London,ON,N6E 1M1,CA,(519) 6853360,42.9311088888889,-81.2208888888889,,,0
DSW,711292412,3198 WONDERLAND ROAD S,,LONDON,ON,N6L 1A1,CA,,42.9337885859447,-81.2801931573345,,,0
TSC STORES,711293744,1435 HYDE PARK ROAD,,LONDON,ON,N6H 0B5,CA,,42.9949323376623,-81.3302296103896,,,0
TSC STORES,711293756,1780 WHARNCLIFFE ROAD S,,LAMBETH,ON,N6L 1K1,CA,,42.9225726229508,-81.2785485245902,,,0
TSC STORES,711293761,2209 DUNDAS STREET E,,LONDON,ON,N5V 1R4,CA,,43.0095206666667,-81.1583873333333,,,0
TSC STORES,711293739,115 EDWARD STREET,,ST THOMAS,ON,N5P 4L9,CA,,42.78592,-81.17199,,,0
R-SAFETY,711293301,39 BURWELL ROAD,,ST THOMAS,ON,N5P 1G6,CA,(519) 6335884,42.7816723076923,-81.1657676923077,,,0
MARK'S WORK WEARHOUSE,711292687,1063 Talbot Street,,St. Thomas,ON,N5P 1G4,CA,(519) 6378915,42.77878,-81.1723,,,0
THE SHOE COMPANY,711293672,519 WESTMORLAND ROAD,,SAINT JOHN,NB,E2J 3W9,CA,,45.30882,-66.01728,,,0
MARK'S WORK WEARHOUSE,711292793,171 McAllister Drive,,Saint John,NS,E2J 2S6,CA,(506) 6341815,45.3112808512527,-66.0186345883681,,,0
SEARS,711293391,441 WESTMORELAND ROAD,MCALLSITER PLACE,SAINT JOHN,NB,E2J 3T1,CA,,45.3049428799661,-66.0199724631846,,,0
SCHOONER INDUSTRIAL PRODUCTS,711293311,438 GRANDVIEW AVENUE,,SAINT JOHN,NB,E2J 4M9,CA,(506) 6341491,45.2775527,-66.0094795,,,0
SOURCE ATLANTIC,711293515,438 GRANDVIEW AVENUE,,SAINT JOHN,NB,E2J 4M9,CA,(506) 6341491,45.2775527,-66.0094795,,,0
CHANDLER SUPPLIERS,711292105,225 THORNE AVENUE,PO BOX 431,SAINT JOHN,NB,E2L 4L9,CA,(506) 6588000,45.27581,-66.05693,,,0
GREEN LEE SHOE LTD,711292517,59 BENTLEY ST,,SAINT JOHN,NB,E2K 1B2,CA,(506) 6931455,45.2681366666667,-66.0795333333333,,,0
SOURCE ATLANTIC,711293513,331 CHELSEY DRIVE,,SAINT JOHN,NB,E2K 5A5,CA,(1888) 8467637,45.2651664,-66.0803872,,,0
MARK'S WORK WEARHOUSE,711293178,885 Fairville Blvd,,Saint John,NB,E2M 5T9,CA,(506) 6341005,45.24946,-66.10281,,,0
MARK'S WORK WEARHOUSE,711292678,1031 Manitoba Avenue,,Selkirk,MB,R1A 3T7,CA,(204) 7851021,50.1560129554656,-96.8979971659919,,,0
SEARS,711293346,1555 REGENT AVE W,KILDONAN PLACE,WINNIPEG,MB,R2C 4J2,CA,,49.94664,-97.0959,,,0
MARK'S WORK WEARHOUSE,711293190,915 Leila Avenue,,Winnipeg,MB,R2V 3J7,CA,(204) 3386789,49.9538974,-97.1466175,,,0
SEARS,711293360,2311 MCPHILLIPS STREET,GARDEN CITY SHOPPING CENTRE,WINNIPEG,MB,R2V 3C9,CA,,49.95259,-97.14815,,,0
SHOE WAREHOUSE,711293466,1375 McPHILLIPS STREET,,WINNIPEG,MB,R2V 3V1,CA,,49.9408439470723,-97.1584945275482,,,0
SHOE WAREHOUSE,711293471,1555 REGENT AVENUE W,,WINNIPEG,MB,R2C 4J2,CA,,49.8985215,-97.0599955,,,0
WORK BOOT FACTORY OUTLET STORE,711293863,20 - 1500 REGENT AVENUE W,,WINNIPEG,MB,R2C 3A8,CA,(204) 6630000,49.8947057,-97.0525798,,,0
CANADIAN FOOTWEAR,711292100,1530 REGENT AVENUE,,WINNIPEG,MB,R2C 4J5,CA,(204) 9447466,49.8956189,-97.0595157,,,0
MARK'S WORK WEARHOUSE,711292781,1580 Regent Avenue W,,Winnipeg,MB,R2C 2Y9,CA,(204) 6634824,49.8963686,-97.0663673,,,0
CHAUSSURES YELLOW,711292275,180 BOULEVARD D'ANJOU,,CHATEAUGUAY,QC,J6K 1C4,CA,(450) 6929511,45.35992,-73.7282,,,0
LES VENTES UNIVERSELLES C.B. E,711292595,30 RUE SAINT ANDRE,,SAINT REMI,QC,J0L 2L0,CA,(450) 4547967,45.2586166,-73.6188116,,,0
MARK'S WORK WEARHOUSE,711293068,510 Voie de Desserte,,St-Constant,QC,J5A 2S6,CA,(450) 6330446,45.3884702142051,-73.5719666089123,,,0
CHAUSSURES YELLOW,711292307,450 - 520 ROUTE 132,,SAINT-CONSTANT,QC,J5A 2S6,CA,(450) 6326997,45.388194391925,-73.5715329407228,,,0
SEARS,711293374,3055 BOULEVARD COTE-VERTU,PLACE VERTU,VILLE SAINT-LAURENT,QC,H9R 1Y6,CA,,45.44992,-73.82333,,,0
CHAUSSURES RUBINO,711292229,70 ROUTE 132,,DELSON,QC,J5B 1Z2,CA,(450) 6352626,45.3859128176999,-73.5492296909863,,,0
LES MAGASINS COLLINS,711292585,7401 BOULEVARD NEWMAN,,LASALLE,QC,H8N 1X3,CA,(514) 3652590,45.441224,-73.620865,,,0
CHAUSSURES YELLOW,711292326,7197 BOULEVARD NEWMAN,,LASALLE,QC,H8N 2K3,CA,(514) 3673805,45.4429942,-73.6162928,,,0
MARK'S WORK WEARHOUSE,711292815,183A Boul Hymus,,Pointe-Claire,QC,H9R 1E9,CA,(514) 4280132,45.4620423,-73.8184968,,,0
MARK'S WORK WEARHOUSE,711292820,189 Boul Hymus,,Pointe Claire,QC,H9R 1E9,CA,(514) 4281266,45.4619255,-73.8206086,,,0
SEARS,711293415,6901 AUTOROUTE TRANSCANADIENNE,CENTRE FAIRVIEW POINTE-CLAIRE,POINTE-CLAIRE,QC,H9R 5J2,CA,,45.4616321569114,-73.8310282304168,,,0
LITTLE BURGUNDY,711292632,6801 TRANS-CANADA HIGHWAY,,POINTE-CLAIRE,QC,H9R 5J2,CA,(514) 6945348,45.4619581376075,-73.830392170522,,,0
BROWNS SHOE SHOP,711292071,6801 AUTOROUTE TRANSCANADIENNE,,POINTE-CLAIRE,QC,H9R 5J2,CA,(514) 6954931,45.4619581376075,-73.830392170522,,,0
SEARS,711293419,7071 BOULEVARD NEWMAN,LE CARREFOUR ANGRIGNON,LASALLE,QC,H8N 1X1,CA,,45.44785,-73.60971,,,0
GLOBO,711292489,6321 TRANS-CANADA UNIT#135,,POINTE-CLAIRE,QC,H9R 5M9,CA,(514) 6974562,45.4673671,-73.8243332,,,0
EQUIPMENT SECURITE UNIVERSEL INC,711292438,6855 RUE ST.JACQUES OUEST,,MONTREAL,QC,H4B 1V3,CA,(514) 3696699,45.4577432963397,-73.6284614521847,,,0
MARK'S WORK WEARHOUSE,711293130,6801 Boul Newman,,Lasalle,QC,H8N 3E4,CA,(514) 3645677,45.4496851,-73.6086581,,,0
HERARD & FILS NETTOYEUR INC,711292532,100 BOUL DON QUICHOTTE,,ILE PERROT,QC,J7V 6L7,CA,(514) 4538511,45.3878677656786,-73.9616476746394,,,0
CHAUSSURES RUBINO,711292202,3131 BOULEVARD DES SOURCES,,D.D.O.,QC,H9B 1Z6,CA,(514) 6857979,45.48216,-73.7949,,,0
EXPERT AU TRAVAIL,711292447,3189 RUE DE MINIAC,,SAINT-LAURENT,QC,H4S 1S9,CA,(514) 3339617,45.4975827272727,-73.7545963636364,,,0
CHAUSSURES RUBINO,711292228,6900 BOULEVARD DECARIE,,COTE ST-LUC,QC,H3X 2T8,CA,(514) 3407779,45.4909521,-73.6506788,,,0
CHAUSSURES YELLOW,711292304,4010 RUE WELLINGTON,,VERDUN,QC,H4G 1V3,CA,(514) 7276618,45.4637388888889,-73.5669466666667,,,0
CHAUSSURES YELLOW,711292299,401 BOULEVARD HARWOOD,,VAUDREUIL-DORION,QC,J7V 7W1,CA,(450) 5101785,45.38002,-74.019699,,,0
CHAUSSURES YELLOW,711292272,1500 AVENUE ATWATER,,MONTREAL,QC,H3Z 1X5,CA,(514) 9342572,45.48971,-73.5852,,,0
MARK'S WORK WEARHOUSE,711293107,600 Autoroute 13 Boul Samson O,,Laval,QC,H7X 3S9,CA,(450) 9692232,45.522191,-73.7853447,,,0
GLOBO,711292494,850 AUTOROUTE 13 ET BOULEVARD SAMSON,,SAINTE-DOROTHEE,QC,H7X 3S9,CA,(450) 9691296,45.5234705,-73.7799546,,,0
TSC STORES,711293797,95 BASELINE ROAD W,,BOWMANVILLE,ON,L1C 5G3,CA,,43.90051,-78.67888,,,0
MARK'S WORK WEARHOUSE,711292842,2000 Green Road,,Bowmanville,ON,L1C 3K7,CA,(905) 6238889,43.90952,-78.71215,,,0
WORK AUTHORITY,711293826,197 BLOOR STREET E,,OSHAWA,ON,L1H 3M3,CA,(905) 4360460,43.882065,-78.848575,,,0
THE SHOE COMPANY,711293723,991 TAUNTON ROAD E,,OSHAWA,ON,L1H 7K5,CA,,43.9411300455574,-78.8423105538002,,,0
MARK'S WORK WEARHOUSE,711292751,1397 Harmony Road N,,Oshawa,ON,L1H 7K5,CA,(905) 5715992,43.9407506438342,-78.849963521658,,,0
MISTER SAFETY SHOES INC.,711293239,310 BLOOR STREET W,,OSHAWA,ON,L1J 1R2,CA,(905) 7280300,43.8780925342466,-78.866049109589,,,0
MARK'S WORK WEARHOUSE,711293008,421 Gibb Street,,Oshawa,ON,L1J 1Z4,CA,(905) 7233431,43.88687,-78.8762471428571,,,0
SEARS,711293387,419 KING STREET WEST,OSHAWA SHOPPING CENTRE,OSHAWA,ON,L1J 2K6,CA,,43.8939,-78.87978,,,0
SHOE WAREHOUSE,711293489,419 KING STREET W,,OSHAWA,ON,L1J 2K5,CA,,43.8939,-78.87978,,,0
MARK'S WORK WEARHOUSE,711292800,1751 Victoria Street E,,Whitby,ON,L1N 9W4,CA,(905) 4404818,43.8675077484057,-78.8994283598472,,,0
DSW,711292399,1650 VICTORIA STREET E,,WHITBY,ON,L1N 2C3,CA,,43.8663127122315,-78.902238189368,,,0
MARK'S WORK WEARHOUSE,711293005,4160 Baldwin Street S,,Whitby,ON,L1R 3H8,CA,(905) 6200994,43.9180687960773,-78.9584800982838,,,0
MARK'S WORK WEARHOUSE,711293150,76 Starrs Road,,Yarmouth,NS,B5A 2T5,CA,(902) 7490603,43.8439731462274,-66.1067273722049,,,0
BROWNS SHOE SHOP,711292027,1191 RUE SAINTE-CATHERINE O,,MONTREAL,QC,H3B 1K4,CA,(514) 9871206,45.4990121,-73.5741294,,,0
LITTLE BURGUNDY,711292608,1127 SAINTE-CATHERINE O,,MONTREAL,QC,H3B 1H8,CA,(514) 2869414,45.4996638,-73.5736884,,,0
BELLINI CHAUSSURES,711291991,1119 RUE SAINTE-CATHERINE QUEST,,MONTREAL,QC,H3B 1H8,CA,(514) 2886144,45.499713,-73.573478,,,0
LITTLE BURGUNDY,711292609,1500 MCGILL COLLEGE AVENUE,,MONTREAL,QC,H3A 3J5,CA,(514) 2865690,45.5023402,-73.5723526,,,0
LITTLE BURGUNDY,711292637,705 RUE SAINTE-CATHERINE O,,MONTREAL,QC,H3B 4G5,CA,(514) 8443226,45.5027544,-73.5714715,,,0
GLOBO,711292491,705 RUE SAINTE-CATHERINE OUEST,,MONTREAL,QC,H3B 4G5,CA,(514) 8496767,45.5027544,-73.5714715,,,0
BROWNS SHOE SHOP,711292018,1 PLACE VILLE MARIE,,MONTREAL,QC,H3B 3Y1,CA,(514) 8618925,45.5014589,-73.5691198,,,0
BROWNS SHOE SHOP,711292036,2305 CHEMIN ROCKLAND,,MONTREAL,QC,H3P 3E9,CA,(514) 7380339,45.5266083838384,-73.648565959596,,,0
LITTLE BURGUNDY,711292616,2305 CHEMIN ROCKLAND,,MONT-ROYAL,QC,H3P 3E9,CA,(514) 7313806,45.5266083838384,-73.648565959596,,,0
GROUPE TF FIRMA INC,711292519,1435 SAINT ALEXANDRES,SUITE 103,MONTREAL,QC,H3A 2G4,CA,(514) 8403054,45.5059069,-73.568151,,,0
MILE END KICKS,711293224,5403 AVE DU PARK,,MONTREAL,QC,H2V 4G9,CA,(514) 6524033,45.521959,-73.6012081,,,0
LITTLE BURGUNDY,711292629,55 AVENUE MONT ROYAL E,,MONTREAL,QC,H2T 1N6,CA,(514) 8420851,45.50334,-73.55401,,,0
GLOBO,711292493,775 RUE DU MARCHE CENTRAL,,MONTREAL,QC,H4N 3J7,CA,(514) 3874562,45.5337241520468,-73.6540421637427,,,0
MARK'S WORK WEARHOUSE,711293169,835 Rue Chabanel O,,Montreal,QC,H4N 3J7,CA,(514) 3810550,45.5353336398589,-73.6559973760242,,,0
CHAUSSURES YELLOW,711292343,929 RUE SAINTE-CATHERINE E,,MONTREAL,QC,H2L 2E5,CA,(514) 8437267,45.5168822,-73.5578287,,,0
CHAUSSURES YELLOW,711292320,6641 RUE SAINT-HUBERT,,MONTREAL,QC,H2S 2M5,CA,(514) 2795793,45.5374468,-73.6052734,,,0
CHAUSSURES YELLOW,711292276,1815 AVENUE DU MONT-ROYAL E,,MONTREAL,QC,H2H 1J2,CA,(514) 5260172,45.5330762068966,-73.5744286206897,,,0
TONY PAPPAS INC,711293727,1822 AVENUE DU MONT-ROYAL EST,,MONTREAL,QC,H2H 1J1,CA,(514) 5210820,45.5331768965517,-73.5743306896552,,,0
CHAUSSURES RUBINO,711292198,2674 RUE DE SALABERRY,,AHUNTSIC-CARTIERVILLE,QC,H3M 1L3,CA,(514) 3344607,45.5376006060606,-73.6998418181818,,,0
VETEMENTS PATRICK,711293804,6631 AVENUE PAPINEAU,,MONTREAL,QC,H2G 2X3,CA,(514) 5088850,45.5442105050505,-73.5989051515151,,,0
CHAUSSURES BELMONT INC,711292116,2148 RUE BEAUBEIN E,,MONTREAL,QC,H2G 1M6,CA,(514) 7215550,45.5458628571429,-73.5942563265306,,,0
SEARS,711293357,2151 BOULEVARD LAPINIERE,MAIL CHAMPLAIN,BROSSARD,QC,J4W 2T5,CA,,45.46686,-73.49748,,,0
CHAUSSURES YELLOW,711292295,3610 RUE ONTARIO E,,MONTREAL,QC,H1W 1R7,CA,(514) 5252312,45.54531,-73.5446938461538,,,0
CHAUSSURES BO PIED,711292118,825 RUE SAINT LAURENT O,,LONGUEUIL,QC,J4K 2V1,CA,(450) 6770472,45.5287746,-73.5155384,,,0
CHAUSSURES RUBINO,711292233,825 RUE ST-LAURENT OUEST,,LONGUEUIL,QC,J4K 5J4,CA,(450) 6518778,45.528155140229,-73.5134418224141,,,0
BROWNS SHOE SHOP,711292034,2151 BOULEVARD LAPINIÈRE,,BROSSARD,QC,J4W 2T5,CA,(450) 6713531,45.47412,-73.470639,,,0
LES MAGASINS COLLINS,711292583,444 AVENUE DE LA SALLE,,MONTREAL,QC,H1V 2J1,CA,(514) 5267931,45.5491617075908,-73.5318663542933,,,0
CHAUSSURES RUBINO,711292208,4465 RUE JEAN-TALON EST,,ST-LEONARD,QC,H1S 1K2,CA,(514) 7237776,45.5703535135135,-73.5880805405405,,,0
CHAUSSURES RUBINO,711292232,7350 BOULEVARD TASCHEREAU,,BROSSARD,QC,J4W 1M9,CA,(450) 4656060,45.4595271,-73.4653088,,,0
CHAUSSURES YELLOW,711292310,4510 RUE JEAN-TALON E,,SAINT-LEOONARD,QC,H1S 1K2,CA,(514) 7276618,45.5707016225349,-73.5877909347782,,,0
CHAUSSURES RUBINO,711292177,1545 BOULEVARD LE CORBUSIER,,CHOMEDEY LAVAL,QC,H7S 2K6,CA,(450) 6825956,45.56209,-73.72877,,,0
MARK'S WORK WEARHOUSE,711292784,1600 Boul le Corbusier,,Laval,QC,H7S 1Y9,CA,(450) 6870713,45.5636490909091,-73.7308036363636,,,0
MARK'S WORK WEARHOUSE,711293040,4970 - 5000 Boul Taschereau,,Greenfield Park,QC,J4V 3M3,CA,(450) 6713750,45.4823827840665,-73.4649089872374,,,0
CHAUSSURES BELMONT INC,711292117,3509 BOULEVARD ST-MARTIN OUEST,,LAVAL,QC,H7T 1A2,CA,(450) 6884550,45.5552114,-73.7525966,,,0
CHAUSSURES YELLOW,711292282,2232 BOULEVARD DES LAURENTIDES,,LAVAL,QC,H7G 2T9,CA,(450) 6299012,45.5776259,-73.7004557,,,0
CHAUSSURES BELMONT INC,711292115,2098 CHEMIN CHAMBLY,,LONGUEUIL,QC,J4J 3Y7,CA,(450) 4429993,45.52776,-73.47776,,,0
BROWNS SHOE SHOP,711292046,3035 BOULEVARD LE CARREFOUR,,LAVAL,QC,H7T 1C8,CA,(450) 6814924,45.5683372654487,-73.7499373189898,,,0
LITTLE BURGUNDY,711292620,3003 BOULEVARD LE CARREFOUR,,LAVAL,QC,H7T 1C7,CA,(450) 9737922,45.5694590353043,-73.7480099185285,,,0
SEARS,711293371,3005 BOUL. LE CARREFOUR,CARREFOUR LAVAL,LAVAL,QC,H7T 1C7,CA,,45.5694525294203,-73.7480249321071,,,0
LES MAGASINS COLLINS,711292580,2393 BOULEVARD CURE-LABELLE,,LAVAL,QC,H7T 1R3,CA,(450) 6820940,45.559781256397,-73.769776075044,,,0
GLOBO,711292484,3204 AVENUE JEAN-BERAUD,,LAVAL,QC,H7T 2S4,CA,(450) 6814562,45.5686441306026,-73.757107895645,,,0
CHAUSSURES RUBINO,711292205,3350 BOULEVARD DE LA CONCORDE EST,,DUVERNAY LAVAL,QC,H7E 2C2,CA,(450) 6640990,45.5935768176203,-73.6636246987791,,,0
BROWNS SHOE SHOP,711292081,9200 BOULEVARD LEDUC,,BROSSARD,QC,J4Y 0L1,CA,(450) 4623103,45.4457992,-73.4375998,,,0
MARK'S WORK WEARHOUSE,711293202,9700 Boul Leduc,,Brossard,QC,J4Y 0B3,CA,(450) 6788898,45.441048,-73.4373477,,,0
BROWNS SHOE SHOP,711292082,9405 BOULEVARD LEDUC,,BROSSARD,QC,J4Y 0A5,CA,(450) 4627717,45.4425543,-73.4367916,,,0
CHAUSSURES YELLOW,711292292,3205 AUTOROUTE LAVAL O,,LAVAL,QC,H7P 5P2,CA,(450) 6826962,45.5707036567164,-73.7601412686567,,,0
CHAUSSURES YELLOW,711292348,9620 BOULEVARD LEDUC,,BROSSARD,QC,J4Y 0B3,CA,(450) 4454563,45.4416084,-73.4365666,,,0
LITTLE BURGUNDY,711292643,9405 LEDUC,,BROSSARD,QC,J4Y 0A5,CA,(450) 4430520,45.4431907004763,-73.4358638178432,,,0
GLOBO,711292495,9650 BOULEVARD LEDUC SUITE 12,,BROSSARD,QC,J4Y 0A5,CA,(450) 6566444,45.4414342,-73.434777,,,0
CHAUSSURES RUBINO,711292204,3235 AVENUE DE GRANBY,,MONTREAL-EST,QC,H1N 2Z7,CA,(514) 2549400,45.5805592857143,-73.5418578571429,,,0
CHAUSSURES YELLOW,711292278,2019 BOULEVARD ROLAND-THERRIEN,,LONGUEUIL,QC,J4N 1A3,CA,(450) 4483081,45.5376063,-73.4718263,,,0
CHAUSSURES RUBINO,711292227,5930 BOULEVARD DES-GRANDES-PRAIRIES,,ST-LEONARD,QC,H1P 1A4,CA,(514) 3267901,45.6003088,-73.6107379,,,0
CHAUSSURES RUBINO,711292235,9300 RUE DU PRADO,,ST-LEONARD,QC,H1P 3B4,CA,(514) 3260566,45.6009822222222,-73.6077474074074,,,0
GLOBO,711292490,6874 JEAN-TALON EST,,MONTREAL,QC,H1S 1N1,CA,(514) 2564562,45.5958923198648,-73.5716448383843,,,0
LES MAGASINS COLLINS,711292582,3686 CHEMIN CHAMBLY,,LONGUEUIL,QC,J4L 1N8,CA,(450) 4425010,45.5124132773109,-73.4412876470588,,,0
CHAUSSURES YELLOW,711292319,6000 BOULEVARD HENRI-BOURASSA E,,MONTREAL-NORD,QC,H1G 2T6,CA,(514) 3223601,45.6060223,-73.6168531,,,0
SEARS,711293420,7451 BOUL. GALERIES D'ANJOU,LES GALERIES D'ANJOU,D'ANJOU,QC,H1M 3A3,CA,,45.5973326174497,-73.5636111409396,,,0
CHAUSSURES 22,711292113,4585 CHEMIN DE CHAMBLY,,ST HUBERT,QC,J3Y 3M9,CA,(450) 6786828,45.51007,-73.4359,,,0
BROWNS SHOE SHOP,711292075,7999 BOULEVARD DES GALERIES D'ANJOU,,MONTREAL,QC,H1M 1W9,CA,(514) 3536980,45.59917,-73.56892,,,0
MARK'S WORK WEARHOUSE,711293160,7999 Boul Les Galeries D'Anjou,,Anjou,QC,H1M 1W9,CA,(514) 4936890,45.59917,-73.56892,,,0
GLOBO,711292492,7275 SHERBROOKE EST,,MONTREAL,QC,H1N 1E9,CA,(514) 3541636,45.5900357142857,-73.5389514285714,,,0
CHAUSSURES YELLOW,711292327,7275 RUE SHERBROOKE E,,MONTREAL,QC,H1N 1E9,CA,(514) 3530332,45.5900357142857,-73.5389514285714,,,0
MARK'S WORK WEARHOUSE,711293041,4975 Boul Robert Bourassa,,Laval,QC,H7E 0A4,CA,(450) 6654472,45.6087038742131,-73.6954393014498,,,0
CHAUSSURES RUBINO,711292181,1903 BOULEVARD RENE-LAENNEC,,VIMONT LAVAL,QC,H7M 5E2,CA,(450) 6295919,45.6056,-73.71571,,,0
CHAUSSURES YELLOW,711292317,5280 BOULEVARD ROBERT-BOURASSA,,LAVAL,QC,H7E 0A6,CA,(450) 6645773,45.6101107,-73.6996711,,,0
CHAUSSURES RUBINO,711292218,5827 BOULEVARD COUSINEAU,,ST-HUBERT,QC,J3Y 7P5,CA,(450) 4624931,45.4963747,-73.4126978,,,0
EXPERT AU TRAVAIL,711292440,200 - 9201 BOUL METROPOLITAIN EST,,ANJOU,QC,H1J 1K2,CA,(514) 3553785,45.6188234,-73.5556217,,,0
EXPERT AU TRAVAIL,711292439,100 - 12 BOULEVARD DE MORTAGNE,,BOUCHERVILLE,QC,J4B 5M7,CA,(450) 6413951,45.5758522532182,-73.4467491277865,,,0
CHAUSSURES YELLOW,711292270,1485 BOULEVARD SAINT-BRUNO,,SAINT-BRUNO,QC,J3V 6J1,CA,(450) 4613428,45.50607,-73.38231,,,0
MARK'S WORK WEARHOUSE,711293070,511 Boul des Promenades,,St-Bruno de Montarville,QC,J3V 6A8,CA,(450) 4612011,45.5055524,-73.379282,,,0
GLOBO,711292481,1195 BOULEVARD DES PROMENADES,,ST-BRUNO,QC,J3V 6H1,CA,(450) 4410030,45.5023307,-73.3764973,,,0
LITTLE BURGUNDY,711292610,159 BOULEVARD DES PROMENADES,,SAINT-BRUNO,QC,J3V 5J5,CA,(450) 4410510,45.50992,-73.37974,,,0
SEARS,711293416,700 BOUL DES PROMENADES,LES PROMENADES SAINT-BRUNO,ST-BRUNO MONTARVILLE,QC,J3V 5J8,CA,,45.50276,-73.37414,,,0
BROWNS SHOE SHOP,711292045,301 BOULEVARD DES PROMENADES,,SAINT-BRUNO-DE-MONTARVILLE,QC,J3V 6A7,CA,(450) 4419010,45.50678,-73.37458,,,0
CHAUSSURES RUBINO,711292234,9073 BOULEVARD MAURICE-DUPLESSIS,,R.D.P.,QC,H1E 6M3,CA,(514) 4944240,45.64633,-73.57005,,,0
CHAUSSURES RUBINO,711292179,175 25EME AVENUE,,ST-EUSTACHE,QC,J7P 2V1,CA,(450) 4735002,45.574194,-73.873508,,,0
AMSAL INC,711291953,11465 SHERBROOKE EST,,MONTREAL EST,QC,H1B 1C2,CA,(514) 6457477,45.6365628079214,-73.5163649683166,,,0
CHAUSSURES RUBINO,711292186,247 BOULEVARD LABELLE,,ROSEMERE,QC,J7A 2H3,CA,(450) 4307956,45.6242455,-73.8046793,,,0
GLOBO,711292488,582 CHEMIN DE LA TOURAINE,,BOUCHERVILLE,QC,J4B 5E4,CA,(450) 4490245,45.5753955138133,-73.4054220868179,,,0
MARK'S WORK WEARHOUSE,711293096,582 Chemin de Touraine,,Boucherville,QC,J4B 5E4,CA,(450) 4492929,45.5753955138133,-73.4054220868179,,,0
CHAUSSURES YELLOW,711292290,300 BOULEVARD ARTHUR-SAUVE,,SAINT-EUSTACHE,QC,J7R 2J1,CA,(450) 9742074,45.56094,-73.8989,,,0
SEARS,711293383,379 BOUL. ARTHUR-SAUVE,,ST. EUSTACHE,QC,J7P 2B0,CA,,45.562721,-73.9013579,,,0
CHAUSSURES RUBINO,711292176,1400 BOULEVARD ST-JEAN-BAPTISTE,,P.A.T.,QC,H1B 4A5,CA,(514) 6452793,45.64163,-73.50045,,,0
GLOBO,711292485,401 BOULEVARD LABELLE,,ROSEMERE,QC,J7A 3T2,CA,(450) 4373804,45.6306724,-73.8192093,,,0
SEARS,711293385,401 BOULEVARD LABELLE,PLACE ROSEMERE,ROSEMERE,QC,J7A 3T2,CA,,45.6306724,-73.8192093,,,0
BROWNS SHOE SHOP,711292090,TI11 - 401 BOULEVARD LABELLE,,ROSEMÈRE,QC,J7A 3T2,CA,(450) 4302748,45.63291,-73.81701,,,0
CHAUSSURES YELLOW,711292296,390 BOULEVARD LABELLE,,ROSEMERE,QC,J7A 3R8,CA,(450) 9791428,45.6338728,-73.8176214,,,0
MARK'S WORK WEARHOUSE,711292961,3500 Boul du Tricentenaire,,Montreal,QC,H1B 0A3,CA,(514) 6459882,45.6523624,-73.5132753,,,0
CHAUSSURES YELLOW,711292294,3443 RUE ROBERT-CHEVALIER,,MONTREAL,QC,H1A 3R7,CA,(514) 6420958,45.6556254545455,-73.5105160606061,,,0
MARK'S WORK WEARHOUSE,711292939,3130 Avenue des Grandes Tourelles,,Boisbriand,QC,J7H 0A2,CA,(450) 4204728,45.6269252229293,-73.8490194125982,,,0
MARK'S WORK WEARHOUSE,711293114,620 Boul Arthur-Sauve,,Saint-Eustache,QC,J7R 5A8,CA,(450) 9741822,45.57341,-73.91382,,,0
MAGASIN LATULIPPE,711292652,1228 RUE DE LA CONCORDE,,CARREFOUR ST-ROMUALD,QC,G6W 0M7,CA,(418) 8340024,46.72909,-71.27,,,0
SEARS,711293366,2700 BOULEVARD LAURIER,PLACE LAURIER,SAINTE. FOY,QC,G1V 2L7,CA,,46.7695933333333,-71.2839433333333,,,0
BROWNS SHOE SHOP,711292040,2700 BOULEVARD LAURIER,,QUÉBEC,QC,G1V 2L8,CA,(418) 6511496,46.7695933333333,-71.2839433333333,,,0
GLOBO,711292483,2700 BOULEVARD LAURIER,,STE-FOY,QC,G1V 2L8,CA,(418) 6513553,46.7700072,-71.2846445,,,0
CHAUSSURES YELLOW,711292242,0701 - 2700 BOULEVARD LAURIER,,QUEBEC,QC,G1V 2L8,CA,(418) 6512949,46.7700072,-71.2846445,,,0
BROWNS SHOE SHOP,711292066,5401 BOULEVARD DES GALERIES,,QUÉBEC,QC,G1V 2L1,CA,,46.77143,-71.28038,,,0
GLOBO,711292482,1497 RUE JULES VERNE,,STE-FOY,QC,G2G 2R8,CA,(418) 8618956,46.7810801839952,-71.3454242621293,,,0
MARK'S WORK WEARHOUSE,711292768,1479 Rue Jules-Verne,,Quebec,QC,G2G 2R8,CA,(418) 8619444,46.7820047973592,-71.3450448400204,,,0
CHAUSSURES YELLOW,711292323,7025A BOULEVARD WILFRID-HAMEL,,QUEBEC,QC,G2G 1B6,CA,(418) 8718970,46.787702,-71.356173,,,0
LINDE CANADA LIMITED,711292597,4141 BOULEVARD DE LA RIVE-SUD,,LEVIS,QC,G6W 6M9,CA,(418) 8376317,46.7778633,-71.1954231,,,0
CORDONNERIE OZ CHAUSSURES,711292372,106 RUE ABERDEEN,,QUEBEC CITY,QC,G1R 2C8,CA,(418) 6489126,46.8030822222222,-71.2252694444445,,,0
MAGASIN LATULIPPE,711292654,637 RUE SAINT VALLIER OUEST,,QUEBEC,QC,G1N 1C6,CA,(418) 5290024,46.8099379,-71.2447496,,,0
MARK'S WORK WEARHOUSE,711293205,98A Boul President-Kennedy,,Levis,QC,G6V 6C9,CA,(418) 8353611,46.7905039,-71.1718507,,,0
CHAUSSURES RUBINO,711292207,44 BOULEVARD PRESIDENT-KENNEDY,,LEVIS,QC,G6V 6C5,CA,(418) 8370990,46.7958734,-71.1799367,,,0
CHAUSSURES YELLOW,711292338,81 ROUTE DU PRESIDENT-KENNEDY,,LEVIS,QC,G6V 6C8,CA,(418) 8336872,46.7913070509527,-71.1706691925776,,,0
CHAUSSURES YELLOW,711292277,1920 RUE MONSEIGNEUR-PLESSIS,,QUEBEC,QC,G1M 1A3,CA,(418) 5224830,46.8193794,-71.2505507,,,0
LINDE CANADA LIMITED,711292599,850 FERNAND-DUFOUR,,QUEBEC CITY,QC,G1M 3B1,CA,(418) 7803838,46.8222751515152,-71.2806324242424,,,0
MARK'S WORK WEARHOUSE,711293087,550 Boul Wilfrid-Hamel,,Quebec,QC,G1M 2S6,CA,(418) 5239898,46.8208806,-71.2521854,,,0
CHAUSSURES FILLION,711292134,600 ST JOSEPH STREET,,QUEBEC,QC,G1K 3B9,CA,(418) 5247223,46.81506,-71.22181,,,0
CHAUSSURES RUBINO,711292209,455 BOULEVARD SOUMANDE,,VANIER,QC,G1M 2X6,CA,(418) 5273960,46.8216973,-71.255459,,,0
SEARS,711293400,500 BOULEVARD WILFRID HAMEL,PLACE FLEUR DE LYS,QUEBEC CITY,QC,G1M 2S5,CA,,46.8216416,-71.2499289,,,0
SEARS,711293327,1200 BOUL. ALPHONSE-DESJARDINS,LES GALERIES CHAGNON,LEVIS,QC,G6V 6Y8,CA,,46.7963976,-71.1711047,,,0
CHAUSSURES FILLION,711292130,38 COTE DE LA FABRIQUE,,QUEBEC,QC,G1R 3V7,CA,(418) 6940001,46.8144802,-71.2079049,,,0
CHAUSSURES JEAN-PAUL FORTIN,711292154,2050 DE CELLES,,QUEBEC CITY,QC,G2C 1X8,CA,(418) 8476116,46.8282,-71.3117539,,,0
JP FORTIN,711292557,2050 DE CELLES,,QUEBEC,QC,G2C 1X8,CA,(418) 8455497,46.8282,-71.3117539,,,0
GLOBO,711292479,1100 RUE BOUVIER,,QUEBEC,QC,G2K 1L4,CA,(418) 6224562,46.82928,-71.28563,,,0
CHAUSSURES YELLOW,711292248,1040 RUE BOUVIER,,QUEBEC,QC,G2K 1L9,CA,(418) 6230975,46.8311406584743,-71.2815368243298,,,0
CHAUSSURES TROTTE-MENU,711292241,5401 BLVD DES GALERIES,,QUEBEC CITY,QC,G2K 1N4,CA,(418) 6237474,46.8311690674872,-71.2953653039627,,,0
SEARS,711293411,5401 BOULEVARD DES GALERIES,LA CAPITALE,QUEBEC CITY,QC,G2K 1N4,CA,,46.8311690674872,-71.2953653039627,,,0
CHAUSSURES YELLOW,711292311,4605 BOULEVARD DE L'AUVERGNE,,QUEBEC,QC,G2C 1H7,CA,(418) 8456436,46.8249816678202,-71.3580041903141,,,0
CHAUSSURES FILLION,711292147,9030 BOULEVARD LA ORMIERE,,QUEBEC,QC,G2B 3K2,CA,(418) 8422225,46.832433,-71.3500377,,,0
CHAUSSURES YELLOW,711292283,2485 BOULEVARD SAINTE-ANNE,,QUEBEC,QC,G1J 1Y4,CA,(418) 6638796,46.8446488,-71.2170718,,,0
CHAUSSURES YELLOW,711292293,3333 RUE DU CARREFOUR,,QUEBEC,QC,G1C 5R9,CA,(418) 6619775,46.85879,-71.21703,,,0
CHAUSSURES YELLOW,711292340,8500 BOULEVARD HENRI-BOURASSA,,QUEBEC,QC,G1G 5X1,CA,(418) 6275761,46.8666916,-71.2699484,,,0
CHAUSSURES RUBINO,711292201,2817 AVENUE ST-DAVID,,BEAUPORT,QC,G1C 0J3,CA,(418) 6668003,46.8609112997331,-71.2117017710467,,,0
SEARS,711293441,CORBIEIL #37 247 RUE ANTOINE FORTIER,,BEAUPORT,QC,G1C 0G6,CA,,46.8681528187919,-71.2062830201342,,,0
MARK'S WORK WEARHOUSE,711293135,709 Rue Clemenceau,,Quebec City,QC,G1C 7T9,CA,(418) 6616649,46.8726384694786,-71.2009435927913,,,0
COX TARP RITE INC,711292381,327 LOCKHART MILL RD,,JACKSONVILLE,NB,E7M 3S5,CA,(506) 3288277,46.1881100095474,-67.6054579439885,,,0
MARK'S WORK WEARHOUSE,711292953,337 Connell Street,,Woodstock,NB,E7M 5G5,CA,(506) 3282799,46.1662108586082,-67.5959189621066,,,0
CURRIE'S ACE HARDWARE,711292388,213 HOULTON RD,,WOODSTOCK,NB,E7M 4L7,CA,(506) 3288788,46.1493633333333,-67.60219,,,0
KING ST SHOES LTD,711292562,119 KING Street,PO BOX 9055,WOODSTOCK,NB,E7M 2Y4,CA,(506) 3288349,46.1406664424186,-67.583853404966,,,0
BROWNS SHOE SHOP,711292042,2901 BAYVIEW AVENUE,,NORTH YORK,ON,M2K 1E6,CA,(416) 2292578,43.76905,-79.3886,,,0
THE SHOE COMPANY,711293635,3110 BATHURST STREET,,NORTH YORK,ON,M6A 1A1,CA,,43.71993,-79.4299116666667,,,0
BROWNS SHOE SHOP,711292048,3401 DUFFERIN STREET,,TORONTO,ON,M6A 2T9,CA,(416) 7870313,43.72466,-79.45711,,,0
LITTLE BURGUNDY,711292622,3401 DUFFERIN STREET,,TORONTO,ON,M6A 2T9,CA,(416) 7830625,43.72466,-79.45711,,,0
CIRCLE SHOES,711292351,2597 YONGE ST,,TORONTO,ON,M4P 2J1,CA,(416) 4894379,43.71453,-79.40002,,,0
MARK'S WORK WEARHOUSE,711292675,1019 Sheppard Avenue E,,North York,ON,M2K 1C2,CA,(416) 2505327,43.770084,-79.3721904,,,0
SHOE CLUB,711293449,1170 ST CLAIRE AVENUE W,,TORONTO,ON,M6E 1B5,CA,(416) 6588309,43.71085,-79.411318,,,0
OREOL SHOES & MEDICAL SUPPLIES,711293262,1126 FINCH AVENUE W   #5,,NORTH YORK,ON,M3J 3J6,CA,(416) 6389805,43.7680416,-79.4760726,,,0
THE SHOE COMPANY,711293623,2355 YONGE STREET,,TORONTO,ON,M4P 2C8,CA,,43.7089744444444,-79.3988088888889,,,0
LITTLE BURGUNDY,711292611,1800 SHEPPARD AVE E,,WILLOWDALE,ON,M2J 5A7,CA,(416) 4936799,43.7719875,-79.3616812,,,0
SHOE CLUB,711293451,1295 FINCH AVENUE W,,NORTH YORK,ON,M3J 2G5,CA,(416) 6308238,43.7639268,-79.4889351,,,0
BROWNS SHOE SHOP,711292085,J5 - 20 KARL FRASER ROAD,,TORONTO,ON,M3C 0E8,CA,(416) 3840971,43.7353649997126,-79.3447842423546,,,0
LITTLE BURGUNDY,711292630,6 KARL FRASER ROAD,,TORONTO,ON,M3C 0E9,CA,(416) 7830625,43.7346666666667,-79.3445666666667,,,0
SEARS,711293353,1800 SHEPPARD AVE E,FAIRVIEW MALL,TORONTO,ON,M2J 5A7,CA,,43.77939,-79.34734,,,0
BROWNS SHOE SHOP,711292031,1800 SHEPPARD AVENUE E,,TORONTO,ON,M2J 5A7,CA,(416) 4923993,43.7777578,-79.3444513,,,0
BROWNS SHOE SHOP,711292019,1 PROMENADE CIRCLE,,THORNHILL,ON,L4J 4P8,CA,(905) 7641444,43.8092847218672,-79.4530416914421,,,0
SHOE WAREHOUSE,711293462,1054  CENTER STREET,,THORNHILL,ON,L4J 8E5,CA,,43.8089585095302,-79.4592713665594,,,0
THE SHOE COMPANY,711293633,31 DISERA DRIVE,,THORNHILL,ON,L4J 0A7,CA,,43.811347160547,-79.4540630681279,,,0
JERRY'S WESTERN & FASHION CENTRE,711292548,60 BEVERLY HILLS DRIVE,,NORTH YORK,ON,M3L 1A1,CA,(416) 2447721,43.7177843258828,-79.5137128824323,,,0
BIOTECH FOOT INC.,711291994,1448 LAWRENCE AVE E  #20B,,TORONTO,ON,M4A 2V6,CA,(416) 7501232,43.7421288,-79.3145902,,,0
CONCORD HARDWARE,711292363,374 BOWES RD,,CONCORD,ON,L4K 1K1,CA,(905) 6699914,43.8123613541416,-79.4942693226274,,,0
BROWNS SHOE SHOP,711292026,110 BLOOR STREET W,,TORONTO,ON,M5S 2W7,CA,(416) 9201032,43.66926,-79.39147,,,0
THE SHOE COMPANY,711293695,750 YONGE STREET,,TORONTO,ON,M4Y 2B6,CA,,43.6692716666667,-79.386395,,,0
THE SHOE COMPANY,711293599,1980 ST CLAIR AVENUE W,,TORONTO,ON,M6N 0A3,CA,,43.6728592,-79.4708129,,,0
MARK'S WORK WEARHOUSE,711293099,590 Keele Street,,Toronto,ON,M6N 3E2,CA,(416) 7664883,43.67134,-79.4671,,,0
MISTER SAFETY SHOES INC.,711293246,6-2300 FINCH AVENUE W,(AT WESTON RD),NORTH YORK,ON,M9M 2Y3,CA,(416) 7463000,43.7530513,-79.5416164,,,0
CONCORD HARDWARE,711292364,"7310 WOODBINE AVENUE, UNIT #5",,MARKHAM,ON,L3R 1A4,CA,(905) 4799844,43.8216314285714,-79.3506714285714,,,0
SHOE CLUB,711293457,2900 WARDEN AVENUE,,TORONTO,ON,M1W 2S8,CA,(416) 7562439,43.7985022594761,-79.316550125553,,,0
SEARS,711293392,45 RED MAPLE ROAD,,RICHMOND HILL,ON,L4B 4M6,CA,,43.8410902360863,-79.4226223429902,,,0
MARK'S WORK WEARHOUSE,711293022,45 Red Maple Road,,Richmond Hill,ON,L4B 4M6,CA,(905) 8867899,43.8410902360863,-79.4226223429902,,,0
D&M FOOTWEAR,711292390,566 YONGE STREET,,TORONTO,ON,M4Y 1Y8,CA,(416) 9671711,43.6648657894737,-79.3845478947368,,,0
MARK'S WORK WEARHOUSE,711292894,2625D Weston Road,,North York,ON,M9N 3W2,CA,(416) 2413571,43.7117642857143,-79.5353742857143,,,0
SHOE CLUB,711293448,1 - 70 EGLINTON SQUARE,,SCARBOROUGH,ON,M1L 2K1,CA,(416) 7507599,43.72336,-79.30213,,,0
WORK AUTHORITY,711293823,1448 LAWRENCE AVENUE E,VICTORIA TERRACE MALL,NORTH YORK,ON,M4A 2V6,CA,(416) 7552583,43.72168,-79.30141,,,0
STEP INTO COMFORT,711293551,2055 LAWRENCE AVENUE E,,SCARBOROUGH,ON,M1R 2Z4,CA,(416) 7577837,43.7453645,-79.294744,,,0
MARK'S WORK WEARHOUSE,711293184,900 Dufferin Street,,Toronto,ON,M6H 4B1,CA,(416) 5357997,43.65703,-79.43426,,,0
MARK'S WORK WEARHOUSE,711292824,1900 Eglinton Avenue E,,Scarborough,ON,M1L 2L9,CA,(416) 7594124,43.7280502,-79.2941435,,,0
THE SHOE COMPANY,711293697,7575 WESTON ROAD,,WOODBRIDGE,ON,L4L 9K5,CA,,43.7874503904321,-79.5470802499525,,,0
HARRY DAVID LTD,711292525,220 AUGUSTA AVE,,TORONTO,ON,M5T 2L6,CA,(416) 5939719,43.6549492307692,-79.4021807692308,,,0
DSW,711292402,1920 EGLINTON AVENUE E,,SCARBOROUGH,ON,M1L 2L9,CA,,43.7276023,-79.2905579,,,0
SHOE CLUB,711293459,3850 SHEPPARD AVENUE W,,NORTH YORK,ON,M1T 3L4,CA,(416) 3215514,43.7843518,-79.2921897,,,0
MARK'S WORK WEARHOUSE,711293121,65 Dundas Street W,,Toronto,ON,M5G 2C3,CA,(416) 5060430,43.655842,-79.383124,,,0
ORTHO PLUS INC,711293263,3B - 5324 DUNDAS STREET W,,TORONTO,ON,M9B 1B4,CA,(416) 2331790,43.656275,-79.3811125,,,0
WORK AUTHORITY,711293855,7887 WESTON ROAD,HIGHWAY 7 & WESTON ROAD,WOODBRIDGE,ON,L4L 1A6,CA,(905) 8564706,43.7927643335237,-79.5483086667081,,,0
WORK AUTHORITY,711293856,809 GERRARD STREET E,,TORONTO,ON,M4M 1Y8,CA,(416) 4699874,43.66708,-79.34518,,,0
THE SHOE COMPANY,711293718,822 WARDEN AVENUE,,SCARBOROUGH,ON,M1L 4W1,CA,,43.72548,-79.28665,,,0
WORK N' WEAR,711293873,1944 DANFORTH AVENUE,,TORONTO,ON,M4C 1J4,CA,(416) 4292067,43.6850811764706,-79.3155352941177,,,0
LITTLE BURGUNDY,711292615,220 YONGE STREET,,TORONTO,ON,M5B 2H1,CA,(416) 2600497,43.65363,-79.37982,,,0
BROWNS SHOE SHOP,711292035,220 YONGE STREET,,TORONTO,ON,M5B 2H1,CA,(416) 9799270,43.65363,-79.37982,,,0
STEP BY STEP PROFESSIONAL FAMILY FOOT CARE,711293550,27 QUEEN STREET E,,TORONTO,ON,M5C 2M6,CA,(416) 2144697,43.652706875,-79.377884375,,,0
LITTLE BURGUNDY,711292623,351 QUEEN STREET W,,TORONTO,ON,M5V 2A4,CA,(416) 2603448,43.6495335294118,-79.3927423529412,,,0
MARK'S WORK WEARHOUSE,711292841,200 Windflower Gate,,Woodbridge,ON,L4L 9L3,CA,(905) 8503502,43.78947,-79.55708,,,0
C SQUARED,711292097,693 QUEEEN STREET WEST,,TORONTO,ON,M6J 1E6,CA,(647) 3501038,43.646943125,-79.405284375,,,0
MISTER SAFETY SHOES INC.,711293237,26 WILLIAM KITCHEN ROAD,,SCARBOROUGH,ON,M1P 5B7,CA,(416) 3324977,43.771728856694,-79.2792288801876,,,0
HEEL BOY,711292530,773 QUEEN STREET WEST,,TORONTO,ON,M6J 1G1,CA,(416) 3624335,43.6464033333333,-79.4079833333333,,,0
CONCORD HARDWARE,711292365,"9094 LESLIE ST, UNIT #6",,RICHMOND HILL,ON,L4B 3L9,CA,(905) 7317944,43.8540615148901,-79.3847540425522,,,0
MISTER SAFETY SHOES INC.,711293245,443 ADELAIDE STREET W,,TORONTO,ON,M5V 1S9,CA,(416) 3680770,43.64607,-79.39899,,,0
THE SHOE COMPANY,711293659,40 KING STREET E,,TORONTO,ON,M5H 3Y2,CA,,43.6494478571429,-79.3764321428571,,,0
GRAVITY POPE,711292512,1010 QUEEN STREET W,,TORONTO,ON,M6J 1H6,CA,(647) 7485155,43.64418,-79.41884,,,0
DSW,711292397,1 BASS PRO MILLS DRIVE,,VAUGHAN,ON,L4K 5W4,CA,,43.82275,-79.53323,,,0
LITTLE BURGUNDY,711292603,1 BASS PRO MILLS DRIVE,,VAUGHAN,ON,L4K 5W4,CA,(905) 6603533,43.82275,-79.53323,,,0
BROWNS SHOE SHOP,711292017,1 BASS PRO MILLS DRIVE,,VAUGHAN,ON,L4K 5W4,CA,(905) 7600307,43.82275,-79.53323,,,0
THE SHOE COMPANY,711293566,1 BASS PRO MILLS DRIVE,,VAUGHAN,ON,L4K 5W4,CA,,43.82275,-79.53323,,,0
TROVE,711293734,2264 BLOOR STREET W,,TORONTO,ON,M6S 1N9,CA,(416) 7661258,43.650745,-79.4780275,,,0
IMELDA SHOES,711292538,123 RONCESVALLES AVENUE,,TORONTO,ON,M6R 2K9,CA,(647) 3441006,43.6427557142857,-79.447665,,,0
HEEL BOY DISTILLERY,711292531,49 TANK HOUSE LANE,,TORONTO,ON,M5A 3C4,CA,(416) 3632794,43.65051,-79.35866,,,0
THE SHOE COMPANY,711293640,3175 HIGHWAY 7,,MAKHAM,ON,L3R 0J5,CA,,43.8511025,-79.3522558333333,,,0
SHOE CLUB,711293458,3003 DANFORTH AVENUE,,TORONTO,ON,M4C 1M9,CA,(416) 6949944,43.69088,-79.2898,,,0
MARK'S WORK WEARHOUSE,711292792,16B Leslie Street,,Toronto,ON,M4M 3C1,CA,(416) 4610337,43.66017,-79.32888,,,0
CORSO SHOES LTD,711292378,1942 QUEEN ST.E.,,TORONTO,ON,M4L 1H6,CA,(416) 6931987,43.6695541,-79.3030819,,,0
LITTLE BURGUNDY,711292619,300 BOROUGH DRIVE,,SCARBOROUGH,ON,M1P 4P5,CA,(416) 2905138,43.775466,-79.25395,,,0
SEARS,711293370,300 BOROUGH DRIVE UNIT 1,SCARBOROUGH TOWN CENTRE,SCARBOROUGH,ON,M1P 4P5,CA,,43.775466,-79.25395,,,0
BROWNS SHOE SHOP,711292043,300 BOROUGH DRIVE,,SCARBOROUGH,ON,M1P 4P5,CA,(416) 2905158,43.775466,-79.25395,,,0
MARK'S WORK WEARHOUSE,711292825,1900 McCowan Road,,Scarborough,ON,M1S 4K1,CA,(416) 4127854,43.79163,-79.25967,,,0
SEARS,711293401,500 REXDALE BLVD,WOODBINE CENTRE,ETOBICOKE,ON,M9W 6K5,CA,,43.71758,-79.59669,,,0
MARK'S WORK WEARHOUSE,711293086,55 Woodbine Downs Blvd,,Etobicoke,ON,M9W 6N5,CA,(416) 6740648,43.7386,-79.60756,,,0
ADVANCE SAFETY WORLD LTD,711291936,6797 STEELES AVE W,,ETOBICOKE,ON,M9V 4R9,CA,(416) 6750255,43.7561385,-79.6093223,,,0
WORK N' WEAR,711293874,2880 KINGSTON ROAD,,SCARBOROUGH,ON,M1M 1N4,CA,(416) 2679675,43.722595,-79.2354766666667,,,0
MARK'S WORK WEARHOUSE,711292957,3434 Lawrence Avenue E,,Scarborough,ON,M1H 1A9,CA,(416) 4394383,43.7601748,-79.2284333,,,0
KISS MY BABY LTD,711292563,84 MURISON DRIVE,,MARKHAM,ON,L6C 0N8,CA,,43.8916803045459,-79.3756434965249,,,0
LITTLE BURGUNDY,711292626,5000 HIGHWAY 7 E,,MARKHAM,ON,L3R 4M9,CA,(905) 9404423,43.8655657142857,-79.2913528571429,,,0
BROWNS SHOE SHOP,711292054,5000 HIGHWAY 7 E,,MARKHAM,ON,L3R 4M9,CA,(905) 9449564,43.8655657142857,-79.2913528571429,,,0
MARK'S WORK WEARHOUSE,711292691,10775 Leslie Street,,Richmond Hill,ON,L4S 0B2,CA,(905) 8843939,43.899212873846,-79.3959772615834,,,0
SHOE CLUB,711293450,1255 THE QUEENSWAY,,ETOBICOKE,ON,M8Z 1S1,CA,(416) 2514577,43.62122,-79.52552,,,0
THE SHOE COMPANY,711293601,20 JOHN BIRCHALL ROAD,,RICHMOND HILL,ON,L4S 0B2,CA,,43.9001922247665,-79.3925359671425,,,0
SEARS,711293382,3660 KINGSTON ROAD,,SCARBOROUGH,ON,M1M 1R7,CA,,43.742872,-79.2127156,,,0
THE SHOE COMPANY,711293668,5000 HIGHWAY #7 E,,MARKHAM,ON,L3R 4M9,CA,,43.8683035,-79.2884833,,,0
SHOE CLUB,711293454,250 EAST MALL,,ETOBICOKE,ON,M9B 3Y8,CA,(416) 2360419,43.6312903,-79.555345,,,0
MARK'S WORK WEARHOUSE,711293151,7700 Markham Road,,Markham,ON,L3S 4S1,CA,(905) 2016330,43.85381,-79.25511,,,0
DSW,711292400,170 NORTH QUEEN STREET,,ETOBICOKE,ON,M9C 1A8,CA,,43.6188407645393,-79.5564200007262,,,0
MARK'S WORK WEARHOUSE,711292788,167 North Queen Street,,Etobicoke,ON,M9C 1A7,CA,(416) 6262729,43.61819,-79.55765,,,0
THE SHOE COMPANY,711293586,171 NORTH QUEEN STREET,,ETOBICOKE,ON,M9C 1A7,CA,,43.6174902486829,-79.5575138650532,,,0
MARK'S WORK WEARHOUSE,711292890,255 Morningside Avenue,,Scarborough,ON,M1E 3E6,CA,(416) 2814114,43.76946,-79.18641,,,0
LITTLE BURGUNDY,711292617,25 THE WEST MALL,,ETOBICOKE,ON,M9C 1B8,CA,(416) 6951983,43.6097237044592,-79.5608082726123,,,0
BROWNS SHOE SHOP,711292038,25 THE WEST MALL,,TORONTO,ON,M9C 1B8,CA,(416) 6201910,43.6097237044592,-79.5608082726123,,,0
DEJAVU FOOTWEAR,711292393,4141 DIXIE ROAD,,MISSISSAUGA,ON,L4W 1V5,CA,(416) 5669890,43.6254612467473,-79.6065350291245,,,0
MISTER SAFETY SHOES INC.,711293230,1250 EGLINTON AVENUE E,,MISSISSAUGA,ON,L4W 1K8,CA,(905) 6243700,43.6325399,-79.6233143,,,0
MARK'S WORK WEARHOUSE,711292719,1180 Dundas Street E,,Mississauga,ON,L4Y 2C1,CA,(905) 2756760,43.604945,-79.58876,,,0
TOTAL BUILDERS HARDWARE,711293728,5015 MAINGATE DRIVE,,MISSISSAUGA,ON,L4W 1G4,CA,(905) 6298005,43.630236571783,-79.6272706648834,,,0
MISTER SAFETY SHOES INC.,711293235,2 Melanie Drive,,BRAMPTON,ON,L6T 4K9,CA,(905) 5950220,43.71056,-79.68411,,,0
MARK'S WORK WEARHOUSE,711292664,10 Coventry Road,,Brampton,ON,L6T 5P9,CA,(905) 7932645,43.7387633333333,-79.6953625,,,0
MARK'S WORK WEARHOUSE,711293049,5 Ward Road,,Brampton,ON,L6S 0B5,CA,,43.7526947366738,-79.7025100299291,,,0
BAR-BEN HARDWARD INC,711291969,1115 DERRY ROAD E,,MISSISSAUGA,ON,L5T 1P3,CA,(905) 6708800,43.66792775,-79.682170125,,,0
FOOT CLINIQUE,711292458,27-377 BURHAMTHORPE RD EAST,,MISSISSAUGA,ON,L5A 3Y1,CA,(289) 2327985,43.6028042,-79.6266236,,,0
SEARS,711293342,1500 FISHER STREET,NORTHGATE SQUARE,NORTH BAY,ON,P1B 2H3,CA,,46.31296,-79.44285,,,0
MARK'S WORK WEARHOUSE,711293176,850 McKeown Avenue,,North Bay,ON,P1B 8M1,CA,(705) 4768052,46.3325415130661,-79.4735143493911,,,0
SPI SECURITE JONQUIERE,711293542,755 WALLACE ROAD,,NORTH BAY,ON,P1A 0E7,CA,(705) 4741933,46.31545,-79.4239844444444,,,0
THE SHOE COMPANY,711293625,261055 CROSSIRON BOULEVARD,,ROCKY VIEW,AB,T4A 0G3,CA,,51.2030610279929,-113.989596520742,,,0
DSW,711292408,261055 CROSSIRON BOULEVARD,,ROCKY VIEW,AB,T4A 0G3,CA,,51.2030610279929,-113.989596520742,,,0
BROWNS SHOE SHOP,711292039,261055 CROSSIRON BOULEVARD,,ROCKY VIEW,AB,T4A OG3,CA,(403) 2744442,51.2030610279929,-113.989596520742,,,0
SHOE WAREHOUSE,711293480,261055 CROSSIRON BOULEVARD,,ROCKY VIEW,AB,T4A 0G3,CA,,51.2030610279929,-113.989596520742,,,0
LITTLE BURGUNDY,711292618,261005 CROSSIRON BOULEVARD,,ROCKY VIEW,AB,T4A 0G3,CA,(403) 2748795,51.2006359673886,-113.990659513394,,,0
MARK'S WORK WEARHOUSE,711292850,202 Veterans Blvd NE,,Airdrie,AB,T4B 3P2,CA,(403) 9487768,51.3000706666667,-114.011299111111,,,0
MARK'S WORK WEARHOUSE,711292847,20-145 Easthills Boulevard SE,,Calgary,AB,T2A 6Z8,CA,(403) 2723556,51.0404159,-113.912921,,,0
MARK'S WORK WEARHOUSE,711292739,1300 Saint PeterAvenue,,Bathurst,NB,E2A 3A6,CA,(506) 5462283,47.640127,-65.6781879,,,0
SEARS,711293333,1300 ST PETER AVENUE,,BATHURST,NB,E2A 1M5,CA,,47.6401565,-65.6780622,,,0
LINGERIE RSB ENG,711292601,443 RUE PRINCIPALE,,PETIT-ROCHER,NB,E8J 1L9,CA,(506) 7832250,47.7942987384597,-65.7241319846142,,,0
SOURCE ATLANTIC,711293516,845 RIORDON DRIVE,,BATHURST,NB,E2A 4W7,CA,(506) 5484411,47.6035796744,-65.6274066287803,,,0
BYRNES SHOE STORES,711292096,83 MAIN STREET,,STEPHENVILLE,NL,A2N 1H9,CA,(709) 6432991,48.5480025,-58.5807875,,,0
LEATHER WORKS PLUS,711292576,149 LORNE STREET,,SUDBURY,ON,P3C 4P4,CA,(705) 6745757,46.4896125786408,-81.0031859294604,,,0
CITY SURPLUS STORE,711292352,685 Notre Dame Ave,,SUDBURY,ON,P3A 2T2,CA,(705) 6749675,46.5081230069866,-80.9866945071364,,,0
SPI SECURITE JONQUIERE,711293518,1150 LORNE STREET,,SUDBURY,ON,P3C 4S9,CA,(705) 6746055,46.4713329496321,-81.0314693285618,,,0
MARK'S WORK WEARHOUSE,711292766,1425 Kingsway,,Sudbury,ON,P3B 0A2,CA,(705) 5604600,46.5050268639053,-80.9460298816568,,,0
THE SHOE COMPANY,711293577,1425 KINGSWAY ROAD,,SUDBURY,ON,P3A 4R7,CA,,46.5050268639053,-80.9460298816568,,,0
SOUCIE SALO SAFETY LTD,711293503,1300 LORNE STREET,,SUDBURY,ON,P3C 5N1,CA,(705) 6748092,46.4707117387688,-81.0352056821895,,,0
TSC STORES,711293759,1933 REGENT STREET,,SUDBURY,ON,P3E 5R2,CA,,46.4510312859701,-81.0016696544131,,,0
MARK'S WORK WEARHOUSE,711292875,2408 Long Lake Road,,Sudbury,ON,P3E 5H5,CA,(705) 5227855,46.441927294478,-81.0054112157463,,,0
SOUCIE SALO SAFETY LTD,711293504,2914 HIGHWAY 69 N,,VAL CARON,ON,P3N 1R6,CA,(705) 8975228,46.6075508,-81.0068239,,,0
MARK'S WORK WEARHOUSE,711292969,3595 Highway 144,,Chelmsford,ON,P0M 1L0,CA,(705) 8558989,46.56886,-81.19186,,,0
MARK'S WORK WEARHOUSE,711293075,5206 Highway 69 Road N,,Hanmer,ON,P3P 1Z3,CA,(705) 9699294,46.65401,-80.984995,,,0
,,68 Denton Ave,,Toronto,ON,M1L,CA,,43.69417,-79.28299,,,0
,,2 Denton Ave,,Toronto,ON,M1L,CA,,43.69269,-79.28981,,,0
CARTIER CO-OP LTD,711292103,25 CARTIER BOULEVARD UNIT 25,,RICHIBUCTO,NB,E4W 3W7,CA,(506) 5234461,46.6732919182572,-64.8714394493137,,,0
MARK'S WORK WEARHOUSE,711293196,9550 86 Avenue,,Fort Saskatchewan,AB,T8L 4P4,CA,(780) 9980360,53.6914872738632,-113.238854288689,,,0
THE SHOE COMPANY,711293579,15712-37 STREET,,EDMONTON,AB,T5Y 0S5,CA,,53.62498,-113.40167,,,0
THE SHOE COMPANY,711293655,360-5000 EMERALD DRIVE,,SHERWOOD PARK,AB,T8H 0P5,CA,,53.56683,-113.27716,,,0
MARK'S WORK WEARHOUSE,711293011,4240 137 Avenue NW,,Edmonton,AB,T5Y 2W7,CA,(780) 4732053,53.5986457,-113.4079334,,,0
JOBSITE WORKWEAR,711292550,13723 MANNING DRIVE NW,,EDMONTON,AB,T5Y 3B2,CA,(780) 4737575,53.5991883658105,-113.419546745937,,,0
MARK'S WORK WEARHOUSE,711292956,342 390 Baseline Road,,Sherwood Park,AB,T8H 1X1,CA,(780) 4171194,53.54128,-113.305714826615,,,0
SEARS,711293432,8770-170TH STREET,WEST EDMONTON MALL,EDMONTON,AB,T5Z 2Y7,CA,,53.6313592,-113.4772549,,,0
DSW,711292404,2020 SHERWOOD DRIVE,,SHERWOOD PARK,AB,T8A 3H9,CA,,53.53035,-113.29555,,,0
MARK'S WORK WEARHOUSE,711293204,9857 50 Street NW,,Edmonton,AB,T6A 3X5,CA,(780) 4901256,53.53865,-113.41846,,,0
MARK'S WORK WEARHOUSE,711292730,12222 137 Avenue,,Edmonton,AB,T5L 4X5,CA,(780) 4786681,53.6007212,-113.5330207,,,0
,,,,Sainte-Foy,QC,G1V3E6,CA,,46.783333,-71.3,,,0
,,,,St Guy,QC,G0K1W0,CA,,48.04648,-68.80397,,,0
,,,,St Pie,QC,J0H1J0,CA,,45.50498,-72.9065,,,0
,,,,Saint John,NB,E2L1A1,CA,,45.27343,-66.06415,,,0
,,,,St Ives,BC,V0E1M9,CA,,50.977351,-119.108481,,,0
,,,,St Leon,MB,R0G2E0,CA,,49.42277,-98.67806,,,0
,,,,St Malo,MB,R0A1T0,CA,,49.310233,-96.952499,,,0
,,,,St Almo,NB,E7G3N6,CA,,46.774452,-67.640064,,,0
,,,,Saint-Pons,NB,E1X1Y6,CA,,47.476984,-64.957597,,,0
,,,,Sainte-Rose,NB,E1X2X6,CA,,47.618736,-65.000167,,,0
,,,,Saint Anns,NS,B1X1T1,CA,,46.25,-60.616667,,,0
,,,,St Anns,ON,L0R1Y0,CA,,43.019718,-79.504992,,,0
,,,,Saint-Omer,QC,G0C2Z0,CA,,48.159881,-66.23883,,,0
,,,,St Paul,Ab,T0A3A3,CA,,53.99139,-111.28202,,,0
,,,,St Mary,Nb,E4S1X3,CA,,46.44273,-64.8874,,,0
,,,,St Paul,Nb,E1G3V1,CA,,46.31609,-64.99255,,,0
,,,,St Aime,QC,J0H1T0,CA,,45.93519,-72.92076,,,0
,,,,St Clet,QC,J0P1S0,CA,,45.3516,-74.22073,,,0
,,,,St Come,QC,J0K2B0,CA,,46.27071,-73.77173,,,0
,,,,St Eloi,QC,G0L2V0,CA,,48.02535,-69.20044,,,0
,,,,St Jean,QC,G0A3W0,CA,,46.92123,-70.8897,,,0
,,,,St Jude,QC,J0H1P0,CA,,45.77405,-72.98808,,,0
,,,,Ste Luce,QC,G0K1P0,CA,,48.52764,-68.34484,,,0
,,,,St Malo,QC,J0B2Y0,CA,,45.19886,-71.50044,,,0
,,,,St Noel,QC,G0J3A0,CA,,48.58474,-67.83823,,,0
,,,,St Omer,QC,G0R4R0,CA,,47.03543,-69.69002,,,0
,,,,St Ours,QC,J0G1P0,CA,,45.88632,-73.15102,,,0
,,,,St Paul,QC,J6E3H2,CA,,45.98504,-73.44556,,,0
,,,,St Remi,QC,J0L2L0,CA,,45.2587,-73.61402,,,0
,,,,St Rene,QC,G0M1Z0,CA,,46.01203,-70.61829,,,0
,,,,St Tite,QC,G0X3H0,CA,,46.73439,-72.56648,,,0
,,,,St Marks,MB,R0H1K0,CA,,50.012423,-98.319425,,,0
,,,,St Croix,NB,E6J1Z8,CA,,45.582767,-67.373244,,,0
,,,,Saint-Maure,NB,E8E1M4,CA,,47.945177,-66.479364,,,0
,,,,Saint-Simon,NB,E8P1Z2,CA,,47.737791,-64.850097,,,0
,,,,St Chads,NL,A0G3W0,CA,,48.586197,-54.078788,,,0
,,,,St Judes,NL,A8A3A1,CA,,48.987148,-57.72586,,,0
,,,,Ste Croix,NS,B0N2E0,CA,,44.908209,-64.044725,,,0
,,,,St. Pauls,ON,N0K1V0,CA,,43.253328,-81.098867,,,0
,,,,Sainte-Agnès,QC,J0S1L0,CA,,45.016667,-74.4,,,0
,,,,Saint-Bruno,QC,J3V3T6,CA,,45.528635,-73.34374,,,0
,,,,St Denis,SK,S0K3W0,CA,,52.291215,-106.005096,,,0
,,,,St Andre,Nb,E3Y2W1,CA,,47.10576,-67.75946,,,0
,,,,St David,Nb,E3L3W3,CA,,45.21705,-67.21625,,,0
,,,,St James,Nb,E5A0A3,CA,,45.32326,-67.30518,,,0
,,,,St Louis,NB,E4X0A2,CA,,46.75564,-65.00029,,,0
,,,,St Marys,NB,E6C1A6,CA,,46.14446,-66.61642,,,0
,,,,St John'S,Nl,A1C4K2,CA,,47.56076,-52.71225,,,0
,,,,St Lewis,Nl,A0K4W0,CA,,52.37449,-55.71557,,,0
,,,,St Mary'S,NL,A0B3B0,CA,,46.91233,-53.5756,,,0
,,,,St Pauls,Nl,A0K4Y0,CA,,49.85223,-57.80678,,,0
,,,,St Mary'S,Ns,B0H1M0,CA,,45.26347,-62.04414,,,0
,,,,St Clair,On,N0N1M0,CA,,42.84464,-82.46304,,,0
,,,,St Marys,ON,N4X1A1,CA,,43.25949,-81.14142,,,0
,,,,St Louis,PE,C0B1S0,CA,,46.88681,-64.14109,,,0
,,,,Ste Adele,QC,J8B1A3,CA,,45.95432,-74.13851,,,0
,,,,St Alban,QC,G0A3B0,CA,,46.71696,-72.07861,,,0
,,,,St Andre,QC,G0L2H0,CA,,47.67484,-69.72668,,,0
,,,,Ste Barbe,QC,J0S1P0,CA,,45.16218,-74.19727,,,0
,,,,St Bruno,QC,G0W2L0,CA,,48.47178,-71.67558,,,0
,,,,Ste Croix,QC,G0S2H0,CA,,46.63313,-71.6465,,,0
,,,,St David,QC,J0G1L0,CA,,45.95967,-72.83038,,,0
,,,,St Denis,QC,G0L4A0,CA,,47.49975,-69.93352,,,0
,,,,St Donat,QC,J0T2C0,CA,,46.34161,-74.22741,,,0
,,,,St Donat,QC,G0K1L0,CA,,48.49637,-68.24951,,,0
,,,,St Henri,QC,G0R3E0,CA,,46.69628,-71.07065,,,0
,,,,St Jules,QC,G0N1R0,CA,,46.22189,-70.94616,,,0
,,,,Ste Julie,QC,J3E0A2,CA,,45.58781,-73.3269,,,0
,,,,St Louis,QC,J0G1K0,CA,,45.85373,-72.97818,,,0
,,,,Ste Marie,QC,G6E1G9,CA,,46.46902,-71.03765,,,0
,,,,St Moise,QC,G0J3A0,CA,,48.54954,-67.85082,,,0
,,,,St Neree,QC,G0R3V0,CA,,46.72371,-70.71925,,,0
,,,,St Prime,QC,G8J1L2,CA,,48.59391,-72.33675,,,0
,,,,St Simon,QC,J0H1Y0,CA,,45.7215,-72.85423,,,0
,,,,St Simon,QC,G0L4C0,CA,,48.20748,-69.03651,,,0
,,,,St Sixte,QC,J8L4G4,CA,,45.69823,-75.20671,,,0
,,,,St Ubald,QC,G0A4L0,CA,,46.75494,-72.26873,,,0
,,,,St Ulric,QC,G0J3H0,CA,,48.78588,-67.69624,,,0
,,,,St Zenon,QC,J0K3N0,CA,,46.55873,-73.81534,,,0
,,,,St Louis,Sk,S0J2C0,CA,,52.92021,-105.81157,,,0
,,,,St Brides,AB,T0A2Y0,CA,,54.091446,-112.614286,,,0
,,,,Ste Agathe,MB,R0G1Y0,CA,,49.572259,-97.178344,,,0
,,,,St Joseph,MB,R0G2C0,CA,,49.12823,-97.334191,,,0
,,,,St Martin,MB,R0C2T0,CA,,51.681522,-98.57425,,,0
,,,,Saint-Arthur,NB,E3N5P6,CA,,47.930089,-66.719258,,,0
,,,,Sainte-Cecile,NB,E8T2X6,CA,,47.867678,-64.636246,,,0
,,,,Saint-Damien,NB,E4V3E6,CA,,46.350258,-64.82271,,,0
,,,,Saint-Ignace,NB,E4X2K1,CA,,46.693661,-65.087275,,,0
,,,,Saint-Irenee,NB,E1X4V7,CA,,47.490995,-64.999904,,,0
,,,,Sainte-Louise,NB,E8K2X4,CA,,47.68384,-65.792171,,,0
,,,,St Thomas,NB,E7P3E1,CA,,46.326187,-67.603609,,,0
,,,,Saint Julien,NL,A0K3N0,CA,,51.083333,-55.783333,,,0
,,,,Saint Ann,NS,B1X1T1,CA,,46.25,-60.616667,,,0
,,,,St Agatha,ON,N0B2L0,CA,,43.463447,-80.687981,,,0
,,,,St Albert,ON,K0A3C0,CA,,45.280631,-75.334972,,,0
,,,,St Davids,ON,L0S1P0,CA,,43.152171,-79.105816,,,0
,,,,St Eugene,ON,K0B1P0,CA,,45.456488,-74.432715,,,0
,,,,St Jacobs,ON,N0B2N0,CA,,43.527216,-80.550634,,,0
,,,,Saint-Lin,QC,J5M2T2,CA,,45.85,-73.766667,,,0
,,,,Saint-Pie,QC,J0H1W0,CA,,45.5,-72.9,,,0
BROWNS SHOE SHOP,711292051,50 RIDEAU STREET,,OTTAWA,ON,K1N 9J7,CA,(613) 5674526,45.4259129268293,-75.6924190243902,,,0
IRVING RIVERS LTD,711292540,7A2 24 BYWARD MARKET SQUARE,,OTTAWA,ON,K1N 7A2,CA,(613) 2411415,45.4279954545455,-75.6929915151515,,,0
PRESTON HARDWARE LTD,711293273,234 - 248 PRESTON STREET,,OTTAWA,ON,K1R 7R4,CA,(613) 2307166,45.4051707692308,-75.7122584615385,,,0
MARK'S WORK WEARHOUSE,711292873,24 500 Terminal Avenue,,Ottawa,ON,K1G 0Z3,CA,(613) 8604354,45.398527,-75.677147,,,0
SEARS,711293379,320 BOULEVARD SAINT-JOSEPH,LES GALERIES DE HULL,HULL,QC,J8Y 3Y9,CA,,45.4410467,-75.7328269,,,0
THE SHOE COMPANY,711293674,550 TERMINAL AVENUE,,OTTAWA,ON,K1G 0Z3,CA,,45.4149994917044,-75.6449651622103,,,0
CHAUSSURES YELLOW,711292243,100 TRAINYARDS DRIVE,,OTTAWA,ON,K1G 3S2,CA,(613) 2447353,45.4127632582244,-75.6451402971094,,,0
RIOBEC SECURITE INC.,711293275,540 BOUL SAINT JOSEPH,,GATINEAU,QC,J8Y 4A3,CA,(819) 7705503,45.4490171,-75.7345342,,,0
DSW,711292423,595 INDUSTRIAL AVENUE,,OTTAWA,ON,K2C 7K3,CA,,45.4112054714198,-75.6427305902104,,,0
KIDDIE KOBBLER,711292558,1177 ST. LAURENT BLVD,,OTTAWA,ON,K1K 3B7,CA,(613) 7466411,45.4234616666667,-75.6367833333333,,,0
SEARS,711293331,1250 BOULEVARD ST.-LAURENT,ST.-LAURENT SHOPPING CENTRE,OTTAWA,ON,K1K 3B9,CA,,45.4231255555556,-75.6367922222222,,,0
MARK'S WORK WEARHOUSE,711293185,91 Boulevard de la Gappe,,Gatineau,QC,J8T 0B5,CA,(819) 2468393,45.4685579411244,-75.7159065588461,,,0
KIDDIE KOBBLER,711292559,395 RICHMOND ROAD,,OTTAWA,ON,K2A 0E9,CA,(613) 7159525,45.3908776840167,-75.7564485868261,,,0
MARK'S WORK WEARHOUSE,711293021,45 Boul du Plateau,,Gatineau,QC,J9A 3G1,CA,(819) 7722712,45.4361758248373,-75.7726972505424,,,0
CHAUSSURES YELLOW,711292328,75 BOULEVARD DU PLATEAU,,GATINEAU,QC,J9A 3G1,CA,(819) 7780264,45.4359717982558,-75.7738218642447,,,0
CHAUSSURES YELLOW,711292322,680 BOULEVARD MALONEY O,,GATINEAU,QC,J8T 8K7,CA,(819) 2431038,45.4812977,-75.6791907,,,0
CRS CONTRACTORS RENTAL SUPPLY,711292386,2489 SHEFFIELD ROAD,1404811 ONTARIO LTD,OTTAWA,ON,K1B 3V6,CA,(613) 7448889,45.4088756200147,-75.6089771704568,,,0
MARK'S WORK WEARHOUSE,711292775,1501 Innes Road,,Gloucester,ON,K1B 1C5,CA,(613) 7442499,45.4157940288678,-75.6041451796347,,,0
APPLE SADDLERY INC,711291960,1875 INNES ROAD,,OTTAWA,ON,K1B 4C6,CA,(613) 7444040,45.4174453846154,-75.6004376923077,,,0
LE SPECIALISTE DE LE SECURITE,711292573,154 MALONEY EST,,GATINEAU,QC,J8P 1C1,CA,(819) 6637581,45.4838711428571,-75.6499537142857,,,0
MARK'S WORK WEARHOUSE,711292866,2210 Bank Street,,Ottawa,ON,K1V 1J5,CA,(613) 7338648,45.3573151020408,-75.6538102040816,,,0
MISTER SAFETY SHOES INC.,711293233,1526 MERIVALE ROAD,,OTTAWA,ON,K2G 3J7,CA,(613) 2252424,45.355755,-75.7364675,,,0
SEARS,711293358,2165 CARLING AVE,CARLINGWOOD SHOPPING CENTRE,OTTAWA,ON,K2A 1H2,CA,,45.3705308333333,-75.7700666666667,,,0
THE SHOE COMPANY,711293584,1651 MERIVALE ROAD,,OTTAWA,ON,K2G 3K2,CA,,45.3503533333333,-75.7330833333333,,,0
T.S.K. SAFETY,711293558,111 COLONNADE ROAD,,NEPEAN,ON,K2E 7M3,CA,(613) 7270446,45.3461067458999,-75.7026745647431,,,0
OTTAWA SAFETY/IND.SUPPLIES INC,711293264,8A - 190 COLONNADE ROAD,,OTTAWA,ON,K2E 7J5,CA,(613) 7270765,45.341573,-75.723042,,,0
BLR SAFETY & FIRST AID INC,711291995,"5330 CANOTEK ROAD, UNIT 1,",,GLOUCESTER,ON,K1J 9J3,CA,(613) 7452939,45.4531649383626,-75.5858976755713,,,0
WALMAR VENTILATION PRODUCTS,711293808,24 GURDWARA ROAD,,NEPEAN,ON,K0G 1J0,CA,(613) 2259774,45.3367710988919,-75.7035957931124,,,0
MARK'S WORK WEARHOUSE,711292816,1840 Merivale Road,,Nepean,ON,K2G 1E6,CA,(613) 7238911,45.3357256516703,-75.7247750269116,,,0
BROWNS SHOE SHOP,711292020,100 BAYSHORE DRIVE,,OTTAWA,ON,K2B 8C1,CA,(613) 7210741,45.34921,-75.80515,,,0
CHAUSSURES YELLOW,711292251,107 - 181 RUE PRINCIPALE,,GATINEAU,QC,J9H 6A6,CA,(819) 6820929,45.394865,-75.845573125,,,0
MARK'S WORK WEARHOUSE,711293181,9 1821 Robertson Road,,Nepean,ON,K2H 8X3,CA,(613) 5963056,45.3244756696992,-75.8273136671043,,,0
KIDDIE KOBBLER,711292561,PLACE D'ORLEANS SHOPPING CENTRE,110 PLACE D'ORLEANS DRIVE,ORLEANS,ON,K1C 2L9,CA,(613) 8348876,45.47765,-75.51262,,,0
THE SHOE COMPANY,711293664,4240 INNES ROAD,,ORLEANS,ON,K4A 5E6,CA,,45.457611022537,-75.4976864211206,,,0
MARK'S WORK WEARHOUSE,711293013,4338 Innes Road,,Orleans,ON,K4A 3Y3,CA,(613) 8667324,45.4593016873047,-75.4930733331053,,,0
MARK'S WORK WEARHOUSE,711292851,2055 10 Line Road,,Orleans,ON,K4A 4C5,CA,(613) 8247729,45.45909,-75.48671,,,0
THE SHOE COMPANY,711293639,3161 GREENBANK ROAD,,NEPEAN,ON,K2J 4H9,CA,,45.2690833333333,-75.7455133333333,,,0
MARK'S WORK WEARHOUSE,711292941,3161 Greenbank Road N,,Nepean,ON,K2J 4H9,CA,(613) 8231296,45.2690833333333,-75.7455133333333,,,0
MARK'S WORK WEARHOUSE,711292889,255 Kanata Avenue,,Kanata,ON,K2T 1K5,CA,(613) 5929578,45.3123249640648,-75.9069541617917,,,0
THE SHOE COMPANY,711293686,650 EARL GREY DRIVE,,KANATA,ON,K2T 1H6,CA,,45.3117196572149,-75.9113474571518,,,0
MARK'S WORK WEARHOUSE,711293089,56 BBOULEVARD DE LA CITE DES JEUNES,,Vaudreuil-Dorion,QC,J7V 9L5,CA,(450) 4246029,45.4064465,-74.0371777,,,0
CHAUSSURES YELLOW,711292291,3080 BOULEVARD DE LA GARE,,VAUDREUIL-DORION,QC,J7V 0H1,CA,(450) 5103177,45.3976246,-74.0562802,,,0
CHAUSSURES YELLOW,711292280,2104 BOULEVARD MONSEIGNEUR-LANGLOIS,,SALABERRY-DE-VALLEYFIELD,QC,J6S 5R1,CA,(450) 3732233,45.2717686,-74.1184979,,,0
MARK'S WORK WEARHOUSE,711292829,1940 Boul Monseigneur-Langlois,,Salaberry-de-Valleyfield,QC,J6S 5R1,CA,(450) 3716461,45.27089,-74.1208835,,,0
LE BOUTTIER DU CINQ,711292572,74 RUE DE GRANDE ILE,,SALABERRY DE VALLEYFIELD,QC,J6S 3M3,CA,(450) 3771837,45.2637433333333,-74.1329866666667,,,0
CHAUSSURES YELLOW,711292325,705 AVE DU PONT NORD,,ALMA,QC,G8B 5B8,CA,(418) 4804599,48.5618,-71.64235,,,0
SEARS,711293418,705 AVENUE DU PONT NORD,,ALMA,QC,G8B 6T5,CA,,48.5618,-71.64235,,,0
SPI SECURITE JONQUIERE,711293523,151 CLAIRE-FONTAINE,,ALMA,QC,G8B 6W9,CA,(418) 5429505,48.5640331034483,-71.6442082758621,,,0
LES VARIETES L.C.R. INC,711292586,1055 AVE DU POINT SUD,,ALMA,QC,G8B 2V7,CA,,48.5340948,-71.6464538,,,0
LES VARIETES L.C.R. INC,711292593,925 AVENUE DU POINT NORD,,ALMA,QC,G8B 7B6,CA,(418) 6625932,48.568038,-71.6384397,,,0
THE SHOE COMPANY,711293662,40 KINGSTON ROAD E,,AJAX,ON,L1Z 1E9,CA,,43.8617669762555,-79.0236788492579,,,0
MARK'S WORK WEARHOUSE,711292987,40 Kingston Road E,,Ajax,ON,L1Z 1E9,CA,(905) 4263534,43.8617669762555,-79.0236788492579,,,0
MARK'S WORK WEARHOUSE,711292821,1899 Brock Road,,Pickering,ON,L1V 4H7,CA,(905) 4271866,43.84796,-79.07391,,,0
SEARS,711293340,1355 KINGSTON ROAD,PICKERING TOWN CENTRE,PICKERING,ON,L1V 1B8,CA,,43.8381477777778,-79.0872377777778,,,0
MARK'S WORK WEARHOUSE,711292777,1535 Highway 7A,,Port Perry,ON,L9L 1B8,CA,(905) 9821803,44.0970974,-78.9593026,,,0
CHAUSSURES YELLOW,711292247,1020 BOULEVARD MONSEIGNEUR-DE-LAVAL,,BAIE-SAINT-PAUL,QC,G3Z 2W6,CA,(418) 4350248,47.44539,-70.511,,,0
CHEZ ORIGENE INC,711292350,111 RUE ST JEAN BAPTISTE,,BAIE ST PAUL,QC,G3Z 1M9,CA,(418) 4356800,47.4454735,-70.5112519,,,0
MARK'S WORK WEARHOUSE,711292967,351 Argyle Street S,,Caledonia,ON,N3W 1K7,CA,(905) 7652343,43.0628659866086,-79.9606471426618,,,0
TSC STORES,711293785,490 BRANT COUNTY ROAD #18,,BRANTFORD,ON,N3T 5M1,CA,,43.12424,-80.01963,,,0
MARK'S WORK WEARHOUSE,711292776,1508 Upper James Street,,Hamilton,ON,L9B 1K3,CA,(905) 5755811,43.2057114246544,-79.8916304004474,,,0
FACTORY SHOE,711292453,1151 UPPER JAMES STREET,,HAMILTON,ON,L9C 3B2,CA,(905) 3879799,43.2160751515152,-79.8870390909091,,,0
MARK'S WORK WEARHOUSE,711292672,1015 Golf Links Road,,Ancaster,ON,L9K 1L6,CA,(905) 3043375,43.2280192496929,-79.9390965911065,,,0
THE SHOE COMPANY,711293595,1791 STONE CHURCH ROAD E,,STONEY CREEK,ON,L8J 0B4,CA,,43.1921244,-79.8125988,,,0
DSW,711292424,60 MATINDALE CRESCENT,,ANCASTER,ON,L9K 1J9,CA,,43.2303552,-79.9422036,,,0
BROWNS SHOE SHOP,711292083,999 UPPER WENTWORTH STREET,,HAMILTON,ON,L9A 4X5,CA,(905) 3856016,43.21707,-79.86449,,,0
SEARS,711293440,999 UPPER WENTWORTH STREET,LIMERIDGE MALL,HAMILTON,ON,L9A 4X5,CA,,43.21707,-79.86449,,,0
MARK'S WORK WEARHOUSE,711293193,920 Upper Wentworth Street,,Hamilton,ON,L9A 5C5,CA,(905) 5743068,43.2194205882353,-79.8636782352941,,,0
MARK'S WORK WEARHOUSE,711293120,640 Queenston Road,,Hamilton,ON,L8K 1K2,CA,(905) 5608010,43.2301072314484,-79.7743128160004,,,0
MARK'S WORK WEARHOUSE,711292735,1283 Barton Street E,,Hamilton,ON,L8H 2V4,CA,(905) 5493329,43.24963,-79.80794,,,0
SEARS,711293424,75 CENTENNIAL PARKWAY N,HAMILTON EASTGATE SQUARE,HAMILTON,ON,L8E 2O2,CA,,43.2304025,-79.763255,,,0
MARK'S WORK WEARHOUSE,711293182,9 7654 Tecumseh Road E,,Windsor,ON,N8T 1E9,CA,(519) 9743226,42.2964514285714,-83.0252671428571,,,0
WORK AUTHORITY,711293819,"100 - 2301 TECUMSEH ROAD E, UNIT 100",,WINDSOR,ON,N8W 1E6,CA,(519) 9719802,42.29949,-83.0093,,,0
SEARS,711293372,3050 HOWARD AVE,DEVONSHIRE MALL,WINDSOR,ON,N8X 3Y7,CA,,42.2742911889364,-83.0051525767869,,,0
MARK'S WORK WEARHOUSE,711292933,3100 Howard Avenue,,Windsor,ON,N8X 3Y8,CA,(519) 9726075,42.2735941303494,-83.0047126284042,,,0
MISTER SAFETY SHOES INC.,711293244,4265 TECUMSEH ROAD E,,WINDSOR,ON,N8W 1K2,CA,(519) 9880500,42.3065466666667,-82.9724892307692,,,0
WORK AUTHORITY,711293829,2001 PROVINCIAL ROAD,,WINDSOR,ON,N8W 5V7,CA,(519) 9728376,42.2526004411765,-82.9674259558823,,,0
TSC STORES,711293777,401 TALBOT STREET N,,ESSEX,ON,N8M 2W3,CA,,42.18399,-82.83327,,,0
MARK'S WORK WEARHOUSE,711292920,300 Maidstone Avenue W,,Essex,ON,N8M 2X6,CA,(519) 7768672,42.1772175,-82.8412874,,,0
TSC STORES,711293771,286 TORONTO STREET S,,UXBRIDGE,ON,L9P 1H3,CA,,44.09411,-79.13074,,,0
MARK'S WORK WEARHOUSE,711292911,2A Welwood Drive,,Uxbridge,ON,L9P 1Z7,CA,(905) 8620600,44.08879,-79.13452,,,0
MARK'S WORK WEARHOUSE,711292699,1090 Hoover Park Drive,,Stouffville,ON,L4A 0K2,CA,(905) 6424622,43.9568185393775,-79.2786247921156,,,0
HEEL BOY,711292529,212 PRINCESS STREET,,KINGSTON,ON,K7L 1B2,CA,(613) 5443203,44.2320928,-76.4860788,,,0
A-ONE CLOTHING STORE LIMITED,711291958,358 KING STREET EAST,,KINGSTON,ON,K7L 3B6,CA,(613) 5488732,44.2310723529412,-76.4810594117647,,,0
TRAILHEAD,711293729,626 PRINCESS STREET,,KINGSTON,ON,K7L 1B5,CA,(613) 5464757,44.2367422222222,-76.50119,,,0
ALIGN ORTHOTICS & REHAB,711291946,920 PRINCESS STREET,,KINGSTON,ON,K7L 1H1,CA,(613) 5472222,44.2406746153846,-76.5103965384615,,,0
MARK'S WORK WEARHOUSE,711292752,14 646 Gardiners Road,,Kingston,ON,K7M 3X9,CA,(613) 3841700,44.22157,-76.51603,,,0
MARK'S WORK WEARHOUSE,711292685,1041 Princess Street,,Kingston,ON,K7L 1H3,CA,(613) 5473636,44.2434706139934,-76.516467950381,,,0
TSC STORES,711293736,1093 JOHN COUNTER BOULEVARD,,KINGSTON,ON,K7K 6C7,CA,,44.2594794764497,-76.5028288536486,,,0
MARK'S WORK WEARHOUSE,711292684,1040 Division Street,,Kingston,ON,K7K 0C3,CA,(613) 5463223,44.2610963157895,-76.4982852631579,,,0
THE SHOE COMPANY,711293688,656 GARDINERS ROAD,,KINGSTON,ON,K7M 3X9,CA,,44.2445775814778,-76.5679248972085,,,0
LES MAGASINS COLLINS,711292584,731 GARDINERS ROAD,,KINGSTON,ON,K7M 3Y5,CA,(613) 3899886,44.2479388235294,-76.5681494117647,,,0
SEARS,711293439,945 GARDINERS ROAD,CATARAUI TOWN CENTRE,KINGSTON,ON,K7M 7H4,CA,,44.2564347058824,-76.5687373529412,,,0
EXPERT AU TRAVAIL,711292441,"234 RUE ST-CHARLES, LOCAL 104",,SAINTE-THERESE,QC,J7E 2B4,CA,(450) 9791630,45.6439997,-73.8603869,,,0
LITTLE BURGUNDY,711292621,317 7TH AVENUE SW,,CALGARY,AB,T2P 2Y9,CA,(403) 4410647,51.0464549,-114.0685307,,,0
BROWNS SHOE SHOP,711292047,317 7TH AVENUE SW,,CALGARY,AB,T2P 2Y9,CA,(403) 2666209,51.0464549,-114.0685307,,,0
GRAVITY POPE,711292513,1126 17 AVE SW,,CALGARY,AB,T2T 0B4,CA,(403) 2090961,51.038057,-114.088232,,,0
MARK'S WORK WEARHOUSE,711292912,30 1035 64 Avenue SE,,Calgary,AB,T2H 2J7,CA,(403) 2559220,51.0268116666667,-114.060438333333,,,0
SEARS,711293348,1616-14TH AVE N.W.,NORTH HILL SHOPPING CENTRE,CALGARY,AB,T2N 1M6,CA,,51.0643608369999,-114.097836916249,,,0
MARK'S WORK WEARHOUSE,711292786,1632 14 Avenue NW,,Calgary,AB,T2N 1M7,CA,(403) 2209242,51.0654324,-114.0996443,,,0
JOBSITE WORKWEAR,711292549,"#303, 723 - 46TH AVENUE SE",,CALGARY,AB,T2G 2A4,CA,(403) 2878818,51.011032,-114.04651,,,0
MARK'S WORK WEARHOUSE,711292725,1200 - 37th Street SW,,Calgary,AB,T3C 1S2,CA,(403) 4403890,51.04149,-114.14127,,,0
WORK AUTHORITY,711293847,4120 - 901 64TH AVENUE NE,DEERFOOT CITY MALL,CALGARY,AB,T2E 7P4,CA,(403) 2749254,51.09605,-114.04061,,,0
LITTLE BURGUNDY,711292631,6455 MACLEOD TRAIL SW,,CALGARY,AB,T2H 0K9,CA,(403) 3551360,50.9959775,-114.071693125,,,0
BROWNS SHOE SHOP,711292067,6455 MACLEOD TRAIL SW,,CALGARY,AB,T2H 0K8,CA,(403) 2524168,50.9959775,-114.071693125,,,0
MARK'S WORK WEARHOUSE,711293127,6636 MacLeod Trail SW,,Calgary,AB,T2H 0K6,CA,(403) 2535708,50.9950016259166,-114.071400946044,,,0
ARMY & NAVY DEPT STORE LTD,711291963,1107 33RD AVENUE NE,,CALGARY,AB,T2A 6T2,CA,(403) 2486660,51.0611805,-113.9876458,,,0
MARK'S WORK WEARHOUSE,711292679,1035 64 Avenue SE,,Calgary,AB,T2H 2J7,CA,(403) 6927500,50.995405,-114.041563,,,0
MARK'S WORK WEARHOUSE,711293119,6325 11 Street SE,,Calgary,AB,T2H 2L6,CA,(403) 2535711,50.996027979798,-114.038475050505,,,0
MARK'S WORK WEARHOUSE,711292929,3014 Sunridge Blvd NE,,Calgary,AB,T1Y 7G6,CA,(403) 2509942,51.076376875,-113.99207875,,,0
DSW,711292407,2525 36TH STREET NE,,CALGARY,AB,T1Y 5T4,CA,,51.07383,-113.98196,,,0
SHOE WAREHOUSE,711293479,2525-36 STREET NE,,CALGARY,AB,T1Y 5T4,CA,,51.07383,-113.98196,,,0
LITTLE BURGUNDY,711292624,3625 SHAGANAPPI TRAIL NW,,CALGARY,AB,T3A 0E2,CA,(403) 2479162,51.0856,-114.153,,,0
BROWNS SHOE SHOP,711292049,3625 SHAGANAPPI TRAIL NW,,CALGARY,AB,T3A 0E2,CA,(403) 2473236,51.0856,-114.153,,,0
SHOE WAREHOUSE,711293492,8228 MACLEOD TRAIL SE,,CALGARY,AB,T2H 2B8,CA,,50.9819,-114.07147,,,0
MARK'S WORK WEARHOUSE,711292949,33 Heritage Meadows Way SE,,Calgary,AB,T2H 3B8,CA,(403) 2784885,50.9839677777778,-114.041452222222,,,0
THE SHOE COMPANY,711293676,5657 SIGNAL HILL CENTRE SW,,CALGARY,AB,T3H 3P8,CA,,51.0186569143896,-114.170093238616,,,0
MARK'S WORK WEARHOUSE,711292997,400 Stewart Green SW,,Calgary,AB,T3H 3C8,CA,(403) 2492504,51.0154497714749,-114.17054177502,,,0
SEARS,711293347,1600-3800 MEMORIAL DRIVE N.E.,MARLBOROUGH MALL,CALGARY,AB,T2A 2K2,CA,,51.06003,-113.95827,,,0
WORK AUTHORITY,711293858,9250 MACLEOD TRAIL SE,,CALGARY,AB,T2J 0P5,CA,(403) 2581704,50.9711966405444,-114.07148,,,0
MARK'S WORK WEARHOUSE,711293097,5855 68 Avenue SE - Bldg A,,Calgary,AB,T2C 5A7,CA,(403) 7171400,50.9936974,-113.9456483,,,0
SEARS,711293315,#1-100 ANDERSON RD S.E.,CALGARY SOUTH CENTRE,CALGARY,AB,T2J 3V1,CA,,50.95021,-114.06522,,,0
MARK'S WORK WEARHOUSE,711292913,30 Crowfoot Terrace NW,,Calgary,AB,T3G 4J8,CA,(403) 2392261,51.1269236183237,-114.199172764803,,,0
MARK'S WORK WEARHOUSE,711292737,130 Country Village Road NE,,Calgary,AB,T3K 6B8,CA,(403) 5671925,51.16149,-114.06033,,,0
CANADIAN FOOTWEAR,711292102,303 - 150 CROWFOOT CRESCENT NW,,CALGARY,AB,T3G 3T2,CA,(403) 2201118,51.1282738299575,-114.199084792084,,,0
THE SHOE COMPANY,711293692,72 CROWFOOT TERRACE NW,,CALGARY,AB,T3G 4J8,CA,,51.1274244654085,-114.200864221697,,,0
MARK'S WORK WEARHOUSE,711292717,11602 Sarcee Trail NW,,Calgary,AB,T3R 0A1,CA,(403) 2957249,51.1573240289768,-114.162167194205,,,0
THE SHOE COMPANY,711293569,11692 SARCEE TRAIL NW,,CALGARY,AB,T3R 0A1,CA,,51.1579553329341,-114.162040933413,,,0
THE SHOE COMPANY,711293666,4307 130 AVENUE SE,,CALGARY,AB,T2Z 3V8,CA,,50.930682,-113.9705056,,,0
MARK'S WORK WEARHOUSE,711293036,4889 130 Avenue SE,,Calgary,AB,T2Z 4J2,CA,(403) 2574873,50.9300982,-113.9650816,,,0
THE SHOE COMPANY,711293653,350 SHAWVILLE BOULEVARD SE,,CALGARY,AB,T2Y 3S4,CA,,50.90411103892,-114.069896018789,,,0
MARK'S WORK WEARHOUSE,711292960,350 Shawville Blvd SE,,Calgary,AB,T2Y 3S4,CA,(403) 2014110,50.8981145482586,-114.062596645082,,,0
MARK'S WORK WEARHOUSE,711292971,3647 Portage Avenue,,Winnipeg,MB,R3K 2G6,CA,(204) 8894477,49.8822238461538,-97.3123030769231,,,0
BROWNS SHOE SHOP,711292021,100 CITY CENTRE DRIVE,,MISSISSAUGA,ON,L5B 2C9,CA,(905) 5660842,43.59224,-79.63909,,,0
LITTLE BURGUNDY,711292605,100 CITY CENTRE DRIVE,,MISSISSAUGA,ON,L5B 2C9,CA,(905) 8038555,43.59224,-79.63909,,,0
SHOE CLUB,711293452,16 - 1225 DUNDAS STREET E,,MISSISSAUGA,ON,L4Y 2C5,CA,(905) 9490110,43.5806142857143,-79.6159264285714,,,0
COMFEET MEDICAL SUPPLIES INC,711292361,9-2560 SHEPARD AVE,,MISSISSAUGA,ON,L5A 4E1,CA,(905) 2736857,43.57732,-79.60902,,,0
THE SHOE COMPANY,711293678,5935 MAVIS ROAD,,MISSISSAUGA,ON,L5R 3T7,CA,,43.6100488235294,-79.6929029411765,,,0
MARK'S WORK WEARHOUSE,711293105,5950 Rodeo Drive,,Mississauga,ON,L5R 3V6,CA,(905) 7129991,43.6136645039719,-79.690289847897,,,0
WORK AUTHORITY,711293827,"2 - 905 BRITANNIA ROAD W, UNIT 2",HEARTLAND CENTRE,MISSISSAUGA,ON,L5V 2X8,CA,(905) 5670449,43.6262898181818,-79.6795011818182,,,0
SEARS,711293402,5100 ERIN MILLS PARKWAY,ERIN MILLS TOWN CENTRE,MISSISSAUGA,ON,L5M 4Z5,CA,,43.55879,-79.70681,,,0
STEPSS,711293553,5100 ERIN MILLS PARKWAY,,MISSISSAUGA,ON,L5M 4Z5,CA,(905) 5697559,43.55879,-79.70681,,,0
MARK'S WORK WEARHOUSE,711292871,2333 Millrace Court,,Mississauga,ON,L5N 1W2,CA,(905) 8216850,43.5933745798146,-79.7455655294271,,,0
MARK'S WORK WEARHOUSE,711293211,c/o 2333 Millrace Court,,Mississauga,ON,L5N 1W2,CA,(905) 8216850,43.5933745798146,-79.7455655294271,,,0
THE SHOE COMPANY,711293647,3235 DUNDAS STREET W,,MISSISSAUGA,ON,L5L 5V7,CA,,43.5180337622995,-79.6867364712289,,,0
FACTORY SHOE,711292454,2640 SOUTH SHERIDAN WAY,,MISSISSAUGA,ON,L5J 2M4,CA,(905) 8557817,43.5101699489908,-79.6619363589992,,,0
MARK'S WORK WEARHOUSE,711293192,920 Southdown Road,,Mississauga,ON,L5J 2Y4,CA,(905) 4039346,43.5091580327869,-79.6275124590164,,,0
MARK'S WORK WEARHOUSE,711292885,2501 Hyde Park Gate,,Oakville,ON,L6H 6G6,CA,(905) 8290844,43.51414,-79.68747,,,0
THE SHOE COMPANY,711293637,3135 ARGENTIA ROAD,,MISSISSAUGA,ON,L5N 8E1,CA,,43.5963713979355,-79.7852560497046,,,0
MARK'S WORK WEARHOUSE,711292940,3155 Argentia Road,,Mississauga,ON,L5N 8E1,CA,(905) 7852819,43.5962155816305,-79.785432368155,,,0
SHOE CLUB,711293461,547 STEELES AVENUE E,,BRAMPTON,ON,L6W 4S2,CA,(905) 8744858,43.6769106,-79.7185877,,,0
MARK'S WORK WEARHOUSE,711293084,547 Steeles Avenue E,,Brampton,ON,L6W 4S2,CA,(905) 4593770,43.6769106,-79.7185877,,,0
COMFORT WEAR IN STYLE,711292362,81 GEORGE STREET SOUTH,,BRAMPTON,ON,LY  1P4,CA,(905) 2736857,43.6841571305048,-79.7594129966992,,,0
SEARS,711293363,240 LEIGHLAND AVE,OAKVILLE PLACE,OAKVILLE,ON,L6H 3H6,CA,,43.4622,-79.68899,,,0
WORK AUTHORITY,711293833,"295A QUEEN STREET E, UNIT 53",BRAMROSE SQUARE PLAZA,BRAMPTON,ON,L6W 3W9,CA,(905) 4542739,43.7036305882353,-79.7404347058824,,,0
SHOE CLUB,711293453,25 PEEL CENTRE DRIVE,,BRAMPTON,ON,L6T 3R5,CA,(905) 7933689,43.7174266666667,-79.7234633333333,,,0
SEARS,711293365,25 PEEL CENTRE DRIVE,BRAMALEA CITY CENTRE,BRAMPTON,ON,L6T 3R5,CA,,43.7174266666667,-79.7234633333333,,,0
BROWNS SHOE SHOP,711292037,25 PEEL CENTRE DRIVE,,BRAMPTON,ON,L6T 3R5,CA,(905) 7912257,43.7174266666667,-79.7234633333333,,,0
SCARPINI SHOES,711293309,25 PEEL CENTRE DRIVE,,BRAMPTON,ON,L6T 3R5,CA,(905) 7935979,43.7174266666667,-79.7234633333333,,,0
MARK'S WORK WEARHOUSE,711292701,1100 Kerr Street,,Oakville,ON,L6M 0L4,CA,(905) 8454782,43.4506947556107,-79.6982734214507,,,0
THE SHOE COMPANY,711293603,200 NORTH SERVICE ROAD,,OAKVILLE,ON,L6M 2V1,CA,,43.4506877777778,-79.7009974074074,,,0
DSW,711292411,310 NORTH SERVICE ROAD W,,OAKVILLE,ON,L6M 2R8,CA,,43.4449014238941,-79.7046113420604,,,0
MARK'S WORK WEARHOUSE,711292914,30 Great Lakes Drive,,Brampton,ON,L6R 2K7,CA,(905) 7901599,43.7313883695652,-79.7617590217391,,,0
MARK'S WORK WEARHOUSE,711292729,1220 Steeles Avenue East,,Milton,ON,L9T 6R1,CA,(905) 8764784,43.50431,-79.84123,,,0
THE SHOE COMPANY,711293717,80 GREAT LAKES DRIVE,,BRAMPTON,ON,L6R 2K7,CA,,43.7318802173913,-79.7626041304348,,,0
THE SHOE COMPANY,711293568,1160 STEELES AVENUE E,,MILTON,ON,L9T 6C8,CA,,43.5396878,-79.8725401,,,0
TSC STORES,711293769,28 BRONTE STREET N,,MILTON,ON,L9T 2N5,CA,,43.5091606666667,-79.8888666666667,,,0
MARK'S WORK WEARHOUSE,711292959,3487 Wyecroft Road,,Oakville,ON,L6L 0B6,CA,(905) 8472199,43.3957191803279,-79.7483654098361,,,0
MARK'S WORK WEARHOUSE,711293145,74 280 Guelph Street,,Georgetown,ON,L7G 4B1,CA,(905) 8739621,43.65111,-79.9202025,,,0
CHAUSSURES YELLOW,711292265,1206 - 582 CHEMIN DE TOURAINE,,BOUCHERVILLE,QC,J4B 5E4,CA,(450) 6411411,45.5960711830381,-73.3849549837084,,,0
GLOBO,711292486,548 MONTÉE DES PIONNIERS,,LACHENAIE,QC,J6V 1N9,CA,(450) 5858540,45.7161746,-73.5112014,,,0
LES ENTREPRISES HANDFIELD INC,711292578,832 MONTEE SAINTE-JULIE,,SAINTE-JULIE,QC,J3E 1W9,CA,(450) 6495546,45.59921,-73.3471,,,0
LES VARIETES L.C.R. INC,711292590,2370 RUE ST-HUBERT,,JONQUIERE,QC,G7X 5N4,CA,(418) 6959694,48.4127607692308,-71.2469823076923,,,0
SPI SECURITE JONQUIERE,711293530,3495 BOULEVARD ST-FRANCOIS,,JONQUIERE,QC,G7X 2W5,CA,(418) 5420153,48.4119187,-71.2252079,,,0
SPI SECURITE JONQUIERE,711293525,1542 BOULEVARD ST-PUAL,,CHICOUTIMI,QC,G7J 3C5,CA,(418) 5429505,48.4037558,-71.097403,,,0
LES VARIETES L.C.R. INC,711292592,35 RUE DU PONT,,CHICOUTIMI,QC,G7G 3A4,CA,(418) 5432735,48.43662,-71.06734,,,0
LES VARIETES L.C.R. INC,711292588,1915 BOULEVARD TALBOT,,TALBOT,QC,G7H 7Y4,CA,(418) 5432477,48.3960074,-71.0667839,,,0
RODRIGUE LE BOTTIER ENR.,711293278,280 RUE RACINE EST,,CHICOUTIMI,QC,G7H 1S6,CA,(418) 5438538,48.42758,-71.05996,,,0
SPORT V E,711293545,1516 BOUL TALBOT,,CHICOUTIMI,QC,G7H 4C2,CA,(418) 5433177,48.4020213,-71.0612625,,,0
MARK'S WORK WEARHOUSE,711292759,1401 Boul Talbot,,Chicoutimi,QC,G7H 5N6,CA,(418) 5434033,48.4049983,-71.0557528,,,0
SEARS,711293335,1324 BOULEVARD TALBOT,PLACE DU SAGUENAY,CHICOUTIMI,QC,G7H 4B9,CA,,48.42925,-71.04339,,,0
WUERTH SHOES LTD,711293877,16 WELLINGTON STREET,,STRATFORD,ON,N5A 1W5,CA,(519) 2711623,43.370241,-80.982347,,,0
WHITE BALMER SHOES,711293811,123 ONTARIO STREET,,STRATFORD,ON,N5A 3H1,CA,(519) 2716661,43.3714001025905,-80.9808371462791,,,0
MARK'S WORK WEARHOUSE,711292671,1005 Ontario Street,,Stratford,ON,N5A 6W6,CA,(519) 2721002,43.3707933333333,-80.9478766666667,,,0
SEARS,711293324,1067 ONTARIO STREET,FESTIVAL MARKET PLACE,STRATFORD,ON,N5A 6W6,CA,,43.37074,-80.94492,,,0
TSC STORES,711293773,2954 ONTARIO STREET E,,STRATFORD,ON,N5A 6S5,CA,,43.3706358835546,-80.938229918284,,,0
THE HITCHING POST LTD,711293564,480 QUEEN STREET W,P.O. BOX 670,ST. MARYS,ON,N4X 1B4,CA,(519) 2842360,43.257542972973,-81.1596036486486,,,0
GERBER'S WORKWEAR LTD,711292476,76 ONTARIO ROAD,,MITCHELL,ON,N0K 1N0,CA,(519) 3484700,43.467371627907,-81.1963137209302,,,0
GERBER'S WORKWEAR LTD,711292471,15 MAIN STREET N,,MILVERTON,ON,N0K 1MO,CA,(519) 5958776,43.5662032356507,-80.9218847387076,,,0
CANADIAN FOOTWEAR,711292099,1504 ST MARY'S ROAD,,WINNIPEG,MB,R2M 3V7,CA,(204) 9447474,49.8255815071083,-97.1144593346873,,,0
SEARS,711293328,1225A ST. MARY'S ROAD,ST. VITAL,WINNIPEG,MB,R2M 5E2,CA,,49.8290960091351,-97.1147407069571,,,0
SHOE WAREHOUSE,711293494,845 DAKOTA STREET,,WINNIPEG,MB,R2M 5M3,CA,,49.83014,-97.10659,,,0
MARK'S WORK WEARHOUSE,711293154,785 Dakota Street,,Winnipeg,MB,R2M 5M2,CA,(204) 2565092,49.8319983080678,-97.1081202567231,,,0
WORK AUTHORITY,711293824,"1639 KENASTON BOULEVARD, UNIT F2",,WINNIPEG,MB,R3P 2M4,CA,(204) 4890064,49.8240154253138,-97.2032045686853,,,0
THE SHOE COMPANY,711293581,1599 KENASTON BOULEVARD,,WINNIPEG,MB,R3P 2N3,CA,,49.82615,-97.20526,,,0
MARK'S WORK WEARHOUSE,711292782,1585 Kenaston Blvd,,Winnipeg,MB,R3P 2N3,CA,(204) 4887922,49.8263322637211,-97.2055214369216,,,0
BROWNS SHOE SHOP,711292076,86 - 1225 ST-MARY'S ROAD,,WINNIPEG,MB,R2M 5E5,CA,(204) 2536184,49.878645,-97.125565,,,0
BROWNS SHOE SHOP,711292029,1485 PORTAGE AVENUE,,WINNIPEG,MB,R3G 0W4,CA,(204) 7881216,49.880895,-97.1982425,,,0
SEARS,711293345,1515 PORTAGE AVENUE,POLO PARK SHOPPING CENTRE,WINNIPEG,MB,R3G 0W7,CA,,49.88069,-97.19949,,,0
SHOE WAREHOUSE,711293484,393 PORTAGE AVENUE,,WINNIPEG,MB,R3B 3H6,CA,,49.89194,-97.14844,,,0
MARK'S WORK WEARHOUSE,711292721,120 600 Empress Street,,Winnipeg,MB,R3G 0R5,CA,(204) 7831471,49.8873894,-97.1969094,,,0
THE SHOE COMPANY,711293690,675 EMPRESS STREET,,WINNIPEG,MB,R3G 3P7,CA,,49.8874842105263,-97.1963626315789,,,0
CANADIAN FOOTWEAR,711292098,128 ADELAIDE STREET,,WINNIPEG,MB,R3A 0W5,CA,(204) 9447460,49.8997,-97.142434,,,0
MARK'S WORK WEARHOUSE,711292906,288 Erie Street S,,Leamington,ON,N8H 3C5,CA,(519) 3225131,42.03658,-82.60093,,,0
TSC STORES,711293763,235 TALBOT STREET E,,LEAMINGTON,ON,N8H 1N8,CA,,42.057030521702,-82.5835478825035,,,0
MARK'S WORK WEARHOUSE,711293092,569 Portland Street,,Dartmouth,NS,B2Y 4B1,CA,(902) 4669010,44.67025,-63.53771,,,0
SEARS,711293409,535 PORTLAND STREET,PENHORN MALL,DARTMOUTH,NS,B2Y 4B1,CA,,44.67018,-63.5391,,,0
THE SHOE COMPANY,711293649,33 LEMLAIR ROW,,DARTMOUTH,NS,B3B 0C6,CA,,44.6989004649754,-63.5659769806901,,,0
MARK'S WORK WEARHOUSE,711292915,30 Lamont Terrace,,Dartmouth,NS,B3B 0B5,CA,(902) 4641128,44.6998921125263,-63.5674944735113,,,0
SOURCE ATLANTIC,711293511,100 RADDALL AVENUE,,DARTMOUTH,NS,B3B 1T2,CA,(902) 4688100,44.7034460250601,-63.5889335659936,,,0
SCHOONER INDUSTRIAL PRODUCTS,711293310,100 RADDALL AVENUE,,DARTMOUTH,NS,B3B 1T2,CA,(902) 4688100,44.7034460250601,-63.5889335659936,,,0
WORK AUTHORITY,711293859,"95 AKERLEY BOULEVARD, UNIT G",,DARTMOUTH,NS,B3B 1R7,CA,(902) 4684553,44.7136090897543,-63.5941027690641,,,0
BROWNS SHOE SHOP,711292072,7001 MUMFORD ROAD,,HALIFAX,NS,B3L 2H8,CA,(902) 4547605,44.64759,-63.61962,,,0
SEARS,711293417,7001 MUMFORD ROAD,HALIFAX SHOPPING CENTRE,HALIFAX,NS,B3L 2H8,CA,,44.64759,-63.61962,,,0
MARK'S WORK WEARHOUSE,711293133,7010 Mumford Road,,Halifax,NS,B3L 4W7,CA,(902) 4535553,44.6487,-63.62169,,,0
MURPHY GEAR,711293250,3514 JOSEPH HOWE DRIVE,,HALIFAX,NS,B3L 4H7,CA,(902) 4438641,44.6557723927357,-63.6297687861894,,,0
MARK'S WORK WEARHOUSE,711292771,150 Damascus Road,,Bedford,NS,B4A 0E5,CA,(902) 8354299,44.7509488353652,-63.6440234939045,,,0
MARK'S WORK WEARHOUSE,711292783,1595 Bedford Highway,,Bedford,NS,B4A 3Y4,CA,(902) 8320119,44.73252,-63.65642,,,0
THE SHOE COMPANY,711293597,182 CHAIN LAKE DRIVE,,HALIFAX,NS,B3S 1C5,CA,,44.64652,-63.67323,,,0
DSW,711292403,201 CHAIN LAKE DRIVE PLAZA,,HALIFAX,NS,B3S 1C8,CA,,44.648439464845,-63.6749431501271,,,0
MARK'S WORK WEARHOUSE,711292856,209 Chain Lake Drive,,Halifax,NS,B3S 1C9,CA,(902) 4505159,44.6491789296901,-63.6751963002543,,,0
GOLDEN SILKSCREENING CO. LTD,711292506,25 DOMINION CRESCENT,,LAKESIDE,NS,B3T 1M3,CA,(902) 8768888,44.641883897216,-63.6870824348313,,,0
CHAUSSURES YELLOW,711292342,900 - 10516 BOULEVARD SAINTE-ANNE,,SAINTE-ANNE-DE-BEAUPRE,QC,G0A 3C0,CA,(418) 8271994,46.71198,-71.89066,,,0
MODE BERGERON,711293247,130 RUE SAINT-ANDRE,,LAURIER-STATION,QC,G0S 1N0,CA,(418) 7282232,46.5377985,-71.6326006,,,0
NERO BIANCO,711293253,281 RUE EDWARD ASSH,,SAINTE CATHERINE DE LA JACQUES CARTIER,QC,G3N 1A3,CA,(418) 8751839,46.8304,-71.60797,,,0
RONSONS,711293284,150 - 1711 152ND STREET,,WHITE ROCK,BC,V4A 4N3,CA,(604) 5312152,49.03112,-122.80113,,,0
MARK'S WORK WEARHOUSE,711292876,2425 160 Street,,Surrey,BC,V3Z 0C8,CA,(604) 5365221,49.0460084615385,-122.7792,,,0
SEARS,711293355,19705 FRASER HWY,WILLOWBROOK MALL,LANGLEY,BC,V3A 7E9,CA,,49.1129122222222,-122.677624444444,,,0
RONSONS,711293287,204 - 19705 FRASER HIGHWAY,,LANGLEY,BC,V3A 7E9,CA,(604) 5328455,49.11349,-122.67889,,,0
ARMY & NAVY DEPT STORE LTD,711291961,100 - 5501 204TH STREET,,LANGLEY,BC,V3A 5N8,CA,(604) 5141774,49.1023109,-122.6581908,,,0
MARK'S WORK WEARHOUSE,711292848,20150 Langley Bypass,,Langley,BC,V3A 9J8,CA,(604) 5302335,49.11333,-122.66451,,,0
MARK'S WORK WEARHOUSE,711293146,7488 King George Blvd,,Surrey,BC,V3W 0H9,CA,(604) 5951030,49.1388355555556,-122.845667777778,,,0
WORK AUTHORITY,711293861,"E101 - 20159 88TH AVENUE E, UNIT F2",,LANGLEY,BC,V1M 0A4,CA,(604) 5130476,49.1653663,-122.6645062,,,0
RONSONS,711293283,10118 152ND STREET - UNIT E2,,SURREY,BC,V3K 9W3,CA,(604) 5803700,49.1864725,-122.80092,,,0
MARK'S WORK WEARHOUSE,711292676,10191 152 Street,,Surrey,BC,V3R 4G6,CA,(604) 5820422,49.187446969697,-122.80091,,,0
LITTLE BURGUNDY,711292607,10355 152 STREET,,SURREY,BC,V3R 7C1,CA,(604) 4951349,49.1906385714286,-122.801012857143,,,0
BROWNS SHOE SHOP,711292022,10355 152 STREET,,SURREY,BC,V3R 7C1,CA,(604) 5850922,49.1906385714286,-122.801012857143,,,0
SEARS,711293323,10355 - 152 STREET SUITE 1720,GUILFORD CENTRE,SURREY,BC,V3R 7C1,CA,,49.1906385714286,-122.801012857143,,,0
DSW,711292422,5000 CANOE PASS WAY,,TSAWWASSEN,BC,V4M 0B3,CA,,49.0412861,-123.0842382,,,0
BROWNS SHOE SHOP,711292052,5000 CANOE PASS WAY,,TSAWWASSEN,BC,V4M 0B3,CA,(604) 9481415,49.0412861,-123.0842382,,,0
MARK'S WORK WEARHOUSE,711292895,26310 Fraser Highway,,Aldergrove,BC,V4W 2Z7,CA,(604) 8563774,49.0599655555556,-122.495718518519,,,0
,,,,Black Lake,QC,G6H1T4,CA,,46.033333,-71.366667,,,0
,,,,Black Lake,SK,S0J0H0,CA,,59.133316,-105.59175,,,0
WETASKIWIN CO-OP ASSOCIATION,711293810,4707 40TH AVENUE,,WETASKIWIN,AB,T9A 2B8,CA,(780) 3529121,52.95979375,-113.367825,,,0
MARK'S WORK WEARHOUSE,711292976,3851 56 Street,,Wetaskiwin,AB,T9A 2B1,CA,(780) 3526839,52.95797,-113.3901,,,0
MARK'S WORK WEARHOUSE,711292860,2129 Hawkins Street,,Port Coquitlam,BC,V3B 0G6,CA,(604) 4645633,49.2541485714286,-122.738402857143,,,0
MARK'S WORK WEARHOUSE,711292852,20758 Lougheed Highway,,Maple Ridge,BC,V2X 2R3,CA,(604) 4637277,49.2180958333333,-122.646241666667,,,0
,,,,Frontenac County,ON,K0H2E0,CA,,44.75,-76.833333,,,0
,,,,Frontenac County,QC,G0Y1J0,CA,,45.666667,-71,,,0
MARK'S WORK WEARHOUSE,711292877,244-375 St. Albert Trail,,St. Albert,AB,T8N 3K8,CA,(780) 4586010,53.6290142042453,-113.620125207437,,,0
WORK AUTHORITY,711293821,13208 137 AVENUE NW,,EDMONTON,AB,T5L 4Z6,CA,(780) 4757886,53.601067,-113.549722,,,0
THE SHOE COMPANY,711293573,13616 - 137 AVENUE NW,,EDMONTON,AB,T5L 5C9,CA,,53.5995506122449,-113.556432857143,,,0
JOBSITE WORKWEAR,711292551,16320 - 111TH AVENUE NW,,EDMONTON,AB,T5M 4G3,CA,(780) 4813710,53.5591251,-113.6040248,,,0
MISTER SAFETY SHOES INC.,711293228,10175 186 STREET NW,,EDMONTON,AB,T5S 0G5,CA,(780) 4887708,53.55224,-113.64394,,,0
MARK'S WORK WEARHOUSE,711293198,96 Campsite Road,,Spruce Grove,AB,T7X 4J3,CA,(780) 9620047,53.5404,-113.934590416667,,,0
MARK'S WORK WEARHOUSE,711293110,620 1100 Westmount Shopping Centre NW,,Edmonton,AB,T5M 3L7,CA,(780) 4792478,53.560425,-113.5730749,,,0
SHOE WAREHOUSE,711293463,109th STREET & PRINCESS ELIZABETH AVENUE,,EDMONTON,AB,T5G 3A6,CA,,53.564022,-113.508534,,,0
LITTLE BURGUNDY,711292646,WEST EDMONTON MALL,UNIT R213,EDMONTON,AB,T5T 4M2,CA,(780) 4841049,53.5403219,-113.6559627,,,0
SEARS,711293325,109 ST. & PRINCESS ELIZABETH,KINGSWAY GARDEN MALL,EDMONTON,AB,T5G 0Y3,CA,,53.56129,-113.50359,,,0
THE SHOE COMPANY,711293645,318 MAYFIELD COMMON,,EDMONTON,AB,T5P 4B3,CA,,53.5421138840627,-113.611868927498,,,0
MARK'S WORK WEARHOUSE,711293207,9915 178 Street,,Edmonton,AB,T5T 6L8,CA,(780) 4831026,53.5367157142857,-113.62738,,,0
MARK'S WORK WEARHOUSE,711293179,8882 170 Street,,Edmonton,AB,T5T 3J7,CA,(780) 4441831,53.5236180597015,-113.615489253731,,,0
BROWNS SHOE SHOP,711292079,8882 170 STREET,,EDMONTON,AB,T5T 4J2,CA,(780) 4840018,53.5236180597015,-113.615489253731,,,0
DSW,711292426,8882-170TH STREET,,EDMONTON,AB,T5T 3J7,CA,,53.5224397,-113.6218728,,,0
MARK'S WORK WEARHOUSE,711292907,2913 48 Avenue,,Athabasca,AB,T9S 0A4,CA,(780) 6759724,54.7169183686515,-113.254225674162,,,0
GRAVITY POPE,711292510,"#2, 10442 - 82 AVENUE NW",,EDMONTON,AB,T6E 2A2,CA,(780) 4391637,53.51814,-113.498852037641,,,0
GRAVITY POPE,711292516,8220 104TH STREET NW,,EDMONTON,AB,T6E 4B2,CA,(780) 9881637,53.518327755102,-113.497619795918,,,0
ARMY & NAVY DEPT STORE LTD,711291962,10411 82ND AVENUE NW,,EDMONTON,AB,T6E 2A1,CA,(780) 4335503,53.5179052,-113.4981816,,,0
SEARS,711293428,82ND AVE & 83RD ST,BONNIE DOON,EDMONTON,AB,T6C 4E4,CA,,53.5179873,-113.4552265,,,0
MARK'S WORK WEARHOUSE,711292682,10360 65 Avenue,,Edmonton,AB,T6H 1T9,CA,(780) 4373050,53.5023005,-113.4965427,,,0
SEARS,711293318,#51 5015 111 ST NW,IVANHOE CAMBRIDGE 11 INC,EDMONTON,AB,T6H 4M6,CA,,53.4874517647059,-113.516487058824,,,0
BROWNS SHOE SHOP,711292062,5015 111 STREET NW,,EDMONTON,AB,T6H 4M6,CA,(780) 4336960,53.4874517647059,-113.516487058824,,,0
WORK AUTHORITY,711293860,9730  51 AVENUE NW,,EDMONTON,AB,T6E 0A6,CA,(780) 4389067,53.488722,-113.481181,,,0
JOBSITE WORKWEAR,711292556,7423 ROPER ROAD NW,,EDMONTON,AB,T6B 3K9,CA,(780) 4618005,53.4930393103448,-113.441198275862,,,0
SPI SECURITE JONQUIERE,711293534,5407 ROPER ROAD,,EDMONTON,AB,T6B 3L6,CA,(780) 4309085,53.49542,-113.421130107676,,,0
DSW,711292413,3803 CALGARY TRAIL SOUTH NW,,EDMONTON,AB,T6J 7A9,CA,,53.4723414084507,-113.4957,,,0
MARK'S WORK WEARHOUSE,711293194,9230 41 Avenue NW,,Edmonton,AB,T6E 6R7,CA,(780) 4374887,53.4768466,-113.4708081,,,0
BOUTIQUE JOMA INC,711292008,839 Notre Dame Street,,EMBRUN,ON,K0A 1W1,CA,(613) 4430101,45.2692795884584,-75.294553715178,,,0
LES VARIETES L.C.R. INC,711292589,2100 RUE BAGOT,,LA BAIE,QC,G7B 3Z3,CA,(418) 5443305,48.3357305882353,-70.8942517647059,,,0
MARK'S WORK WEARHOUSE,711292867,2223 Victoria Avenue East,,Regina,SK,S4N 6E4,CA,(306) 7892990,50.4469992,-104.5501889,,,0
SEARS,711293349,1720 HAMILTON STREET,CORNWALL CENTRE,REGINA,SK,S4P 4A5,CA,,50.4518287755102,-104.609374081633,,,0
THE SHOE COMPANY,711293613,2038 PRINCE OF WALES DRIVE,,REGINA,SK,S4V 3A6,CA,,50.4461085,-104.5331195,,,0
MARK'S WORK WEARHOUSE,711292898,2715 Gordon Road,,Regina,SK,S4S 6H7,CA,(306) 5223222,50.4045522147651,-104.621242281879,,,0
WORK AUTHORITY,711293838,343 PARK STREET,,REGINA,SK,S4N 5B2,CA,(306) 7219667,50.4728842857143,-104.57971,,,0
DSW,711292415,4882 GORDON ROAD,,REGINA,SK,S4W 0B7,CA,,50.40546,-104.647241004016,,,0
MARK'S WORK WEARHOUSE,711292978,3915 Rochdale Blvd,,Regina,SK,S4X 4P7,CA,(306) 9498118,50.4965701305459,-104.636390703839,,,0
MARK'S WORK WEARHOUSE,711292740,1310 Boul Plateau St-Joseph,,Sherbrooke,QC,J1L 0A5,CA,(819) 5641998,45.4213819007026,-71.9659802689376,,,0
SEARS,711293375,3150 BOULEVARD PORTLAND,CARREFOUR DE L'ESTRIE,SHERBROOKE,QC,J1L 1K3,CA,,45.4032342857143,-71.9537953061224,,,0
CHAUSSURES YELLOW,711292286,2980 BOULEVARD DE PORTLAND,,SHERBROOKE,QC,J1L 1R8,CA,(819) 5620539,45.4034921621622,-71.9480910810811,,,0
CHAUSSURES P.R.I.X. INC,711292168,2700 RUE KING OUEST,,SHERBROOKE,QC,J1L 1C5,CA,(819) 3462500,45.3980797250242,-71.9389629300039,,,0
ENTREPOT DU TRAVAILLEUR,711292435,2504 KING OUEST,,SHERBROOKE,QC,J1J 2E8,CA,(819) 5643993,45.3982581081081,-71.9334535135135,,,0
CHAUSSURES YELLOW,711292344,930 13 AVENUE N,,SHERBROOKE,QC,J1E 3J7,CA,(819) 5662217,45.4213825,-71.8705053,,,0
MARK'S WORK WEARHOUSE,711292858,2100 Willowbrook Drive,,Cranbrook,BC,V1C 7H2,CA,(250) 4263101,49.5294927777778,-115.749221666667,,,0
SHOE WAREHOUSE,711293468,1500 CRANBROOK DRIVE N,,CRANBROOK,BC,V1C 3P9,CA,,49.52445,-115.75379,,,0
MARK'S WORK WEARHOUSE,711292854,2080 Appleby Line,,Burlington,ON,L7L 6M6,CA,(905) 3314660,43.39732,-79.79524,,,0
DSW,711292409,3091 APPLEBY LINE,,BURLINGTON,ON,L7M 0V7,CA,,43.40834,-79.81036,,,0
DROLLIS SAFETY,711292394,3375 NORTH SERVICE RD,,BURLINGTON,ON,L7N 3G2,CA,(905) 3191949,43.3637219705675,-79.7916000302981,,,0
WORK AUTHORITY,711293836,3300 FAIRVIEW STREET,CUMBERLAND SQUARE,BURLINGTON,ON,L7N 3N7,CA,(905) 6818809,43.353245570678,-79.7873053400193,,,0
MARK'S WORK WEARHOUSE,711292946,3230 Fairview Street,,Burlington,ON,L7N 3H5,CA,(905) 6375637,43.35219,-79.79,,,0
THE SHOE COMPANY,711293703,777 GUELPH LINE,,BURLINGTON,ON,L7R 3N2,CA,,43.3464639130435,-79.7963565217391,,,0
EMILLE SHOES LTD,711292432,2394 FAIRVIEW ST,,BURLINGTON,ON,L7R 2E4,CA,(905) 6329688,43.3446555667624,-79.8008403665395,,,0
BROWNS SHOE SHOP,711292080,900 MAPLE AVENUE,,BURLINGTON,ON,L7S 2J8,CA,(905) 3331041,43.3278229640744,-79.8196357784446,,,0
SEARS,711293436,900 MAPLE AVE,MAPLEVIEW CENTRE,BURLINGTON,ON,L7S 2J8,CA,,43.3278229640744,-79.8196357784446,,,0
MARK'S WORK WEARHOUSE,711293213,"Unit1, 17 Clappison Avenue",,Waterdown,ON,L8B 0Y2,CA,(905) 6907401,43.3184343181818,-79.91221,,,0
MARK'S WORK WEARHOUSE,711293126,662 Erb Street,,Waterloo,ON,N2T 2Z7,CA,(519) 7467444,43.4462123255814,-80.5715844186047,,,0
SHOETOPIA FOOTWEAR OUTLET,711293499,655 ERB STREET W,,WATERLOO,ON,N2J 3Z4,CA,(519) 8865730,43.44627,-80.57143,,,0
THE SHOE COMPANY,711293615,210 THE BOARDWALK,,KITCHENER,ON,N2N 0B1,CA,,43.4350873684211,-80.5601810526316,,,0
ADVENTURE GUIDE,711291937,8-225 THE BOARDWALK,,KITCHENER,ON,N2N 0B1,CA,(519) 8863121,43.43354,-80.55856,,,0
MARK'S WORK WEARHOUSE,711292754,1400 Ottawa Street S,,Kitchener,ON,N2E 4E2,CA,(519) 7456263,43.41654,-80.51167,,,0
HEEL BOY,711292528,120 KING STREET S,,WATERLOO,ON,N2J 1N9,CA,(519) 7463365,43.4622559420756,-80.5215579440588,,,0
SHOES 22,711293495,133 WEBER STREET N,,WATERLOO,ON,N2J 3G9,CA,(519) 7464983,43.47224,-80.51496,,,0
TSC STORES,711293796,849 WEBER STREET,,ST JACOBS,ON,N2J 4G8,CA,,43.5092664,-80.5567702,,,0
MARK'S WORK WEARHOUSE,711292950,330 Farmers Market Road,,Waterloo,ON,N2V 0A5,CA,(519) 8800026,43.5108476,-80.5496961,,,0
MISTER SAFETY SHOES INC.,711293238,270 BLEAMS ROAD,,KITCHENER,ON,N2C 2K6,CA,(519) 7489535,43.4104375862069,-80.45982,,,0
FACTORY SHOE,711292455,686 VICTORIA STREET N,,KITCHENER,ON,N2H 5G1,CA,(519) 7432021,43.4615638870913,-80.4726236422466,,,0
THE SHOEPER STORE,711293725,589 FAIRWAY ROAD S,,KITCHENER,ON,N2C 1X4,CA,(519) 7489333,43.4197462224152,-80.45027553617,,,0
MARK'S WORK WEARHOUSE,711293060,500 Fairway Road S,,Kitchener,ON,N2C 1X3,CA,(519) 7482710,43.4204351029896,-80.4462847573838,,,0
SEARS,711293356,200 FAIRWAY ROAD,FAIRVIEW PARK MALL,KITCHENER,ON,N2C 1W9,CA,,43.42337,-80.4358,,,0
TSC STORES,711293764,2400 HOMER WATSON BOULEVARD,,KITCHENER,ON,N2P 2R6,CA,,43.3872021342769,-80.4135260922139,,,0
THE SHOE COMPANY,711293685,65 GATEWAY PARK ROAD,,KITCHENER,ON,N2P 2J9,CA,,43.4078081327234,-80.3908157254036,,,0
WORK AUTHORITY,711293851,4500 KING STREET E,GATEWAY PARK,KITCHENER,ON,N2P 2G4,CA,(519) 6535909,43.40534,-80.38933,,,0
FOOTWEAR VARIETY,711292460,5502 AMENT LINE,R.R. #1,LINWOOD,ON,N0B 2A0,CA,(519) 6981099,43.5861921,-80.7402237,,,0
BRUBACHER SHOES LTD,711292092,7 ARTHUR STREET SOUTH,,ELMIRA,ON,N3B 2M4,CA,(519) 6693349,43.5998473684211,-80.5578526315789,,,0
WUERTH SHOES LTD,711293878,369 MAIN STREET,,EXETER,ON,N0M 1S7,CA,(519) 2350611,43.1939491719494,-81.4168703684815,,,0
SCOTTS ELEVATOR LTD,711293314,6244 WILLIAM STREET,,LUCAN,ON,N0M 2J0,CA,(519) 2274479,43.1863189473684,-81.4079431578947,,,0
MARK'S WORK WEARHOUSE,711293115,620A Newman Road,,Quesnel,BC,V2J 6Z8,CA,(250) 7478437,52.9690677437777,-122.441332293395,,,0
MARK'S WORK WEARHOUSE,711293029,45737 Luckakuck Way,,Chilliwack,BC,V2R 4E8,CA,(604) 8584199,49.1412326208734,-121.95835146655,,,0
SEARS,711293393,45585 LUCKAKUCK WAY,COTTONWOOD CORNERS SHOPPING CT,CHILLIWACK,BC,V2R 1A1,CA,,49.14076,-121.961757272727,,,0
WORK AUTHORITY,711293834,296 CONCEPTION BAY HIGHWAY,,CONCEPTION BAY SOUTH,NL,A1W 5K7,CA,(709) 8348182,47.5095055445395,-52.9728859511954,,,0
FACTORY FOOTWEAR,711292451,296 CONCEPTION BAY HIGHWAY,,CONCEPTON BAY,NL,A1W 5K7,CA,(709) 8348182,47.5095055445395,-52.9728859511954,,,0
FACTORY FOOTWEAR,711292448,296 Conception Bay Highway,,Conception Bay South,NL,A1W 5K7,CA,(709) 8348182,47.5095055445395,-52.9728859511954,,,0
SOURCE ATLANTIC,711293514,38 BECLIN ROAD,,MOUNT PEARL,NL,A1N 5B8,CA,(709) 7485060,47.5282374202098,-52.8186704770426,,,0
THE SHOE COMPANY,711293582,160 OLD PLACENTIA ROAD,,MOUNT PEARL,NL,A1N 4Y9,CA,,47.5093950409616,-52.8169986071578,,,0
MARK'S WORK WEARHOUSE,711292857,21 Merchant Drive,,Mount Pearl,NL,A1N 5J5,CA,(709) 3689677,47.5015668387989,-52.8102671986795,,,0
MARK'S WORK WEARHOUSE,711292981,40 Kelsey Drive,,St. John's,NL,A1B 5C7,CA,(709) 5766275,47.5514,-52.78012,,,0
WORK AUTHORITY,711293850,430 TOPSAIL ROAD,THE VILLAGE SHOPPING CENTRE,ST. JOHN'S,NL,A1E 4N1,CA,(709) 7479454,47.53338,-52.74974,,,0
SEARS,711293397,48 KENMOUNT ROAD,ST. JOHN'S AVALON MALL,ST JOHN'S,NL,A1B 1W3,CA,,47.55914,-52.751975,,,0
FACTORY FOOTWEAR,711292452,393 DUCKWORTH STREET,,ST. JOHN'S,NL,A1C 1H7,CA,(709) 7262861,47.56221,-52.71082,,,0
THE SHOE COMPANY,711293719,85 ABERDEEN AVENUE,,ST JOHN'S,NL,A1A 5P6,CA,,47.6196017045189,-52.7183949822405,,,0
MARK'S WORK WEARHOUSE,711293195,95 Aberdeen Avenue,,St. John's,NL,A1A 5P6,CA,(709) 7229870,47.62,-52.71883,,,0
MARK'S WORK WEARHOUSE,711293025,450 Rue du Moulin,,Tracadie-Sheila,NB,E1X 1A4,CA,(506) 3953310,47.5228788571429,-64.9166017142857,,,0
,, Port Mann Brg,,Coquitlam,BC,V3K,CA,,49.22015,-122.81222,,,0
,,2201 Portage Ave,,Coquitlam,BC,V3K,CA,,49.24498,-122.83148,,,0
,,800 Porter St,,Coquitlam,BC,V3J,CA,,49.26354,-122.86302,,,0
,,531 Perth Ave,,Coquitlam,BC,V3J,CA,,49.25374,-122.88997,,,0
WORK AUTHORITY,711293835,305 MCPHILLIPS STREET,,WINNIPEG,MB,R3E 3H9,CA,(204) 7723433,49.91403,-97.17041,,,0
SHOE WAREHOUSE,711293467,1395 ELLICE AVENUE,,WINNIPEG,MB,R3G 0G3,CA,,49.89411,-97.19655,,,0
MARK'S WORK WEARHOUSE,711292818,1866 Notre Dame Aveune,,Winnipeg,MB,R3H 0X8,CA,(204) 2725106,49.91639,-97.199412,,,0
CHAUSSURES FILLION,711292127,17 PLACE SALLE,,BAIE-COMEAU,QC,G4Z 1J8,CA,(418) 7217925,49.2212208,-68.1517863,,,0
SPI SECURITE JONQUIERE,711293529,256 BOULEVARD LASALLE,,BAIE-COMEAU,QC,G4Z 1S8,CA,(1800) 4639915,49.2130523,-68.1776582,,,0
CHAUSSURES YELLOW,711292321,679 BOULEVARD LAFLECHE,,BAIE-COMEAU,QC,G5C 1C4,CA,(418) 5899108,49.2004525,-68.2567731,,,0
THE SHOE COMPANY,711293611,2022-99 STREET NW,,EDMONTON,AB,T6N 1L3,CA,,53.4499138817164,-113.485734302906,,,0
SHOE WAREHOUSE,711293478,2331 66TH STREET NW,,EDMONTON,AB,T6K 4B5,CA,,53.4544030769231,-113.434491153846,,,0
MARK'S WORK WEARHOUSE,711292827,1912 38 Avenue NW,,Edmonton,AB,T6T 0B9,CA,(780) 4625192,53.4789818,-113.3720596,,,0
MARK'S WORK WEARHOUSE,711292760,1404 99 Street,,Edmonton,AB,T6N 0A8,CA,(780) 4686793,53.4429621613733,-113.483465775375,,,0
MISTER SAFETY SHOES INC.,711293227,10163 13th Avenue,SOUTH EDMONTON COMMON,EDMONTON,AB,T6N 0B6,CA,(780) 5770909,53.4410993,-113.4900894,,,0
MARK'S WORK WEARHOUSE,711293116,6264 Currents Drive West,,Edmonton,AB,T6W 0L8,CA,(780) 4355713,53.4363515363367,-113.607271010604,,,0
MARK'S WORK WEARHOUSE,711292747,138 Main Street,,Sussex,NB,E4E 3E1,CA,(506) 4335370,45.7248288888889,-65.5274766666667,,,0
WORK AUTHORITY,711293853,5 - 240 SILVERCREEK PARKWAY N,,GUELPH,ON,N1H 1E7,CA,(519) 7805323,43.5334760714286,-80.2713732142857,,,0
THE SHOEPER STORE,711293724,130 SILVERCREEK PARKWAY N,,GUELPH,ON,N1H 7Y5,CA,(519) 7661523,43.540084,-80.280584,,,0
MARK'S WORK WEARHOUSE,711293039,492 Edinburgh Road S,,Guelph,ON,N1G 4Z1,CA,(519) 8370016,43.52083,-80.23522,,,0
SEARS,711293389,435 STONE ROAD WEST,STONE ROAD MALL,GUELPH,ON,N1G 3E5,CA,,43.5168533333333,-80.2378733333333,,,0
TSC STORES,711293787,545 SILVERCREEK PARKWAY N,,GUELPH,ON,N1K 1S7,CA,,43.5521871428571,-80.2973424489796,,,0
MISTER SAFETY SHOES INC.,711293240,335 WOODLAWN ROAD W,,GUELPH,ON,N1H 7K9,CA,(226) 2513066,43.5482915120211,-80.3004733549426,,,0
WORK AUTHORITY,711293848,415 THOMPSON DRIVE,,CAMBRIDGE,ON,N1T 2K7,CA,(519) 6204017,43.41121,-80.28897,,,0
MARK'S WORK WEARHOUSE,711293030,46 Pinebush Road,,Cambridge,ON,N1R 8K5,CA,(519) 6222450,43.4090515645433,-80.3221815506736,,,0
MARK'S WORK WEARHOUSE,711293212,c/o 46 Pinebush Road,,Cambridge,ON,N1R 8K5,CA,(226) 3394973,43.4090515645433,-80.3221815506736,,,0
THE SHOE COMPANY,711293627,30 PINEBUSH ROAD,,CAMBRIDGE,ON,N1R 8K5,CA,,43.4086,-80.324705,,,0
SEARS,711293381,355 HESPELER ROAD,CAMBRIDGE CENTRE,CAMBRIDGE,ON,N1R 6B3,CA,,43.3917103505692,-80.3227625725806,,,0
SHOETOPIA FOOTWEAR OUTLET,711293500,860 TOWER STREET S,,FERGUS,ON,N1M 3N7,CA,(519) 7871834,43.69524,-80.36564,,,0
TSC STORES,711293790,75 DUNDAS STREET N,,CAMBRIDGE,ON,N1R 6G5,CA,,43.3586152342568,-80.2940182451995,,,0
SHOES 22,711293496,64 GRAND AVENUE S,,CAMBRIDGE,ON,N1S 2L8,CA,(519) 7408093,43.355283,-80.31844,,,0
STEEL TOES WORKWEAR SPECIALIST,711293546,10520 100TH AVENUE,,FORT ST. JOHN,BC,V1J 1Z2,CA,(250) 7855888,56.24646,-120.856262121212,,,0
MARK'S WORK WEARHOUSE,711293199,9600 93 Avenue,,Fort St John,BC,V1J 5Z2,CA,(250) 7857799,56.24252,-120.83418,,,0
MARK'S WORK WEARHOUSE,711292732,1240 2A Avenue N,,Lethbridge,AB,T1H 0E4,CA,(403) 3803248,49.7010714,-112.8285548,,,0
SHOE WAREHOUSE,711293465,1240 2ND AVENUE A N,,LETHBRIDGE,AB,T1H 0E4,CA,,49.7010714,-112.8285548,,,0
MARK'S WORK WEARHOUSE,711292973,3728 Mayor Magrath Drive S,,Lethbridge,AB,T1K 7V1,CA,(403) 3810800,49.65748,-112.79284,,,0
SEARS,711293319,#65-401 1ST AVENUE SOUTH,PARK PLACE,LETHBRIDGE,AB,T1J 4L8,CA,,49.6601,-112.78712,,,0
CHAUSSURES YELLOW,711292289,30 BOULEVARD OMER-MARCIL,,SAINT-JEAN-SUR-RICHELIEU,QC,J2W 2X2,CA,(450) 3482218,45.33231,-73.29925,,,0
MARK'S WORK WEARHOUSE,711293050,50 Boul Omer-Marcil,,St-Jean-Sur-Richelieu,QC,J2W 2X2,CA,(450) 3496667,45.3316584,-73.2984828,,,0
SEARS,711293412,550 RUE PIERRE CAISSE,CARREFOUR DE RICHELIEU,ST. JEAN,QC,J3A 1M1,CA,,45.3317148979592,-73.2800814285714,,,0
CHAUSSURES RUBINO,711292171,1035 BOULEVARD DU SEMINAIRE NORD,,ST-JEAN-SUR-RICHELIEU,QC,J3A 1R7,CA,(450) 3494747,45.3377262,-73.2681043,,,0
G.H. BERGER LTEE,711292467,455 BOUL DU SEMINAIRE N,,SAINT JEAN SUR RICHELIE,QC,J3B 5L4,CA,(450) 3484916,45.3139691,-73.2638475,,,0
PIEDS GEANTS ENR,711293269,289 BOUL IBERVILLE,,REPENTIGNY,QC,J6A 2E6,CA,(514) 5860023,45.730998,-73.4608999,,,0
SEARS,711293322,100 BOULEVARD BRIEN,LES GALERIES RIVE-NORD,REPENTIGNY,QC,J6A 5N4,CA,,45.7425868,-73.4585954,,,0
CHAUSSURES RUBINO,711292185,215 BOULEVARD BRIEN NORD,,REPENTIGNY,QC,J6A 7E9,CA,(450) 5850271,45.74716,-73.46144,,,0
CHAUSSURES YELLOW,711292339,85 BOULEVARD BRIEN,,REPENTIGNY,QC,J6A 8B6,CA,(450) 5820881,45.7438822,-73.4518634,,,0
MARK'S WORK WEARHOUSE,711293019,445 Rue Leclerc,,Repentigny,QC,J6A 8J4,CA,(450) 5852743,45.7456426086957,-73.453292173913,,,0
MISTER SAFETY SHOES INC.,711293241,345 INGERSOLL STREET N,(401 EXIT 216),INGERSOLL,ON,N5C 3V7,CA,(519) 4851975,43.01762,-80.88243,,,0
MARK'S WORK WEARHOUSE,711293071,5130 St. Margarets Bay Road,,Upper Tantallon,NS,B3Z 1E2,CA,(902) 8262986,44.6871374561517,-63.8758451579278,,,0
MARK'S WORK WEARHOUSE,711293149,75 Two Nations Crossing,,Fredericton,NB,E3A 0T3,CA,(506) 4556025,45.9870463350983,-66.6288066131128,,,0
MARK'S WORK WEARHOUSE,711292712,1144 Prospect Street,,Fredericton,NB,E3B 3C1,CA,(506) 4598866,45.9404177560528,-66.6645354351119,,,0
SEARS,711293336,1325 REGENT STREET,REGENT MALL,FREDERICTON,NB,E3C 1A2,CA,,45.9354658823529,-66.6607988235294,,,0
THE SHOE COMPANY,711293720,9 RIOCAN AVENUE,,FREDERICTON,NB,E3C 0B9,CA,,45.9308988203897,-66.6606020785255,,,0
WORK AUTHORITY,711293830,2255 BARTON STREET E,REDHILL CREEK CENTRE,HAMILTON,ON,L8H 7T4,CA,(905) 5616667,43.2391917391304,-79.770502173913,,,0
LAWLOR SAFETY,711292571,2727 BARTON STREET E,,HAMILTON,ON,L8E 2J8,CA,(905) 5733223,43.2336693620581,-79.7461489378791,,,0
MARK'S WORK WEARHOUSE,711293051,50 McEwan Drive E,,Bolton,ON,L7E 2Y3,CA,(905) 8578227,43.8624997213185,-79.711647133295,,,0
TSC STORES,711293760,207311 HIGHWAY 9 E,,ORANGEVILLE,ON,J9W 2Z2,CA,,43.92763,-80.08928,,,0
MARK'S WORK WEARHOUSE,711293078,53 Fourth Avenue,,Orangeville,ON,L9W 1G7,CA,(519) 9421003,43.9272222,-80.0916019,,,0
THE SHOE COMPANY,711293682,65 FOURTH STREET,,ORANGEVILLE,ON,L9W 1G7,CA,,43.9286649,-80.091386,,,0
THE SHOEPER STORE,711293726,78 FIRST STREET,,ORANGEVILLE,ON,L9W 2E4,CA,(519) 9422460,43.9273778,-80.1000772,,,0
MARK'S WORK WEARHOUSE,711292962,3500 Johnston Road,,Port Alberni,BC,V9Y 7W8,CA,(250) 7246766,49.26613,-124.78364,,,0
TREADSETTERS SHOES,711293733,2945 3RD AVENUE,,PORT ALBERNI,BC,V9Y 2A6,CA,(250) 7244244,49.2326446938776,-124.807548979592,,,0
MARK'S WORK WEARHOUSE,711292657,1 6334 Metral Drive,,Nanaimo,BC,V9T 2L8,CA,(250) 3901793,49.22954,-124.04361,,,0
SEARS,711293396,4750 RUTHERFORD ROAD,RUTHERFORD MALL,NANAIMO,BC,V9T 4K6,CA,,49.21509,-124.02571,,,0
TSC STORES,711293758,1850 VINCENT MASSEY DRIVE,,CORNWALL,ON,K6H 5R6,CA,,45.0316081081081,-74.7754940540541,,,0
MARK'S WORK WEARHOUSE,711293065,501 Tollgate Road,,Cornwall,ON,K6H 0B4,CA,(613) 9339393,45.0400933962264,-74.7609918867925,,,0
SEARS,711293320,1 WATER STREET EAST,CORNWALL SQUARE,CORNWALL,ON,K6H 6M2,CA,,45.01526,-74.72701,,,0
CHAUSSURES L BEAUDRY INC,711292159,1023 RUE BOUTHILLIER,,MARIEVILLE,QC,J3M 1P6,CA,(450) 4607356,45.4297097959184,-73.1668312244898,,,0
CHAUSSURES L.G. LTEE,711292161,65 PRINCIPALE EST,,FARNHAM,QC,J2N 1L2,CA,(450) 2934306,45.2854061771174,-72.9801588121419,,,0
NOUVEAUTES LETANG INC,711293260,1611 CHEMIN KIPAWA,,TEMISCAMING,QC,J0Z 3R0,CA,(819) 6271779,46.73704,-79.06752375,,,0
MARK'S WORK WEARHOUSE,711292769,149 Rue de Salaberry,,Cowansville,QC,J2K 5G9,CA,(450) 2639063,45.1919836560138,-72.7597102153078,,,0
LE TRAVAILLEUR PLUS (1990) ENR,711292574,309 RUE PRINCIPALE,,GRANBY,QC,J2G 2W3,CA,(450) 3759360,45.4015311764706,-72.7303976470588,,,0
MAGASIN INDUSTRIEL,711292650,565 PRINCIPALE,,GRANBY,QC,J2G 2X4,CA,(450) 3782785,45.4063953846154,-72.7396207692308,,,0
CHAUSSURES YELLOW,711292274,18 RUE SIMONDS N,,GRANBY,QC,J2J 2L1,CA,(450) 3726734,45.4144282828482,-72.7517609158143,,,0
SEARS,711293413,60 EVANGELINE STREET,LES GALERIES DE GRANBY,GRANBY,QC,J2G 8K3,CA,,45.4157351,-72.7495592,,,0
CHAUSSURES RUBINO,711292236,961 RUE PRINCIPALE,,GRANBY,QC,J2G 2Z5,CA,(450) 3611551,45.4157633333333,-72.75724,,,0
MARK'S WORK WEARHOUSE,711293052,50 Rue Simonds N,,Granby,QC,J2J 2L1,CA,(450) 3758644,45.4157607798308,-72.7528651366438,,,0
MCKNIGHTS MENS WEAR LTD,711293216,23 WHITEWOOD AVENUE,,NEW LISKEARD,ON,P0J 1P0,CA,(705) 6474050,47.508592,-79.6724681,,,0
TSC STORES,711293746,150 WILSON AVENUE,,NEW LISKEARD,ON,P0J 1P0,CA,,47.5274851020408,-79.6726430612245,,,0
MARK'S WORK WEARHOUSE,711293208,997453 C Highway 11 N,,New Liskeard,ON,P0J 1P0,CA,(705) 6471735,47.5306546313455,-79.6748039685067,,,0
MARK'S WORK WEARHOUSE,711292780,15380 Bayview Avenue,,Aurora,ON,L4G 7J1,CA,(905) 7132935,44.0090356164384,-79.4447047945205,,,0
MISTER SAFETY SHOES INC.,711293232,13-16700 BAYVIEW AVENUE,,NEWMARKET,ON,L3X 1W1,CA,(905) 8305000,44.0402502,-79.4528828,,,0
BROWNS SHOE SHOP,711292030,17600 YONGE STREET,,NEWMARKET,ON,L3Y 4Z1,CA,(905) 8688646,44.0570030769231,-79.4809084615385,,,0
SEARS,711293350,17600 YONGE STREET,UPPER CANADA MALL,NEWMARKET,ON,L3Y 4Z1,CA,,44.0570030769231,-79.4809084615385,,,0
THE SHOE COMPANY,711293593,17820 YONGE STREET,,NEWMARKET,ON,L3Y 8S1,CA,,44.0619092307692,-79.4821148717949,,,0
MARK'S WORK WEARHOUSE,711292808,17820 Yonge Street,,Newmarket,ON,L3Y 8S8,CA,(905) 8957707,44.0619092307692,-79.4821148717949,,,0
DSW,711292401,"17890 YONGE STREET, UNIT E",,NEWMARKET,ON,L3Y 8S1,CA,,44.0633630769231,-79.4824738461539,,,0
WORK AUTHORITY,711293825,18130 YONGE STREET,GREEN LANE CENTRE,GWILLIMBURY,ON,L9N 0J3,CA,(905) 8689525,44.070295,-79.4841528571428,,,0
MARK'S WORK WEARHOUSE,711292831,1B 9764 5 Street,,Sidney,BC,V8L 2X2,CA,(250) 6561970,48.6482114,-123.400713,,,0
MARK'S WORK WEARHOUSE,711293153,777 Royal Oak Drive,,Victoria,BC,V8X 4V1,CA,(250) 7441777,48.49843,-123.38163,,,0
SEARS,711293376,3190 SHEBLOURNE STREET,HILLSIDE SHOPPING CENTRE,VICTORIA,BC,V8T 3A8,CA,,48.447215,-123.3363897,,,0
RONSONS,711293296,55 - 1644 HILLSIDE AVENUE,,VICTORIA,BC,V8T 2C5,CA,(778) 2658211,48.44195,-123.34272,,,0
MARK'S WORK WEARHOUSE,711292909,2955 Phipps Road,,Victoria,BC,V9B 0J9,CA,(250) 4741930,48.442003262001,-123.504932712319,,,0
MARK'S WORK WEARHOUSE,711293079,530 Chatham Street,,Victoria,BC,V8T 5K1,CA,(250) 3821166,48.431016122449,-123.368893877551,,,0
THE COBBLER,711293562,718 VIEW STREET,,VICTORIA,BC,V8W 1J8,CA,(250) 3863741,48.4254212244898,-123.364619183673,,,0
MARK'S WORK WEARHOUSE,711293109,62 Thevenaz Industrial Trail,,Sylvan Lake,AB,T4S 0B6,CA,(403) 8874081,52.3066668421053,-114.069464210526,,,0
CENTRE DU TRAVAILLEUR F.H.,711292104,110 BOUL SIR WILFRID LAURIER,,BELOEIL,QC,J3G 4G5,CA,(450) 4678271,45.5511347,-73.2164514,,,0
CHAUSSURES YELLOW,711292316,506 BOULEVARD SIR-WILFRID-LAURIER,,BELOEIL,QC,J3G 4H9,CA,(450) 4641076,45.5607547,-73.2080291,,,0
MARK'S WORK WEARHOUSE,711293073,52 Riverside Drive,,Kapuskasing,ON,P5N 1A8,CA,(705) 3371616,49.41622,-82.4252,,,0
RUGGED,711293305,34B CIRCLE STREET,,KAPUSKASING,ON,P5N 1T7,CA,(705) 3354160,49.4177014981829,-82.4255635740244,,,0
MARK'S WORK WEARHOUSE,711292723,120 Columbus Drive,,Carbonear,NL,A1Y 1B3,CA,(709) 5964060,47.7262423149097,-53.2451732322055,,,0
WORK AUTHORITY,711293832,236-240 CONCEPTION BAY HIGHWAY,BOX 1039,BAY ROBERTS,NL,A0A 1G0,CA,(709) 7860599,47.5768825916961,-53.2835111191731,,,0
CHAUSSURES YELLOW,711292268,13 - 100 RUE PRINCIPALE S,,MANIWAKI,QC,J9E 3L4,CA,(819) 4497989,46.376859284814,-75.9820687420207,,,0
J.O. HUBERT LTD,711292547,163 - 165 PRINCIPALE S,,MANIWAKI,QC,J9E 1Z8,CA,(819) 4496569,46.3752210329164,-75.9815991648245,,,0
CHAUSSURES LAPOINTE INC,711292163,192 NOTRE DAME,,MANIWAKI,QC,J9E 2J5,CA,(819) 4493200,46.37426,-75.97894,,,0
MARK'S WORK WEARHOUSE,711292794,1715 Memorial Drive NE,,Swift Current,SK,S9H 5B7,CA,(306) 7739211,50.3094195,-107.7779809,,,0
PIONEER CO-OP ASSN,711293270,1150 CENTRAL AVENUE N,WHEATLAND MALL,SWIFT CURRENT,SK,S9H 0G1,CA,(306) 7788800,50.29674,-107.80466,,,0
,,36181 Richmond St,,Centralia,ON,N0M,CA,,43.28437,-81.46804,,,0
,,69451 Richmond St,,Centralia,ON,N0M,CA,,43.28193,-81.46754,,,0
MARK'S WORK WEARHOUSE,711292878,245 Robie Street,,Truro,NS,B2N 5N6,CA,(902) 8962000,45.3692927453066,-63.3015072653303,,,0
SEARS,711293364,245 ROBIE STREET,,TRURO,NS,B2N 5N6,CA,,45.3692927453066,-63.3015072653303,,,0
SHOESMITHS,711293497,413 CHARLOTTE STREET,,SYDNEY,NS,B1P 1E3,CA,(902) 5395800,46.1361873333333,-60.194092,,,0
SOURCE ATLANTIC,711293512,20 WABANA COURT,,SYDNEY,NS,B1P 0B9,CA,(902) 5673030,46.1501267682589,-60.1845267682589,,,0
MARK'S WORK WEARHOUSE,711293165,800 Grand Lake Road,,Sydney,NS,B1P 6S9,CA,(902) 5390441,46.1497850825545,-60.1378547853584,,,0
TSC STORES,711293786,500 MEMORIAL AVENUE,,ORILLIA,ON,L3V 6H1,CA,,44.5883469230769,-79.4246008974359,,,0
ART'S CLOTHING & SHOES,711291966,20 WEST ST S,,ORILLIA,ON,L3V 5B8,CA,(705) 3267597,44.6075184615385,-79.4190092307692,,,0
WORKSITE QUALITY FOOTWEAR,711293875,35 MISSISSAUGA STREET W,,ORILLIA,ON,L3V 3A5,CA,(705) 3272550,44.6077878947368,-79.4208052631579,,,0
MARK'S WORK WEARHOUSE,711292948,3275 Monarch Drive,,Orillia,ON,L3V 7Z4,CA,(705) 3257474,44.6091123322408,-79.4530110829888,,,0
MARK'S WORK WEARHOUSE,711292974,375 Daniel Street S,,Arnprior,ON,K7S 3K6,CA,(613) 6232485,45.4243833333333,-76.3673433333333,,,0
TSC STORES,711293788,60 STAYE COURT DRIVE,,ARNPRIOR,ON,K7S 0E8,CA,,45.4236914352639,-76.3703899531527,,,0
MARK'S WORK WEARHOUSE,711293186,910 O'Brien Road,,Renfrew,ON,K7V 3Z4,CA,(613) 4339591,45.479235309148,-76.6517241909532,,,0
MARK'S WORK WEARHOUSE,711293031,47 Paint Street,,Port Hawkesbury,NS,B9A 3J9,CA,(902) 6253313,45.6173878948396,-61.3322109124314,,,0
MARK'S WORK WEARHOUSE,711292947,3267 Cliffe Avenue,,Courtenay,BC,V9N 2L9,CA,(250) 3381361,49.6674167123288,-124.976664794521,,,0
SKI & SURF SHOP,711293501,333 5TH STREET,,COURTENAY,BC,V9N 1J9,CA,(250) 3388844,49.6907967346939,-124.999116938776,,,0
MARK'S WORK WEARHOUSE,711292797,174 Ave Lepine,,Gatineau,QC,J8L 4M4,CA,(819) 2817427,45.5755058408879,-75.4014322335092,,,0
J.N. LANDRY,711292546,467 AVE DE BUCKINGHAM,,GATINEAU,QC,J8L 2G8,CA,(819) 9863121,45.5877209,-75.4169316,,,0
MARK'S WORK WEARHOUSE,711292900,2764 Chamberland Street,,Rockland,ON,K4K 0B2,CA,(613) 4466154,45.5438331446287,-75.301997484297,,,0
TSC STORES,711293768,2756 CHAMBERLAND STREET,,ROCKLAND,ON,K4K 0B2,CA,,45.5440913357628,-75.3018212585169,,,0
THE SHOE COMPANY,711293670,5001-19TH STREET,,RED DEER,AB,T4R 3R1,CA,,52.23281,-113.81476,,,0
MARK'S WORK WEARHOUSE,711292844,2004 50 Avenue,,Red Deer,AB,T4R 3A2,CA,(403) 3485688,52.2336371428571,-113.814088571429,,,0
SEARS,711293398,4900 MOLLY BANISTER DR S,RED DEER,RED DEER,AB,T4R 1N9,CA,,52.24492,-113.80663,,,0
MARK'S WORK WEARHOUSE,711293122,650 6900 46 Street,,Olds,AB,T4H 0A2,CA,(403) 5567811,51.7968279,-114.1389582,,,0
MARK'S WORK WEARHOUSE,711293117,6320 50 Avenue,,Red Deer,AB,T4N 4C6,CA,(403) 3476666,52.2831333973124,-113.814488689334,,,0
SPI SECURITE JONQUIERE,711293540,7 - 7621 EDGAR INDUSTRIAL DRIVE,,RED DEER,AB,T4P 3R2,CA,(403) 3472606,52.29172,-113.85152,,,0
SEARS,711293394,4747 - 67TH STREET,,RED DEER,AB,T4N 6H3,CA,,52.28849,-113.80915,,,0
SHOE WAREHOUSE,711293490,4747 67TH STREET,,RED DEER,AB,T4N 6H3,CA,,52.28849,-113.80915,,,0
BECKER SHOES,711291971,310 10TH STREET,,Hanover,ON,N4N 1P3,CA,(519) 3641750,44.1520922222222,-81.0275644444444,,,0
MARK'S WORK WEARHOUSE,711292696,1088 10 Street,,Hanover,ON,N4N 3B8,CA,(519) 3647402,44.15675,-80.99822,,,0
NORTH WELLINGTON CO-OP #4483,711293255,404 MAIN STREET SOUTH,,MOUNT FOREST,ON,N0G 2L3,CA,,44.28977,-81.092846969697,,,0
SHOETOPIA FOOTWEAR OUTLET,711293498,235 MAIN STREET S,,MOUNT FOREST,ON,N0G 2L1,CA,(519) 5091834,44.29399,-81.09405,,,0
TSC STORES,711293782,445 MAIN STREET N,,MOUNT FOREST,ON,N0G 2L1,CA,,44.3102203731343,-81.0987378358209,,,0
MARK'S WORK WEARHOUSE,711293034,473 Thatcher Drive E,,Moose Jaw,SK,S6J 1L8,CA,(306) 6920606,50.4118247043248,-105.523161782893,,,0
SEARS,711293329,1235 MAIN STREET N,,MOOSE JAW,SK,S6H 6M4,CA,,50.4042752941176,-105.534538823529,,,0
,, Port Mann Brg,,Coquitlam,BC,V3K,CA,,49.22015,-122.81222,,,0
,,2201 Portage Ave,,Coquitlam,BC,V3K,CA,,49.24498,-122.83148,,,0
,,800 Porter St,,Coquitlam,BC,V3J,CA,,49.26354,-122.86302,,,0
,,531 Perth Ave,,Coquitlam,BC,V3J,CA,,49.25374,-122.88997,,,0
RONSONS,711293292,304 - 1950 HARVEY AVENUE,,KELOWNA,BC,V1Y 8J8,CA,(778) 4783111,49.88141,-119.50184,,,0
SHOE WAREHOUSE,711293475,2010 HARVEY AVENUE,,KELOWNA,BC,V1Y 8J8,CA,,49.88201,-119.44916,,,0
SEARS,711293316,#1400-2271 HARVEY AVE,ORCHARD PARK SHOPPING CENTRE,KELOWNA,BC,V1Y 6H4,CA,,49.8806711,-119.4407388,,,0
THE SHOE COMPANY,711293620,2339 HIGHWAY # 97 N,,KELOWNA,BC,V1X 4H9,CA,,49.8826688,-119.4307926,,,0
MARK'S WORK WEARHOUSE,711293058,500 1500 Banks Road,,Kelowna,BC,V1X 7Y1,CA,(250) 8617751,49.8880184,-119.4279438,,,0
MARK'S WORK WEARHOUSE,711292968,3550 Carrington Road,,Westbank,BC,V4T 2Z1,CA,(250) 7681934,49.8318236542698,-119.619024045904,,,0
MARK'S WORK WEARHOUSE,711293155,785 Norquay Drive,,Winkler,MB,R6W 2S2,CA,(204) 3254583,49.1903911337903,-97.9329312693536,,,0
MARK'S WORK WEARHOUSE,711292767,1450 Main Street S,,Dauphin,MB,R7N 3H4,CA,(204) 6386200,51.136999287034,-100.062788068702,,,0
MARK'S WORK WEARHOUSE,711292663,10 60 Quarry Street East,,Cochrane,AB,T4C 0W6,CA,(403) 8511585,51.1841013,-114.4684304,,,0
,,2 West Rd,,Toronto,ON,M6S,CA,,43.64584,-79.46712,,,0
,,2 West Ave,,Toronto,ON,M4M,CA,,43.66365,-79.34591,,,0
,,2 West Hill Dr,,Toronto,ON,M1E,CA,,43.76984,-79.17991,,,0
,,98 Westacres Dr,,Toronto,ON,M6M,CA,,43.69419,-79.47806,,,0
,,2 Westbank Cres,,Toronto,ON,M9P,CA,,43.69162,-79.51608,,,0
,,74 Westbourne Ave,,Toronto,ON,M1L,CA,,43.70413,-79.29064,,,0
,,28 Westbrook Ave,,Toronto,ON,M4C,CA,,43.69302,-79.30763,,,0
,,101 Westbury Cres,,Toronto,ON,M6M,CA,,43.6857,-79.47787,,,0
,,2 Westchester Rd,,Toronto,ON,M6M,CA,,43.69885,-79.49161,,,0
,,2 Westcliffe Rd,,Toronto,ON,M3M,CA,,43.72362,-79.50716,,,0
,,70 Westcroft Dr,,Toronto,ON,M1E,CA,,43.7719,-79.19386,,,0
,,98 Westdale Dr,,Toronto,ON,M3K,CA,,43.72849,-79.46466,,,0
,,199 Western Battery Rd,,Toronto,ON,M6K,CA,,43.63973,-79.41619,,,0
,,98 Westgate Cres,,Toronto,ON,M3H,CA,,43.74355,-79.43013,,,0
,,90 Westgate Blvd,,Toronto,ON,M3H,CA,,43.74258,-79.43129,,,0
,,41 Westglen Cres,,Toronto,ON,M9B,CA,,43.65109,-79.55456,,,0
,,16 Westgrove Cres,,Toronto,ON,M5N,CA,,43.7153,-79.42259,,,0
,,58 Westhampton Dr,,Toronto,ON,M9R,CA,,43.70343,-79.55434,,,0
,,68 Westhead Rd,,Toronto,ON,M8W,CA,,43.60486,-79.55627,,,0
,,16 Westholme Ave,,Toronto,ON,M6P,CA,,43.66074,-79.47891,,,0
,,106 Westhumber Blvd,,Toronto,ON,M9W,CA,,43.72653,-79.58446,,,0
,,132 Westlake Rd,,Toronto,ON,M1E,CA,,43.75459,-79.1969,,,0
,,70 Westlake Ave,,Toronto,ON,M4C,CA,,43.68742,-79.30522,,,0
,,2 Westlake Cres,,Toronto,ON,M4C,CA,,43.69724,-79.30836,,,0
,,250 Westlake Ave,,Toronto,ON,M4C,CA,,43.69441,-79.30822,,,0
,,98 Westlawn Pl,,Toronto,ON,M9W,CA,,43.72052,-79.61998,,,0
,,42 Westleigh Cres,,Toronto,ON,M8W,CA,,43.59743,-79.55219,,,0
,,76 Westminster Ave,,Toronto,ON,M6R,CA,,43.64766,-79.44709,,,0
,,180 Westminster Ave,,Toronto,ON,M6R,CA,,43.64635,-79.45396,,,0
,,298 Westminster Ave,,Toronto,ON,M6R,CA,,43.64582,-79.45662,,,0
,,158 Westmore Dr,,Toronto,ON,M9V,CA,,43.7336,-79.60056,,,0
,,200 Westmoreland Ave,,Toronto,ON,M6H,CA,,43.66609,-79.43256,,,0
,,2 Westmount Ave,,Toronto,ON,M6H,CA,,43.67424,-79.44032,,,0
,, Westmount Ave,,Toronto,ON,M6E,CA,,43.67826,-79.44198,,,0
,,292 Westmount Ave,,Toronto,ON,M6E,CA,,43.68366,-79.44414,,,0
,,99 Westmount Park Rd,,Toronto,ON,M9P,CA,,43.6906,-79.52412,,,0
,,1352 Weston Rd,,Toronto,ON,M6M,CA,,43.69037,-79.49868,,,0
,,1080 Weston Rd,,Toronto,ON,M6N,CA,,43.68566,-79.48686,,,0
,,170 Weston Rd,,Toronto,ON,M6N,CA,,43.67592,-79.47032,,,0
,,4251 Weston Rd,,Toronto,ON,M9L,CA,,43.76767,-79.54592,,,0
,,2852 Weston Rd,,Toronto,ON,M9M,CA,,43.72177,-79.53726,,,0
,,3290 Weston Rd,,Toronto,ON,M9M,CA,,43.74178,-79.54012,,,0
,,2560 Weston Rd,,Toronto,ON,M9N,CA,,43.70969,-79.53452,,,0
,,3072 Weston Rd,,Toronto,ON,M9M,CA,,43.7316,-79.53754,,,0
,,2026 Weston Rd,,Toronto,ON,M9N,CA,,43.70173,-79.52195,,,0
,,1402 Weston Rd,,Toronto,ON,M9N,CA,,43.69323,-79.50466,,,0
,,1942 Weston Rd,,Toronto,ON,M9N,CA,,43.70061,-79.51777,,,0
,,712 Weston Rd,,Toronto,ON,M6N,CA,,43.68287,-79.47865,,,0
,,600 Weston Rd,,Toronto,ON,M6N,CA,,43.68214,-79.47742,,,0
,,98 Weston Downs Ave,,Toronto,ON,M9N,CA,,43.71031,-79.52968,,,0
,,2 Weston Wood Rd,,Toronto,ON,M9P,CA,,43.69182,-79.53078,,,0
,,59 Westona St,,Toronto,ON,M9P,CA,,43.69727,-79.52744,,,0
,,20 Westover Hill Rd,,Toronto,ON,M6C,CA,,43.69724,-79.43195,,,0
,,2 Westpoint Ln,,Toronto,ON,M6M,CA,,43.69118,-79.508,,,0
,,98 Westport Ave,,Toronto,ON,M6N,CA,,43.67007,-79.46204,,,0
,,30 Westridge Rd,,Toronto,ON,M9A,CA,,43.6691,-79.51755,,,0
,,88 Westrose Ave,,Toronto,ON,M8X,CA,,43.6539,-79.51793,,,0
,,2 Westroyal Rd,,Toronto,ON,M9P,CA,,43.69177,-79.53743,,,0
,,2 Westrum Rd,,Toronto,ON,M9C,CA,,43.65518,-79.57916,,,0
,,98 Westside Dr,,Toronto,ON,M9C,CA,,43.61729,-79.56352,,,0
,,158 Westview Blvd,,Toronto,ON,M4B,CA,,43.71007,-79.30788,,,0
,,8 Westwater Dr,,Toronto,ON,M1W,CA,,43.8047,-79.31207,,,0
,,94 Westwood Ave,,Toronto,ON,M4K,CA,,43.68575,-79.35223,,,0
,,278 Westwood Ave,,Toronto,ON,M4J,CA,,43.68796,-79.34167,,,0
,,98 Westwynd Ct,,Toronto,ON,M9R,CA,,43.67926,-79.56856,,,0
,,348 Westmoreland Ave N,,Toronto,ON,M6H,CA,,43.67086,-79.43454,,,0
FEET FIRST PEDORTHIC& NURSING,711292457,111 GREAT NORTHERN ROAD,,SAULT STE MARIE,ON,P6B 4Y9,CA,(705) 9497324,46.5284818181818,-84.31951,,,0
SEARS,711293368,293 BAY STREET,STATION MALL,SAULT STE. MARIE,ON,P6A 1X3,CA,,46.512915,-84.337275,,,0
H.R. LASH LTD,711292520,308 JOHN STREET,,SAULT STE MARIE,ON,P6C 3J4,CA,(705) 7593785,46.5235157570686,-84.3437394093191,,,0
STEELTON SHOES LTD.,711293547,320 JOHN STREET,,SAULT STE MARIE,ON,P6C 3J4,CA,(705) 2562401,46.5237902994804,-84.3436158652338,,,0
MARK'S WORK WEARHOUSE,711293085,548 Great Northern Road,,Sault Ste. Marie,ON,P6B 4Z9,CA,(705) 2562247,46.54303,-84.31917,,,0
BERGAMIN'S FOOTWEAR & REPAIR,711291992,671 GREAT NORTHERN RD,UNIT #2,SAULT STE MARIE,ON,P6B 5A1,CA,(705) 9450499,46.5462090909091,-84.3193081818182,,,0
TSC STORES,711293789,695 GREAT NORTHERN ROAD,,SAULT STE MARIE,ON,P6B 5A1,CA,,46.54688,-84.31933,,,0
ALBERT'S SPORTS & WORKWEAR LTD,711291944,822 RIVERSIDE DR,,TIMMINS,ON,P4N 3W1,CA,(705) 2648189,48.477365681824,-81.3603369601962,,,0
SOUCIE SALO SAFETY LTD,711293510,993 RIVERSIDE DRIVE,,TIMMINS,ON,P4N 3W4,CA,(705) 3607233,48.4757871428571,-81.3640042857143,,,0
DUMOULIN FISHING TACKLE LTD,711292427,1008 RIVERSIDE DRIVE,,TIMMINS,ON,P4N 3W3,CA,(705) 2648098,48.4746347058824,-81.3660370588235,,,0
THE COMFORT SHOE SHOP,711293563,1086 RIVERSIDE DRIVE,,TIMMINS,ON,P4R 1A2,CA,(705) 2683338,48.4731000547748,-81.3693423493692,,,0
SPI SECURITE JONQUIERE,711293522,1335 RIVERSIDE DRIVE,,TIMMINS,ON,P4R 1A6,CA,(705) 2685962,48.4725212280702,-81.3761222807018,,,0
SEARS,711293343,1500 RIVERSIDE DRIVE,UNIT #A-001,TIMMINS,ON,P4R 1A1,CA,,48.4725143859649,-81.3816928070175,,,0
MARK'S WORK WEARHOUSE,711292862,2185 Riverside Drive,,Timmins,ON,P4R 0A1,CA,(705) 2686505,48.4697278289382,-81.4227693938432,,,0
CHAUSSURES FILLION,711292133,406 RUE LAFONTAINE,,RIVIERE-DU-LOUP,QC,G5R 3B7,CA,(418) 8635151,47.83018,-69.5342433333333,,,0
BOUTIQUE DU TRAVAILLEUR,711292006,254 RUE LAFONTAINE,,RIVIERE DU LOUP,QC,G5R 3A8,CA,(418) 8629266,47.8337750692326,-69.5371011232692,,,0
MARK'S WORK WEARHOUSE,711292910,298 Boul Amand-Theriault,,Riviere-du-Loup,QC,G5R 4C2,CA,(418) 8625940,47.8245925,-69.5482516,,,0
CHAUSSURES YELLOW,711292285,276 BOULEVARD DE L'HOTEL-DE-VILLE,,RIVIERE-DU-LOUP,QC,G5R 5C6,CA,(418) 8672758,47.8232051933807,-69.5551281722263,,,0
MARK'S WORK WEARHOUSE,711293167,8238 Highway 3B,,Trail,BC,V1R 4W4,CA,(250) 3641121,49.0889534,-117.6272034,,,0
MARK'S WORK WEARHOUSE,711292666,100 1965 Columbia Avenue,,Castlegar,BC,V1N 2W8,CA,(250) 3650555,49.2965674,-117.6536499,,,0
SPI SECURITE JONQUIERE,711293543,782 MACDONELL STREET,,THUNDER BAY,ON,P7B 4A6,CA,(807) 3443473,48.4149579104478,-89.2444895522388,,,0
WORK AUTHORITY,711293846,4 - 1186 MEMORIAL AVENUE,,THUNDER BAY,ON,P7B 5K5,CA,(807) 3444480,48.41414,-89.24329,,,0
SEARS,711293433,880 FORT WILLIAM ROAD,INTERCITY SHOPPING CENTRE,THUNDER BAY,ON,P7B 2S4,CA,,48.40654,-89.24088,,,0
MARK'S WORK WEARHOUSE,711293201,969 Fort William Road,,Thunder Bay,ON,P7B 3A6,CA,(807) 3440554,48.40438,-89.2417666666667,,,0
THE SHOE COMPANY,711293657,379 MAIN STREET,,THUNDER BAY,ON,P7B 5L6,CA,,48.4064305577534,-89.2311976107401,,,0
MARK'S WORK WEARHOUSE,711293082,5400 Discovery Way,,Leduc,AB,T9E 8L9,CA,(780) 9865046,53.2682702062123,-113.567057158393,,,0
MARK'S WORK WEARHOUSE,711293161,800 15 Street E,,Prince Albert,SK,S6V 8E3,CA,(306) 9223414,53.19971,-105.73213,,,0
MARK'S WORK WEARHOUSE,711292703,11000 8 Street,,Dawson Creek,BC,V1G 4K6,CA,(250) 7821111,55.75078,-120.22446,,,0
CHAUSSURES YELLOW,711292284,275 RUE JOHN-NAIRNE,,LA MALBAIE,QC,G5A 1S8,CA,(418) 6650088,47.6535347078391,-70.150838656083,,,0
MULLER WORK WEAR,711293249,5823 FERRY STREET,,NIAGARA FALLS,ON,L2G 1S8,CA,(905) 3589626,43.0894955102041,-79.0913428571429,,,0
MARK'S WORK WEARHOUSE,711293137,7190 Morrison Street,,Niagara Falls,ON,L2E 7K5,CA,(905) 3587422,43.1041398492462,-79.1139305527638,,,0
THE SHOE COMPANY,711293629,300 TAYLOR ROAD,,NIAGARA ON THE LAKE,ON,L0S 1J0,CA,,43.15024,-79.16763,,,0
BROWNS SHOE SHOP,711292044,300 TAYLOR ROAD,,NIAGARA ON THE LAKE,ON,L0S 1J0,CA,(905) 6828212,43.15024,-79.16763,,,0
ELIO'S SHOES & REPAIR,711292430,9 FRONT ST S,,THOROLD,ON,L2V 1W8,CA,(905) 6809259,43.124707826087,-79.2006878260869,,,0
BOOT SHOP - PENN CENTRE,711291997,221 GLENDALE AVENUE,,ST CATHARINES,ON,L2T 2K9,CA,(905) 6854031,43.13313,-79.22446,,,0
SEARS,711293359,221 GLENDALE AVENUE,PEN CENTRE,ST. CATHARINES,ON,L2T 2K9,CA,,43.13313,-79.22446,,,0
TSC STORES,711293757,185 BUNTING ROAD,,ST CATHARINES,ON,L2M 3Y2,CA,,43.1698466193624,-79.2098484120382,,,0
MARK'S WORK WEARHOUSE,711292677,102 Primeway Drive,,Welland,ON,L3B 0A1,CA,(905) 7326713,43.0147623037801,-79.229202915178,,,0
BOOT SHOP 1975 LTD,711292000,46 JAMES STREET,,ST CATHARINES,ON,L2R 5B8,CA,(905) 6412224,43.1587605263158,-79.2452884210526,,,0
MARK'S WORK WEARHOUSE,711292905,285 Geneva Street,,St. Catharines,ON,L2N 2G1,CA,(905) 9346464,43.1768584615385,-79.2407346153846,,,0
TSC STORES,711293792,777 NIAGARA STREET,,WELLAND,ON,L3C 3J5,CA,,43.0143955172414,-79.24987,,,0
WORK AUTHORITY,711293849,420 VANSICKLE ROAD,,ST. CATHARINES,ON,L2S 0C7,CA,(905) 9844242,43.1526938497406,-79.2705392978148,,,0
MARK'S WORK WEARHOUSE,711293006,420 Vansickle Road,,St Catharines,ON,L2R 6P9,CA,(905) 6410562,43.1526938497406,-79.2705392978148,,,0
SHERIDAN WHOLESALE & RETAIL,711293447,44 SEGUIN STREET,,PARRY SOUND,ON,P2A 1B4,CA,(705) 7462661,45.3436,-80.034426,,,0
MARK'S WORK WEARHOUSE,711292662,1 Pine Drive,,Parry Sound,ON,P2A 3C3,CA,(705) 7462893,45.34407,-80.01031,,,0
L'ESSENTIEL DES TRAVAILLEURS,711292596,427 1RE AVE,,ASBESTOS,QC,J1T 1Z3,CA,(819) 8795489,45.7717747,-71.930652,,,0
COLLECTION GOTY INC,711292360,430 RUE DE L'AMIANTE,,ASBESTOS,QC,J1T 4S3,CA,(819) 8797098,45.7632654524728,-71.9337095532272,,,0
NORTHERN FACTORY WORKWEAR,711293258,4006 50TH AVE,,LLOYDMINSTER,AB,T9V 1B2,CA,(780) 8754800,53.2750086885246,-110.00557,,,0
SEARS,711293407,5211 - 44TH STREET,,LLOYDMINSTER,AB,T9V 0A7,CA,,53.27802,-110.011383855422,,,0
MARK'S WORK WEARHOUSE,711293001,4107 80 Avenue,,Lloydminster,AB,T9V 0X9,CA,(780) 8751221,53.27808,-110.06313,,,0
SEARS,711293332,130 KING STREET W,,CHATHAM,ON,N7M 6B1,CA,,42.40572,-82.18544,,,0
TSC STORES,711293795,787 ST CLAIR STREET,,CHATHAM,ON,N7M 5J7,CA,,42.4294073611111,-82.2176788888889,,,0
MARK'S WORK WEARHOUSE,711293168,827 St Clair Street,,Chatham,ON,N7M 5J7,CA,(519) 3515900,42.4302059722222,-82.2186677777778,,,0
MARK'S WORK WEARHOUSE,711292936,3103 Boul Royal,,Shawinigan,QC,G9N 7C1,CA,(819) 5397295,46.5627659,-72.739405,,,0
CHAUSSURES YELLOW,711292297,4 - 1552 41E RUE,,SHAWINIGAN,QC,G9N 7Y9,CA,(819) 5396967,46.56539,-72.73253,,,0
CORDONNERIE N BLAIS,711292369,900 105e AVENUE,,SHAWINIGAN SUD,QC,G9P 1L3,CA,(819) 5364560,46.5254981,-72.7532202,,,0
SHOE WAREHOUSE,711293474,1940 STRACHAN ROAD,,MEDICINE HAT,AB,T1B 4K4,CA,,49.9972,-110.64603,,,0
MARK'S WORK WEARHOUSE,711292830,1971 Strachan Road SE,,Medicine Hat,AB,T1B 0G4,CA,(403) 5299560,49.99677,-110.64507625,,,0
NEW SYSTEM STORE,711293254,619 ROSSER AVENUE,,BRANDON,MB,R7A 0K6,CA,(204) 7273037,49.8484618367347,-99.9462471428571,,,0
MARK'S WORK WEARHOUSE,711293187,911 18 Street N,,Brandon,MB,R7A 7S1,CA,(204) 7251508,49.865504551467,-99.96183,,,0
SHOE WAREHOUSE,711293472,1570 18TH STREET,,BRANDON,MB,R7A 5C5,CA,,49.82633,-99.962,,,0
CHAUSSURES GEO GAGNON,711292149,570 RUE SAINT ANTOINE,,LA TUQUE,QC,G9X 2Y7,CA,(819) 5233490,47.4391168,-72.783911,,,0
CHAUSSURES YELLOW,711292264,1200 BOULEVARD DUCHARME,,LA TUQUE,QC,G9X 3Z9,CA,(819) 5239821,47.4181438,-72.7843013,,,0
VETEMENTS T.S. INC,711293805,194 RUE BROCK,,DRUMMONDVILLE,QC,J2C 1M3,CA,(819) 4725426,45.885108,-72.489894,,,0
CHAUSSURES RUBINO,711292206,353 RUE JANELLE,,DRUMMONDVILLE,QC,J2C 3E2,CA,(819) 4729119,45.8908892873051,-72.5132473496659,,,0
CHAUSSURES YELLOW,711292347,950 BOULEVARD RENE-LEVESQUE,,DRUMMONDVILLE,QC,J2C 8A4,CA,(819) 4748080,45.8955962,-72.5193396,,,0
CHAUSSURES YELLOW,711292329,755 BOULEVARD RENE-LEVESQUE,,DRUMMONDVILLE,QC,J2C 6Y7,CA,(819) 8702216,45.8994578,-72.5176124,,,0
SEARS,711293426,755 BOULEVARD RENE LEVESQUE,LES PROMENADES DRUMMONDVILLE,DRUMMONDVILLE,QC,J2C  6Y7,CA,,45.8994578,-72.5176124,,,0
ANTONIO MOREAU LTEE,711291957,85 RUE ROBERT BERNARD,,DRUMMONDVILLE,QC,J2C 0P6,CA,(819) 4797388,45.90848,-72.50763,,,0
RON'S THE WORK WEAR STORE,711293279,112 2ND STREET,,WEYBURN,SK,S4H 0T8,CA,(306) 8423006,49.66194,-103.85512,,,0
MARK'S WORK WEARHOUSE,711292733,1240 Sims Avenue,,Weyburn,SK,S4H 3N9,CA,(306) 8420787,49.6637114409834,-103.877444431642,,,0
SECURITE PLUS,711293444,5426 BOUL GENE-H-KRUGER,,TROIS RIVIERES,QC,G9A 4N8,CA,(819) 3792434,46.32076,-72.5675,,,0
MARK'S WORK WEARHOUSE,711292951,3325 Boul des Recollets,,Trois-Rivieres,QC,G9A 6M1,CA,(819) 3701103,46.3302784082857,-72.5689624552995,,,0
SPI SECURITE JONQUIERE,711293538,5545 BOULEVARD JEAN XXIII,,TROIS-RIVIERES,QC,G8Z 4A8,CA,(1866) 8618111,46.3348913043478,-72.5904521739131,,,0
CORDONNERIE CAROL BINET INC,711292367,1480 RUE LA VERENDRYE,,TROIS RIVIERES,QC,G8Z 2C9,CA,(819) 3757644,46.34077,-72.55823,,,0
LA MAISON M BUSSIERES ENR,711292565,"421 RUE NOTRE-DAME, C.P. 1171",,SAINT TITE,QC,G0X 3H0,CA,(418) 3656155,46.34304,-72.53972,,,0
SEARS,711293386,4025 BOULEVARD DES FORGES,CENTRE LES RIVIERES,TROIS-RIVIERES,QC,G8Y 1V9,CA,,46.3546652,-72.5871557,,,0
CHAUSSURES YELLOW,711292312,4620 BOULEVARD DES FORGES,,TROIS-RIVIERES,QC,G8Y 1W7,CA,(819) 3760927,46.359618,-72.590072,,,0
P.S.B. CHALEUR INC,711293265,152 AVENUE DE GRAND-PRE,,BONAVENTURE,QC,G0C 1E0,CA,(418) 5343074,48.0491041196922,-65.4848824727168,,,0
CORDONNERIE AU PAS,711292366,"795 BOUL. DU LAC,  SUITE 400",,Ville de Quebec,QC,G2M 0E4,CA,(418) 8414030,46.9303964,-71.3151834,,,0
BOUTIQUE TRAVAIL ET LOISIRS,711292009,1250 BOUL DUSSAULT,,SAINT-MARC-DES-CARRIERES,QC,G0A 4B0,CA,(418) 2686344,46.92951,-71.4042,,,0
AU BON MARCHE (BERNARD) INC,711291967,12535 1ERE AVE,,SAINT-GEORGES,QC,G5Y 2E4,CA,(418) 2282463,46.11643,-70.66625,,,0
MARK'S WORK WEARHOUSE,711293017,440 Rue 107e,,Saint-Georges,QC,G5Y 8K1,CA,(418) 2226818,46.1306244577422,-70.6788557173463,,,0
CHAUSSURES YELLOW,711292341,8585 BOULEVARD LACROIX,,SAINT-GEORGES,QC,G5Y 5L6,CA,(418) 2283970,46.13173,-70.69876,,,0
SEARS,711293430,8585 BOULEVARD LACROIX,,SAINT-GEORGES-DE-BEAUCE,QC,G5Y 5L6,CA,,46.13173,-70.69876,,,0
CORDONNERIE CAROLE GILBERT,711292368,668 15e RUE,,ST. ZACHARIE,QC,G0M 2C0,CA,(418) 5933307,46.12582,-70.36484,,,0
UNCLE BOBS WORKWEAR,711293800,105 BRIDGE STREET,,DUNNVILLE,ON,N1A 2G8,CA,(905) 7745760,42.9023465678332,-79.6165473606184,,,0
HAROLD'S SPORT STORE,711292522,119 1ST AVE E,,NIPAWIN,SK,S0E 1E0,CA,(306) 8622288,53.3630339,-104.016054,,,0
SWAN VALLEY CONS CO OP LTD,711293556,811 MAIN STREET,,SWAN RIVER,MB,R0L 1Z0,CA,(204) 7343431,52.1058734693878,-101.265963061224,,,0
CROWLEY'S WORK WEAR,711292385,812 100 Street,,TISDALE,SK,S0E 1T0,CA,(306) 8734220,52.8462302040816,-104.048939591837,,,0
MARK'S WORK WEARHOUSE,711293063,500 Highway 6 S,,Melfort,SK,S0E 1A0,CA,(306) 7524844,52.84178,-104.59461,,,0
ROBERTSON TRADING LTD,711293276,308 LA RONGE AVENUE,PO BOX 360,LA RONGE,SK,S0J 1L0,CA,(306) 4252080,55.0999199,-105.2990565,,,0
MARK'S WORK WEARHOUSE,711292864,220A Broadway Street E,,Yorkton,SK,S3N 4C3,CA,(306) 7821414,51.21014,-102.450386666667,,,0
MARK'S WORK WEARHOUSE,711292921,300 Mystery Lake Road,,Thompson,MB,R8N 0M2,CA,(204) 6778165,55.74472,-97.85074,,,0
YUEN'S FAMILY CLOTHING LTD,711293879,503 MAIN STREET,BOX 3009,HUMBOLDT,SK,S0K 2A0,CA,(306) 6822166,52.197618,-105.12294,,,0
MARK'S WORK WEARHOUSE,711292868,2302A 8 Avenue,,Humboldt,SK,S0K 2A0,CA,(306) 6825388,52.2002562,-105.1477915,,,0
EMILE DENIS LTEE,711292431,187 RUE SAINT JOSEPH,,SAINT RAYMOND,QC,G3L 1H8,CA,(418) 3377042,46.8896522,-71.8345106,,,0
MARK'S WORK WEARHOUSE,711292840,200 Broadway Street,,Tillsonburg,ON,N4G 5A7,CA,(519) 8423737,42.86217,-80.72937,,,0
TSC STORES,711293741,121 CONCESSION STREET E,,TILLSONBURG,ON,N4G 4W4,CA,,42.8676842857143,-80.7212085714286,,,0
VIGNEAULT MONTMAGNY,711293806,1 CHEMIN DES POIRIER,,MONTMAGNY,QC,G5V 3W6,CA,(418) 2484919,46.97928,-70.57013,,,0
BOUTIQUE CHANTEL LA COLLEGIENNE,711292005,111 BOULEVARD BEGIN,,SAINTE-CLAIRE,QC,G0R 2V0,CA,(418) 8834045,46.6011,-70.86468,,,0
MARK'S WORK WEARHOUSE,711292727,1208 5 Street SE,,High River,AB,T1V 0J2,CA,(403) 4985206,50.5730234693878,-113.859141632653,,,0
MARK'S WORK WEARHOUSE,711292845,201 Southridge Drive,,Okotoks,AB,T1S 2E1,CA,(403) 9389471,50.70528,-113.9748,,,0
WINDRIFT SALES,711293818,6449 PERTH RD,,PERTH RD VILLAGE,ON,K0H 2L0,CA,(613) 3537486,44.49135,-76.47813,,,0
MARK'S WORK WEARHOUSE,711292707,112 850 Oliver Street,,Williams Lake,BC,V2G 3W1,CA,(250) 3923511,52.1288724489796,-122.145321632653,,,0
,,,,St Andrews,NS,B0H1X0,CA,,45.5815,-61.965277,,,0
,,,,St Andrews,MB,R1A3Y5,CA,,50.0477,-97.01707,,,0
,,,,St Andrews,Nb,E5B1L9,CA,,45.07793,-67.05383,,,0
MARK'S WORK WEARHOUSE,711292722,120 6703 48 Avenue,,Camrose,AB,T4V 3K3,CA,(780) 6729246,53.0173475,-112.8576288,,,0
MARK'S WORK WEARHOUSE,711292879,24614 Adelaide Road,,Strathroy,ON,N7G 2P8,CA,(519) 2458807,42.943774511901,-81.608431596769,,,0
GERBER'S WORKWEAR LTD,711292473,232 CARADOC STREET S,,STRATHROY,ON,N7G 2P3,CA,(519) 2459944,42.9506231578947,-81.6169236842105,,,0
TSC STORES,711293742,134 CARADOC STREET N,,STRATHROY,ON,N7G 2M8,CA,,42.9593655147377,-81.6247602331715,,,0
CHAUSSURES YELLOW,711292318,5955 RUE MARTINEAU,,SAINT-HYACINTHE,QC,J2R 2H6,CA,(450) 7964265,45.6424658452495,-72.9771529421333,,,0
MARK'S WORK WEARHOUSE,711292942,3200 Boul Laframboise,,Saint-Hyacinthe,QC,J2S 4Z5,CA,(450) 7747474,45.63643,-72.96715,,,0
ANTONIO MOREAU LTEE,711291956,7405 AVE DUPLESSIS,,ST HYACINTHE,QC,J2R 1S5,CA,(450) 2534828,45.6445414285714,-72.9679561654135,,,0
CHAUSSURES RUBINO,711292174,1360 BOULEVARD CASAVANT EST,,ST-HYACINTHE,QC,J2S 0G2,CA,(450) 7781914,45.6470885,-72.9514428,,,0
ANTONIO MOREAU LTEE,711291955,1390 BOULEVARD CASAVANT E,,SAINT-HYACINTHE,QC,J2S 0G2,CA,(450) 2534828,45.6479786,-72.9495634,,,0
TSC STORES,711293750,1699 LONDON LINE,,SARNIA,ON,N7W 1B1,CA,,42.9838514285714,-82.3284714285714,,,0
MISTER SAFETY SHOES INC.,711293234,1644 LONDON LINE,,SARNIA,ON,N7W 1A9,CA,(519) 5421223,42.9839386179488,-82.3322841698734,,,0
MARK'S WORK WEARHOUSE,711292748,1380 London Road,,Sarnia,ON,N7S 1P8,CA,(519) 5423429,42.9803011111111,-82.3531288888889,,,0
SEARS,711293341,1380 LONDON ROAD UNIT 3,LAMBTON MALL,SARNIA,ON,N7S 6L7,CA,,42.9803011111111,-82.3531288888889,,,0
WORK AUTHORITY,711293820,"10A - 1030 CONFEDERATION STREET, UNIT 10A",,SARNIA,ON,N7S 6H1,CA,(519) 3374643,42.9608437,-82.3701577,,,0
MARK'S WORK WEARHOUSE,711292745,133 Church Street,,Antigonish,NS,B2G 2E3,CA,(902) 8639255,45.61617,-61.98589,,,0
CHANDLER SUPPLIERS,711292106,365 FRENETTE AVENUE,CALEDONIA INDUSTRIAL PARK,MONCTON,NB,E1H 3S5,CA,(506) 8595970,46.13591,-64.73162,,,0
DSW,711292425,79 WYSE STREET,,MONCTON,NB,E1G 0Z5,CA,,46.1190497,-64.8246527,,,0
CHAUSSURES YELLOW,711292313,505 AVENUE BETHANY,,LACHUTE,QC,J8H 4A6,CA,(450) 5629170,45.63713,-74.32706,,,0
CHARLES MC FAUL & SON REGD,711292111,520 PRINCIPALE,,LACHUTE,QC,J8H 1Y7,CA,(450) 5622622,45.656901875,-74.33429875,,,0
TSC STORES,711293755,173 DUNDAS STREET E,,BELLEVILLE,ON,K8N 1C9,CA,,44.1623871177359,-77.3722961588133,,,0
SEARS,711293384,390 NORTH FRONT STREET,QUINTE MALL,BELLEVILLE,ON,K8P 3E1,CA,,44.18828,-77.39634,,,0
SHOE WAREHOUSE,711293483,390 NORTH FRONT STREET,,BELLEVILLE,ON,K8P 3E1,CA,,44.18828,-77.39634,,,0
WORK AUTHORITY,711293842,"390 NORTH FRONT STREET, UNIT T2",QUINTE MALL,BELLEVILLE,ON,K8P 3E1,CA,(613) 9627409,44.18828,-77.39634,,,0
MARK'S WORK WEARHOUSE,711292861,214 Bell Blvd,,Belleville,ON,K8P 5L8,CA,(613) 9664582,44.1858846666667,-77.4066173333333,,,0
WORK GEAR COMPANY (THE),711293864,5717 OLD HIGHWAY 2,,SHANNONVILLE,ON,K0K 3A0,CA,(613) 9677951,44.19744,-77.22706,,,0
MARK'S WORK WEARHOUSE,711292891,260 Dundas Street E,,Trenton,ON,K8V 1M2,CA,(613) 3944736,44.104645,-77.55904375,,,0
CHAUSSURES FILLION,711292138,637 AVENUE BROCHU,,SEPT-ILES,QC,G4R 2X7,CA,(418) 9627223,50.2108675,-66.3912525,,,0
CHAUSSURES YELLOW,711292244,1005 BOULEVARD LAURE,,SEPT-ILES,QC,G4R 4S6,CA,(418) 9685334,50.2262798,-66.3940516,,,0
SPI SECURITE JONQUIERE,711293537,554 BOULEVARD LAURE,,SEPT-ILES,QC,G4R 1X7,CA,(1800) 4639915,50.2149329,-66.3769451,,,0
MARK'S WORK WEARHOUSE,711292930,307 Old Airport Road,,Yellowknife,NT,X1A 3T3,CA,(867) 6699267,62.4483023261883,-114.408373586739,,,0
MARK'S WORK WEARHOUSE,711292661,1 Gateway Boulevard,,High Level,AB,T0H 1Z0,CA,(780) 9262655,58.5071929,-117.1482115,,,0
,,,,Ville Marie,QC,J9V1K2,CA,,47.331,-79.43629,,,0
,,,,Ville-de-Tracy,QC,J3R3A3,CA,,46.016667,-73.166667,,,0
,,,,Ville-la-Salle,QC,H8R2M8,CA,,45.416667,-73.65,,,0
,,,,Ville De Quebec,QC,G1R1A1,CA,,46.81274,-71.21935,,,0
,,,,Ville Saint Laurent,QC,H4N2H9,CA,,45.516667,-73.666667,,,0
,,,,Ville Saint Pierre,QC,H8R1T2,CA,,45.433333,-73.65,,,0
,,,,Ville-Saint-Georges,QC,G5Y6N2,CA,,46.116667,-70.666667,,,0
,,,,Pleasant Villa,NB,E5M1Y7,CA,,45.708185,-66.129643,,,0
,,,,Valley,NS,B6L2V3,CA,,45.386872,-63.204622,,,0
,,,,La Vallee,On,P0W1C0,CA,,48.61993,-93.66995,,,0
,,,,Big Valley,AB,T0C2E0,CA,,52.03474,-112.75278,,,0
,,,,Tay Valley,ON,K7H2S1,CA,,44.89015,-76.31829,,,0
,,,,Acton Vale,QC,J0H1A0,CA,,45.64699,-72.56585,,,0
,,,,Fox Valley,Sk,S0N0V0,CA,,50.46387,-109.48693,,,0
,,,,Sun Valley,Sk,S0H4C0,CA,,50.64629,-105.51913,,,0
,,,,Eden Valley,AB,T0L2R0,CA,,50.53135,-114.231075,,,0
,,,,Pine Valley,BC,V0C1N0,CA,,56.016667,-120.616667,,,0
,,,,Valley Road,NB,E3L4T1,CA,,45.228075,-67.2695,,,0
,,,,Valley Pond,NL,A0G4S0,CA,,49.575119,-54.879335,,,0
,,,,Deer Valley,SK,S2V1B9,CA,,50.590867,-104.886918,,,0
,,,,Flat Valley,SK,S0M1L0,CA,,54.296944,-109.227222,,,0
,,,,Lake Valley,SK,S0H3E0,CA,,50.633333,-106.033333,,,0
,,,,Tyne Valley,Pe,C0B2C0,CA,,46.57645,-63.92884,,,0
,,,,Rose Valley,Sk,S0A0N0,CA,,52.28965,-103.81123,,,0
,,,,Ibex Valley,YT,Y1A5S4,CA,,60.81511,-135.28852,,,0
,,,,Comox Valley,Bc,V9J1T6,CA,,49.76842,-125.02019,,,0
,,,,Amber Valley,AB,T0A1B0,CA,,54.733333,-112.930833,,,0
,,,,Water Valley,AB,T0M2E0,CA,,51.505588,-114.6508,,,0
,,,,Broad Valley,MB,R0C0K0,CA,,51.081442,-97.619411,,,0
,,,,Valley River,MB,R0L2B0,CA,,51.328809,-100.120232,,,0
,,,,Dutch Valley,NB,E4E3N3,CA,,45.694058,-65.44967,,,0
,,,,Portage Vale,NB,E4Z3E8,CA,,45.812446,-65.255057,,,0
,,,,Happy Valley,NL,A0P1C0,CA,,53.3,-60.3,,,0
,,,,Belle Vallee,ON,P0J1A0,CA,,47.324216,-79.810416,,,0
,,,,Cedar Valley,ON,L0G1E0,CA,,44.072241,-79.318231,,,0
,,,,Grand Valley,ON,L9W0E2,CA,,43.9,-80.316667,,,0
,,,,Green Valley,ON,K0C1L0,CA,,45.221175,-74.599391,,,0
,,,,River Valley,ON,P0H2C0,CA,,46.583333,-80.183333,,,0
,,,,Crane Valley,SK,S0H1B0,CA,,49.56974,-105.455827,,,0
,,,,Fraser Valley,Bc,V0K1C0,CA,,49.80062,-121.45328,,,0
,,,,Acadia Valley,AB,T0J0A0,CA,,51.15,-110.2,,,0
,,,,Harmon Valley,AB,T0H3B0,CA,,56.1,-116.833333,,,0
,,,,Silver Valley,AB,T0H3E0,CA,,56.071763,-119.13193,,,0
,,,,Spruce Valley,AB,T0A0E0,CA,,54.864167,-112.8025,,,0
,,,,Salmon Valley,BC,V2K5X2,CA,,54.083333,-122.683333,,,0
,,,,Clover Valley,NB,E2S1E5,CA,,45.309668,-65.881488,,,0
,,,,Cherry Valley,ON,K0K1P0,CA,,43.905143,-77.156007,,,0
,,,,Golden Valley,ON,P0H1N0,CA,,45.874442,-79.784524,,,0
,,,,Cherry Valley,PE,C1B0S7,CA,,46.166667,-62.916667,,,0
,,,,Spring Valley,SK,S0H0P0,CA,,49.95,-105.4,,,0
,,,,Valley Centre,SK,S0L3N0,CA,,51.8,-107.85,,,0
,,,,Turner Valley,AB,T0L2A0,CA,,50.67481,-114.27888,,,0
,,,,Grande Vallee,QC,G0E2B0,CA,,49.22488,-65.12798,,,0
,,,,Petite Vallee,QC,G0E1Y0,CA,,49.219,-65.03613,,,0
,,,,Chinook Valley,AB,T8S0A5,CA,,56.433333,-117.6,,,0
,,,,Nemaiah Valley,BC,V0L1X0,CA,,51.935922,-124.774062,,,0
,,,,Blezard Valley,ON,P0M1E0,CA,,46.608577,-81.042084,,,0
,,,,Drayton Valley,AB,T7A0A7,CA,,53.22799,-114.98689,,,0
,,,,New Wes Valley,NL,A0G1B0,CA,,49.16037,-53.61643,,,0
,,,,Kannata Valley,SK,S2V0A1,CA,,50.7803,-104.89357,,,0
,,,,Stewart Valley,Sk,S0N2P0,CA,,50.59464,-107.80518,,,0
,,,,Cowichan Valley,Bc,V0R2W0,CA,,48.65406,-123.62508,,,0
,,,,Rosedale Valley,AB,T4L1Y3,CA,,52.478543,-113.746952,,,0
,,,,Crescent Valley,BC,V1N4P4,CA,,49.433333,-117.55,,,0
,,,,Temperance Vale,NB,E6G2K1,CA,,46.086971,-67.266231,,,0
,,,,Margaree Valley,NS,B0E2C0,CA,,46.384564,-61.031312,,,0
,,,,Surprise Valley,SK,S0C1T0,CA,,49.166667,-104.6,,,0
,,,,Paradise Valley,AB,T0B2Y0,CA,,53.03065,-110.29491,,,0
,,,,Vallee Jonction,QC,G0S3J0,CA,,46.37605,-70.92393,,,0
,,,,La Vallee De L'Or,QC,J9P7E4,CA,,47.83264,-77.3568,,,0
,,,,Madawaska Valley,On,K0J1B0,CA,,45.49115,-77.69815,,,0
,,,,Bonnechere Valley,ON,K0J1M0,CA,,45.46149,-77.28554,,,0
,,,,Laurentian Valley,On,K8A0A1,CA,,45.78146,-77.23229,,,0
,,,,Fox Valley No 171,SK,S0N0V0,CA,,50.47032,-109.60253,,,0
,,,,Happy Valley No 10,Sk,S0H0G0,CA,,49.11582,-105.11115,,,0
,,,,Souris Valley No 7,Sk,S0C0N0,CA,,49.14527,-103.82742,,,0
,,,,White Valley No 49,Sk,S0N1V0,CA,,49.4073,-108.75245,,,0
,,,,Poplar Valley No 12,SK,S0H1N0,CA,,49.18282,-105.81676,,,0
,,,,Round Valley No 410,Sk,S0K4L0,CA,,52.43496,-109.11418,,,0
,,,,Surprise Valley No 9,SK,S0C1T0,CA,,49.16222,-104.59068,,,0
,,,,Barrier Valley No 397,Sk,S0E0B0,CA,,52.60929,-103.96858,,,0
,,,,Fertile Valley No 285,Sk,S0L2N0,CA,,51.4747,-107.11696,,,0
,,,,Happy Valley Goose Bay,Nl,A0P1C0,CA,,53.29582,-60.29594,,,0
,,,,Pleasant Valley No 288,Sk,S0L1L0,CA,,51.48922,-108.38896,,,0
,,,,La Vallee De La Gatineau,QC,J0W2C0,CA,,47.25767,-76.70903,,,0
,,,,East Luther Grand Valley,On,L9W0E2,CA,,43.90043,-80.31562,,,0
,,,,Last Mountain Valley No 250,Sk,S0G0Z0,CA,,51.2304,-104.98436,,,0
TSC STORES,711293766,259 INNISFIL STREET,,BARRIE,ON,L4N 3G2,CA,,44.37316,-79.6939,,,0
MARK'S WORK WEARHOUSE,711293002,411 Bayfield Street,,Barrie,ON,L4M 6E5,CA,(705) 7305847,44.4082846666667,-79.7066293333333,,,0
SEARS,711293406,521 BAYFIELD STREET,GEORGIAN MALL,BARRIE,ON,L4M 4Z9,CA,,44.4146266666667,-79.7121866666667,,,0
CRS CONTRACTORS RENTAL SUPPLY,711292387,535 WELHAM RD,140810 ONTARIO LTD,BARRIE,ON,L4N 8Z6,CA,(705) 7396999,44.3435302338829,-79.6699971619191,,,0
MARK'S WORK WEARHOUSE,711292896,27 Caplan Avenue,,Barrie,ON,L4N 6K3,CA,(705) 7393512,44.3376358165232,-79.6896245863545,,,0
DSW,711292398,110 PARK PLACE BOULEVARD,,BARRIE,ON,L4N 6N5,CA,,44.3368537264172,-79.6809685624446,,,0
THE SHOE COMPANY,711293651,33 MAPLEVIEW DRIVE W,,BARRIE,ON,L4M 4S7,CA,,44.3345883986964,-79.6883767061378,,,0
TSC STORES,711293737,1105 WALLACE AVENUE N,,LISTOWEL,ON,N4W 1R4,CA,,43.7438451,-80.9434077,,,0
GERBER'S WORKWEAR LTD,711292474,235 WALLACE AVE N,,LISTOWEL,ON,N4W 1L1,CA,(519) 2911400,43.7327087,-80.9522607,,,0
KNAPP'S DEPARTMENT STORE,711292564,165 WALLACE AVENUE N,,LISTOWEL,ON,N4W 1K8,CA,(519) 2914750,43.7322593,-80.9528094,,,0
MARK'S WORK WEARHOUSE,711293037,490 Mitchell Road S,,Listowel,ON,N4W 3G7,CA,(519) 2916753,43.7327591946309,-80.9681182550336,,,0
GERBER'S WORKWEAR LTD,711292475,7031 PERTH ROAD 147,,ATWOOD,ON,N0G 1B0,CA,(519) 3568885,43.74753,-81.04355,,,0
,, ,,Swanson,ON,P0S,CA,,48.45541,-84.53314,,,0
,, ,,Swanson,SK,S0L,CA,,51.69612,-107.14228,,,0
GOULD'S FOOTWEAR,711292507,26 WALTON STREET,,PORT HOPE,ON,L1A 1M9,CA,(905) 8854051,43.951152,-78.292834,,,0
MARK'S WORK WEARHOUSE,711292709,1125A Elgin Street W,,Cobourg,ON,K9A 5T9,CA,(905) 3738862,43.9710637804878,-78.2006718292683,,,0
NOURISH YOUR SOLE,711293259,727 WILLIAM STREET,,COBOURG,ON,K9A 3A7,CA,(905) 3770627,43.9690739473684,-78.1887152631579,,,0
BEEBE BOOT SHOP LTD,711291988,33 KING STREET WEST,,COBOURG,ON,K9A 2M1,CA,(905) 3729464,43.959723125,-78.16663875,,,0
COBOURG SAFETY,711292355,210 WILMOTT ST  BOX 1216,,COBOURG,ON,K9A 0E9,CA,(180) 8281020,43.9654697777778,-78.135534,,,0
BATTAGLIA FOOTWEAR,711291970,9511 LUNNY LANE,,CAMPBELLCROFT,ON,L0A 1B0,CA,(705) 9325311,44.0933598526601,-78.377444581344,,,0
MARK'S WORK WEARHOUSE,711293038,4902 69 Avenue,,Cold Lake,AB,T9M 1Z9,CA,(780) 5944343,54.4352447213423,-110.203687906853,,,0
CHAUSSURES HUSKY LTEE,711292151,720 BOUL DE L'INDUSTRIE,,ST-PAUL,QC,J0K 3E0,CA,(450) 7564472,45.9923727906977,-73.4539495348837,,,0
CHAUSSURES RUBINO,711292210,537 RUE NOTRE-DAME,,JOLIETTE,QC,J6E 3H6,CA,(450) 7521771,46.0233008108108,-73.4400802702703,,,0
CHAUSSURES YELLOW,711292254,1140 - 877 BOULEVARD FIRESTONE,,JOLIETTE,QC,J6E 2W4,CA,(450) 7564940,46.032406,-73.431577,,,0
MARK'S WORK WEARHOUSE,711292690,1075 Boul Firestone,,Joliette,QC,J6E 6X6,CA,(450) 7526400,46.0339740481213,-73.4260442694245,,,0
SEARS,711293326,1195 BOULEVARD FIRESTONE,,JOLIETTE,QC,J6E 2W4,CA,,46.0342018260219,-73.4230418815826,,,0
MARK'S WORK WEARHOUSE,711292938,312 Old Val D'Amour Road,,Atholville,NB,E3N 4E2,CA,(506) 7532255,47.9828029,-66.695458,,,0
MARK'S WORK WEARHOUSE,711292832,2 Chilkoot Way,,Whitehorse,YT,Y1A 6T5,CA,(867) 6338457,60.73049,-135.07305,,,0
,,3098 Maple Ave,,Ridgeway,ON,L0S,CA,,42.8996,-79.02991,,,0
,,199 Maple Leaf Ave S,,Ridgeway,ON,L0S,CA,,42.87218,-79.04121,,,0
,,179 Maple Leaf Ave N,,Ridgeway,ON,L0S,CA,,42.87948,-79.04137,,,0
,,498 Northern St,,Vancouver,BC,V6A,CA,,49.27096,-123.09362,,,0
,,7598 Northumberland Ave,,Vancouver,BC,V5S,CA,,49.2155,-123.02611,,,0
SEARS,711293380,32900 S. FRASER WAY,SEVEN OAKS MALL,ABBOTSFORD,BC,V2S 5A1,CA,,49.0509258823529,-122.311945098039,,,0
RONSONS,711293295,335 - 32900 SOUTH FRASER WAY,,ABBOTSFORD,BC,V2S 5A1,CA,(604) 7464272,49.05094,-122.31232,,,0
MARK'S WORK WEARHOUSE,711292886,2545 Mccallum Road,,Abbotsford,BC,V2S 3R1,CA,(604) 8591363,49.04836,-122.29372,,,0
SHOE WAREHOUSE,711293491,500 NOTRE DAME DRIVE,,KAMLOOPS,BC,V2C 6T6,CA,,50.66323,-120.35131,,,0
MARK'S WORK WEARHOUSE,711293142,72 700 Tranquille Road,,Kamloops,BC,V2B 3H9,CA,(250) 5541334,50.6968329,-120.3592851,,,0
SEARS,711293334,1320 TRANS CANADA HWY W #400,ABERDEEN MALL,KAMLOOPS,BC,V1S 1V4,CA,,50.65544,-120.369740816327,,,0
MARK'S WORK WEARHOUSE,711292750,1395 Hillside Drive,,Kamloops,BC,V2E 2R7,CA,(250) 3722888,50.6546589137191,-120.377142577081,,,0
SEARS,711293362,2399 PARKDALE AVE,1000 ISLANDS MALL,BROCKVILLE,ON,K6V 3G9,CA,,44.60479,-75.69913,,,0
MARK'S WORK WEARHOUSE,711292865,220B Crocker Crescent,,Brockville,ON,K6V 7N5,CA,(613) 3457744,44.6164164593892,-75.6904485106705,,,0
TSC STORES,711293747,160 BROOME ROAD,,BROCKVILLE,ON,K6V 5V9,CA,,44.6174772018581,-75.6858033731329,,,0
MARK'S WORK WEARHOUSE,711292979,397 Bayfield Road,,Goderich,ON,N7A 4E9,CA,(519) 5246288,43.72876,-81.7058566666667,,,0
TSC STORES,711293776,400 BAYFIELD ROAD,,GODERICH,ON,N7A 4E7,CA,,43.7299740540541,-81.7058813513514,,,0
WUERTH SHOES LTD,711293876,142 COURTHOUSE SQUARE,,GODERICH,ON,N7A 1M9,CA,(519) 5247432,43.7432492603087,-81.7101779765278,,,0
MILLBANK COUNTRY HARDWARE INC.,711293225,6980 MAIN STREET,,MILLBANK,ON,N0K 1L0,CA,(519) 5954212,43.51655,-81.39813,,,0
WORK AUTHORITY,711293837,3311 SIMCOE 89,TANGER OUTLETS,COOKSTOWN,ON,L0L 1L0,CA,(705) 4580118,44.57978,-79.8603,,,0
MARK'S WORK WEARHOUSE,711293147,75 45 Street S,,Wasaga Beach,ON,L9Z 1A7,CA,(705) 4295868,44.47254,-80.0759927906977,,,0
MARK'S WORK WEARHOUSE,711292790,16825 Highway 12,,Midland,ON,L4R 0A9,CA,(705) 5261301,44.729875,-79.872225,,,0
SPI SECURITE JONQUIERE,711293527,23 DUKE STREET,,DRYDEN,ON,P8N 1E6,CA,(807) 2234548,49.7820455,-92.8397385,,,0
FOUR SEASONS FOOTWEAR & ACC,711292466,34 WHYTE AVENUE,BOX 756,DRYDEN,ON,P8N 1Z2,CA,(807) 2232129,49.78425,-92.83887,,,0
MARK'S WORK WEARHOUSE,711293000,409 Government Street,,Dryden,ON,P8N 2P4,CA,(807) 2237968,49.7861817523006,-92.8305657438682,,,0
BOUTIK DU TRAVAILLEUR,711292001,1004 ANE DU PALAIS,,ST. JOSEPH DE BEAUCE,QC,G0S 2V0,CA,(418) 3974026,46.30644,-70.88083,,,0
ADEN FOOTWEAR,711291934,669 DUNDAS STREET,,WOODSTOCK,ON,N4S 1E5,CA,(519) 5372336,43.131275,-80.748548125,,,0
MARK'S WORK WEARHOUSE,711293072,515 Norwich Avenue,,Woodstock,ON,N4S 9A2,CA,(519) 4219675,43.1153020930233,-80.7376402325581,,,0
TSC STORES,711293743,1344 DUNDAS STREET E,,WOODSTOCK,ON,N4S 7V9,CA,,43.1365619230769,-80.7117707692308,,,0
,,,,Swift Current,NL,A0E1S0,CA,,47.883333,-54.25,,,0
,,,,Swift Current,Sk,S9H1W6,CA,,50.29276,-107.80055,,,0
JOYNES DEPT STORE,711293902,105 WISCONSIN STREET,,GRAND MARAIS,,55604,US,,47.7493,-90.33457,,,0
,,,,Peace River,Bc,V1G4E6,CA,,55.82533,-120.27089,,,0
,,,,Peace River,Ab,T8S1R7,CA,,56.23297,-117.29038,,,0
CHAUSSURES YELLOW,711292266,122 BOULEVARD PERRON O,,NEW RICHMOND,QC,G0C 2B0,CA,(418) 3927400,48.1622529,-65.8577566,,,0
MAGASIN ANDRE LANDRY ENR,711292648,634 RUE PERRON,,CARLETON,QC,G0C 1Y0,CA,(418) 3643494,48.1018122644413,-66.1216636236191,,,0
APPARA SHOES 679224 AB LTD,711291959,5156 - 51 ST  BOX 6868,,DRAYTON VALLEY,AB,T7A 1S2,CA,(780) 6211625,53.2232358440888,-114.97825,,,0
MARK'S WORK WEARHOUSE,711293074,5203 Power Centre Blvd,,Drayton Valley,AB,T7A 0A5,CA,(780) 5426157,53.2239912659494,-115.001018007679,,,0
ENTREPRISES J.E. GOULET,711292437,17 RUE SAINT ALPHONSE,,STE-LUCE,QC,G0K 1P0,CA,(418) 7394219,48.5307773,-68.349793,,,0
J.E. GOULET,711292542,17 RUE SAINT ALPHONSE,,SAINTE-LUCE,QC,G0K 1P0,CA,(418) 7394219,48.5307773,-68.349793,,,0
TSC STORES,711293740,1200 PEMBROKE STREET W,,PEMBROKE,ON,K8A 7T1,CA,,45.8322978938044,-77.1459113653276,,,0
VALLEY WORKWEAR,711293803,2 - 680 PEMBROKE STREET E,,PEMBROKE,ON,K8A 3M2,CA,(613) 7358290,45.82667,-77.11085,,,0
MARK'S WORK WEARHOUSE,711292702,1100 Pembroke Street E,,Pembroke,ON,K8A 6Y7,CA,(613) 7352521,45.8185852129771,-77.0782426938538,,,0
MARK'S WORK WEARHOUSE,711292812,180 Madawaska Road,,Grand-Sault/Grand Falls,NB,E3Y 1A7,CA,(506) 4734541,47.05371,-67.74414,,,0
MARK'S WORK WEARHOUSE,711293189,9123 Commercial Street,,New Minas,NS,B4N 3E6,CA,(902) 6811228,45.0672737751013,-64.4521770912392,,,0
SEARS,711293437,9256 COMMERCIAL STREET,,NEW MINAS,NS,B4N 4A9,CA,,45.0682653329185,-64.4433622451772,,,0
SURPLUS DU NORD,711293555,362 RUE PRINCIPALE,,LA SARRE,QC,J9Z 1Z5,CA,(819) 3332820,48.8012475,-79.20532,,,0
CHAUSSURES YELLOW,711292330,77 2E RUE E,,LA SARRE,QC,J9Z 3G8,CA,(819) 3336893,48.8120639951613,-79.2002897598264,,,0
,, ,,North Shore,NS,B0C,CA,,46.42368,-60.4778,,,0
,, ,,North Shore,NS,B0K,CA,,45.79566,-63.34768,,,0
,, ,,North Shore,PE,C0A,CA,,46.37403,-63.12171,,,0
,, ,,North Shore,NL,A0G,CA,,48.6845,-54.02839,,,0
BECKER SHOES,711291973,73 HURONTARIO STREET,,COLLINGWOOD,ON,L9Y 2L7,CA,(705) 4454641,44.500984,-80.2170508,,,0
TSC STORES,711293783,466 HUME STREET,,COLLINGWOOD,ON,L9Y 1W6,CA,,44.49856,-80.20031,,,0
MARK'S WORK WEARHOUSE,711293098,59 Balsam Street,,Collingwood,ON,L9Y 3Y6,CA,(705) 4441229,44.5038103642352,-80.2350495293924,,,0
,,98 Brant Ave,,Norfolk,ON,N0A,CA,,42.78396,-80.19722,,,0
,,619 Brantford Rd,,Norfolk,ON,N0E,CA,,42.89615,-80.4661,,,0
,,13 Brantford Rd,,Norfolk,ON,N4B,CA,,42.85852,-80.47363,,,0
,,819 Brantford Rd,,Norfolk,ON,N0E,CA,,42.91098,-80.45981,,,0
,,1353 Brantford Rd,,Norfolk,ON,N0E,CA,,42.93752,-80.42849,,,0
,,1877 Brantford Rd,,Norfolk,ON,N0E,CA,,42.96395,-80.39772,,,0
,,2 Brant St,,Norfolk,ON,N3Y,CA,,42.82227,-80.2967,,,0
,,2 Brant Pky,,Norfolk,ON,N0E,CA,,42.57978,-80.42003,,,0
MARK'S WORK WEARHOUSE,711293016,44 Livingston Avenue,,Grimsby,ON,L3M 1L1,CA,(905) 3093281,43.19617,-79.56964,,,0
BECKER SHOES,711291974,790 QUEEN STREET,,Kincardine,ON,N2Z 2Y2,CA,(519) 3962902,44.1770451612903,-81.6352187096774,,,0
TSC STORES,711293748,1600 BRUCE ROAD,,WALKERTON,ON,N0G 2V0,CA,,44.37301,-81.43833,,,0
BECKER SHOES,711291972,636 GODERICH STREET,,Port Elgin,ON,N0H 2C1,CA,(519) 3895777,44.43668,-81.3885,,,0
MARK'S WORK WEARHOUSE,711292954,34 Rideout Street,,Moncton,NB,E1E 1E2,CA,(506) 3827378,46.0764372268602,-64.8269427613868,,,0
THE SHOE COMPANY,711293588,171 TRINITY DRIVE,,MONCTON,NB,E1G 2E7,CA,,46.1147481417492,-64.8355974330033,,,0
MARK'S WORK WEARHOUSE,711292787,165 Trinity Drive,,Moncton,NB,E1G 2J7,CA,(506) 8578820,46.1148072306837,-64.8350604606266,,,0
SERV. SHOE REPAIR & BOOT SHOP,711293446,55 MECHANIC STREET,,MONCTON,NB,E1C 4V4,CA,(506) 3893000,46.0887580487805,-64.7738690243902,,,0
MARK'S WORK WEARHOUSE,711292810,18 Champlain Street,,Dieppe,NB,E1A 1N3,CA,(506) 8578810,46.0933858823529,-64.75981,,,0
SEARS,711293388,43 RUE CHAMPLAIN,CHAMPLAIN PLACE,DIEPPE,NB,E1A 4T2,CA,,46.09368,-64.7582190909091,,,0
MARK'S WORK WEARHOUSE,711292880,25 57 Columbia Drive,,Marystown,NL,A0E 2M0,CA,(709) 2793706,47.165781033442,-55.1573118433402,,,0
GROUPE FILLION SPORTS INC.,711292518,200 AVE ROULEAU,,RIMOUSKI,QC,G5L 5S9,CA,(418) 7233425,48.4454146153846,-68.52987,,,0
CHAUSSURES FILLION,711292129,200 AVENUE ROULEAU,,RIMOUSKI,QC,G5L 5S9,CA,(418) 7233425,48.4454146153846,-68.52987,,,0
SECURITE MEDIC ENR,711293443,370 2E RUE EST,,RIMOUSKI,QC,G5L 7J5,CA,(418) 7236888,48.45495,-68.50319,,,0
CHAUSSURES YELLOW,711292306,421 MONTEE INDUSTRIELLE-ET-COMMERCIALE,,RIMOUSKI,QC,G5M 1Y1,CA,(418) 7244554,48.4545977,-68.4946075,,,0
MARK'S WORK WEARHOUSE,711292999,405 Montee Industrielle et Commerciale,,Rimouski,QC,G5M 1Y1,CA,(418) 7253225,48.4552424,-68.4950213,,,0
SHOE WAREHOUSE,711293477,2111 MAIN STREET,,PENTICTON,BC,V2A 6W6,CA,,49.4747783600199,-119.582821234124,,,0
MARK'S WORK WEARHOUSE,711292893,2607 Skaha Lake Road,,Penticton,BC,V2A 6E8,CA,(250) 4938448,49.4673569716873,-119.585438389367,,,0
MARK'S WORK WEARHOUSE,711293191,92 Water St.,,Minden,ON,K0M 2K0,CA,(705) 2864899,44.5643557648269,-78.9769815883068,,,0
MARK'S WORK WEARHOUSE,711292970,363 Kent Street,,Lindsay,ON,K9V 2Z7,CA,(705) 8788908,44.3508066666667,-78.7565766666667,,,0
TSC STORES,711293778,44 GREENFIELD ROAD,,LINDSAY,ON,K9V 4R2,CA,,44.3454364768727,-78.7667794273368,,,0
WHITE BROS OF LINDSAY LTD,711293812,7 RUSSELL STREET W,,LINDSAY,ON,K9V 2W5,CA,(705) 3243350,44.3541525,-78.73449,,,0
MARK'S WORK WEARHOUSE,711292720,11801 100 Street,,Grande Prairie,AB,T8V 3Y2,CA,(780) 5381272,55.1868838709677,-118.794695591398,,,0
SHOE WAREHOUSE,711293464,11801 100TH STREET,,GRANDE PRAIRIE,AB,T8V 3Y2,CA,,55.1868838709677,-118.794695591398,,,0
EDWARD'S FACTORY OUTLET,711292429,9932 121 AVE,,GRANDE PRAIRIE,AB,T8V 4J1,CA,(780) 5321094,55.1895017755913,-118.792085673423,,,0
THE SHOE COMPANY,711293567,11521 WESTGATE DRIVE,,GRANDE PRAIRIE,AB,T8V 3B1,CA,,55.17104,-118.83842,,,0
SEARS,711293330,12429 99TH STREET,SEARS CENTRE,GRANDE PRAIRIE,AB,T8V 2H6,CA,,55.1950228643216,-118.791626482412,,,0
MARK'S WORK WEARHOUSE,711293203,9821 116 Street,,Grande Prairie,AB,T8W 0C7,CA,(780) 5329233,55.1683626829268,-118.846199268293,,,0
CHAUSSURES FILLION,711292140,648 RUE TACHE,,SAINT-PASCAL,QC,G0L 3Y0,CA,(418) 7217925,47.52524,-69.80375,,,0
CHAUSSURES FILLION,711292136,602 4TH AVENUE PAINCHAUD,,LA POCATIERE,QC,G0R 1Z0,CA,(418) 8569903,47.3689868,-70.0368052,,,0
MARK'S WORK WEARHOUSE,711292798,175 Route 230 Ouest,,La Pocatiere,QC,G0R 1Z0,CA,(418) 8562474,47.3600494,-70.0528803,,,0
MERCERIE REJEAN GAUVIN INC,711293218,55 RUE PRINCIPALE,,SAINT PAMPHILE,QC,G0R 3X0,CA,(418) 3563115,46.9614733333333,-69.77966,,,0
TSC STORES,711293762,231 LOMBARD STREET,,SMITHS FALLS,ON,K7A 5B8,CA,,44.8815691300995,-76.0363737782381,,,0
MARK'S WORK WEARHOUSE,711292734,126 Wilson Street W,,Perth,ON,K7H 2P3,CA,(613) 2640059,44.9094,-76.26358,,,0
EARLTON COUNTRY STORE,711292428,69 10TH AVE,,EARLTON,ON,P0J 1E0,CA,(705) 5632671,47.70812,-79.82439,,,0
MARK'S WORK WEARHOUSE,711292770,15 900 Gibsons Way,,Gibsons,BC,V0N 1V7,CA,(604) 8864626,49.4068786,-123.5196025,,,0
MARK'S WORK WEARHOUSE,711292931,308 5500 Sunshine Coast Highway,,Sechelt,BC,V0N 3A0,CA,(604) 8855858,49.474611,-123.7469692,,,0
COBLER CORNER,711292354,287 King Street,,Bridgewater,NS,B4V 1A8,CA,(902) 5433199,44.37396,-64.51269,,,0
MARK'S WORK WEARHOUSE,711293009,421 LaHave Street,,Bridgewater,NS,B4V 3A2,CA,(902) 5272862,44.378238639473,-64.5144414865486,,,0
MARK'S WORK WEARHOUSE,711293152,7725 100 Avenue,,Peace River,AB,T8S 1M5,CA,(780) 6245456,56.2328,-117.339507473156,,,0
MARK'S WORK WEARHOUSE,711293128,6639 Highway 16A W,,Vegreville,AB,T9C 0A3,CA,(780) 6323941,53.5012672,-112.0799934,,,0
MARK'S WORK WEARHOUSE,711292656,1 2352 Sisson Drive,,Portage La Prairie,MB,R1N 0G5,CA,(204) 2398220,49.9753203,-98.3248131,,,0
,,,,New Glasgow,PE,C0A1N0,CA,,46.41003,-63.348518,,,0
,,,,New Glasgow,NS,B2H4J2,CA,,45.59183,-62.64341,,,0
NELSON'S WESTERN BOOT SHOP,711293252,203 LANSDOWNE STREET E,,PETERBOROUGH,ON,K9L 1R1,CA,(705) 7451061,44.2900685714286,-78.2967051428571,,,0
TSC STORES,711293745,147 LANSDOWNE STREET E,,PETERBOROUGH,ON,K9J 7P7,CA,,44.289396696787,-78.2998161440212,,,0
SEARS,711293414,637 LANSDOWNE STREET WEST,LANSDOWNE PLACE,PETERBOROUGH,ON,K9J 7C5,CA,,44.2852552631579,-78.33204,,,0
THE SHOE COMPANY,711293722,950 LANSDOWNE STREET W,,PETERBOROUGH,ON,K9J 1Z9,CA,,44.2826102564103,-78.3425964102564,,,0
MARK'S WORK WEARHOUSE,711292710,1135 Lansdowne Street W,,Peterborough,ON,K9J 7M2,CA,(705) 7489570,44.2810953846154,-78.34867,,,0
MARK'S WORK WEARHOUSE,711293059,500 2 Avenue W,,Prince Rupert,BC,V8J 3T6,CA,(250) 6222388,54.3131408,-130.3278141,,,0
SEARS,711293442,RR # 7 - 167 MALPEQUE ROAD,,CHARLOTTETOWN,PE,C1A 7J9,CA,,46.26717,-63.1488,,,0
MARK'S WORK WEARHOUSE,711292849,202 Buchannan Drive,,Charlottetown,PE,C1E 2H8,CA,(902) 5665668,46.2638741814397,-63.149367675668,,,0
THE SHOE COMPANY,711293571,135 SANDSTONE ROAD,,CHARLOTTETOWN,PE,C1E 2E3,CA,,46.2632794949495,-63.1519858585859,,,0
MARK'S WORK WEARHOUSE,711293180,89D Jim Kimmett Blvd,,Napanee,ON,K7R 3L2,CA,(613) 3546213,44.2594669387755,-76.9696418367347,,,0
,,,,St Marys,NB,E6C1A6,CA,,46.14446,-66.61642,,,0
,,,,St Mary'S,NL,A0B3B0,CA,,46.91233,-53.5756,,,0
,,,,St Mary'S,Ns,B0H1M0,CA,,45.26347,-62.04414,,,0
,,,,St Marys,ON,N4X1A1,CA,,43.25949,-81.14142,,,0
MARK'S WORK WEARHOUSE,711293132,699 Central Street W,,Prince George,BC,V2M 3C6,CA,(250) 5639676,53.9188252272727,-122.782167727273,,,0
SHOE WAREHOUSE,711293481,3117 MASSEY DRIVE,,PRINCE GEORGE,BC,V2N 2S9,CA,,53.8995685508331,-122.780182450862,,,0
SEARS,711293377,3199 MASSEY DRIVE,PINE CENTRE,PRINCE GEORGE,BC,V2N 3M7,CA,,53.8995640561644,-122.780717316435,,,0
MARK'S WORK WEARHOUSE,711293095,5750 Southridge Avenue,,Prince George,BC,V2N 7A1,CA,(250) 9643481,53.8646923827392,-122.783771726079,,,0
THE SHOE COMPANY,711293680,6007 SOUTHRIDGE AVENUE,,PRINCE GEORGE,BC,V2N 6Z4,CA,,53.8644995488722,-122.783783778195,,,0
TSC STORES,711293735,1090 10TH STREET W,,OWEN SOUND,ON,N4K 5N7,CA,,44.5628757142857,-80.9649889795918,,,0
BECKER SHOES,711291977,932 2ND AVENUE E,,OWEN SOUND,ON,N4K 2H6,CA,(519) 3766530,44.5663054,-80.943371,,,0
SEARS,711293338,1350 - 16TH STREET EAST,HERITAGE PLACE MALL,OWEN SOUND,ON,N4K 6N7,CA,,44.5741628282828,-80.9216897979798,,,0
MARK'S WORK WEARHOUSE,711292785,1605 16 Street E,,Owen Sound,ON,N4K 5N3,CA,(519) 3762677,44.574597755102,-80.9180640816327,,,0
SPI SECURITE JONQUIERE,711293533,47 PENINSULA ROAD,,MARATHON,ON,P0T 2E0,CA,(807) 2291853,48.72227,-86.37605,,,0
BUSHWACKED INC.,711292095,2 HEMLO DRIVE,,MARATHON,ON,P0T 2E0,CA,(807) 2291115,48.7216400048247,-86.3736037267812,,,0
CHAUSSURES FAMILIALES,711292119,872 RUE DE ST. JOVITE,,MONT TREMBLANT,QC,J8E 3J8,CA,(819) 4258221,46.1187104,-74.5923953,,,0
MARK'S WORK WEARHOUSE,711292996,400 Sandwich Street S,,Amherstburg,ON,N9V 3L4,CA,(519) 7369334,42.09741,-83.10814,,,0
COUNTY FARM CENTRE LTD.,711292379,38 COLD STORAGE RD,,PRINCE EDWARD,ON,K0K 2T0,CA,(613) 4762171,44.0010284398699,-77.156733586027,,,0
RED TOP GROCERY & FOOTWEAR,711293274,3303 - 43 AVENUE,,VERNON,BC,V1T 3L7,CA,(250) 5423132,50.27474,-119.275445,,,0
SHOE WAREHOUSE,711293485,"410, 4400 32ND STREET",,VERNON,BC,V1T 9H2,CA,,50.2762268,-119.2753038,,,0
MARK'S WORK WEARHOUSE,711292874,2401 58 Avenue,,Vernon,BC,V1T 9T5,CA,(250) 5422380,50.288532,-119.2624741,,,0
MARK'S WORK WEARHOUSE,711293027,454 County Road 17,,Hawkesbury,ON,K6A 2R2,CA,(613) 6325588,45.5892358,-74.5886752,,,0
BRUNET & WYLIE LTD,711292094,4970 MILL STREET,,ST.EUGENE,ON,K0B 1P0,CA,(613) 6742166,45.4998741666667,-74.4647375,,,0
TSC STORES,711293774,2979 COUNTY ROAD 43,,KEMPTVILLE,ON,K0G 1J0,CA,,45.00355,-76.46254,,,0
MARK'S WORK WEARHOUSE,711292715,1150 Lakeside Drive,,Nelson,BC,V1L 5Z3,CA,(250) 3522577,49.4992020111979,-117.290444123181,,,0
TSC STORES,711293749,164 - 190 HOLLAND STREET W,,BRADFORD,ON,L3Z 2A9,CA,,44.1128830434783,-79.571137826087,,,0
BRADFORD RENTAL SALES & SERV.,711292015,192 BRIDGE STREET,,BRADFORD,ON,L3Z 3H2,CA,(905) 7757101,44.1143764846578,-79.5503899166448,,,0
MARK'S WORK WEARHOUSE,711292872,23558 Woodbine Avenue,,Keswick,ON,L4P 0E2,CA,(905) 4763284,44.2188463157895,-79.4449235087719,,,0
CHAUSSURES MAXIME,711292166,3671 BLVD BECANCOUR,,BECANCOUR,QC,G9H 3W7,CA,(819) 2982498,46.4001744,-72.2797279,,,0
BOLDUC CHAUSSURES LTEE,711291996,5465 RUE PAPINEAU,,LAC MEGANTIC,QC,G6B 0C8,CA,(819) 5831688,45.57805,-70.88194,,,0
CORDONNERIE PALMA,711292377,4867 RUE LAVAL,,LAC MEGANTIC,QC,G6B 1C9,CA,(819) 5831152,45.57883,-70.88688,,,0
MARK'S WORK WEARHOUSE,711293035,480 Sarah Road,,Invermere,BC,V0A 1K3,CA,(250) 3416953,50.5147667392604,-116.009366521479,,,0
MARK'S WORK WEARHOUSE,711292743,1326 Island Highway,,Campbell River,BC,V9W 8C9,CA,(250) 2863444,50.0313389595991,-125.245951517589,,,0
MARK'S WORK WEARHOUSE,711292897,2702 15 Avenue,,Wainwright,AB,T9W 0A4,CA,(780) 8423244,52.844595,-110.8328087,,,0
MARK'S WORK WEARHOUSE,711292731,1229 Highway 17 E,,Kenora,ON,P9N 1L9,CA,(807) 4682380,49.7599093383811,-94.4716898710625,,,0
GRANT'S FOOTWEAR LTD,711292509,130 MAIN ST,,GRAND FALLS,NL,A2B 1A6,CA,(709) 4897954,48.9505,-55.6591,,,0
BERNARD LACASSE VETEMENT,711291993,521 DE LA MADONE,9092-4119 QUEBEC LTD,MONT LAURIER,QC,J9L 1S4,CA,(819) 6232277,46.5524249,-75.4985715,,,0
CHAUSSURES YELLOW,711292345,939 BOULEVARD ALBINY-PAQUETTE,,MONT-LAURIER,QC,J9L 3J1,CA,(819) 6231479,46.5522403,-75.4864792,,,0
MARK'S WORK WEARHOUSE,711292706,1110 Gateway Avenue,,Canmore,AB,T1W 0J1,CA,(403) 6789538,51.0926724,-115.355099,,,0
MONOD SPORTS,711293248,129 BANFF AVENUE,,BANFF,AB,T1L 1A4,CA,(403) 7624571,51.17501,-115.57111,,,0
BOUTIQUE GUY GILBERT INC,711292007,1283 BOUL DU SACRE-COEUR,,ST. FEILICIEN,QC,G8K 2R1,CA,(418) 6790756,48.65586,-72.4514,,,0
CHAUSSURES YELLOW,711292267,1224 BOULEVARD MARCOTTE,,ROBERVAL,QC,G8H 2P2,CA,(418) 2755504,48.5243677889546,-72.2339833668638,,,0
LES VARIETES L.C.R. INC,711292594,946 BOULEVARD MARCOTTE,,ROBERVAL,QC,G8H 2A6,CA,(418) 2752264,48.5199262,-72.2253949,,,0
MARK'S WORK WEARHOUSE,711292972,3664 Highway 16 East,,Smithers,BC,V0J 2N6,CA,(250) 8474344,54.2151354564145,-125.718583244036,,,0
MARK'S WORK WEARHOUSE,711293032,4717 Lakelse Avenue,,Terrace,BC,V8G 1R5,CA,(250) 6358148,54.5169636734694,-128.593848979592,,,0
MARK'S WORK WEARHOUSE,711292908,2929 Green Road,,Duncan,BC,V9L 0C1,CA,(250) 7461570,48.7994035,-123.7171885,,,0
PAUL'S NEW & USED STORE,711293266,93 GOVERNMENT ROAD W,,KIRKLAND LAKE,ON,P2N 2E7,CA,(705) 5677636,48.14837,-80.04032,,,0
GOLDEN MILE FOOTWEAR,711292503,42 GOVERNMENT ROAD W,,KIRKLAND LAKE,ON,P2N 2E2,CA,(705) 5675526,48.150087043961,-80.0360361927173,,,0
MARK'S WORK WEARHOUSE,711293129,68 McNaughton Avenue,,Wallaceburg,ON,N8A 1R9,CA,(519) 6278847,42.5856211864952,-82.3831348408679,,,0
RENYS,711294129,175 High Street,,Ellsworth,,04605,US,,44.5355168421053,-68.4114968421053,,,0
B & H WHOLESALERS,711291968,1530 BRIDGE STREET,,KINGSTON,NS,B0P 1R0,CA,(902) 7652272,44.9857742222222,-64.9490873333333,,,0
MARK'S WORK WEARHOUSE,711293144,730 Central Avenue,,Greenwood,NS,B0P 1N0,CA,(902) 7654368,44.9688133333333,-64.9388111111111,,,0
MARK'S WORK WEARHOUSE,711293015,438 McNeely Avenue,,Carleton Place,ON,K7C 0A6,CA,(613) 2577105,45.1370855962156,-76.1240843539952,,,0
GRAHAM'S SHOES,711292508,139 BRIDGE ST,,CARLETON PLACE,ON,K7C 2V6,CA,(613) 2573727,45.13968,-76.14585,,,0
,,,,Bass River,NB,E4T3Y6,CA,,46.531876,-65.050652,,,0
,,,,Bass River,NS,B0M1B0,CA,,45.422948,-63.998502,,,0
MARK'S WORK WEARHOUSE,711293018,4406 50 Avenue,,Bonnyville,AB,T9N 1B7,CA,(780) 8267601,54.2679603030303,-110.727464848485,,,0
CHAUSSURES R. LECLERS INC,711292170,821 RUE ROYAL,,MALARTIC,QC,J0Y 1Z0,CA,(819) 7574660,48.135342359893,-78.1254308997324,,,0
LANGLAIS SPORTS INC,711292570,38 MAIN OUEST,,COATICOOK,QC,J1A 1P2,CA,(819) 8496111,45.1324881490441,-71.805991578357,,,0
,,36181 Richmond St,,Centralia,ON,N0M,CA,,43.28437,-81.46804,,,0
,,69451 Richmond St,,Centralia,ON,N0M,CA,,43.28193,-81.46754,,,0
MAGASIN LAINESSE INC,711292651,133 RUE NOTRE DAME EST,,VICTORIAVILLE,QC,G6P 3Z8,CA,(819) 7522783,46.0566843257332,-71.9560039107682,,,0
MARK'S WORK WEARHOUSE,711293020,449 Boul Jutras E,,Victoriaville,QC,G6P 7H4,CA,(819) 7954845,46.0560593,-71.9416509,,,0
CHAUSSURES YELLOW,711292252,1071 BOULEVARD JUTRAS E,,VICTORIAVILLE,QC,G6S 1J1,CA,(819) 3575541,46.0611238,-71.9254351,,,0
CHAUS J.G. CROTEAU INC,711292112,2265 RUE NOTRE DAME O,,VICTORIAVILLE,QC,G6T 2C7,CA,(819) 7588825,46.0352,-72.02388,,,0
BOUTIQUE 210,711292004,366 RUE DES BOULEAUX,,SAINTE-EULALIE,QC,G0Z 1E0,CA,(819) 2258088,46.1054814281826,-72.2399448346001,,,0
LES ENTREPRISES S.R.,711292579,2065 AVE ST LOUIS,,PLESSISVILLE,QC,G6L 2N8,CA,(819) 3623197,46.224637,-71.7783508,,,0
,,1229 Portugal Cove Rd,,Portugal Cove-St Philip's,NL,A1M,CA,,47.60678,-52.81086,,,0
,,1629 Portugal Cove Rd,,Portugal Cove-St Philip's,NL,A1M,CA,,47.62202,-52.83363,,,0
,, Port Mann Brg,,Coquitlam,BC,V3K,CA,,49.22015,-122.81222,,,0
,,2201 Portage Ave,,Coquitlam,BC,V3K,CA,,49.24498,-122.83148,,,0
,,800 Porter St,,Coquitlam,BC,V3J,CA,,49.26354,-122.86302,,,0
,,531 Perth Ave,,Coquitlam,BC,V3J,CA,,49.25374,-122.88997,,,0
LES VARIETES L.C.R. INC,711292587,1463 BOULEVARD WALBERG,,DOLBEAU-MISTASSINI,QC,G8L 1H5,CA,(418) 2769595,48.8791023,-72.2294809,,,0
CHAUSSURES YELLOW,711292269,1300 BOULEVARD WALLBERG,,DOLBEAU-MISTASSINI,QC,G8L 1H3,CA,(418) 2765442,48.8782343,-72.227824,,,0
,,498 Northern St,,Vancouver,BC,V6A,CA,,49.27096,-123.09362,,,0
,,7598 Northumberland Ave,,Vancouver,BC,V5S,CA,,49.2155,-123.02611,,,0
,, ,,West Bay Centre,NL,A0N,CA,,48.62577,-58.97295,,,0
,, ,,West Bay Centre,NS,B0E,CA,,45.72573,-61.2131,,,0
MARK'S WORK WEARHOUSE,711292975,380 Ryan's Well Drive,,Kemptville,ON,K0G 1J0,CA,(613) 2587468,45.0276724,-75.6337218,,,0
WALMAR,711293807,23 PRECISION ROAD,,KEMPTVILLE,ON,K0G 1J0,CA,(613) 2259774,45.0392852630888,-75.5879308771339,,,0
,, ,,Riverbend,MB,R2V,CA,,49.95989,-97.09657,,,0
,, ,,Riverbend,AB,T5Y,CA,,53.66848,-113.29991,,,0
,, ,,Riverbend,QC,G8B,CA,,48.56885,-71.64773,,,0
SPI SECURITE JONQUIERE,711293517,1022 MARIE-VICTORIN,,SOREL-TRACY,QC,J3R 1L4,CA,(1866) 8618111,46.0399355102041,-73.1284665306122,,,0
SEARS,711293408,525 RUE RAMESAY,LES PROMENADES DE SOREL,SOREL,QC,J3P 8B4,CA,,46.0253702219584,-73.107225718727,,,0
MARK'S WORK WEARHOUSE,711293012,431 Talisman Drive,,Gravenhurst,ON,P1P 0A7,CA,(705) 6878023,44.9039770072872,-79.3681957734883,,,0
MARK'S WORK WEARHOUSE,711293061,500 Highway 118 W,,Bracebridge,ON,P1L 1T2,CA,(705) 6451042,45.0435187961326,-79.3305916592164,,,0
FOOTPRINTS ON MUSKOKA,711292459,42 MANITOBA STREET,,BRACEBRIDGE,ON,P1L 1S1,CA,(705) 6370707,45.0410927506625,-79.3101714074923,,,0
MARK'S WORK WEARHOUSE,711293183,900 Carmichael Lane,,Hinton,AB,T7V 1Y6,CA,(780) 8651544,53.38213,-117.62661,,,0
ROCKY'S EQUIP SALES LTD,711293277,"805 HWY 33, PO BOX 479",,QUEEN CHARLOTTE CITY,BC,V0T 1S0,CA,(250) 0598311,53.97631,-128.64682,,,0
MARK'S WORK WEARHOUSE,711293081,534 Mountainview Square,,Kitimat,BC,V8C 2N2,CA,(250) 6324813,54.0523329610127,-128.649649774074,,,0
BELLA COOLA SUPPLY CO LTD,711291989,438 MACKENZIE STREET,,BELLA COOLA,BC,V0T 1C0,CA,(250) 7995553,52.37096,-126.75068,,,0
PAUL'S SHOES,711293267,205 MAIN STREET,,DELHI,ON,N4B 2M3,CA,(519) 5823911,42.8539926666667,-80.4988253333333,,,0
ALS FACTORY SHOE WAREHOUSE,711291950,135 KING GEORGE ROAD,,BRANTFORD,ON,N3R 5K7,CA,(519) 7593900,43.170931,-80.277013,,,0
MARK'S WORK WEARHOUSE,711293170,84 Lynden Road,,Brantford,ON,N3R 6B8,CA,(519) 7523098,43.1733746666667,-80.242096,,,0
SEARS,711293429,84 LYNDEN ROAD,LYNDEN PARK MALL,BRANTFORD,ON,N3R 5V1,CA,,43.1733746666667,-80.242096,,,0
CHAUSSURES YELLOW,711292250,105 AVENUE GUINDON,,SAINT-SAUVEUR,QC,J0R 1R6,CA,(450) 2270638,45.8926745679517,-74.1476848559839,,,0
WORK N PLAY,711293870,120 - 1700 GARCIA STREET,P.O. BOX 2,MERRITT,BC,V1K 1B8,CA,(250) 3785217,50.10387,-120.79156,,,0
MARK'S WORK WEARHOUSE,711292899,2761 Forksdale Avenue,,Merritt,BC,V1K 1R9,CA,(250) 3782849,50.12188,-120.761584285714,,,0
,,498 Northern St,,Vancouver,BC,V6A,CA,,49.27096,-123.09362,,,0
,,7598 Northumberland Ave,,Vancouver,BC,V5S,CA,,49.2155,-123.02611,,,0
,,498 Northern St,,Vancouver,BC,V6A,CA,,49.27096,-123.09362,,,0
,,7598 Northumberland Ave,,Vancouver,BC,V5S,CA,,49.2155,-123.02611,,,0
MARK'S WORK WEARHOUSE,711292738,130 Young Street,,Alliston,ON,L9R 1P8,CA,(705) 4344095,44.147655,-79.8849,,,0
TSC STORES,711293784,4874 CONCESSION ROAD 7,,ALLISTON,ON,L9R 1V1,CA,,44.1431490909091,-79.8983851515151,,,0
MARK'S WORK WEARHOUSE,711293033,4721 51 Street,,Whitecourt,AB,T7S 1N6,CA,(780) 7784173,54.1384331914894,-115.687184255319,,,0
JOBSITE WORKWEAR,711292554,3815 CAXTON STREET,,WHITECOURT,AB,T7S 0A2,CA,(780) 7068878,54.12533,-115.66283,,,0
,,,,Ville-de-Tracy,QC,J3R3A3,CA,,46.016667,-73.166667,,,0
,,,,Ville De Quebec,QC,G1R1A1,CA,,46.81274,-71.21935,,,0
,,,,La Vallee De L'Or,QC,J9P7E4,CA,,47.83264,-77.3568,,,0
,,,,St Felix De Valois,QC,J0K2M0,CA,,46.15618,-73.43101,,,0
,,,,Saint-Félix-de-Valois,QC,J0K2M0,CA,,46.166667,-73.416667,,,0
,,,,La Vallee De La Gatineau,QC,J0W2C0,CA,,47.25767,-76.70903,,,0
,,84 Brandon St,,Regina,SK,S4R,CA,,50.49783,-104.61113,,,0
,,5002 Brandy Ln,,Regina,SK,S4S,CA,,50.39923,-104.63971,,,0
,,3998 Brandy Lane Dr,,Regina,SK,S4S,CA,,50.39893,-104.64007,,,0
TSC STORES,711293775,321 MAIN STREET E,,GRIMSBY,ON,L3M 1R1,CA,,43.1849639467174,-79.516920753568,,,0
RON'S THE WORK WEAR STORE,711293281,1210 4TH STREET,,ESTEVAN,SK,S4A 0W9,CA,(306) 6348232,49.1405077777778,-102.995151111111,,,0
MARK'S WORK WEARHOUSE,711292993,400 King Street,,Estevan,SK,S4A 2B4,CA,(306) 6343261,49.1467615966387,-102.977001428571,,,0
MARTODAM'S THE CLOTHING PEOPLE,711293215,115 CENTRE STREET,,MEADOW LAKE,SK,S9X 1Y2,CA,(306) 2365521,54.131581010101,-108.43325,,,0
,,,,Big Bras D'Or,NS,B1X1A1,CA,,46.267883,-60.419068,,,0
,,,,Big Brook,NL,A0K1Z0,CA,,51.516667,-56.133333,,,0
,,,,Big Barachois,NL,A0B2Y0,CA,,47.133333,-54.066667,,,0
,,,,Beachberg,ON,K0J1V0,CA,,45.733333,-76.85,,,0
,,,,Beachburg,ON,K0J1V0,CA,,45.733333,-76.85,,,0
CHAUSSURES FILLION,711292144,9 ST-BENOIT BOULEVARD O,,AMQUI,QC,G5J 2C7,CA,(418) 6298112,48.46401,-67.42678,,,0
MARTODAM FAMILY RETAIL,711293214,118 MAIN STREET,,SPIRITWOOD,SK,S0J 2M0,CA,(306) 8832087,53.3650737362637,-107.519185824176,,,0
MARK'S WORK WEARHOUSE,711292998,40270 Glenalder Place,,Squamish,BC,V8B 0G2,CA,(604) 8925855,49.73507,-123.13286,,,0
,,,,Sainte-Catherine,QC,J5C1C7,CA,,45.4,-73.583333,,,0
,,,,Sainte-Catherine,QC,G3N0S7,CA,,46.85,-71.616667,,,0
,, ,,West Bay,NS,B0M,CA,,45.37215,-64.39182,,,0
,, ,,West Bay,NL,A0N,CA,,48.62577,-58.97295,,,0
,, ,,West Bay,BC,V7V,CA,,49.33623,-123.19526,,,0
,, ,,West Bay,NS,B0E,CA,,45.71081,-61.16968,,,0
,, ,,West Bay,ON,P0P,CA,,45.82674,-82.15885,,,0
,,,,Flin Flon,Mb,R8A1K2,CA,,54.76822,-101.87698,,,0
,,,,Flin Flon,Sk,S0P0A0,CA,,54.7602,-101.86911,,,0
CHAPLEAU VILLAGE SHOPS,711292107,8 BIRCH ST E,,CHAPLEAU,ON,P0M 1K0,CA,(705) 8641114,47.842845,-83.402406875,,,0
MARK'S WORK WEARHOUSE,711292716,1151 10 Avenue SW,,Salmon Arm,BC,V1E 1T3,CA,(250) 8329593,50.6941621,-119.2987257,,,0
MARK'S WORK WEARHOUSE,711293083,5440 46 Street,,Rocky Mountain House,AB,T4T 1B7,CA,(403) 8452099,52.3799787151281,-114.913289826383,,,0
,,,,Saint-Jacques,NL,A0H1B0,CA,,47.5,-55.45,,,0
,,,,Saint-Jacques,QC,J0K1T0,CA,,45.95,-73.583333,,,0
TURNERS,711293799,40 HILLSIDE DRIVE S,,ELLIOT LAKE,ON,P5A 1M7,CA,(705) 8470488,46.3812,-82.64427,,,0
CRAIG'S VERMILION LTD,711292382,5003-50TH AVE,,VERMILION,AB,T9X 1A7,CA,(780) 8535895,53.3539898039216,-110.852610980392,,,0
SPI SECURITE JONQUIERE,711293541,739 AVENUE LARIVIERE,,ROUYN-NORANDA,QC,J9X 4K3,CA,(819) 7622172,48.22635,-79.00561,,,0
MARK'S WORK WEARHOUSE,711292667,100 du Terminus O,,Rouyn-Noranda,QC,J9X 6H7,CA,(819) 7624344,48.2426164,-79.0248163,,,0
CHAUSSURES YELLOW,711292332,8 15E RUE,,ROUYN-NORANDA,QC,J9X 2J8,CA,(819) 7649788,48.2407900770774,-79.0325678582265,,,0
MARK'S WORK WEARHOUSE,711292683,104 4730 Joyce Avenue,,Powell River,BC,V8A 3B6,CA,(604) 4850187,49.8438688,-124.5184754,,,0
MERCERS MARINE EQUIP LTD,711293219,210 MARINE DRIVE,,CLARENVILLE,NL,A5A 1L8,CA,(709) 4667430,48.15692,-53.96362,,,0
MARK'S WORK WEARHOUSE,711292742,132 Bennett Drive,,Gander,NL,A1V 2H2,CA,(709) 6512450,48.9520594417684,-54.6059089668211,,,0
DE LA TETE AU PIEDS,711292392,17 BOULEVARD SAINTE-ANNE O,,SAINTE-ANNE-DES-MONTS,QC,G4V 1P5,CA,(418) 7640422,49.1257297,-66.4861116,,,0
,,400 West St,,Haldimand,ON,N1A,CA,,42.91128,-79.62889,,,0
,,9 Westmoreland Ln,,Haldimand,ON,N0A,CA,,42.82552,-79.87415,,,0
SUPREME SOURCE FOR SPORTS,711293554,208 MAIN STREET,,KINDERSLEY,SK,S0L 0A0,CA,(306) 4634244,51.467302,-109.154414,,,0
,,498 Northern St,,Vancouver,BC,V6A,CA,,49.27096,-123.09362,,,0
,,7598 Northumberland Ave,,Vancouver,BC,V5S,CA,,49.2155,-123.02611,,,0
MARK'S WORK WEARHOUSE,711293028,454 Granville Street,,Summerside,PE,C1N 4K7,CA,(902) 8885668,46.40982,-63.78276,,,0
PLACE RICHARD ENR,711293271,685  10e AVENUE,,SENNETERRE,QC,J0Y 2M0,CA,(819) 7372148,48.3902015789474,-77.2442521052632,,,0
CHAUSSURES YELLOW,711292331,790 3E AVENUE,,VAL-D'OR,QC,J9P 1S9,CA,(819) 8249907,48.102451754386,-77.7870810526316,,,0
SPI SECURITE JONQUIERE,711293519,1200 RUE DE L'ESCALE,,VAL-D'OR,QC,J9P 4G8,CA,(819) 8245858,48.10526,-77.80766,,,0
MARK'S WORK WEARHOUSE,711292813,1801 3e Avenue,,Val-D'Or,QC,J9P 5K1,CA,(819) 8241394,48.0976811029026,-77.825513092328,,,0
GILLES BOISVERT ENR,711292477,671 RUE BRASSARD,,ST. MICHEL DES SAINTS,QC,J0K 3B0,CA,(450) 8336668,46.6800115384615,-73.9166523076923,,,0
CHAUSSURES YELLOW,711292249,105 1 AVENUE E,,AMOS,QC,J9T 1H4,CA,(819) 7275903,48.5730745,-78.1332109,,,0
SPI SECURITE JONQUIERE,711293528,252 ROUTE 111 OUEST,,AMOS,QC,J9T 2X8,CA,(819) 8245858,48.5735932653776,-78.1370759809186,,,0
MARK'S WORK WEARHOUSE,711292655,# 109 40 Boul Norbert-Morin,,Sainte-Agathe-des-Monts,QC,J8C 2V6,CA,(819) 3211388,46.0460727,-74.2786726,,,0
SALON DE CHAUSSURES GELINAS,711293307,381 AVENUE SAINT-LAURENT,,LOUISEVILLE,QC,J5V 1K4,CA,(819) 2284449,46.2554709,-72.9473559,,,0
MARK'S WORK WEARHOUSE,711292952,33277 Highway 17 W,,Deep River,ON,K0J 1P0,CA,(613) 5842727,46.10014,-77.49926,,,0
,,284 East Ave,,Toronto,ON,M1C,CA,,43.79059,-79.13575,,,0
,,100 East Dr,,Toronto,ON,M6N,CA,,43.67738,-79.50345,,,0
,,2 East Rd,,Toronto,ON,M1N,CA,,43.68723,-79.27309,,,0
,,2 East York Ave,,Toronto,ON,M4K,CA,,43.68458,-79.3478,,,0
,,98 Eastbourne Cres,,Toronto,ON,M8V,CA,,43.6051,-79.49268,,,0
,,92 Eastbourne Ave,,Toronto,ON,M5P,CA,,43.70206,-79.40358,,,0
,,2 Eastbourne Ave,,Toronto,ON,M5M,CA,,43.7389,-79.42621,,,0
,,90 Eastdale Ave,,Toronto,ON,M4C,CA,,43.69437,-79.30058,,,0
,,576 Eastern Ave,,Toronto,ON,M4M,CA,,43.65853,-79.33833,,,0
,,18 Eastern Ave,,Toronto,ON,M5A,CA,,43.65295,-79.36012,,,0
,,1002 Eastern Ave,,Toronto,ON,M4L,CA,,43.66489,-79.31827,,,0
,,100 Eastern Ave,,Toronto,ON,M5A,CA,,43.6544,-79.35687,,,0
,, Eastern Ave Dvsn,,Toronto,ON,M4M,CA,,43.65657,-79.35313,,,0
,, Eastern Ave Dvsn,,Toronto,ON,M4M,CA,,43.65663,-79.34886,,,0
,, Eastern Ave Dvsn,,Toronto,ON,M5A,CA,,43.65427,-79.3578,,,0
,,99 Eastgate Cres,,Toronto,ON,M1L,CA,,43.7114,-79.28935,,,0
,,42 Eastglen Cres,,Toronto,ON,M9B,CA,,43.65073,-79.5513,,,0
,,98 Easthampton Dr,,Toronto,ON,M9P,CA,,43.68726,-79.51558,,,0
,,12 Eastlea Cres,,Toronto,ON,M1T,CA,,43.7965,-79.30006,,,0
,,2 Eastmoor Cres,,Toronto,ON,M1N,CA,,43.70107,-79.24699,,,0
,,2 Eastmount Ave,,Toronto,ON,M4K,CA,,43.67929,-79.36147,,,0
,,30 Easton Rd,,Toronto,ON,M2N,CA,,43.75591,-79.42476,,,0
,,20 Eastpark Blvd,,Toronto,ON,M1H,CA,,43.756,-79.23265,,,0
,,2 Eastport Dr,,Toronto,ON,M1C,CA,,43.7743,-79.13697,,,0
,,2 Eastside Dr,,Toronto,ON,M8Z,CA,,43.62169,-79.55333,,,0
,,20 Eastview Cres,,Toronto,ON,M5M,CA,,43.73959,-79.40863,,,0
,,62 Eastville Ave,,Toronto,ON,M1M,CA,,43.71618,-79.23473,,,0
,, Eastwick Rd,,Toronto,ON,M8Z,CA,,43.61774,-79.51534,,,0
,,58 Eastwood Ave,,Toronto,ON,M1N,CA,,43.692,-79.26803,,,0
,,108 Eastwood Rd,,Toronto,ON,M4L,CA,,43.67384,-79.31514,,,0
SCOTT & SONS HARDWARE LTD,711293312,150 RAGLAN STREET S,,RENFREW,ON,K7V 1R1,CA,(613) 4323641,45.4725089189189,-76.6848186486487,,,0
SCOTT SHOE STORE 417081 ONT,711293313,263 RAGLAN STREET S,,RENFREW,ON,K7V 1R3,CA,(613) 4322904,45.4708864,-76.6827728,,,0
LION JEAN LTEE,711292602,368 AVE L'ABBE,,THETFORD MINES,QC,G6G 1Z3,CA,,46.0985376666667,-71.297581,,,0
RYLAN'S CLOTHING GARAGE,711293306,6156 HIGHWAY 542,,MINDEMOYA,ON,P0P 1S0,CA,(705) 3776121,45.7321592,-82.169332,,,0
MARK'S WORK WEARHOUSE,711293164,800 Centre Street,,Espanola,ON,P5E 1J3,CA,(705) 8696780,46.2476657327212,-81.7581313846889,,,0
MIKE'S INDUSTRIAL SUPPLY,711293223,200 FALCON ROAD,,HUNTSVILLE,ON,P1H 1N3,CA,(705) 7881415,45.33305,-79.23855,,,0
MARK'S WORK WEARHOUSE,711292704,111 Howland Drive,,Huntsville,ON,P1H 2P4,CA,(705) 7887759,45.3427766486958,-79.2293593849775,,,0
,,498 Northern St,,Vancouver,BC,V6A,CA,,49.27096,-123.09362,,,0
,,7598 Northumberland Ave,,Vancouver,BC,V5S,CA,,49.2155,-123.02611,,,0
AL-JO CHAUSSURES INC.,711291949,4 RUE BRIDGE,,ORMSTOWN,QC,J0S 1K0,CA,(450) 8293121,45.1210682,-73.9892255,,,0
J.L. RODRIGUE VETEMENTS,711292543,95 RUE CHATEAUGUAY,,HUNTINGDON,QC,J0S 1H0,CA,(450) 2646418,45.0864295510353,-74.1734259066991,,,0
,,,,Saint Leonard,NB,E7E2G1,CA,,47.166667,-67.916667,,,0
,,,,Saint-Léonard,QC,H1R3W6,CA,,45.583333,-73.6,,,0
MARK'S WORK WEARHOUSE,711292762,142 S Albion Street,,Amherst,NS,B4H 4H4,CA,(902) 6674559,45.8121009079041,-64.2026410493456,,,0
DAYLE'S MARITIMES LIMTED,711292391,129 VICTORIA STREET,,AMHERST,NS,B4H 1X9,CA,(902) 6673321,45.8355790758556,-64.2116197896625,,,0
PIC-N-PAY SHOES,711293268,347 MAIN STREET,,STEINBACH,MB,R5G 1Z4,CA,(204) 3263393,49.5252,-96.68282,,,0
MARK'S WORK WEARHOUSE,711292802,178 Highway 12 N,,Steinbach,MB,R5G 1T7,CA,(204) 3264110,49.5425238785153,-96.6885374530844,,,0
SHOE WAREHOUSE,711293473,178 PROVINCIAL TRUNK HIGHWAY 12 N,,STEINBACH,MB,R5G 1T7,CA,,49.5425238785153,-96.6885374530844,,,0
,,498 Northern St,,Vancouver,BC,V6A,CA,,49.27096,-123.09362,,,0
,,7598 Northumberland Ave,,Vancouver,BC,V5S,CA,,49.2155,-123.02611,,,0
MARK'S WORK WEARHOUSE,711293108,602 Carlton Trail,,North Battleford,SK,S9A 4A9,CA,(306) 4464441,52.7627343400639,-108.27332947527,,,0
MARK'S WORK WEARHOUSE,711292670,1000 Northwest Blvd,,Creston,BC,V0B 1G6,CA,(250) 4283003,49.10422,-116.51932,,,0
,,,,Deer Lake,ON,P0V1N0,CA,,52.616667,-94.066667,,,0
,,,,Deer Lake,NL,A8A1M7,CA,,49.17534,-57.42366,,,0
NATIONAL SHOE STORE LTD,711293251,86-88 BROADWAY,PO BOX 726,CORNER BROOK,NL,A2H 6G7,CA,(709) 6345603,48.952868240072,-57.9558583367176,,,0
MARK'S WORK WEARHOUSE,711292811,18 Murphy Square,,Corner Brook,NL,A2H 1R4,CA,(709) 6340169,48.9599454,-57.9242653,,,0
SEARS,711293410,54 MAPLE VALLEY ROAD,,CORNERBROOK,NL,A2H 3C5,CA,,48.9482187652114,-57.9161265651852,,,0
MCTAGGARTS,711293217,578 SCOTT STREET,,FORT FRANCES,ON,P9A 1H4,CA,(807) 2747706,48.61003,-93.3872124489796,,,0
MARK'S WORK WEARHOUSE,711292669,1000 King's Highway,,Fort Frances,ON,P9A 2X6,CA,(807) 2740762,48.60725,-93.42748,,,0
MARK'S WORK WEARHOUSE,711293064,500 Vanier Blvd,,Labrador City,NL,A2V 2W7,CA,(709) 9446966,52.94809,-66.92172,,,0
SPI SECURITE JONQUIERE,711293526,2 RUE BERTRAND,,FERMONT,QC,G0G 1J0,CA,(418) 2879400,52.80668,-67.09865,,,0
,,299 Prince Albert St,,Centralia,ON,N0M,CA,,43.28405,-81.47086,,,0
,,261 Prince Alfred St,,Centralia,ON,N0M,CA,,43.28276,-81.47324,,,0
JOBSITE WORKWEAR,711292555,4919 - 2ND AVENUE,,EDSON,AB,T7E 1B6,CA,(780) 7123008,53.5814185,-116.4290763,,,0
MARK'S WORK WEARHOUSE,711293104,5919 2 Avenue,,Edson,AB,T7E 1L8,CA,(780) 7236993,53.5762185983719,-116.447696056185,,,0
,,,,Sainte-Foy,QC,G1V3E6,CA,,46.783333,-71.3,,,0
,,,,St Guy,QC,G0K1W0,CA,,48.04648,-68.80397,,,0
,,,,St Pie,QC,J0H1J0,CA,,45.50498,-72.9065,,,0
,,,,Saint John,NB,E2L1A1,CA,,45.27343,-66.06415,,,0
,,,,St Ives,BC,V0E1M9,CA,,50.977351,-119.108481,,,0
,,,,St Leon,MB,R0G2E0,CA,,49.42277,-98.67806,,,0
,,,,St Malo,MB,R0A1T0,CA,,49.310233,-96.952499,,,0
,,,,St Almo,NB,E7G3N6,CA,,46.774452,-67.640064,,,0
,,,,Saint-Pons,NB,E1X1Y6,CA,,47.476984,-64.957597,,,0
,,,,Sainte-Rose,NB,E1X2X6,CA,,47.618736,-65.000167,,,0
,,,,Saint Anns,NS,B1X1T1,CA,,46.25,-60.616667,,,0
,,,,St Anns,ON,L0R1Y0,CA,,43.019718,-79.504992,,,0
,,,,Saint-Omer,QC,G0C2Z0,CA,,48.159881,-66.23883,,,0
,,,,St Paul,Ab,T0A3A3,CA,,53.99139,-111.28202,,,0
,,,,St Mary,Nb,E4S1X3,CA,,46.44273,-64.8874,,,0
,,,,St Paul,Nb,E1G3V1,CA,,46.31609,-64.99255,,,0
,,,,St Aime,QC,J0H1T0,CA,,45.93519,-72.92076,,,0
,,,,St Clet,QC,J0P1S0,CA,,45.3516,-74.22073,,,0
,,,,St Come,QC,J0K2B0,CA,,46.27071,-73.77173,,,0
,,,,St Eloi,QC,G0L2V0,CA,,48.02535,-69.20044,,,0
,,,,St Jean,QC,G0A3W0,CA,,46.92123,-70.8897,,,0
,,,,St Jude,QC,J0H1P0,CA,,45.77405,-72.98808,,,0
,,,,Ste Luce,QC,G0K1P0,CA,,48.52764,-68.34484,,,0
,,,,St Malo,QC,J0B2Y0,CA,,45.19886,-71.50044,,,0
,,,,St Noel,QC,G0J3A0,CA,,48.58474,-67.83823,,,0
,,,,St Omer,QC,G0R4R0,CA,,47.03543,-69.69002,,,0
,,,,St Ours,QC,J0G1P0,CA,,45.88632,-73.15102,,,0
,,,,St Paul,QC,J6E3H2,CA,,45.98504,-73.44556,,,0
,,,,St Remi,QC,J0L2L0,CA,,45.2587,-73.61402,,,0
,,,,St Rene,QC,G0M1Z0,CA,,46.01203,-70.61829,,,0
,,,,St Tite,QC,G0X3H0,CA,,46.73439,-72.56648,,,0
,,,,St Marks,MB,R0H1K0,CA,,50.012423,-98.319425,,,0
,,,,St Croix,NB,E6J1Z8,CA,,45.582767,-67.373244,,,0
,,,,Saint-Maure,NB,E8E1M4,CA,,47.945177,-66.479364,,,0
,,,,Saint-Simon,NB,E8P1Z2,CA,,47.737791,-64.850097,,,0
,,,,St Chads,NL,A0G3W0,CA,,48.586197,-54.078788,,,0
,,,,St Judes,NL,A8A3A1,CA,,48.987148,-57.72586,,,0
,,,,Ste Croix,NS,B0N2E0,CA,,44.908209,-64.044725,,,0
,,,,St. Pauls,ON,N0K1V0,CA,,43.253328,-81.098867,,,0
,,,,Sainte-Agnès,QC,J0S1L0,CA,,45.016667,-74.4,,,0
,,,,Saint-Bruno,QC,J3V3T6,CA,,45.528635,-73.34374,,,0
,,,,St Denis,SK,S0K3W0,CA,,52.291215,-106.005096,,,0
,,,,St Andre,Nb,E3Y2W1,CA,,47.10576,-67.75946,,,0
,,,,St David,Nb,E3L3W3,CA,,45.21705,-67.21625,,,0
,,,,St James,Nb,E5A0A3,CA,,45.32326,-67.30518,,,0
,,,,St Louis,NB,E4X0A2,CA,,46.75564,-65.00029,,,0
,,,,St Marys,NB,E6C1A6,CA,,46.14446,-66.61642,,,0
,,,,St John'S,Nl,A1C4K2,CA,,47.56076,-52.71225,,,0
,,,,St Lewis,Nl,A0K4W0,CA,,52.37449,-55.71557,,,0
,,,,St Mary'S,NL,A0B3B0,CA,,46.91233,-53.5756,,,0
,,,,St Pauls,Nl,A0K4Y0,CA,,49.85223,-57.80678,,,0
,,,,St Mary'S,Ns,B0H1M0,CA,,45.26347,-62.04414,,,0
,,,,St Clair,On,N0N1M0,CA,,42.84464,-82.46304,,,0
,,,,St Marys,ON,N4X1A1,CA,,43.25949,-81.14142,,,0
,,,,St Louis,PE,C0B1S0,CA,,46.88681,-64.14109,,,0
,,,,Ste Adele,QC,J8B1A3,CA,,45.95432,-74.13851,,,0
,,,,St Alban,QC,G0A3B0,CA,,46.71696,-72.07861,,,0
,,,,St Andre,QC,G0L2H0,CA,,47.67484,-69.72668,,,0
,,,,Ste Barbe,QC,J0S1P0,CA,,45.16218,-74.19727,,,0
,,,,St Bruno,QC,G0W2L0,CA,,48.47178,-71.67558,,,0
,,,,Ste Croix,QC,G0S2H0,CA,,46.63313,-71.6465,,,0
,,,,St David,QC,J0G1L0,CA,,45.95967,-72.83038,,,0
,,,,St Denis,QC,G0L4A0,CA,,47.49975,-69.93352,,,0
,,,,St Donat,QC,J0T2C0,CA,,46.34161,-74.22741,,,0
,,,,St Donat,QC,G0K1L0,CA,,48.49637,-68.24951,,,0
,,,,St Henri,QC,G0R3E0,CA,,46.69628,-71.07065,,,0
,,,,St Jules,QC,G0N1R0,CA,,46.22189,-70.94616,,,0
,,,,Ste Julie,QC,J3E0A2,CA,,45.58781,-73.3269,,,0
,,,,St Louis,QC,J0G1K0,CA,,45.85373,-72.97818,,,0
,,,,Ste Marie,QC,G6E1G9,CA,,46.46902,-71.03765,,,0
,,,,St Moise,QC,G0J3A0,CA,,48.54954,-67.85082,,,0
,,,,St Neree,QC,G0R3V0,CA,,46.72371,-70.71925,,,0
,,,,St Prime,QC,G8J1L2,CA,,48.59391,-72.33675,,,0
,,,,St Simon,QC,J0H1Y0,CA,,45.7215,-72.85423,,,0
,,,,St Simon,QC,G0L4C0,CA,,48.20748,-69.03651,,,0
,,,,St Sixte,QC,J8L4G4,CA,,45.69823,-75.20671,,,0
,,,,St Ubald,QC,G0A4L0,CA,,46.75494,-72.26873,,,0
,,,,St Ulric,QC,G0J3H0,CA,,48.78588,-67.69624,,,0
,,,,St Zenon,QC,J0K3N0,CA,,46.55873,-73.81534,,,0
,,,,St Louis,Sk,S0J2C0,CA,,52.92021,-105.81157,,,0
,,,,St Brides,AB,T0A2Y0,CA,,54.091446,-112.614286,,,0
,,,,Ste Agathe,MB,R0G1Y0,CA,,49.572259,-97.178344,,,0
,,,,St Joseph,MB,R0G2C0,CA,,49.12823,-97.334191,,,0
,,,,St Martin,MB,R0C2T0,CA,,51.681522,-98.57425,,,0
,,,,Saint-Arthur,NB,E3N5P6,CA,,47.930089,-66.719258,,,0
,,,,Sainte-Cecile,NB,E8T2X6,CA,,47.867678,-64.636246,,,0
,,,,Saint-Damien,NB,E4V3E6,CA,,46.350258,-64.82271,,,0
,,,,Saint-Ignace,NB,E4X2K1,CA,,46.693661,-65.087275,,,0
,,,,Saint-Irenee,NB,E1X4V7,CA,,47.490995,-64.999904,,,0
,,,,Sainte-Louise,NB,E8K2X4,CA,,47.68384,-65.792171,,,0
,,,,St Thomas,NB,E7P3E1,CA,,46.326187,-67.603609,,,0
,,,,Saint Julien,NL,A0K3N0,CA,,51.083333,-55.783333,,,0
,,,,Saint Ann,NS,B1X1T1,CA,,46.25,-60.616667,,,0
,,,,St Agatha,ON,N0B2L0,CA,,43.463447,-80.687981,,,0
,,,,St Albert,ON,K0A3C0,CA,,45.280631,-75.334972,,,0
,,,,St Davids,ON,L0S1P0,CA,,43.152171,-79.105816,,,0
,,,,St Eugene,ON,K0B1P0,CA,,45.456488,-74.432715,,,0
,,,,St Jacobs,ON,N0B2N0,CA,,43.527216,-80.550634,,,0
,,,,Saint-Lin,QC,J5M2T2,CA,,45.85,-73.766667,,,0
,,,,Saint-Pie,QC,J0H1W0,CA,,45.5,-72.9,,,0
RENYS,711294135,33 Main Street,,Dexter,,04930,US,,45.0231670351571,-69.2919254528522,,,0
,,,,Grand Falls,NL,A2A1P5,CA,,48.933333,-55.65,,,0
,,,,Grand Falls,Nb,E3Y1C6,CA,,47.05293,-67.74024,,,0
MARK'S WORK WEARHOUSE,711293076,5212 48 Avenue,,Taber,AB,T1G 1S1,CA,(403) 2234311,49.788196122449,-112.15446,,,0
