store_name,store_number,address,address2,city,state,zip_code,country,phone_number,latitude,longitude,store_hours,other_fields,coming_soon
Kum & Go,0779,3807 Miller St,,Bethany,MO,64424,US,660-425-2107,40.265377,-94.01492,Monday:12:00 AM - 11:59 PM;Tuesday:12:00 AM - 11:59 PM;Wednesday:12:00 AM - 11:59 PM;Thursday:12:00 AM - 11:59 PM;Friday:12:00 AM - 11:59 PM;Saturday:12:00 AM - 11:59 PM;Sunday:12:00 AM - 11:59 PM;,,0
Kum & Go,0004,2091 E Main St,,Lamoni,IA,50140,US,641-784-7400,40.623436,-93.8961945,Monday:12:00 AM - 11:59 PM;Tuesday:12:00 AM - 11:59 PM;Wednesday:12:00 AM - 11:59 PM;Thursday:12:00 AM - 11:59 PM;Friday:12:00 AM - 11:59 PM;Saturday:12:00 AM - 11:59 PM;Sunday:12:00 AM - 11:59 PM;,,0
Kum & Go,0778,1102 S US Highway 169,,Smithville,MO,64089,US,,39.3691177,-94.58381,Monday:12:00 AM - 11:59 PM;Tuesday:12:00 AM - 11:59 PM;Wednesday:12:00 AM - 11:59 PM;Thursday:12:00 AM - 11:59 PM;Friday:12:00 AM - 11:59 PM;Saturday:12:00 AM - 11:59 PM;Sunday:12:00 AM - 11:59 PM;,,0
Kum & Go,0043,1453 County Highway G76,,New Virginia,IA,50210,US,641-449-3490,41.17709,-93.78159,Monday:12:00 AM - 11:59 PM;Tuesday:12:00 AM - 11:59 PM;Wednesday:12:00 AM - 11:59 PM;Thursday:12:00 AM - 11:59 PM;Friday:12:00 AM - 11:59 PM;Saturday:12:00 AM - 11:59 PM;Sunday:12:00 AM - 11:59 PM;,,0
Kum & Go,0246,111 E Jefferson,,Winterset,IA,50273,US,515-462-5860,41.33603,-94.01273,Monday:12:00 AM - 11:59 PM;Tuesday:12:00 AM - 11:59 PM;Wednesday:12:00 AM - 11:59 PM;Thursday:12:00 AM - 11:59 PM;Friday:12:00 AM - 11:59 PM;Saturday:12:00 AM - 11:59 PM;Sunday:12:00 AM - 11:59 PM;,,0
Kum & Go,1056,101 E IA Highway 92,,Bevington,IA,50033,US,515-468-4102,41.36016,-93.79181,Monday:12:00 AM - 11:59 PM;Tuesday:12:00 AM - 11:59 PM;Wednesday:12:00 AM - 11:59 PM;Thursday:12:00 AM - 11:59 PM;Friday:12:00 AM - 11:59 PM;Saturday:12:00 AM - 11:59 PM;Sunday:12:00 AM - 11:59 PM;,,0
Kum & Go,0240,530 North Ave,,Norwalk,IA,50211,US,515-981-0617,41.4752769,-93.68178,Monday:12:00 AM - 11:59 PM;Tuesday:12:00 AM - 11:59 PM;Wednesday:12:00 AM - 11:59 PM;Thursday:12:00 AM - 11:59 PM;Friday:12:00 AM - 11:59 PM;Saturday:12:00 AM - 11:59 PM;Sunday:12:00 AM - 11:59 PM;,,0
Kum & Go,0028,2991 Sunset Dr,,Norwalk,IA,50211,US,515-287-2953,41.4968033,-93.67447,Monday:12:00 AM - 11:59 PM;Tuesday:12:00 AM - 11:59 PM;Wednesday:12:00 AM - 11:59 PM;Thursday:12:00 AM - 11:59 PM;Friday:12:00 AM - 11:59 PM;Saturday:12:00 AM - 11:59 PM;Sunday:12:00 AM - 11:59 PM;,,0
Kum & Go,0120,6304 SW 9th St,,Des Moines,IA,50315,US,515-953-5210,41.52725,-93.626353,Monday:12:00 AM - 11:59 PM;Tuesday:12:00 AM - 11:59 PM;Wednesday:12:00 AM - 11:59 PM;Thursday:12:00 AM - 11:59 PM;Friday:12:00 AM - 11:59 PM;Saturday:12:00 AM - 11:59 PM;Sunday:12:00 AM - 11:59 PM;,,0
Kum & Go,0204,710 N Broadway St,,Red Oak,IA,51566,US,,41.01061,-95.23256,Monday:12:00 AM - 11:59 PM;Tuesday:12:00 AM - 11:59 PM;Wednesday:12:00 AM - 11:59 PM;Thursday:12:00 AM - 11:59 PM;Friday:12:00 AM - 11:59 PM;Saturday:12:00 AM - 11:59 PM;Sunday:12:00 AM - 11:59 PM;,,0
Kum & Go,0573,5830 SE 14th St,,Des Moines,IA,50315,US,515-287-9905,41.5329,-93.5972061,Monday:12:00 AM - 11:59 PM;Tuesday:12:00 AM - 11:59 PM;Wednesday:12:00 AM - 11:59 PM;Thursday:12:00 AM - 11:59 PM;Friday:12:00 AM - 11:59 PM;Saturday:12:00 AM - 11:59 PM;Sunday:12:00 AM - 11:59 PM;,,0
Kum & Go,0095,1203 Guthrie St,,De Soto,IA,50069,US,515-834-2500,41.53867,-94.0120544,Monday:12:00 AM - 11:59 PM;Tuesday:12:00 AM - 11:59 PM;Wednesday:12:00 AM - 11:59 PM;Thursday:12:00 AM - 11:59 PM;Friday:12:00 AM - 11:59 PM;Saturday:12:00 AM - 11:59 PM;Sunday:12:00 AM - 11:59 PM;,,0
Kum & Go,0194,4001 SW 9th St,,Des Moines,IA,50315,US,,41.54816,-93.62566,Monday:12:00 AM - 11:59 PM;Tuesday:12:00 AM - 11:59 PM;Wednesday:12:00 AM - 11:59 PM;Thursday:12:00 AM - 11:59 PM;Friday:12:00 AM - 11:59 PM;Saturday:12:00 AM - 11:59 PM;Sunday:12:00 AM - 11:59 PM;,,0
Kum & Go,0510,629 S Division St,,Stuart,IA,50250,US,515-523-1136,41.49615,-94.31825,Monday:12:00 AM - 11:59 PM;Tuesday:12:00 AM - 11:59 PM;Wednesday:12:00 AM - 11:59 PM;Thursday:12:00 AM - 11:59 PM;Friday:12:00 AM - 11:59 PM;Saturday:12:00 AM - 11:59 PM;Sunday:12:00 AM - 11:59 PM;,,0
Kum & Go,0050,745 S 51st St,,West Des Moines,IA,50265,US,,41.5590172,-93.77287,Monday:12:00 AM - 11:59 PM;Tuesday:12:00 AM - 11:59 PM;Wednesday:12:00 AM - 11:59 PM;Thursday:12:00 AM - 11:59 PM;Friday:12:00 AM - 11:59 PM;Saturday:12:00 AM - 11:59 PM;Sunday:12:00 AM - 11:59 PM;,,0
Kum & Go,0532,5901 Mills Civic Pkwy,,West Des Moines,IA,50266,US,515-267-9514,41.55993,-93.78749,Monday:12:00 AM - 11:59 PM;Tuesday:12:00 AM - 11:59 PM;Wednesday:12:00 AM - 11:59 PM;Thursday:12:00 AM - 11:59 PM;Friday:12:00 AM - 11:59 PM;Saturday:12:00 AM - 11:59 PM;Sunday:12:00 AM - 11:59 PM;,,0
Kum & Go,0208,3200 SE 14th St,,Des Moines,IA,50320,US,,41.5552025,-93.59734,Monday:12:00 AM - 11:59 PM;Tuesday:12:00 AM - 11:59 PM;Wednesday:12:00 AM - 11:59 PM;Thursday:12:00 AM - 11:59 PM;Friday:12:00 AM - 11:59 PM;Saturday:12:00 AM - 11:59 PM;Sunday:12:00 AM - 11:59 PM;,,0
Kum & Go,0059,400 Prairie Bluff Dr,,Waukee,IA,50263,US,515-216-2177,41.56489,-93.87957,Monday:12:00 AM - 11:59 PM;Tuesday:12:00 AM - 11:59 PM;Wednesday:12:00 AM - 11:59 PM;Thursday:12:00 AM - 11:59 PM;Friday:12:00 AM - 11:59 PM;Saturday:12:00 AM - 11:59 PM;Sunday:12:00 AM - 11:59 PM;,,0
Kum & Go,0074,141 S Jordan Creek Pkwy,,West Des Moines,IA,50266,US,515-221-3536,41.5678,-93.8101654,Monday:12:00 AM - 11:59 PM;Tuesday:12:00 AM - 11:59 PM;Wednesday:12:00 AM - 11:59 PM;Thursday:12:00 AM - 11:59 PM;Friday:12:00 AM - 11:59 PM;Saturday:12:00 AM - 11:59 PM;Sunday:12:00 AM - 11:59 PM;,,0
Kum & Go,0576,3501 EP True Pkwy,,West Des Moines,IA,50265,US,515-223-6125,41.57043,-93.7525558,Monday:12:00 AM - 11:59 PM;Tuesday:12:00 AM - 11:59 PM;Wednesday:12:00 AM - 11:59 PM;Thursday:12:00 AM - 11:59 PM;Friday:12:00 AM - 11:59 PM;Saturday:12:00 AM - 11:59 PM;Sunday:12:00 AM - 11:59 PM;,,0
Kum & Go,1097,220 50th St,,West Des Moines,IA,50265,US,515-223-0591,41.57192,-93.77135,Monday:12:00 AM - 11:59 PM;Tuesday:12:00 AM - 11:59 PM;Wednesday:12:00 AM - 11:59 PM;Thursday:12:00 AM - 11:59 PM;Friday:12:00 AM - 11:59 PM;Saturday:12:00 AM - 11:59 PM;Sunday:12:00 AM - 11:59 PM;,,0
Kum & Go,0540,3105 Grand Prairie Pkwy,,Waukee,IA,50263,US,515-987-0685,41.57203,-93.85274,Monday:12:00 AM - 11:59 PM;Tuesday:12:00 AM - 11:59 PM;Wednesday:12:00 AM - 11:59 PM;Thursday:12:00 AM - 11:59 PM;Friday:12:00 AM - 11:59 PM;Saturday:12:00 AM - 11:59 PM;Sunday:12:00 AM - 11:59 PM;,,0
Kum & Go,2091,5969 Ashworth Rd,,West Des Moines,IA,50266,US,515-226-8361,41.5850143,-93.78975,Monday:12:00 AM - 11:59 PM;Tuesday:12:00 AM - 11:59 PM;Wednesday:12:00 AM - 11:59 PM;Thursday:12:00 AM - 11:59 PM;Friday:12:00 AM - 11:59 PM;Saturday:12:00 AM - 11:59 PM;Sunday:12:00 AM - 11:59 PM;,,0
Kum & Go,2035,7265 Vista Dr,,West Des Moines,IA,50266,US,,41.5894279,-93.80785,Monday:12:00 AM - 11:59 PM;Tuesday:12:00 AM - 11:59 PM;Wednesday:12:00 AM - 11:59 PM;Thursday:12:00 AM - 11:59 PM;Friday:12:00 AM - 11:59 PM;Saturday:12:00 AM - 11:59 PM;Sunday:12:00 AM - 11:59 PM;,,0
Kum & Go,1273,1201 N Market St,,Oskaloosa,IA,52577,US,,41.30524,-92.6456146,Monday:12:00 AM - 11:59 PM;Tuesday:12:00 AM - 11:59 PM;Wednesday:12:00 AM - 11:59 PM;Thursday:12:00 AM - 11:59 PM;Friday:12:00 AM - 11:59 PM;Saturday:12:00 AM - 11:59 PM;Sunday:12:00 AM - 11:59 PM;,,0
Kum & Go,0008,1293 8th St,,West Des Moines,IA,50265,US,515-327-8939,41.5905876,-93.71291,Monday:12:00 AM - 11:59 PM;Tuesday:12:00 AM - 11:59 PM;Wednesday:12:00 AM - 11:59 PM;Thursday:12:00 AM - 11:59 PM;Friday:12:00 AM - 11:59 PM;Saturday:12:00 AM - 11:59 PM;Sunday:12:00 AM - 11:59 PM;,,0
Kum & Go,0536,1300 Keo Way,,Des Moines,IA,50309,US,515-244-0355,41.59384,-93.63443,Monday:12:00 AM - 11:59 PM;Tuesday:12:00 AM - 11:59 PM;Wednesday:12:00 AM - 11:59 PM;Thursday:12:00 AM - 11:59 PM;Friday:12:00 AM - 11:59 PM;Saturday:12:00 AM - 11:59 PM;Sunday:12:00 AM - 11:59 PM;,,0
Kum & Go,0066,5308 University Ave,,West Des Moines,IA,50266,US,,41.6002,-93.7792358,Monday:12:00 AM - 11:59 PM;Tuesday:12:00 AM - 11:59 PM;Wednesday:12:00 AM - 11:59 PM;Thursday:12:00 AM - 11:59 PM;Friday:12:00 AM - 11:59 PM;Saturday:12:00 AM - 11:59 PM;Sunday:12:00 AM - 11:59 PM;,,0
Kum & Go,0075,350 SE University Ave,,Waukee,IA,50263,US,515-987-3281,41.599987,-93.86535,Monday:12:00 AM - 11:59 PM;Tuesday:12:00 AM - 11:59 PM;Wednesday:12:00 AM - 11:59 PM;Thursday:12:00 AM - 11:59 PM;Friday:12:00 AM - 11:59 PM;Saturday:12:00 AM - 11:59 PM;Sunday:12:00 AM - 11:59 PM;,,0
Kum & Go,4098,7229 University Ave,,Windsor Heights,IA,50311,US,515-279-0691,41.60061,-93.71773,Monday:12:00 AM - 11:59 PM;Tuesday:12:00 AM - 11:59 PM;Wednesday:12:00 AM - 11:59 PM;Thursday:12:00 AM - 11:59 PM;Friday:12:00 AM - 11:59 PM;Saturday:12:00 AM - 11:59 PM;Sunday:12:00 AM - 11:59 PM;,,0
Kum & Go,2731,3104 University Ave,,Des Moines,IA,50311,US,515-255-6711,41.60025,-93.65951,Monday:12:00 AM - 11:59 PM;Tuesday:12:00 AM - 11:59 PM;Wednesday:12:00 AM - 11:59 PM;Thursday:12:00 AM - 11:59 PM;Friday:12:00 AM - 11:59 PM;Saturday:12:00 AM - 11:59 PM;Sunday:12:00 AM - 11:59 PM;,,0
Kum & Go,2722,2211 University Ave,,Des Moines,IA,50311,US,,41.6002922,-93.64689,Monday:12:00 AM - 11:59 PM;Tuesday:12:00 AM - 11:59 PM;Wednesday:12:00 AM - 11:59 PM;Thursday:12:00 AM - 11:59 PM;Friday:12:00 AM - 11:59 PM;Saturday:12:00 AM - 11:59 PM;Sunday:12:00 AM - 11:59 PM;,,0
Kum & Go,0206,1725 NW 86th,,Clive,IA,50325,US,515-309-0312,41.60743,-93.7359,Monday:12:00 AM - 11:59 PM;Tuesday:12:00 AM - 11:59 PM;Wednesday:12:00 AM - 11:59 PM;Thursday:12:00 AM - 11:59 PM;Friday:12:00 AM - 11:59 PM;Saturday:12:00 AM - 11:59 PM;Sunday:12:00 AM - 11:59 PM;,,0
Kum & Go,0083,501 McPherson St,,Casey,IA,50048,US,,41.5052834,-94.51909,Monday:12:00 AM - 11:59 PM;Tuesday:12:00 AM - 11:59 PM;Wednesday:12:00 AM - 11:59 PM;Thursday:12:00 AM - 11:59 PM;Friday:12:00 AM - 11:59 PM;Saturday:12:00 AM - 11:59 PM;Sunday:12:00 AM - 11:59 PM;,,0
Kum & Go,0024,5970 Morning Star Ct,,Pleasant Hill,IA,50317,US,515-264-1934,41.5971336,-93.49263,Monday:12:00 AM - 11:59 PM;Tuesday:12:00 AM - 11:59 PM;Wednesday:12:00 AM - 11:59 PM;Thursday:12:00 AM - 11:59 PM;Friday:12:00 AM - 11:59 PM;Saturday:12:00 AM - 11:59 PM;Sunday:12:00 AM - 11:59 PM;,,0
Kum & Go,0156,15600 Hickman Rd,,Clive,IA,50325,US,515-987-1403,41.6143,-93.834404,Monday:12:00 AM - 11:59 PM;Tuesday:12:00 AM - 11:59 PM;Wednesday:12:00 AM - 11:59 PM;Thursday:12:00 AM - 11:59 PM;Friday:12:00 AM - 11:59 PM;Saturday:12:00 AM - 11:59 PM;Sunday:12:00 AM - 11:59 PM;,,0
Kum & Go,0542,11989 Hickman Rd,,Urbandale,IA,50323,US,515-331-7704,41.61514,-93.78153,Monday:12:00 AM - 11:59 PM;Tuesday:12:00 AM - 11:59 PM;Wednesday:12:00 AM - 11:59 PM;Thursday:12:00 AM - 11:59 PM;Friday:12:00 AM - 11:59 PM;Saturday:12:00 AM - 11:59 PM;Sunday:12:00 AM - 11:59 PM;,,0
Kum & Go,0202,85 4th St,,Waukee,IA,50263,US,,41.6137047,-93.8824,Monday:12:00 AM - 11:59 PM;Tuesday:12:00 AM - 11:59 PM;Wednesday:12:00 AM - 11:59 PM;Thursday:12:00 AM - 11:59 PM;Friday:12:00 AM - 11:59 PM;Saturday:12:00 AM - 11:59 PM;Sunday:12:00 AM - 11:59 PM;,,0
Kum & Go,4110,2110 Guthrie Ave,,Des Moines,IA,50317,US,515-266-6697,41.61535,-93.57904,Monday:12:00 AM - 11:59 PM;Tuesday:12:00 AM - 11:59 PM;Wednesday:12:00 AM - 11:59 PM;Thursday:12:00 AM - 11:59 PM;Friday:12:00 AM - 11:59 PM;Saturday:12:00 AM - 11:59 PM;Sunday:12:00 AM - 11:59 PM;,,0
Kum & Go,2093,409 Nile Kinnick Dr,,Adel,IA,50003,US,515-993-1878,41.6141853,-94.01713,Monday:12:00 AM - 11:59 PM;Tuesday:12:00 AM - 11:59 PM;Wednesday:12:00 AM - 11:59 PM;Thursday:12:00 AM - 11:59 PM;Friday:12:00 AM - 11:59 PM;Saturday:12:00 AM - 11:59 PM;Sunday:12:00 AM - 11:59 PM;,,0
Kum & Go,0121,12041 Douglas Pkwy,,Urbandale,IA,50322,US,515-278-7045,41.62995,-93.78322,Monday:12:00 AM - 11:59 PM;Tuesday:12:00 AM - 11:59 PM;Wednesday:12:00 AM - 11:59 PM;Thursday:12:00 AM - 11:59 PM;Friday:12:00 AM - 11:59 PM;Saturday:12:00 AM - 11:59 PM;Sunday:12:00 AM - 11:59 PM;,,0
Kum & Go,0170,6990 Douglas Ave,,Urbandale,IA,50322,US,515-270-1638,41.62937,-93.71206,Monday:12:00 AM - 11:59 PM;Tuesday:12:00 AM - 11:59 PM;Wednesday:12:00 AM - 11:59 PM;Thursday:12:00 AM - 11:59 PM;Friday:12:00 AM - 11:59 PM;Saturday:12:00 AM - 11:59 PM;Sunday:12:00 AM - 11:59 PM;,,0
Kum & Go,0076,109 S 5th St,,Adair,IA,50002,US,641-742-3857,41.4979935,-94.64361,Monday:12:00 AM - 11:59 PM;Tuesday:12:00 AM - 11:59 PM;Wednesday:12:00 AM - 11:59 PM;Thursday:12:00 AM - 11:59 PM;Friday:12:00 AM - 11:59 PM;Saturday:12:00 AM - 11:59 PM;Sunday:12:00 AM - 11:59 PM;,,0
Kum & Go,0157,4585 156th St,,Urbandale,IA,50323,US,515-987-2453,41.6433945,-93.83307,Monday:12:00 AM - 11:59 PM;Tuesday:12:00 AM - 11:59 PM;Wednesday:12:00 AM - 11:59 PM;Thursday:12:00 AM - 11:59 PM;Friday:12:00 AM - 11:59 PM;Saturday:12:00 AM - 11:59 PM;Sunday:12:00 AM - 11:59 PM;,,0
Kum & Go,0572,4860 NW Urbandale Dr,,Urbandale,IA,50322,US,515-331-8010,41.646286,-93.76969,Monday:12:00 AM - 11:59 PM;Tuesday:12:00 AM - 11:59 PM;Wednesday:12:00 AM - 11:59 PM;Thursday:12:00 AM - 11:59 PM;Friday:12:00 AM - 11:59 PM;Saturday:12:00 AM - 11:59 PM;Sunday:12:00 AM - 11:59 PM;,,0
Kum & Go,0207,4200 E Hubbell Ave,,Des Moines,IA,50317,US,,41.6362076,-93.5318756,Monday:12:00 AM - 11:59 PM;Tuesday:12:00 AM - 11:59 PM;Wednesday:12:00 AM - 11:59 PM;Thursday:12:00 AM - 11:59 PM;Friday:12:00 AM - 11:59 PM;Saturday:12:00 AM - 11:59 PM;Sunday:12:00 AM - 11:59 PM;,,0
Kum & Go,0129,5225 NW 86th St,,Johnston,IA,50131,US,515-276-6665,41.655632,-93.736,Monday:12:00 AM - 11:59 PM;Tuesday:12:00 AM - 11:59 PM;Wednesday:12:00 AM - 11:59 PM;Thursday:12:00 AM - 11:59 PM;Friday:12:00 AM - 11:59 PM;Saturday:12:00 AM - 11:59 PM;Sunday:12:00 AM - 11:59 PM;,,0
Kum & Go,0539,5050 NW 2nd Ave,,Des Moines,IA,50313,US,515-243-9236,41.65221,-93.62079,Monday:12:00 AM - 11:59 PM;Tuesday:12:00 AM - 11:59 PM;Wednesday:12:00 AM - 11:59 PM;Thursday:12:00 AM - 11:59 PM;Friday:12:00 AM - 11:59 PM;Saturday:12:00 AM - 11:59 PM;Sunday:12:00 AM - 11:59 PM;,,0
Kum & Go,0535,4960 E Broadway Ave,,Des Moines,IA,50317,US,515-262-5139,41.64476,-93.51507,Monday:12:00 AM - 11:59 PM;Tuesday:12:00 AM - 11:59 PM;Wednesday:12:00 AM - 11:59 PM;Thursday:12:00 AM - 11:59 PM;Friday:12:00 AM - 11:59 PM;Saturday:12:00 AM - 11:59 PM;Sunday:12:00 AM - 11:59 PM;,,0
Kum & Go,4084,101 8th St SW,,Altoona,IA,50009,US,,41.6442337,-93.46432,Monday:12:00 AM - 11:59 PM;Tuesday:12:00 AM - 11:59 PM;Wednesday:12:00 AM - 11:59 PM;Thursday:12:00 AM - 11:59 PM;Friday:12:00 AM - 11:59 PM;Saturday:12:00 AM - 11:59 PM;Sunday:12:00 AM - 11:59 PM;,,0
Kum & Go,0062,6130 NW 86th St,,Johnston,IA,50131,US,515-727-7845,41.6717567,-93.73681,Monday:12:00 AM - 11:59 PM;Tuesday:12:00 AM - 11:59 PM;Wednesday:12:00 AM - 11:59 PM;Thursday:12:00 AM - 11:59 PM;Friday:12:00 AM - 11:59 PM;Saturday:12:00 AM - 11:59 PM;Sunday:12:00 AM - 11:59 PM;,,0
Kum & Go,0141,1880 SE Princeton Dr,,Grimes,IA,50111,US,515-986-7204,41.673172,-93.7727356,Monday:12:00 AM - 11:59 PM;Tuesday:12:00 AM - 11:59 PM;Wednesday:12:00 AM - 11:59 PM;Thursday:12:00 AM - 11:59 PM;Friday:12:00 AM - 11:59 PM;Saturday:12:00 AM - 11:59 PM;Sunday:12:00 AM - 11:59 PM;,,0
Kum & Go,0570,5800 Northglenn Dr,,Johnston,IA,50131,US,515-276-5407,41.6826553,-93.6978149,Monday:12:00 AM - 11:59 PM;Tuesday:12:00 AM - 11:59 PM;Wednesday:12:00 AM - 11:59 PM;Thursday:12:00 AM - 11:59 PM;Friday:12:00 AM - 11:59 PM;Saturday:12:00 AM - 11:59 PM;Sunday:12:00 AM - 11:59 PM;,,0
Kum & Go,0237,801 N 1st St,,Grimes,IA,50111,US,515-986-9335,41.6885719,-93.78459,Monday:12:00 AM - 11:59 PM;Tuesday:12:00 AM - 11:59 PM;Wednesday:12:00 AM - 11:59 PM;Thursday:12:00 AM - 11:59 PM;Friday:12:00 AM - 11:59 PM;Saturday:12:00 AM - 11:59 PM;Sunday:12:00 AM - 11:59 PM;,,0
Kum & Go,4020,1910 SW White Birch Cir,,Ankeny,IA,50023,US,515-965-2464,41.70253418,-93.62653722,Monday:12:00 AM - 11:59 PM;Tuesday:12:00 AM - 11:59 PM;Wednesday:12:00 AM - 11:59 PM;Thursday:12:00 AM - 11:59 PM;Friday:12:00 AM - 11:59 PM;Saturday:12:00 AM - 11:59 PM;Sunday:12:00 AM - 11:59 PM;,,0
Kum & Go,0579,165 SW Magazine Rd,,Ankeny,IA,50023,US,515-965-2380,41.7170677,-93.60117,Monday:12:00 AM - 11:59 PM;Tuesday:12:00 AM - 11:59 PM;Wednesday:12:00 AM - 11:59 PM;Thursday:12:00 AM - 11:59 PM;Friday:12:00 AM - 11:59 PM;Saturday:12:00 AM - 11:59 PM;Sunday:12:00 AM - 11:59 PM;,,0
Kum & Go,0092,1025 E 1st St,,Ankeny,IA,50021,US,515-965-4525,41.7313728,-93.58184,Monday:12:00 AM - 11:59 PM;Tuesday:12:00 AM - 11:59 PM;Wednesday:12:00 AM - 11:59 PM;Thursday:12:00 AM - 11:59 PM;Friday:12:00 AM - 11:59 PM;Saturday:12:00 AM - 11:59 PM;Sunday:12:00 AM - 11:59 PM;,,0
Kum & Go,0032,1200 N Walnut St,,Colfax,IA,50054,US,515-674-4321,41.68705,-93.24657,Monday:12:00 AM - 11:59 PM;Tuesday:12:00 AM - 11:59 PM;Wednesday:12:00 AM - 11:59 PM;Thursday:12:00 AM - 11:59 PM;Friday:12:00 AM - 11:59 PM;Saturday:12:00 AM - 11:59 PM;Sunday:12:00 AM - 11:59 PM;,,0
Kum & Go,0292,1825 N Ankeny Blvd,,Ankeny,IA,50021,US,515-964-1213,41.746685,-93.59982,Monday:12:00 AM - 11:59 PM;Tuesday:12:00 AM - 11:59 PM;Wednesday:12:00 AM - 11:59 PM;Thursday:12:00 AM - 11:59 PM;Friday:12:00 AM - 11:59 PM;Saturday:12:00 AM - 11:59 PM;Sunday:12:00 AM - 11:59 PM;,,0
Kum & Go,0134,1601 W Burlington Ave,,Fairfield,IA,52556,US,641-469-3154,41.0066376,-91.98151,Monday:12:00 AM - 11:59 PM;Tuesday:12:00 AM - 11:59 PM;Wednesday:12:00 AM - 11:59 PM;Thursday:12:00 AM - 11:59 PM;Friday:12:00 AM - 11:59 PM;Saturday:12:00 AM - 11:59 PM;Sunday:12:00 AM - 11:59 PM;,,0
Kum & Go,0518,3603 NE Otter View Cir,,Ankeny,IA,50021,US,515-964-1347,41.76112,-93.57197,Monday:12:00 AM - 11:59 PM;Tuesday:12:00 AM - 11:59 PM;Wednesday:12:00 AM - 11:59 PM;Thursday:12:00 AM - 11:59 PM;Friday:12:00 AM - 11:59 PM;Saturday:12:00 AM - 11:59 PM;Sunday:12:00 AM - 11:59 PM;,,0
Kum & Go,0135,303 W Broadway St,,Polk City,IA,50226,US,515-984-9308,41.7719841,-93.71378,Monday:12:00 AM - 11:59 PM;Tuesday:12:00 AM - 11:59 PM;Wednesday:12:00 AM - 11:59 PM;Thursday:12:00 AM - 11:59 PM;Friday:12:00 AM - 11:59 PM;Saturday:12:00 AM - 11:59 PM;Sunday:12:00 AM - 11:59 PM;,,0
Kum & Go,0115,1115 IA Highway 141,,Perry,IA,50220,US,,41.82986,-94.10601,Monday:12:00 AM - 11:59 PM;Tuesday:12:00 AM - 11:59 PM;Wednesday:12:00 AM - 11:59 PM;Thursday:12:00 AM - 11:59 PM;Friday:12:00 AM - 11:59 PM;Saturday:12:00 AM - 11:59 PM;Sunday:12:00 AM - 11:59 PM;,,0
Kum & Go,0203,1219 1st St,,Perry,IA,50220,US,515-465-4048,41.8404121,-94.1068344,Monday:12:00 AM - 11:59 PM;Tuesday:12:00 AM - 11:59 PM;Wednesday:12:00 AM - 11:59 PM;Thursday:12:00 AM - 11:59 PM;Friday:12:00 AM - 11:59 PM;Saturday:12:00 AM - 11:59 PM;Sunday:12:00 AM - 11:59 PM;,,0
Kum & Go,0046,1709 Antique City Dr,,Walnut,IA,51577,US,712-784-3881,41.4948845,-95.22099,Monday:12:00 AM - 11:59 PM;Tuesday:12:00 AM - 11:59 PM;Wednesday:12:00 AM - 11:59 PM;Thursday:12:00 AM - 11:59 PM;Friday:12:00 AM - 11:59 PM;Saturday:12:00 AM - 11:59 PM;Sunday:12:00 AM - 11:59 PM;,,0
Kum & Go,0235,1 N Locust St,,Glenwood,IA,51534,US,,41.04613,-95.74456,Monday:12:00 AM - 11:59 PM;Tuesday:12:00 AM - 11:59 PM;Wednesday:12:00 AM - 11:59 PM;Thursday:12:00 AM - 11:59 PM;Friday:12:00 AM - 11:59 PM;Saturday:12:00 AM - 11:59 PM;Sunday:12:00 AM - 11:59 PM;,,0
Kum & Go,0022,715 Lang Creek Ave,,Grinnell,IA,50112,US,641-236-0399,41.69939,-92.72621,Monday:12:00 AM - 11:59 PM;Tuesday:12:00 AM - 11:59 PM;Wednesday:12:00 AM - 11:59 PM;Thursday:12:00 AM - 11:59 PM;Friday:12:00 AM - 11:59 PM;Saturday:12:00 AM - 11:59 PM;Sunday:12:00 AM - 11:59 PM;,,0
Kum & Go,0222,1002 West St,,Grinnell,IA,50112,US,641-236-3890,41.7449455,-92.72718,Monday:12:00 AM - 11:59 PM;Tuesday:12:00 AM - 11:59 PM;Wednesday:12:00 AM - 11:59 PM;Thursday:12:00 AM - 11:59 PM;Friday:12:00 AM - 11:59 PM;Saturday:12:00 AM - 11:59 PM;Sunday:12:00 AM - 11:59 PM;,,0
Kum & Go,0200,4510 Mortensen Rd,,Ames,IA,50014,US,515-292-3432,42.01193,-93.67883,Monday:12:00 AM - 11:59 PM;Tuesday:12:00 AM - 11:59 PM;Wednesday:12:00 AM - 11:59 PM;Thursday:12:00 AM - 11:59 PM;Friday:12:00 AM - 11:59 PM;Saturday:12:00 AM - 11:59 PM;Sunday:12:00 AM - 11:59 PM;,,0
Kum & Go,0227,2108 Isaac Newton Dr,,Ames,IA,50010,US,515-233-2200,42.0087624,-93.58588,Monday:12:00 AM - 11:59 PM;Tuesday:12:00 AM - 11:59 PM;Wednesday:12:00 AM - 11:59 PM;Thursday:12:00 AM - 11:59 PM;Friday:12:00 AM - 11:59 PM;Saturday:12:00 AM - 11:59 PM;Sunday:12:00 AM - 11:59 PM;,,0
Kum & Go,0216,203 Welch Ave,,Ames,IA,50010,US,,42.0213737,-93.65024,Monday:12:00 AM - 11:59 PM;Tuesday:12:00 AM - 11:59 PM;Wednesday:12:00 AM - 11:59 PM;Thursday:12:00 AM - 11:59 PM;Friday:12:00 AM - 11:59 PM;Saturday:12:00 AM - 11:59 PM;Sunday:12:00 AM - 11:59 PM;,,0
Kum & Go,0214,111 Duff Ave,,Ames,IA,50010,US,,42.0235977,-93.61047,Monday:12:00 AM - 11:59 PM;Tuesday:12:00 AM - 11:59 PM;Wednesday:12:00 AM - 11:59 PM;Thursday:12:00 AM - 11:59 PM;Friday:12:00 AM - 11:59 PM;Saturday:12:00 AM - 11:59 PM;Sunday:12:00 AM - 11:59 PM;,,0
Kum & Go,0373,13905 Williamsburg Dr,,Bellevue,NE,68005,US,402-291-0302,41.1042061,-95.93443,Monday:12:00 AM - 11:59 PM;Tuesday:12:00 AM - 11:59 PM;Wednesday:12:00 AM - 11:59 PM;Thursday:12:00 AM - 11:59 PM;Friday:12:00 AM - 11:59 PM;Saturday:12:00 AM - 11:59 PM;Sunday:12:00 AM - 11:59 PM;,,0
Kum & Go,0023,29356 298th St,,Neola,IA,51559,US,712-485-2153,41.4391556,-95.61221,Monday:12:00 AM - 11:59 PM;Tuesday:12:00 AM - 11:59 PM;Wednesday:12:00 AM - 11:59 PM;Thursday:12:00 AM - 11:59 PM;Friday:12:00 AM - 11:59 PM;Saturday:12:00 AM - 11:59 PM;Sunday:12:00 AM - 11:59 PM;,,0
Kum & Go,0219,154 Bennett Ave,,Council Bluffs,IA,51503,US,,41.252636,-95.82053,Monday:12:00 AM - 11:59 PM;Tuesday:12:00 AM - 11:59 PM;Wednesday:12:00 AM - 11:59 PM;Thursday:12:00 AM - 11:59 PM;Friday:12:00 AM - 11:59 PM;Saturday:12:00 AM - 11:59 PM;Sunday:12:00 AM - 11:59 PM;,,0
Kum & Go,0090,1704 S Story St,,Boone,IA,50036,US,515-432-0500,42.03714,-93.87935,Monday:12:00 AM - 11:59 PM;Tuesday:12:00 AM - 11:59 PM;Wednesday:12:00 AM - 11:59 PM;Thursday:12:00 AM - 11:59 PM;Friday:12:00 AM - 11:59 PM;Saturday:12:00 AM - 11:59 PM;Sunday:12:00 AM - 11:59 PM;,,0
Kum & Go,0396,136 Lincoln Hwy,,Nevada,IA,50201,US,515-382-4880,42.0225639,-93.45794,Monday:12:00 AM - 11:59 PM;Tuesday:12:00 AM - 11:59 PM;Wednesday:12:00 AM - 11:59 PM;Thursday:12:00 AM - 11:59 PM;Friday:12:00 AM - 11:59 PM;Saturday:12:00 AM - 11:59 PM;Sunday:12:00 AM - 11:59 PM;,,0
Kum & Go,0533,731 Lincoln Hwy,,Nevada,IA,50201,US,,42.0229645,-93.45118,Monday:12:00 AM - 11:59 PM;Tuesday:12:00 AM - 11:59 PM;Wednesday:12:00 AM - 11:59 PM;Thursday:12:00 AM - 11:59 PM;Friday:12:00 AM - 11:59 PM;Saturday:12:00 AM - 11:59 PM;Sunday:12:00 AM - 11:59 PM;,,0
Kum & Go,0113,2801 E 13th St,,Ames,IA,50010,US,515-233-0359,42.0347366,-93.5752258,Monday:12:00 AM - 11:59 PM;Tuesday:12:00 AM - 11:59 PM;Wednesday:12:00 AM - 11:59 PM;Thursday:12:00 AM - 11:59 PM;Friday:12:00 AM - 11:59 PM;Saturday:12:00 AM - 11:59 PM;Sunday:12:00 AM - 11:59 PM;,,0
Kum & Go,2217,315 Story St,,Boone,IA,50036,US,,42.05877,-93.88024,Monday:12:00 AM - 11:59 PM;Tuesday:12:00 AM - 11:59 PM;Wednesday:12:00 AM - 11:59 PM;Thursday:12:00 AM - 11:59 PM;Friday:12:00 AM - 11:59 PM;Saturday:12:00 AM - 11:59 PM;Sunday:12:00 AM - 11:59 PM;,,0
Kum & Go,0238,303 N Elm St,,Jefferson,IA,50129,US,515-386-2811,42.01738,-94.37714,Monday:12:00 AM - 11:59 PM;Tuesday:12:00 AM - 11:59 PM;Wednesday:12:00 AM - 11:59 PM;Thursday:12:00 AM - 11:59 PM;Friday:12:00 AM - 11:59 PM;Saturday:12:00 AM - 11:59 PM;Sunday:12:00 AM - 11:59 PM;,,0
Kum & Go,0220,2024 5th Ave,,Council Bluffs,IA,51501,US,,41.2572136,-95.8751755,Monday:12:00 AM - 11:59 PM;Tuesday:12:00 AM - 11:59 PM;Wednesday:12:00 AM - 11:59 PM;Thursday:12:00 AM - 11:59 PM;Friday:12:00 AM - 11:59 PM;Saturday:12:00 AM - 11:59 PM;Sunday:12:00 AM - 11:59 PM;,,0
Kum & Go,0366,4443 S 84th St,,Omaha,NE,68127,US,402-827-0772,41.21565,-96.04267,Monday:12:00 AM - 11:59 PM;Tuesday:12:00 AM - 11:59 PM;Wednesday:12:00 AM - 11:59 PM;Thursday:12:00 AM - 11:59 PM;Friday:12:00 AM - 11:59 PM;Saturday:12:00 AM - 11:59 PM;Sunday:12:00 AM - 11:59 PM;,,0
Kum & Go,0374,10764 Virginia Plz,,Papillion,NE,68046,US,402-331-0228,41.1764946,-96.08095,Monday:12:00 AM - 11:59 PM;Tuesday:12:00 AM - 11:59 PM;Wednesday:12:00 AM - 11:59 PM;Thursday:12:00 AM - 11:59 PM;Friday:12:00 AM - 11:59 PM;Saturday:12:00 AM - 11:59 PM;Sunday:12:00 AM - 11:59 PM;,,0
Kum & Go,0372,7152 Pacific St,,Omaha,NE,68106-1022,US,,41.2491455,-96.02343,Monday:12:00 AM - 11:59 PM;Tuesday:12:00 AM - 11:59 PM;Wednesday:12:00 AM - 11:59 PM;Thursday:12:00 AM - 11:59 PM;Friday:12:00 AM - 11:59 PM;Saturday:12:00 AM - 11:59 PM;Sunday:12:00 AM - 11:59 PM;,,0
Kum & Go,0443,2177 M Ave,,Williamsburg,IA,52361,US,319-668-2879,41.69293,-92.0666962,Monday:12:00 AM - 11:59 PM;Tuesday:12:00 AM - 11:59 PM;Wednesday:12:00 AM - 11:59 PM;Thursday:12:00 AM - 11:59 PM;Friday:12:00 AM - 11:59 PM;Saturday:12:00 AM - 11:59 PM;Sunday:12:00 AM - 11:59 PM;,,0
Kum & Go,0363,1819 N 72nd St,,Omaha,NE,68104,US,402-898-9486,41.27604,-96.02332,Monday:12:00 AM - 11:59 PM;Tuesday:12:00 AM - 11:59 PM;Wednesday:12:00 AM - 11:59 PM;Thursday:12:00 AM - 11:59 PM;Friday:12:00 AM - 11:59 PM;Saturday:12:00 AM - 11:59 PM;Sunday:12:00 AM - 11:59 PM;,,0
Kum & Go,0377,8242 Maple St,,Omaha,NE,68134,US,,41.2854843,-96.0411758,Monday:12:00 AM - 11:59 PM;Tuesday:12:00 AM - 11:59 PM;Wednesday:12:00 AM - 11:59 PM;Thursday:12:00 AM - 11:59 PM;Friday:12:00 AM - 11:59 PM;Saturday:12:00 AM - 11:59 PM;Sunday:12:00 AM - 11:59 PM;,,0
Kum & Go,0124,1554 Broad St,,Story City,IA,50248,US,515-733-2391,42.18745,-93.57633,Monday:12:00 AM - 11:59 PM;Tuesday:12:00 AM - 11:59 PM;Wednesday:12:00 AM - 11:59 PM;Thursday:12:00 AM - 11:59 PM;Friday:12:00 AM - 11:59 PM;Saturday:12:00 AM - 11:59 PM;Sunday:12:00 AM - 11:59 PM;,,0
Kum & Go,0370,11205 Wickersham Blvd,,Gretna,NE,68028,US,402-891-0900,41.14644,-96.16231,Monday:12:00 AM - 11:59 PM;Tuesday:12:00 AM - 11:59 PM;Wednesday:12:00 AM - 11:59 PM;Thursday:12:00 AM - 11:59 PM;Friday:12:00 AM - 11:59 PM;Saturday:12:00 AM - 11:59 PM;Sunday:12:00 AM - 11:59 PM;,,0
Kum & Go,0364,8990 Boyd St,,Omaha,NE,68134,US,402-827-1701,41.29864,-96.05196,Monday:12:00 AM - 11:59 PM;Tuesday:12:00 AM - 11:59 PM;Wednesday:12:00 AM - 11:59 PM;Thursday:12:00 AM - 11:59 PM;Friday:12:00 AM - 11:59 PM;Saturday:12:00 AM - 11:59 PM;Sunday:12:00 AM - 11:59 PM;,,0
Kum & Go,0351,720 N 108th Ct,,Omaha,NE,68154,US,,41.26587,-96.0842,Monday:12:00 AM - 11:59 PM;Tuesday:12:00 AM - 11:59 PM;Wednesday:12:00 AM - 11:59 PM;Thursday:12:00 AM - 11:59 PM;Friday:12:00 AM - 11:59 PM;Saturday:12:00 AM - 11:59 PM;Sunday:12:00 AM - 11:59 PM;,,0
Kum & Go,0378,14353 Q St,,Omaha,NE,68137,US,402-827-7922,41.20494,-96.1382,Monday:12:00 AM - 11:59 PM;Tuesday:12:00 AM - 11:59 PM;Wednesday:12:00 AM - 11:59 PM;Thursday:12:00 AM - 11:59 PM;Friday:12:00 AM - 11:59 PM;Saturday:12:00 AM - 11:59 PM;Sunday:12:00 AM - 11:59 PM;,,0
Kum & Go,0360,10025 S 168th Ave,,Omaha,NE,68136,US,402-891-2651,41.1598854,-96.17765,Monday:12:00 AM - 11:59 PM;Tuesday:12:00 AM - 11:59 PM;Wednesday:12:00 AM - 11:59 PM;Thursday:12:00 AM - 11:59 PM;Friday:12:00 AM - 11:59 PM;Saturday:12:00 AM - 11:59 PM;Sunday:12:00 AM - 11:59 PM;,,0
Kum & Go,0369,11111 Emmet St,,Omaha,NE,68164,US,,41.289444,-96.08639,Monday:12:00 AM - 11:59 PM;Tuesday:12:00 AM - 11:59 PM;Wednesday:12:00 AM - 11:59 PM;Thursday:12:00 AM - 11:59 PM;Friday:12:00 AM - 11:59 PM;Saturday:12:00 AM - 11:59 PM;Sunday:12:00 AM - 11:59 PM;,,0
Kum & Go,0348,12011 Blondo St,,Omaha,NE,68134,US,402-493-7272,41.277462,-96.10084,Monday:12:00 AM - 11:59 PM;Tuesday:12:00 AM - 11:59 PM;Wednesday:12:00 AM - 11:59 PM;Thursday:12:00 AM - 11:59 PM;Friday:12:00 AM - 11:59 PM;Saturday:12:00 AM - 11:59 PM;Sunday:12:00 AM - 11:59 PM;,,0
Kum & Go,0352,1010 S 154th St,,Omaha,NE,68154,US,402-330-3678,41.2491951,-96.15552,Monday:12:00 AM - 11:59 PM;Tuesday:12:00 AM - 11:59 PM;Wednesday:12:00 AM - 11:59 PM;Thursday:12:00 AM - 11:59 PM;Friday:12:00 AM - 11:59 PM;Saturday:12:00 AM - 11:59 PM;Sunday:12:00 AM - 11:59 PM;,,0
Kum & Go,0371,13149 Fort St,,Omaha,NE,68164,US,402-493-3462,41.30649,-96.11945,Monday:12:00 AM - 11:59 PM;Tuesday:12:00 AM - 11:59 PM;Wednesday:12:00 AM - 11:59 PM;Thursday:12:00 AM - 11:59 PM;Friday:12:00 AM - 11:59 PM;Saturday:12:00 AM - 11:59 PM;Sunday:12:00 AM - 11:59 PM;,,0
Kum & Go,0367,18908 Q St,,Omaha,NE,68135,US,402-861-1841,41.20576,-96.21232,Monday:12:00 AM - 11:59 PM;Tuesday:12:00 AM - 11:59 PM;Wednesday:12:00 AM - 11:59 PM;Thursday:12:00 AM - 11:59 PM;Friday:12:00 AM - 11:59 PM;Saturday:12:00 AM - 11:59 PM;Sunday:12:00 AM - 11:59 PM;,,0
Kum & Go,0430,717 E Erie St,,Missouri Valley,IA,51555,US,,41.5565567,-95.8853455,Monday:12:00 AM - 11:59 PM;Tuesday:12:00 AM - 11:59 PM;Wednesday:12:00 AM - 11:59 PM;Thursday:12:00 AM - 11:59 PM;Friday:12:00 AM - 11:59 PM;Saturday:12:00 AM - 11:59 PM;Sunday:12:00 AM - 11:59 PM;,,0
Kum & Go,0376,2627 S HWS Cleveland Blvd,,Omaha,NE,68130,US,402-289-3190,41.23446,-96.22089,Monday:12:00 AM - 11:59 PM;Tuesday:12:00 AM - 11:59 PM;Wednesday:12:00 AM - 11:59 PM;Thursday:12:00 AM - 11:59 PM;Friday:12:00 AM - 11:59 PM;Saturday:12:00 AM - 11:59 PM;Sunday:12:00 AM - 11:59 PM;,,0
Kum & Go,0368,4041 N 168th St,,Omaha,NE,68116,US,402-289-2219,41.29257,-96.17701,Monday:12:00 AM - 11:59 PM;Tuesday:12:00 AM - 11:59 PM;Wednesday:12:00 AM - 11:59 PM;Thursday:12:00 AM - 11:59 PM;Friday:12:00 AM - 11:59 PM;Saturday:12:00 AM - 11:59 PM;Sunday:12:00 AM - 11:59 PM;,,0
Kum & Go,0361,1010 S 189th St,,Omaha,NE,68022,US,402-289-2357,41.24861,-96.21241,Monday:12:00 AM - 11:59 PM;Tuesday:12:00 AM - 11:59 PM;Wednesday:12:00 AM - 11:59 PM;Thursday:12:00 AM - 11:59 PM;Friday:12:00 AM - 11:59 PM;Saturday:12:00 AM - 11:59 PM;Sunday:12:00 AM - 11:59 PM;,,0
Kum & Go,0080,1178 Enterprise Dr,,Riverside,IA,52327,US,319-648-2400,41.4864769,-91.55425,Monday:12:00 AM - 11:59 PM;Tuesday:12:00 AM - 11:59 PM;Wednesday:12:00 AM - 11:59 PM;Thursday:12:00 AM - 11:59 PM;Friday:12:00 AM - 11:59 PM;Saturday:12:00 AM - 11:59 PM;Sunday:12:00 AM - 11:59 PM;,,0
Kum & Go,0133,1111 IA Highway 175,,Ellsworth,IA,50075,US,515-836-4839,42.309948,-93.5725555,Monday:12:00 AM - 11:59 PM;Tuesday:12:00 AM - 11:59 PM;Wednesday:12:00 AM - 11:59 PM;Thursday:12:00 AM - 11:59 PM;Friday:12:00 AM - 11:59 PM;Saturday:12:00 AM - 11:59 PM;Sunday:12:00 AM - 11:59 PM;,,0
Kum & Go,0439,303 US Highway 61 N,,Wapello,IA,52653,US,,41.1812477,-91.19548,Monday:12:00 AM - 11:59 PM;Tuesday:12:00 AM - 11:59 PM;Wednesday:12:00 AM - 11:59 PM;Thursday:12:00 AM - 11:59 PM;Friday:12:00 AM - 11:59 PM;Saturday:12:00 AM - 11:59 PM;Sunday:12:00 AM - 11:59 PM;,,0
Kum & Go,0137,101 Village Dr,,Tiffin,IA,52340,US,319-545-2290,41.6960144,-91.66611,Monday:12:00 AM - 11:59 PM;Tuesday:12:00 AM - 11:59 PM;Wednesday:12:00 AM - 11:59 PM;Thursday:12:00 AM - 11:59 PM;Friday:12:00 AM - 11:59 PM;Saturday:12:00 AM - 11:59 PM;Sunday:12:00 AM - 11:59 PM;,,0
Kum & Go,0504,1310 S Gilbert St,,Iowa City,IA,52240,US,,41.38459,-91.31537,Monday:12:00 AM - 11:59 PM;Tuesday:12:00 AM - 11:59 PM;Wednesday:12:00 AM - 11:59 PM;Thursday:12:00 AM - 11:59 PM;Friday:12:00 AM - 11:59 PM;Saturday:12:00 AM - 11:59 PM;Sunday:12:00 AM - 11:59 PM;,,0
Kum & Go,0053,955 Morman Trek Blvd,,Iowa City,IA,52246-4410,US,,41.6502457,-91.57436,Monday:12:00 AM - 11:59 PM;Tuesday:12:00 AM - 11:59 PM;Wednesday:12:00 AM - 11:59 PM;Thursday:12:00 AM - 11:59 PM;Friday:12:00 AM - 11:59 PM;Saturday:12:00 AM - 11:59 PM;Sunday:12:00 AM - 11:59 PM;,,0
Kum & Go,0502,2303 Muscatine Ave,,Iowa City,IA,52240,US,,41.38582,-91.30063,Monday:12:00 AM - 11:59 PM;Tuesday:12:00 AM - 11:59 PM;Wednesday:12:00 AM - 11:59 PM;Thursday:12:00 AM - 11:59 PM;Friday:12:00 AM - 11:59 PM;Saturday:12:00 AM - 11:59 PM;Sunday:12:00 AM - 11:59 PM;,,0
Kum & Go,0524,2600 Holiday Rd,,Coralville,IA,52241,US,319-337-3137,41.70015,-91.60744,Monday:12:00 AM - 11:59 PM;Tuesday:12:00 AM - 11:59 PM;Wednesday:12:00 AM - 11:59 PM;Thursday:12:00 AM - 11:59 PM;Friday:12:00 AM - 11:59 PM;Saturday:12:00 AM - 11:59 PM;Sunday:12:00 AM - 11:59 PM;,,0
Kum & Go,0521,205 2nd St,,Coralville,IA,52241,US,319-338-1593,41.67042,-91.5672,Monday:12:00 AM - 11:59 PM;Tuesday:12:00 AM - 11:59 PM;Wednesday:12:00 AM - 11:59 PM;Thursday:12:00 AM - 11:59 PM;Friday:12:00 AM - 11:59 PM;Saturday:12:00 AM - 11:59 PM;Sunday:12:00 AM - 11:59 PM;,,0
Kum & Go,0422,731 S Riverside Dr,,Iowa City,IA,52246,US,319-358-7880,41.6535263,-91.54063,Monday:12:00 AM - 11:59 PM;Tuesday:12:00 AM - 11:59 PM;Wednesday:12:00 AM - 11:59 PM;Thursday:12:00 AM - 11:59 PM;Friday:12:00 AM - 11:59 PM;Saturday:12:00 AM - 11:59 PM;Sunday:12:00 AM - 11:59 PM;,,0
Kum & Go,1959,2359 Edgington Ave,,Eldora,IA,50627,US,641-858-5111,42.3604164,-93.11371,Monday:12:00 AM - 11:59 PM;Tuesday:12:00 AM - 11:59 PM;Wednesday:12:00 AM - 11:59 PM;Thursday:12:00 AM - 11:59 PM;Friday:12:00 AM - 11:59 PM;Saturday:12:00 AM - 11:59 PM;Sunday:12:00 AM - 11:59 PM;,,0
Kum & Go,0201,822 1st Ave,,Coralville,IA,52241,US,319-351-9096,41.68148,-91.56623,Monday:12:00 AM - 11:59 PM;Tuesday:12:00 AM - 11:59 PM;Wednesday:12:00 AM - 11:59 PM;Thursday:12:00 AM - 11:59 PM;Friday:12:00 AM - 11:59 PM;Saturday:12:00 AM - 11:59 PM;Sunday:12:00 AM - 11:59 PM;,,0
Kum & Go,0052,25 W Burlington St,,Iowa City,IA,52240-3812,US,,41.6578522,-91.53765,Monday:12:00 AM - 11:59 PM;Tuesday:12:00 AM - 11:59 PM;Wednesday:12:00 AM - 11:59 PM;Thursday:12:00 AM - 11:59 PM;Friday:12:00 AM - 11:59 PM;Saturday:12:00 AM - 11:59 PM;Sunday:12:00 AM - 11:59 PM;,,0
Kum & Go,0051,323 E Burlington St,,Iowa City,IA,52240-1606,US,,41.65775,-91.530304,Monday:12:00 AM - 11:59 PM;Tuesday:12:00 AM - 11:59 PM;Wednesday:12:00 AM - 11:59 PM;Thursday:12:00 AM - 11:59 PM;Friday:12:00 AM - 11:59 PM;Saturday:12:00 AM - 11:59 PM;Sunday:12:00 AM - 11:59 PM;,,0
Kum & Go,0507,610 N Kansas Ave,,North Liberty,IA,52317,US,319-626-2412,41.75263,-91.63675,Monday:12:00 AM - 11:59 PM;Tuesday:12:00 AM - 11:59 PM;Wednesday:12:00 AM - 11:59 PM;Thursday:12:00 AM - 11:59 PM;Friday:12:00 AM - 11:59 PM;Saturday:12:00 AM - 11:59 PM;Sunday:12:00 AM - 11:59 PM;,,0
Kum & Go,0254,620 S Downey St,,West Branch,IA,52358,US,319-643-5050,41.66173,-91.34738,Monday:12:00 AM - 11:59 PM;Tuesday:12:00 AM - 11:59 PM;Wednesday:12:00 AM - 11:59 PM;Thursday:12:00 AM - 11:59 PM;Friday:12:00 AM - 11:59 PM;Saturday:12:00 AM - 11:59 PM;Sunday:12:00 AM - 11:59 PM;,,0
Kum & Go,0508,30 Four Oaks Drive SW,,Cedar Rapids,IA,52404,US,319-366-3046,41.92347,-91.65742,Monday:12:00 AM - 11:59 PM;Tuesday:12:00 AM - 11:59 PM;Wednesday:12:00 AM - 11:59 PM;Thursday:12:00 AM - 11:59 PM;Friday:12:00 AM - 11:59 PM;Saturday:12:00 AM - 11:59 PM;Sunday:12:00 AM - 11:59 PM;,,0
Kum & Go,0520,2604 16th Ave,,Cedar Rapids,IA,52404,US,319-362-1888,41.96327,-91.70697,Monday:12:00 AM - 11:59 PM;Tuesday:12:00 AM - 11:59 PM;Wednesday:12:00 AM - 11:59 PM;Thursday:12:00 AM - 11:59 PM;Friday:12:00 AM - 11:59 PM;Saturday:12:00 AM - 11:59 PM;Sunday:12:00 AM - 11:59 PM;,,0
Kum & Go,0437,709 Grandview Ave,,Muscatine,IA,52761,US,,41.40935,-91.06301,Monday:12:00 AM - 11:59 PM;Tuesday:12:00 AM - 11:59 PM;Wednesday:12:00 AM - 11:59 PM;Thursday:12:00 AM - 11:59 PM;Friday:12:00 AM - 11:59 PM;Saturday:12:00 AM - 11:59 PM;Sunday:12:00 AM - 11:59 PM;,,0
Kum & Go,0436,501 Cedar St,,Muscatine,IA,52761,US,,41.4250069,-91.04592,Monday:12:00 AM - 11:59 PM;Tuesday:12:00 AM - 11:59 PM;Wednesday:12:00 AM - 11:59 PM;Thursday:12:00 AM - 11:59 PM;Friday:12:00 AM - 11:59 PM;Saturday:12:00 AM - 11:59 PM;Sunday:12:00 AM - 11:59 PM;,,0
Kum & Go,0514,1420 Mt Vernon Rd SE,,Cedar Rapids,IA,52404,US,319-363-1449,41.97799,-91.65123,Monday:12:00 AM - 11:59 PM;Tuesday:12:00 AM - 11:59 PM;Wednesday:12:00 AM - 11:59 PM;Thursday:12:00 AM - 11:59 PM;Friday:12:00 AM - 11:59 PM;Saturday:12:00 AM - 11:59 PM;Sunday:12:00 AM - 11:59 PM;,,0
Kum & Go,0438,1429 Park Ave,,Muscatine,IA,52761,US,563-263-0272,41.44196,-91.03027,Monday:12:00 AM - 11:59 PM;Tuesday:12:00 AM - 11:59 PM;Wednesday:12:00 AM - 11:59 PM;Thursday:12:00 AM - 11:59 PM;Friday:12:00 AM - 11:59 PM;Saturday:12:00 AM - 11:59 PM;Sunday:12:00 AM - 11:59 PM;,,0
Kum & Go,0517,3132 1st Ave NE,,Cedar Rapids,IA,52406,US,319-365-1356,42.00941,-91.63538,Monday:12:00 AM - 11:59 PM;Tuesday:12:00 AM - 11:59 PM;Wednesday:12:00 AM - 11:59 PM;Thursday:12:00 AM - 11:59 PM;Friday:12:00 AM - 11:59 PM;Saturday:12:00 AM - 11:59 PM;Sunday:12:00 AM - 11:59 PM;,,0
Kum & Go,0513,420 Sherman Ave,,Ackley,IA,50601,US,641-847-2416,42.55659,-93.0564957,Monday:12:00 AM - 11:59 PM;Tuesday:12:00 AM - 11:59 PM;Wednesday:12:00 AM - 11:59 PM;Thursday:12:00 AM - 11:59 PM;Friday:12:00 AM - 11:59 PM;Saturday:12:00 AM - 11:59 PM;Sunday:12:00 AM - 11:59 PM;,,0
Kum & Go,0509,1203 Blairs Ferry Rd,,Marion,IA,52302,US,319-373-3194,42.03214,-91.62497,Monday:12:00 AM - 11:59 PM;Tuesday:12:00 AM - 11:59 PM;Wednesday:12:00 AM - 11:59 PM;Thursday:12:00 AM - 11:59 PM;Friday:12:00 AM - 11:59 PM;Saturday:12:00 AM - 11:59 PM;Sunday:12:00 AM - 11:59 PM;,,0
Kum & Go,0544,1120 S Commercial Ave,,Eagle Grove,IA,50533,US,,42.654007,-93.90417,Monday:12:00 AM - 11:59 PM;Tuesday:12:00 AM - 11:59 PM;Wednesday:12:00 AM - 11:59 PM;Thursday:12:00 AM - 11:59 PM;Friday:12:00 AM - 11:59 PM;Saturday:12:00 AM - 11:59 PM;Sunday:12:00 AM - 11:59 PM;,,0
Kum & Go,0267,2050 IA Highway 38,,Tipton,IA,52772,US,563-946-2140,41.6477623,-91.11592,Monday:12:00 AM - 11:59 PM;Tuesday:12:00 AM - 11:59 PM;Wednesday:12:00 AM - 11:59 PM;Thursday:12:00 AM - 11:59 PM;Friday:12:00 AM - 11:59 PM;Saturday:12:00 AM - 11:59 PM;Sunday:12:00 AM - 11:59 PM;,,0
Kum & Go,0503,3215 7th Ave,,Marion,IA,52302,US,319-373-3531,42.0349131,-91.5774843,Monday:12:00 AM - 11:59 PM;Tuesday:12:00 AM - 11:59 PM;Wednesday:12:00 AM - 11:59 PM;Thursday:12:00 AM - 11:59 PM;Friday:12:00 AM - 11:59 PM;Saturday:12:00 AM - 11:59 PM;Sunday:12:00 AM - 11:59 PM;,,0
Kum & Go,0432,3303 W Broadway St,,Bolivar,MO,65613,US,417-777-7858,37.613018,-93.45001,Monday:12:00 AM - 11:59 PM;Tuesday:12:00 AM - 11:59 PM;Wednesday:12:00 AM - 11:59 PM;Thursday:12:00 AM - 11:59 PM;Friday:12:00 AM - 11:59 PM;Saturday:12:00 AM - 11:59 PM;Sunday:12:00 AM - 11:59 PM;,,0
Kum & Go,0433,2565 S Springfield Ave,,Bolivar,MO,65613,US,417-777-5359,37.59022,-93.4011841,Monday:12:00 AM - 11:59 PM;Tuesday:12:00 AM - 11:59 PM;Wednesday:12:00 AM - 11:59 PM;Thursday:12:00 AM - 11:59 PM;Friday:12:00 AM - 11:59 PM;Saturday:12:00 AM - 11:59 PM;Sunday:12:00 AM - 11:59 PM;,,0
Kum & Go,0456,656 N Jefferson Ave,,Lebanon,MO,65536-2746,US,,37.6858253,-92.6702,Monday:12:00 AM - 11:59 PM;Tuesday:12:00 AM - 11:59 PM;Wednesday:12:00 AM - 11:59 PM;Thursday:12:00 AM - 11:59 PM;Friday:12:00 AM - 11:59 PM;Saturday:12:00 AM - 11:59 PM;Sunday:12:00 AM - 11:59 PM;,,0
Kum & Go,0455,501 Cowan Dr,,Lebanon,MO,65636,US,,37.6818,-92.6375351,Monday:12:00 AM - 11:59 PM;Tuesday:12:00 AM - 11:59 PM;Wednesday:12:00 AM - 11:59 PM;Thursday:12:00 AM - 11:59 PM;Friday:12:00 AM - 11:59 PM;Saturday:12:00 AM - 11:59 PM;Sunday:12:00 AM - 11:59 PM;,,0
Kum & Go,0564,1212 8th Ave N,,Humboldt,IA,50548,US,,42.7297478,-94.22662,Monday:12:00 AM - 11:59 PM;Tuesday:12:00 AM - 11:59 PM;Wednesday:12:00 AM - 11:59 PM;Thursday:12:00 AM - 11:59 PM;Friday:12:00 AM - 11:59 PM;Saturday:12:00 AM - 11:59 PM;Sunday:12:00 AM - 11:59 PM;,,0
Kum & Go,0568,308 Ichord Ave,,Waynesville,MO,65583,US,,37.80904,-92.2237,Monday:12:00 AM - 11:59 PM;Tuesday:12:00 AM - 11:59 PM;Wednesday:12:00 AM - 11:59 PM;Thursday:12:00 AM - 11:59 PM;Friday:12:00 AM - 11:59 PM;Saturday:12:00 AM - 11:59 PM;Sunday:12:00 AM - 11:59 PM;,,0
Kum & Go,0578,130 Old Route 66,,St Robert,MO,65584,US,573-336-0295,37.8223877,-92.14424,Monday:12:00 AM - 11:59 PM;Tuesday:12:00 AM - 11:59 PM;Wednesday:12:00 AM - 11:59 PM;Thursday:12:00 AM - 11:59 PM;Friday:12:00 AM - 11:59 PM;Saturday:12:00 AM - 11:59 PM;Sunday:12:00 AM - 11:59 PM;,,0
Kum & Go,0001,609 Central Ave W,,Hampton,IA,50441,US,641-456-5106,42.74179,-93.2148056,Monday:12:00 AM - 11:59 PM;Tuesday:12:00 AM - 11:59 PM;Wednesday:12:00 AM - 11:59 PM;Thursday:12:00 AM - 11:59 PM;Friday:12:00 AM - 11:59 PM;Saturday:12:00 AM - 11:59 PM;Sunday:12:00 AM - 11:59 PM;,,0
Kum & Go,0772,700 W Elm Ave,,Pocahontas,IA,50574,US,,42.732708,-94.6789856,Monday:12:00 AM - 11:59 PM;Tuesday:12:00 AM - 11:59 PM;Wednesday:12:00 AM - 11:59 PM;Thursday:12:00 AM - 11:59 PM;Friday:12:00 AM - 11:59 PM;Saturday:12:00 AM - 11:59 PM;Sunday:12:00 AM - 11:59 PM;,,0
Kum & Go,4127,1864 Old Hwy 141,,Sloan,IA,51055,US,712-428-4877,42.22803,-96.23658,Monday:12:00 AM - 11:59 PM;Tuesday:12:00 AM - 11:59 PM;Wednesday:12:00 AM - 11:59 PM;Thursday:12:00 AM - 11:59 PM;Friday:12:00 AM - 11:59 PM;Saturday:12:00 AM - 11:59 PM;Sunday:12:00 AM - 11:59 PM;,,0
Kum & Go,0435,103 W Old Mill Rd,,Fair Grove,MO,65648,US,417-759-7000,37.38438,-93.1535,Monday:12:00 AM - 11:59 PM;Tuesday:12:00 AM - 11:59 PM;Wednesday:12:00 AM - 11:59 PM;Thursday:12:00 AM - 11:59 PM;Friday:12:00 AM - 11:59 PM;Saturday:12:00 AM - 11:59 PM;Sunday:12:00 AM - 11:59 PM;,,0
Kum & Go,0557,1700 E Valley Water Mill Rd,,Springfield,MO,65803,US,,37.2617569,-93.26429,Monday:12:00 AM - 11:59 PM;Tuesday:12:00 AM - 11:59 PM;Wednesday:12:00 AM - 11:59 PM;Thursday:12:00 AM - 11:59 PM;Friday:12:00 AM - 11:59 PM;Saturday:12:00 AM - 11:59 PM;Sunday:12:00 AM - 11:59 PM;,,0
Kum & Go,0566,1701 N Smith St,,Springfield,MO,65803,US,417-833-2790,37.2533531,-93.3112259,Monday:12:00 AM - 11:59 PM;Tuesday:12:00 AM - 11:59 PM;Wednesday:12:00 AM - 11:59 PM;Thursday:12:00 AM - 11:59 PM;Friday:12:00 AM - 11:59 PM;Saturday:12:00 AM - 11:59 PM;Sunday:12:00 AM - 11:59 PM;,,0
Kum & Go,0488,1704 W Norton Rd,,Springfield,MO,65803,US,417-833-8075,37.25261,-93.31125,Monday:12:00 AM - 11:59 PM;Tuesday:12:00 AM - 11:59 PM;Wednesday:12:00 AM - 11:59 PM;Thursday:12:00 AM - 11:59 PM;Friday:12:00 AM - 11:59 PM;Saturday:12:00 AM - 11:59 PM;Sunday:12:00 AM - 11:59 PM;,,0
Kum & Go,0471,2953 N National Ave,,Springfield,MO,65803-4420,US,,37.25135,-93.2746048,Monday:12:00 AM - 11:59 PM;Tuesday:12:00 AM - 11:59 PM;Wednesday:12:00 AM - 11:59 PM;Thursday:12:00 AM - 11:59 PM;Friday:12:00 AM - 11:59 PM;Saturday:12:00 AM - 11:59 PM;Sunday:12:00 AM - 11:59 PM;,,0
Kum & Go,0486,125 S State Highway 125,,Strafford,MO,65757,US,,37.26973,-93.11394,Monday:12:00 AM - 11:59 PM;Tuesday:12:00 AM - 11:59 PM;Wednesday:12:00 AM - 11:59 PM;Thursday:12:00 AM - 11:59 PM;Friday:12:00 AM - 11:59 PM;Saturday:12:00 AM - 11:59 PM;Sunday:12:00 AM - 11:59 PM;,,0
Kum & Go,0562,3449 W Kearney St,,Springfield,MO,65803,US,417-865-6903,37.24192,-93.34587,Monday:12:00 AM - 11:59 PM;Tuesday:12:00 AM - 11:59 PM;Wednesday:12:00 AM - 11:59 PM;Thursday:12:00 AM - 11:59 PM;Friday:12:00 AM - 11:59 PM;Saturday:12:00 AM - 11:59 PM;Sunday:12:00 AM - 11:59 PM;,,0
Kum & Go,0470,1605 E Kearney St,,Springfield,MO,65803-4105,US,,37.2403564,-93.26534,Monday:12:00 AM - 11:59 PM;Tuesday:12:00 AM - 11:59 PM;Wednesday:12:00 AM - 11:59 PM;Thursday:12:00 AM - 11:59 PM;Friday:12:00 AM - 11:59 PM;Saturday:12:00 AM - 11:59 PM;Sunday:12:00 AM - 11:59 PM;,,0
Kum & Go,0561,3445 E Kearney St,,Springfield,MO,65803,US,417-865-1069,37.2390251,-93.22299,Monday:12:00 AM - 11:59 PM;Tuesday:12:00 AM - 11:59 PM;Wednesday:12:00 AM - 11:59 PM;Thursday:12:00 AM - 11:59 PM;Friday:12:00 AM - 11:59 PM;Saturday:12:00 AM - 11:59 PM;Sunday:12:00 AM - 11:59 PM;,,0
Kum & Go,0472,1505 N National Ave,,Springfield,MO,65803,US,417-862-0486,37.22642,-93.27593,Monday:12:00 AM - 11:59 PM;Tuesday:12:00 AM - 11:59 PM;Wednesday:12:00 AM - 11:59 PM;Thursday:12:00 AM - 11:59 PM;Friday:12:00 AM - 11:59 PM;Saturday:12:00 AM - 11:59 PM;Sunday:12:00 AM - 11:59 PM;,,0
Kum & Go,0556,1550 N Glenstone Ave,,Springfield,MO,65803,US,,37.2268066,-93.26061,Monday:12:00 AM - 11:59 PM;Tuesday:12:00 AM - 11:59 PM;Wednesday:12:00 AM - 11:59 PM;Thursday:12:00 AM - 11:59 PM;Friday:12:00 AM - 11:59 PM;Saturday:12:00 AM - 11:59 PM;Sunday:12:00 AM - 11:59 PM;,,0
Kum & Go,0467,2963 E Division St,,Springfield,MO,65803-5214,US,417-866-3284,37.22481,-93.23469,Monday:12:00 AM - 11:59 PM;Tuesday:12:00 AM - 11:59 PM;Wednesday:12:00 AM - 11:59 PM;Thursday:12:00 AM - 11:59 PM;Friday:12:00 AM - 11:59 PM;Saturday:12:00 AM - 11:59 PM;Sunday:12:00 AM - 11:59 PM;,,0
Kum & Go,1463,3434 W Chestnut Pkwy,,Springfield,MO,65802,US,417-873-9069,37.21172,-93.34734,Monday:12:00 AM - 11:59 PM;Tuesday:12:00 AM - 11:59 PM;Wednesday:12:00 AM - 11:59 PM;Thursday:12:00 AM - 11:59 PM;Friday:12:00 AM - 11:59 PM;Saturday:12:00 AM - 11:59 PM;Sunday:12:00 AM - 11:59 PM;,,0
Kum & Go,0473,620 N National Ave,,Springfield,MO,65804-0022,US,,37.2145271,-93.27515,Monday:12:00 AM - 11:59 PM;Tuesday:12:00 AM - 11:59 PM;Wednesday:12:00 AM - 11:59 PM;Thursday:12:00 AM - 11:59 PM;Friday:12:00 AM - 11:59 PM;Saturday:12:00 AM - 11:59 PM;Sunday:12:00 AM - 11:59 PM;,,0
Kum & Go,0466,2506 W College Rd,,Springfield,MO,65802-4572,US,,37.20881,-93.32609,Monday:12:00 AM - 11:59 PM;Tuesday:12:00 AM - 11:59 PM;Wednesday:12:00 AM - 11:59 PM;Thursday:12:00 AM - 11:59 PM;Friday:12:00 AM - 11:59 PM;Saturday:12:00 AM - 11:59 PM;Sunday:12:00 AM - 11:59 PM;,,0
Kum & Go,0560,215 S Kansas Expwy,,Springfield,MO,65806,US,417-866-3049,37.20839,-93.31251,Monday:12:00 AM - 11:59 PM;Tuesday:12:00 AM - 11:59 PM;Wednesday:12:00 AM - 11:59 PM;Thursday:12:00 AM - 11:59 PM;Friday:12:00 AM - 11:59 PM;Saturday:12:00 AM - 11:59 PM;Sunday:12:00 AM - 11:59 PM;,,0
Kum & Go,0582,220 S Phillips St,,Algona,IA,50511,US,,43.0677,-94.22686,Monday:12:00 AM - 11:59 PM;Tuesday:12:00 AM - 11:59 PM;Wednesday:12:00 AM - 11:59 PM;Thursday:12:00 AM - 11:59 PM;Friday:12:00 AM - 11:59 PM;Saturday:12:00 AM - 11:59 PM;Sunday:12:00 AM - 11:59 PM;,,0
Kum & Go,0468,609 E Elm St,,Springfield,MO,65806-2427,US,417-863-1722,37.20554,-93.28634,Monday:12:00 AM - 11:59 PM;Tuesday:12:00 AM - 11:59 PM;Wednesday:12:00 AM - 11:59 PM;Thursday:12:00 AM - 11:59 PM;Friday:12:00 AM - 11:59 PM;Saturday:12:00 AM - 11:59 PM;Sunday:12:00 AM - 11:59 PM;,,0
Kum & Go,0469,529 S Grant Ave,,Springfield,MO,65806-2007,US,,37.2043571,-93.29903,Monday:12:00 AM - 11:59 PM;Tuesday:12:00 AM - 11:59 PM;Wednesday:12:00 AM - 11:59 PM;Thursday:12:00 AM - 11:59 PM;Friday:12:00 AM - 11:59 PM;Saturday:12:00 AM - 11:59 PM;Sunday:12:00 AM - 11:59 PM;,,0
Kum & Go,0554,2744 E Chestnut Expwy,,Springfield,MO,65802,US,417-866-4576,37.20971,-93.240036,Monday:12:00 AM - 11:59 PM;Tuesday:12:00 AM - 11:59 PM;Wednesday:12:00 AM - 11:59 PM;Thursday:12:00 AM - 11:59 PM;Friday:12:00 AM - 11:59 PM;Saturday:12:00 AM - 11:59 PM;Sunday:12:00 AM - 11:59 PM;,,0
Kum & Go,0558,959 S Glenstone Ave,,Springfield,MO,65804,US,,37.1965981,-93.26243,Monday:12:00 AM - 11:59 PM;Tuesday:12:00 AM - 11:59 PM;Wednesday:12:00 AM - 11:59 PM;Thursday:12:00 AM - 11:59 PM;Friday:12:00 AM - 11:59 PM;Saturday:12:00 AM - 11:59 PM;Sunday:12:00 AM - 11:59 PM;,,0
Kum & Go,0485,2650 W Sunshine St,,Springfield,MO,65807,US,,37.18243,-93.33101,Monday:12:00 AM - 11:59 PM;Tuesday:12:00 AM - 11:59 PM;Wednesday:12:00 AM - 11:59 PM;Thursday:12:00 AM - 11:59 PM;Friday:12:00 AM - 11:59 PM;Saturday:12:00 AM - 11:59 PM;Sunday:12:00 AM - 11:59 PM;,,0
Kum & Go,1484,1211 W Sunshine St,,Springfield,MO,65807,US,417-869-4871,37.1827,-93.30841,Monday:12:00 AM - 11:59 PM;Tuesday:12:00 AM - 11:59 PM;Wednesday:12:00 AM - 11:59 PM;Thursday:12:00 AM - 11:59 PM;Friday:12:00 AM - 11:59 PM;Saturday:12:00 AM - 11:59 PM;Sunday:12:00 AM - 11:59 PM;,,0
Kum & Go,0483,2404 E Sunshine St,,Springfield,MO,65804-1823,US,,37.1808662,-93.24927,Monday:12:00 AM - 11:59 PM;Tuesday:12:00 AM - 11:59 PM;Wednesday:12:00 AM - 11:59 PM;Thursday:12:00 AM - 11:59 PM;Friday:12:00 AM - 11:59 PM;Saturday:12:00 AM - 11:59 PM;Sunday:12:00 AM - 11:59 PM;,,0
Kum & Go,0551,2149 S Campbell Ave,,Springfield,MO,65802,US,417-882-2263,37.175602,-93.2954559,Monday:12:00 AM - 11:59 PM;Tuesday:12:00 AM - 11:59 PM;Wednesday:12:00 AM - 11:59 PM;Thursday:12:00 AM - 11:59 PM;Friday:12:00 AM - 11:59 PM;Saturday:12:00 AM - 11:59 PM;Sunday:12:00 AM - 11:59 PM;,,0
Kum & Go,0567,2904 E Sunshine St,,Springfield,MO,65804,US,417-881-1028,37.1804848,-93.23755,Monday:12:00 AM - 11:59 PM;Tuesday:12:00 AM - 11:59 PM;Wednesday:12:00 AM - 11:59 PM;Thursday:12:00 AM - 11:59 PM;Friday:12:00 AM - 11:59 PM;Saturday:12:00 AM - 11:59 PM;Sunday:12:00 AM - 11:59 PM;,,0
Kum & Go,0482,3352 E Sunshine St,,Springfield,MO,65804-2109,US,,37.18015,-93.22617,Monday:12:00 AM - 11:59 PM;Tuesday:12:00 AM - 11:59 PM;Wednesday:12:00 AM - 11:59 PM;Thursday:12:00 AM - 11:59 PM;Friday:12:00 AM - 11:59 PM;Saturday:12:00 AM - 11:59 PM;Sunday:12:00 AM - 11:59 PM;,,0
Kum & Go,0481,3623 E Sunshine St,,Springfield,MO,65809-2822,US,,37.1804581,-93.22048,Monday:12:00 AM - 11:59 PM;Tuesday:12:00 AM - 11:59 PM;Wednesday:12:00 AM - 11:59 PM;Thursday:12:00 AM - 11:59 PM;Friday:12:00 AM - 11:59 PM;Saturday:12:00 AM - 11:59 PM;Sunday:12:00 AM - 11:59 PM;,,0
Kum & Go,0489,4020 W Battlefield St,,Springfield,MO,65807,US,417-887-8754,37.16022,-93.36266,Monday:12:00 AM - 11:59 PM;Tuesday:12:00 AM - 11:59 PM;Wednesday:12:00 AM - 11:59 PM;Thursday:12:00 AM - 11:59 PM;Friday:12:00 AM - 11:59 PM;Saturday:12:00 AM - 11:59 PM;Sunday:12:00 AM - 11:59 PM;,,0
Kum & Go,0464,2808 S Campbell Ave,,Springfield,MO,65807,US,417-882-1156,37.16609,-93.29488,Monday:12:00 AM - 11:59 PM;Tuesday:12:00 AM - 11:59 PM;Wednesday:12:00 AM - 11:59 PM;Thursday:12:00 AM - 11:59 PM;Friday:12:00 AM - 11:59 PM;Saturday:12:00 AM - 11:59 PM;Sunday:12:00 AM - 11:59 PM;,,0
Kum & Go,1458,638 E US Highway 60,,Republic,MO,65738-1523,US,417-732-2373,37.15137,-93.41851,Monday:12:00 AM - 11:59 PM;Tuesday:12:00 AM - 11:59 PM;Wednesday:12:00 AM - 11:59 PM;Thursday:12:00 AM - 11:59 PM;Friday:12:00 AM - 11:59 PM;Saturday:12:00 AM - 11:59 PM;Sunday:12:00 AM - 11:59 PM;,,0
Kum & Go,0460,1313 W Battlefield St,,Springfield,MO,65807-4104,US,,37.16026,-93.30975,Monday:12:00 AM - 11:59 PM;Tuesday:12:00 AM - 11:59 PM;Wednesday:12:00 AM - 11:59 PM;Thursday:12:00 AM - 11:59 PM;Friday:12:00 AM - 11:59 PM;Saturday:12:00 AM - 11:59 PM;Sunday:12:00 AM - 11:59 PM;,,0
Kum & Go,0474,2930 S National Ave,,Springfield,MO,65804-3634,US,,37.1613235,-93.27698,Monday:12:00 AM - 11:59 PM;Tuesday:12:00 AM - 11:59 PM;Wednesday:12:00 AM - 11:59 PM;Thursday:12:00 AM - 11:59 PM;Friday:12:00 AM - 11:59 PM;Saturday:12:00 AM - 11:59 PM;Sunday:12:00 AM - 11:59 PM;,,0
Kum & Go,0480,777 E Battlefield Rd,,Springfield,MO,65807,US,417-885-3829,37.16008,-93.28507,Monday:12:00 AM - 11:59 PM;Tuesday:12:00 AM - 11:59 PM;Wednesday:12:00 AM - 11:59 PM;Thursday:12:00 AM - 11:59 PM;Friday:12:00 AM - 11:59 PM;Saturday:12:00 AM - 11:59 PM;Sunday:12:00 AM - 11:59 PM;,,0
Kum & Go,0497,3049 E US Highway 60,,Republic,MO,65738,US,417-865-1308,37.145979,-93.430007,Monday:12:00 AM - 11:59 PM;Tuesday:12:00 AM - 11:59 PM;Wednesday:12:00 AM - 11:59 PM;Thursday:12:00 AM - 11:59 PM;Friday:12:00 AM - 11:59 PM;Saturday:12:00 AM - 11:59 PM;Sunday:12:00 AM - 11:59 PM;,,0
Kum & Go,0338,771 33rd Ave,,Columbus,NE,68601,US,,41.4242935,-97.36795,Monday:12:00 AM - 11:59 PM;Tuesday:12:00 AM - 11:59 PM;Wednesday:12:00 AM - 11:59 PM;Thursday:12:00 AM - 11:59 PM;Friday:12:00 AM - 11:59 PM;Saturday:12:00 AM - 11:59 PM;Sunday:12:00 AM - 11:59 PM;,,0
Kum & Go,0499,1894 S State Highway 125,,Rogersville,MO,65742,US,,37.17581,-93.1183,Monday:12:00 AM - 11:59 PM;Tuesday:12:00 AM - 11:59 PM;Wednesday:12:00 AM - 11:59 PM;Thursday:12:00 AM - 11:59 PM;Friday:12:00 AM - 11:59 PM;Saturday:12:00 AM - 11:59 PM;Sunday:12:00 AM - 11:59 PM;,,0
Kum & Go,0475,3416 S National Ave,,Springfield,MO,65807-7307,US,,37.1527443,-93.27754,Monday:12:00 AM - 11:59 PM;Tuesday:12:00 AM - 11:59 PM;Wednesday:12:00 AM - 11:59 PM;Thursday:12:00 AM - 11:59 PM;Friday:12:00 AM - 11:59 PM;Saturday:12:00 AM - 11:59 PM;Sunday:12:00 AM - 11:59 PM;,,0
Kum & Go,0550,3264 E Battlefield St,,Springfield,MO,65804,US,,37.1578522,-93.22892,Monday:12:00 AM - 11:59 PM;Tuesday:12:00 AM - 11:59 PM;Wednesday:12:00 AM - 11:59 PM;Thursday:12:00 AM - 11:59 PM;Friday:12:00 AM - 11:59 PM;Saturday:12:00 AM - 11:59 PM;Sunday:12:00 AM - 11:59 PM;,,0
Kum & Go,0563,3015 W Republic Rd,,Springfield,MO,65807,US,,37.13874,-93.33913,Monday:12:00 AM - 11:59 PM;Tuesday:12:00 AM - 11:59 PM;Wednesday:12:00 AM - 11:59 PM;Thursday:12:00 AM - 11:59 PM;Friday:12:00 AM - 11:59 PM;Saturday:12:00 AM - 11:59 PM;Sunday:12:00 AM - 11:59 PM;,,0
Kum & Go,0302,2905 4th Ave S,,Clear Lake,IA,50428,US,641-357-6041,43.1337128,-93.35145,Monday:12:00 AM - 11:59 PM;Tuesday:12:00 AM - 11:59 PM;Wednesday:12:00 AM - 11:59 PM;Thursday:12:00 AM - 11:59 PM;Friday:12:00 AM - 11:59 PM;Saturday:12:00 AM - 11:59 PM;Sunday:12:00 AM - 11:59 PM;,,0
Kum & Go,0479,510 W Republic Rd,,Springfield,MO,65807-5817,US,,37.1380157,-93.29727,Monday:12:00 AM - 11:59 PM;Tuesday:12:00 AM - 11:59 PM;Wednesday:12:00 AM - 11:59 PM;Thursday:12:00 AM - 11:59 PM;Friday:12:00 AM - 11:59 PM;Saturday:12:00 AM - 11:59 PM;Sunday:12:00 AM - 11:59 PM;,,0
Kum & Go,0476,2161 E Republic Ct,,Springfield,MO,65804-6521,US,417-890-1189,37.1409035,-93.25373,Monday:12:00 AM - 11:59 PM;Tuesday:12:00 AM - 11:59 PM;Wednesday:12:00 AM - 11:59 PM;Thursday:12:00 AM - 11:59 PM;Friday:12:00 AM - 11:59 PM;Saturday:12:00 AM - 11:59 PM;Sunday:12:00 AM - 11:59 PM;,,0
Kum & Go,0228,1925 S Lakeport St,,Sioux City,IA,51106,US,712-276-3389,42.47061,-96.3470459,Monday:12:00 AM - 11:59 PM;Tuesday:12:00 AM - 11:59 PM;Wednesday:12:00 AM - 11:59 PM;Thursday:12:00 AM - 11:59 PM;Friday:12:00 AM - 11:59 PM;Saturday:12:00 AM - 11:59 PM;Sunday:12:00 AM - 11:59 PM;,,0
Kum & Go,0301,2005 US Highway 18 E,,Clear Lake,IA,50428,US,641-357-5140,43.145237,-93.35971,Monday:12:00 AM - 11:59 PM;Tuesday:12:00 AM - 11:59 PM;Wednesday:12:00 AM - 11:59 PM;Thursday:12:00 AM - 11:59 PM;Friday:12:00 AM - 11:59 PM;Saturday:12:00 AM - 11:59 PM;Sunday:12:00 AM - 11:59 PM;,,0
Kum & Go,0431,5505 S State Highway FF,,Battlefield,MO,65619,US,,37.11437,-93.37104,Monday:12:00 AM - 11:59 PM;Tuesday:12:00 AM - 11:59 PM;Wednesday:12:00 AM - 11:59 PM;Thursday:12:00 AM - 11:59 PM;Friday:12:00 AM - 11:59 PM;Saturday:12:00 AM - 11:59 PM;Sunday:12:00 AM - 11:59 PM;,,0
Kum & Go,0571,900 E Mt Vernon Blvd,,Mount Vernon,MO,65712,US,417-461-0764,37.0943756,-93.8077545,Monday:12:00 AM - 11:59 PM;Tuesday:12:00 AM - 11:59 PM;Wednesday:12:00 AM - 11:59 PM;Thursday:12:00 AM - 11:59 PM;Friday:12:00 AM - 11:59 PM;Saturday:12:00 AM - 11:59 PM;Sunday:12:00 AM - 11:59 PM;,,0
Kum & Go,0487,411 S Madison Ave,,Webb City,MO,64870,US,,37.1412354,-94.47465,Monday:12:00 AM - 11:59 PM;Tuesday:12:00 AM - 11:59 PM;Wednesday:12:00 AM - 11:59 PM;Thursday:12:00 AM - 11:59 PM;Friday:12:00 AM - 11:59 PM;Saturday:12:00 AM - 11:59 PM;Sunday:12:00 AM - 11:59 PM;,,0
Kum & Go,0465,5343 S Campbell Ave,,Springfield,MO,65810,US,417-885-0046,37.11628,-93.29785,Monday:12:00 AM - 11:59 PM;Tuesday:12:00 AM - 11:59 PM;Wednesday:12:00 AM - 11:59 PM;Thursday:12:00 AM - 11:59 PM;Friday:12:00 AM - 11:59 PM;Saturday:12:00 AM - 11:59 PM;Sunday:12:00 AM - 11:59 PM;,,0
Kum & Go,0225,1031 Morningside Ave,,Sioux City,IA,51106,US,,42.4817123,-96.36536,Monday:6:00 AM - 11:00 PM;Tuesday:6:00 AM - 11:00 PM;Wednesday:6:00 AM - 11:00 PM;Thursday:6:00 AM - 11:00 PM;Friday:6:00 AM - 11:00 PM;Saturday:6:00 AM - 11:00 PM;Sunday:6:00 AM - 11:00 PM;,,0
Kum & Go,0250,3808 Dakota Ave,,South Sioux City,NE,68776,US,402-494-1898,42.45231,-96.4135,Monday:12:00 AM - 11:59 PM;Tuesday:12:00 AM - 11:59 PM;Wednesday:12:00 AM - 11:59 PM;Thursday:12:00 AM - 11:59 PM;Friday:12:00 AM - 11:59 PM;Saturday:12:00 AM - 11:59 PM;Sunday:12:00 AM - 11:59 PM;,,0
Kum & Go,0461,5958 N Main St,,Joplin,MO,64801,US,417-624-3347,37.1423531,-94.51009,Monday:12:00 AM - 11:59 PM;Tuesday:12:00 AM - 11:59 PM;Wednesday:12:00 AM - 11:59 PM;Thursday:12:00 AM - 11:59 PM;Friday:12:00 AM - 11:59 PM;Saturday:12:00 AM - 11:59 PM;Sunday:12:00 AM - 11:59 PM;,,0
Kum & Go,0224,2930 Gordon Dr,,Sioux City,IA,51106,US,,42.4896355,-96.37162,Monday:12:00 AM - 11:59 PM;Tuesday:12:00 AM - 11:59 PM;Wednesday:12:00 AM - 11:59 PM;Thursday:12:00 AM - 11:59 PM;Friday:12:00 AM - 11:59 PM;Saturday:12:00 AM - 11:59 PM;Sunday:12:00 AM - 11:59 PM;,,0
Kum & Go,0498,4996 S State Highway 125,,Rogersville,MO,65742,US,417-753-2103,37.11934,-93.118866,Monday:12:00 AM - 11:59 PM;Tuesday:12:00 AM - 11:59 PM;Wednesday:12:00 AM - 11:59 PM;Thursday:12:00 AM - 11:59 PM;Friday:12:00 AM - 11:59 PM;Saturday:12:00 AM - 11:59 PM;Sunday:12:00 AM - 11:59 PM;,,0
Kum & Go,0251,1005 Gordon Dr,,Sioux City,IA,51106,US,712-258-0716,42.49029,-96.39705,Monday:12:00 AM - 11:59 PM;Tuesday:12:00 AM - 11:59 PM;Wednesday:12:00 AM - 11:59 PM;Thursday:12:00 AM - 11:59 PM;Friday:12:00 AM - 11:59 PM;Saturday:12:00 AM - 11:59 PM;Sunday:12:00 AM - 11:59 PM;,,0
Kum & Go,0029,2577 High St,,Sarcoxie,MO,64862,US,417-548-9124,37.07665,-94.10606,Monday:12:00 AM - 11:59 PM;Tuesday:12:00 AM - 11:59 PM;Wednesday:12:00 AM - 11:59 PM;Thursday:12:00 AM - 11:59 PM;Friday:12:00 AM - 11:59 PM;Saturday:12:00 AM - 11:59 PM;Sunday:12:00 AM - 11:59 PM;,,0
Kum & Go,0569,2587 N Range Line Rd,,Webb City,MO,64870,US,417-206-2587,37.1126976,-94.4757156,Monday:12:00 AM - 11:59 PM;Tuesday:12:00 AM - 11:59 PM;Wednesday:12:00 AM - 11:59 PM;Thursday:12:00 AM - 11:59 PM;Friday:12:00 AM - 11:59 PM;Saturday:12:00 AM - 11:59 PM;Sunday:12:00 AM - 11:59 PM;,,0
Kum & Go,0221,1401 Court St,,Sioux City,IA,51105,US,,42.5051,-96.39635,Monday:12:00 AM - 11:59 PM;Tuesday:12:00 AM - 11:59 PM;Wednesday:12:00 AM - 11:59 PM;Thursday:12:00 AM - 11:59 PM;Friday:12:00 AM - 11:59 PM;Saturday:12:00 AM - 11:59 PM;Sunday:12:00 AM - 11:59 PM;,,0
Kum & Go,0226,1373 Pierce St,,Sioux City,IA,51105,US,712-258-4226,42.5048561,-96.40533,Monday:12:00 AM - 11:59 PM;Tuesday:12:00 AM - 11:59 PM;Wednesday:12:00 AM - 11:59 PM;Thursday:12:00 AM - 11:59 PM;Friday:12:00 AM - 11:59 PM;Saturday:12:00 AM - 11:59 PM;Sunday:12:00 AM - 11:59 PM;,,0
Kum & Go,0223,2626 Court St,,Sioux City,IA,51104,US,,42.51746,-96.39575,Monday:6:00 AM - 11:00 PM;Tuesday:6:00 AM - 11:00 PM;Wednesday:6:00 AM - 11:00 PM;Thursday:6:00 AM - 11:00 PM;Friday:6:00 AM - 11:00 PM;Saturday:6:00 AM - 11:00 PM;Sunday:6:00 AM - 11:00 PM;,,0
Kum & Go,0229,1821 Hamilton Blvd,,Sioux City,IA,51103,US,712-255-7600,42.5103645,-96.4169846,Monday:12:00 AM - 11:59 PM;Tuesday:12:00 AM - 11:59 PM;Wednesday:12:00 AM - 11:59 PM;Thursday:12:00 AM - 11:59 PM;Friday:12:00 AM - 11:59 PM;Saturday:12:00 AM - 11:59 PM;Sunday:12:00 AM - 11:59 PM;,,0
Kum & Go,0446,3931 E 7th St,,Joplin,MO,64801,US,,37.08405,-94.45949,Monday:12:00 AM - 11:59 PM;Tuesday:12:00 AM - 11:59 PM;Wednesday:12:00 AM - 11:59 PM;Thursday:12:00 AM - 11:59 PM;Friday:12:00 AM - 11:59 PM;Saturday:12:00 AM - 11:59 PM;Sunday:12:00 AM - 11:59 PM;,,0
Kum & Go,0442,1631 E 4th St,,Joplin,MO,64804,US,417-624-1177,37.08761,-94.4952545,Monday:12:00 AM - 11:59 PM;Tuesday:12:00 AM - 11:59 PM;Wednesday:12:00 AM - 11:59 PM;Thursday:12:00 AM - 11:59 PM;Friday:12:00 AM - 11:59 PM;Saturday:12:00 AM - 11:59 PM;Sunday:12:00 AM - 11:59 PM;,,0
Kum & Go,0447,2307 W 7th St,,Joplin,MO,64801,US,417-623-2086,37.08479,-94.54298,Monday:12:00 AM - 11:59 PM;Tuesday:12:00 AM - 11:59 PM;Wednesday:12:00 AM - 11:59 PM;Thursday:12:00 AM - 11:59 PM;Friday:12:00 AM - 11:59 PM;Saturday:12:00 AM - 11:59 PM;Sunday:12:00 AM - 11:59 PM;,,0
Kum & Go,0434,414 N Public Ave,,Clever,MO,65631,US,417-743-2556,37.0371933,-93.47249,Monday:12:00 AM - 11:59 PM;Tuesday:12:00 AM - 11:59 PM;Wednesday:12:00 AM - 11:59 PM;Thursday:12:00 AM - 11:59 PM;Friday:12:00 AM - 11:59 PM;Saturday:12:00 AM - 11:59 PM;Sunday:12:00 AM - 11:59 PM;,,0
Kum & Go,0453,1503 S Range Line Rd,,Joplin,MO,64804,US,417-625-1451,37.07368,-94.47716,Monday:12:00 AM - 11:59 PM;Tuesday:12:00 AM - 11:59 PM;Wednesday:12:00 AM - 11:59 PM;Thursday:12:00 AM - 11:59 PM;Friday:12:00 AM - 11:59 PM;Saturday:12:00 AM - 11:59 PM;Sunday:12:00 AM - 11:59 PM;,,0
Kum & Go,0494,402 Massey Blvd,,Nixa,MO,65714,US,,37.04725,-93.3029861,Monday:12:00 AM - 11:59 PM;Tuesday:12:00 AM - 11:59 PM;Wednesday:12:00 AM - 11:59 PM;Thursday:12:00 AM - 11:59 PM;Friday:12:00 AM - 11:59 PM;Saturday:12:00 AM - 11:59 PM;Sunday:12:00 AM - 11:59 PM;,,0
Kum & Go,0495,102 Ridgecrest Ave,,Nixa,MO,65714,US,,37.0430527,-93.28454,Monday:12:00 AM - 11:59 PM;Tuesday:12:00 AM - 11:59 PM;Wednesday:12:00 AM - 11:59 PM;Thursday:12:00 AM - 11:59 PM;Friday:12:00 AM - 11:59 PM;Saturday:12:00 AM - 11:59 PM;Sunday:12:00 AM - 11:59 PM;,,0
Kum & Go,0459,1832 S Maiden Ln,,Joplin,MO,64801,US,,37.07185,-94.53184,Monday:12:00 AM - 11:59 PM;Tuesday:12:00 AM - 11:59 PM;Wednesday:12:00 AM - 11:59 PM;Thursday:12:00 AM - 11:59 PM;Friday:12:00 AM - 11:59 PM;Saturday:12:00 AM - 11:59 PM;Sunday:12:00 AM - 11:59 PM;,,0
Kum & Go,0248,2026 Riverside Blvd,,Sioux City,IA,51109,US,712-233-2922,42.5151176,-96.4743958,Monday:12:00 AM - 11:59 PM;Tuesday:12:00 AM - 11:59 PM;Wednesday:12:00 AM - 11:59 PM;Thursday:12:00 AM - 11:59 PM;Friday:12:00 AM - 11:59 PM;Saturday:12:00 AM - 11:59 PM;Sunday:12:00 AM - 11:59 PM;,,0
Kum & Go,0454,3434 S Range Line Rd,,Joplin,MO,64804,US,417-625-1728,37.05122,-94.47905,Monday:12:00 AM - 11:59 PM;Tuesday:12:00 AM - 11:59 PM;Wednesday:12:00 AM - 11:59 PM;Thursday:12:00 AM - 11:59 PM;Friday:12:00 AM - 11:59 PM;Saturday:12:00 AM - 11:59 PM;Sunday:12:00 AM - 11:59 PM;,,0
Kum & Go,0706,901 W Jackson St,,Ozark,MO,65721,US,417-485-3957,37.025663,-93.211498,Monday:12:00 AM - 11:59 PM;Tuesday:12:00 AM - 11:59 PM;Wednesday:12:00 AM - 11:59 PM;Thursday:12:00 AM - 11:59 PM;Friday:12:00 AM - 11:59 PM;Saturday:12:00 AM - 11:59 PM;Sunday:12:00 AM - 11:59 PM;,,0
Kum & Go,0491,5302 S Range Line Rd,,Joplin,MO,64804,US,,37.0296135,-94.47944,Monday:12:00 AM - 11:59 PM;Tuesday:12:00 AM - 11:59 PM;Wednesday:12:00 AM - 11:59 PM;Thursday:12:00 AM - 11:59 PM;Friday:12:00 AM - 11:59 PM;Saturday:12:00 AM - 11:59 PM;Sunday:12:00 AM - 11:59 PM;,,0
Kum & Go,0492,870 E US Highway 60,,Monett,MO,65708,US,417-235-8880,36.91422,-93.90583,Monday:12:00 AM - 11:59 PM;Tuesday:12:00 AM - 11:59 PM;Wednesday:12:00 AM - 11:59 PM;Thursday:12:00 AM - 11:59 PM;Friday:12:00 AM - 11:59 PM;Saturday:12:00 AM - 11:59 PM;Sunday:12:00 AM - 11:59 PM;,,0
Kum & Go,0119,818 Hwy 105,,Northwood,IA,50459,US,641-323-7444,43.44481,-93.35579,Monday:12:00 AM - 11:59 PM;Tuesday:12:00 AM - 11:59 PM;Wednesday:12:00 AM - 11:59 PM;Thursday:12:00 AM - 11:59 PM;Friday:12:00 AM - 11:59 PM;Saturday:12:00 AM - 11:59 PM;Sunday:12:00 AM - 11:59 PM;,,0
Kum & Go,0449,15679 Kodiak Rd,,Neosho,MO,64850,US,417-455-9294,36.8413467,-94.40924,Monday:12:00 AM - 11:59 PM;Tuesday:12:00 AM - 11:59 PM;Wednesday:12:00 AM - 11:59 PM;Thursday:12:00 AM - 11:59 PM;Friday:12:00 AM - 11:59 PM;Saturday:12:00 AM - 11:59 PM;Sunday:12:00 AM - 11:59 PM;,,0
Kum & Go,0615,32562 477th Ave,,Elk Point,SD,57025,US,605-356-9453,42.66864,-96.66472,Monday:12:00 AM - 11:59 PM;Tuesday:12:00 AM - 11:59 PM;Wednesday:12:00 AM - 11:59 PM;Thursday:12:00 AM - 11:59 PM;Friday:12:00 AM - 11:59 PM;Saturday:12:00 AM - 11:59 PM;Sunday:12:00 AM - 11:59 PM;,,0
Kum & Go,0493,16140 MO Highway 59,,Neosho,MO,64850,US,417-451-7262,36.8356,-94.39466,Monday:12:00 AM - 11:59 PM;Tuesday:12:00 AM - 11:59 PM;Wednesday:12:00 AM - 11:59 PM;Thursday:12:00 AM - 11:59 PM;Friday:12:00 AM - 11:59 PM;Saturday:12:00 AM - 11:59 PM;Sunday:12:00 AM - 11:59 PM;,,0
Kum & Go,0768,107 IA Highway 60,,Hospers,IA,51238,US,,43.0720634,-95.90686,Monday:12:00 AM - 11:59 PM;Tuesday:12:00 AM - 11:59 PM;Wednesday:12:00 AM - 11:59 PM;Thursday:12:00 AM - 11:59 PM;Friday:12:00 AM - 11:59 PM;Saturday:12:00 AM - 11:59 PM;Sunday:12:00 AM - 11:59 PM;,,0
Kum & Go,0608,1001 Sanborn Ave,,Okoboji,IA,51355,US,,43.3819847,-95.1290359,Monday:12:00 AM - 11:59 PM;Tuesday:12:00 AM - 11:59 PM;Wednesday:12:00 AM - 11:59 PM;Thursday:12:00 AM - 11:59 PM;Friday:12:00 AM - 11:59 PM;Saturday:12:00 AM - 11:59 PM;Sunday:12:00 AM - 11:59 PM;,,0
Kum & Go,0117,300 18th St,,Spirit Lake,IA,51360,US,712-336-1107,43.42273,-95.09436,Monday:12:00 AM - 11:59 PM;Tuesday:12:00 AM - 11:59 PM;Wednesday:12:00 AM - 11:59 PM;Thursday:12:00 AM - 11:59 PM;Friday:12:00 AM - 11:59 PM;Saturday:12:00 AM - 11:59 PM;Sunday:12:00 AM - 11:59 PM;,,0
Kum & Go,0421,402 N Main Ave,,Sioux Center,IA,51250,US,,43.0810432,-96.17541,Monday:5:00 AM - 11:00 PM;Tuesday:5:00 AM - 11:00 PM;Wednesday:5:00 AM - 11:00 PM;Thursday:5:00 AM - 11:00 PM;Friday:5:00 AM - 11:00 PM;Saturday:6:00 AM - 11:00 PM;Sunday:6:00 AM - 11:00 PM;,,0
Kum & Go,0441,195 Gage Dr,,Hollister,MO,65672,US,417-334-7824,36.6084328,-93.23366,Monday:12:00 AM - 11:59 PM;Tuesday:12:00 AM - 11:59 PM;Wednesday:12:00 AM - 11:59 PM;Thursday:12:00 AM - 11:59 PM;Friday:12:00 AM - 11:59 PM;Saturday:12:00 AM - 11:59 PM;Sunday:12:00 AM - 11:59 PM;,,0
Kum & Go,0187,600 MN Highway 4,,Sherburn,MN,56171,US,507-764-2640,43.6613731,-94.731514,Monday:12:00 AM - 11:59 PM;Tuesday:12:00 AM - 11:59 PM;Wednesday:12:00 AM - 11:59 PM;Thursday:12:00 AM - 11:59 PM;Friday:12:00 AM - 11:59 PM;Saturday:12:00 AM - 11:59 PM;Sunday:12:00 AM - 11:59 PM;,,0
Kum & Go,0890,767 E Will Rogers Pkwy,,Vinita,OK,74301,US,918-323-0807,36.623793,-95.14829,Monday:12:00 AM - 11:59 PM;Tuesday:12:00 AM - 11:59 PM;Wednesday:12:00 AM - 11:59 PM;Thursday:12:00 AM - 11:59 PM;Friday:12:00 AM - 11:59 PM;Saturday:12:00 AM - 11:59 PM;Sunday:12:00 AM - 11:59 PM;,,0
Kum & Go,0891,767 E Will Rogers Pkwy,,Vinita,OK,74301,US,918-323-0718,36.622655,-95.147442,Monday:12:00 AM - 11:59 PM;Tuesday:12:00 AM - 11:59 PM;Wednesday:12:00 AM - 11:59 PM;Thursday:12:00 AM - 11:59 PM;Friday:12:00 AM - 11:59 PM;Saturday:12:00 AM - 11:59 PM;Sunday:12:00 AM - 11:59 PM;,,0
Kum & Go,0408,2811 E Central Ave,,Bentonville,AR,72712,US,479-254-0646,36.3808327,-94.1766357,Monday:12:00 AM - 11:59 PM;Tuesday:12:00 AM - 11:59 PM;Wednesday:12:00 AM - 11:59 PM;Thursday:12:00 AM - 11:59 PM;Friday:12:00 AM - 11:59 PM;Saturday:12:00 AM - 11:59 PM;Sunday:12:00 AM - 11:59 PM;,,0
Kum & Go,0416,800 SE J St,,Bentonville,AR,72712,US,479-254-1104,36.363814,-94.1968303,Monday:12:00 AM - 11:59 PM;Tuesday:12:00 AM - 11:59 PM;Wednesday:12:00 AM - 11:59 PM;Thursday:12:00 AM - 11:59 PM;Friday:12:00 AM - 11:59 PM;Saturday:12:00 AM - 11:59 PM;Sunday:12:00 AM - 11:59 PM;,,0
Kum & Go,0403,2400 W Hudson Rd,,Rogers,AR,72756,US,479-621-0583,36.35524,-94.15204,Monday:12:00 AM - 11:59 PM;Tuesday:12:00 AM - 11:59 PM;Wednesday:12:00 AM - 11:59 PM;Thursday:12:00 AM - 11:59 PM;Friday:12:00 AM - 11:59 PM;Saturday:12:00 AM - 11:59 PM;Sunday:12:00 AM - 11:59 PM;,,0
Kum & Go,0405,2710 Moberly Ln,,Bentonville,AR,72712,US,479-464-0984,36.3431053,-94.18401,Monday:12:00 AM - 11:59 PM;Tuesday:12:00 AM - 11:59 PM;Wednesday:12:00 AM - 11:59 PM;Thursday:12:00 AM - 11:59 PM;Friday:12:00 AM - 11:59 PM;Saturday:12:00 AM - 11:59 PM;Sunday:12:00 AM - 11:59 PM;,,0
Kum & Go,0412,3610 SW Regional Airport Blvd,,Bentonville,AR,72712,US,479-254-9795,36.33679,-94.25331,Monday:12:00 AM - 11:59 PM;Tuesday:12:00 AM - 11:59 PM;Wednesday:12:00 AM - 11:59 PM;Thursday:12:00 AM - 11:59 PM;Friday:12:00 AM - 11:59 PM;Saturday:12:00 AM - 11:59 PM;Sunday:12:00 AM - 11:59 PM;,,0
Kum & Go,0401,1701 W New Hope Rd,,Rogers,AR,72756,US,479-986-8595,36.3123741,-94.14397,Monday:12:00 AM - 11:59 PM;Tuesday:12:00 AM - 11:59 PM;Wednesday:12:00 AM - 11:59 PM;Thursday:12:00 AM - 11:59 PM;Friday:12:00 AM - 11:59 PM;Saturday:12:00 AM - 11:59 PM;Sunday:12:00 AM - 11:59 PM;,,0
Kum & Go,0026,305 N Maine Ave,,Adrian,MN,56110,US,507-483-2634,43.64216,-95.93358,Monday:12:00 AM - 11:59 PM;Tuesday:12:00 AM - 11:59 PM;Wednesday:12:00 AM - 11:59 PM;Thursday:12:00 AM - 11:59 PM;Friday:12:00 AM - 11:59 PM;Saturday:12:00 AM - 11:59 PM;Sunday:12:00 AM - 11:59 PM;,,0
Kum & Go,0399,978 W Pleasant Grove Rd,,Lowell,AR,72745,US,479-659-5936,36.28212,-94.13097,Monday:12:00 AM - 11:59 PM;Tuesday:12:00 AM - 11:59 PM;Wednesday:12:00 AM - 11:59 PM;Thursday:12:00 AM - 11:59 PM;Friday:12:00 AM - 11:59 PM;Saturday:12:00 AM - 11:59 PM;Sunday:12:00 AM - 11:59 PM;,,0
Kum & Go,0382,104 N Bloomington St,,Lowell,AR,72745,US,479-770-0252,36.25448,-94.13756,Monday:12:00 AM - 11:59 PM;Tuesday:12:00 AM - 11:59 PM;Wednesday:12:00 AM - 11:59 PM;Thursday:12:00 AM - 11:59 PM;Friday:12:00 AM - 11:59 PM;Saturday:12:00 AM - 11:59 PM;Sunday:12:00 AM - 11:59 PM;,,0
Kum & Go,0402,816 W Monroe Ave,,Lowell,AR,72745,US,479-750-4401,36.255,-94.15542,Monday:12:00 AM - 11:59 PM;Tuesday:12:00 AM - 11:59 PM;Wednesday:12:00 AM - 11:59 PM;Thursday:12:00 AM - 11:59 PM;Friday:12:00 AM - 11:59 PM;Saturday:12:00 AM - 11:59 PM;Sunday:12:00 AM - 11:59 PM;,,0
Kum & Go,0383,1010 N Thompson St,,Springdale,AR,72764,US,479-756-0832,36.195446,-94.13839,Monday:12:00 AM - 11:59 PM;Tuesday:12:00 AM - 11:59 PM;Wednesday:12:00 AM - 11:59 PM;Thursday:12:00 AM - 11:59 PM;Friday:12:00 AM - 11:59 PM;Saturday:12:00 AM - 11:59 PM;Sunday:12:00 AM - 11:59 PM;,,0
Kum & Go,0381,524 Highway 62-65 S,,Harrison,AR,72601,US,,36.2226944,-93.08428,Monday:12:00 AM - 11:59 PM;Tuesday:12:00 AM - 11:59 PM;Wednesday:12:00 AM - 11:59 PM;Thursday:12:00 AM - 11:59 PM;Friday:12:00 AM - 11:59 PM;Saturday:12:00 AM - 11:59 PM;Sunday:12:00 AM - 11:59 PM;,,0
Kum & Go,0400,4231 Elm Springs Rd,,Springdale,AR,72764,US,479-750-4549,36.19282,-94.17712,Monday:12:00 AM - 11:59 PM;Tuesday:12:00 AM - 11:59 PM;Wednesday:12:00 AM - 11:59 PM;Thursday:12:00 AM - 11:59 PM;Friday:12:00 AM - 11:59 PM;Saturday:12:00 AM - 11:59 PM;Sunday:12:00 AM - 11:59 PM;,,0
Kum & Go,0406,500 N Old Missouri Rd,,Springdale,AR,72762,US,479-750-1371,36.18858,-94.11702,Monday:12:00 AM - 11:59 PM;Tuesday:12:00 AM - 11:59 PM;Wednesday:12:00 AM - 11:59 PM;Thursday:12:00 AM - 11:59 PM;Friday:12:00 AM - 11:59 PM;Saturday:12:00 AM - 11:59 PM;Sunday:12:00 AM - 11:59 PM;,,0
Kum & Go,0417,500 S Thompson St,,Springdale,AR,72764,US,479-751-0093,36.181,-94.1392,Monday:12:00 AM - 11:59 PM;Tuesday:12:00 AM - 11:59 PM;Wednesday:12:00 AM - 11:59 PM;Thursday:12:00 AM - 11:59 PM;Friday:12:00 AM - 11:59 PM;Saturday:12:00 AM - 11:59 PM;Sunday:12:00 AM - 11:59 PM;,,0
Kum & Go,0384,2351 W Sunset Ave,,Springdale,AR,72764,US,479-725-2423,36.17472,-94.15647,Monday:12:00 AM - 11:59 PM;Tuesday:12:00 AM - 11:59 PM;Wednesday:12:00 AM - 11:59 PM;Thursday:12:00 AM - 11:59 PM;Friday:12:00 AM - 11:59 PM;Saturday:12:00 AM - 11:59 PM;Sunday:12:00 AM - 11:59 PM;,,0
Kum & Go,0414,1220 E Robinson Ave,,Springdale,AR,72764,US,479-725-0061,36.167,-94.1194,Monday:12:00 AM - 11:59 PM;Tuesday:12:00 AM - 11:59 PM;Wednesday:12:00 AM - 11:59 PM;Thursday:12:00 AM - 11:59 PM;Friday:12:00 AM - 11:59 PM;Saturday:12:00 AM - 11:59 PM;Sunday:12:00 AM - 11:59 PM;,,0
Kum & Go,0860,2101 E Main St,,Pawhuska,OK,74056,US,,36.66925,-96.31409,Monday:12:00 AM - 11:59 PM;Tuesday:12:00 AM - 11:59 PM;Wednesday:12:00 AM - 11:59 PM;Thursday:12:00 AM - 11:59 PM;Friday:12:00 AM - 11:59 PM;Saturday:12:00 AM - 11:59 PM;Sunday:12:00 AM - 11:59 PM;,,0
Kum & Go,0616,6001 S Western Ave,,Sioux Falls,SD,57108,US,605-338-2092,43.4899368,-96.7477646,Monday:12:00 AM - 11:59 PM;Tuesday:12:00 AM - 11:59 PM;Wednesday:12:00 AM - 11:59 PM;Thursday:12:00 AM - 11:59 PM;Friday:12:00 AM - 11:59 PM;Saturday:12:00 AM - 11:59 PM;Sunday:12:00 AM - 11:59 PM;,,0
Kum & Go,0618,4721 E 26th St,,Sioux Falls,SD,57110,US,,43.52914,-96.66795,Monday:12:00 AM - 11:59 PM;Tuesday:12:00 AM - 11:59 PM;Wednesday:12:00 AM - 11:59 PM;Thursday:12:00 AM - 11:59 PM;Friday:12:00 AM - 11:59 PM;Saturday:12:00 AM - 11:59 PM;Sunday:12:00 AM - 11:59 PM;,,0
Kum & Go,0861,901 S Mill Rd,,Pryor,OK,74361-6801,US,,36.2926369,-95.32415,Monday:12:00 AM - 11:59 PM;Tuesday:12:00 AM - 11:59 PM;Wednesday:12:00 AM - 11:59 PM;Thursday:12:00 AM - 11:59 PM;Friday:12:00 AM - 11:59 PM;Saturday:12:00 AM - 11:59 PM;Sunday:12:00 AM - 11:59 PM;,,0
Kum & Go,0620,412 N Sycamore Ave,,Sioux Falls,SD,57110,US,605-334-5278,43.5510025,-96.67129,Monday:12:00 AM - 11:59 PM;Tuesday:12:00 AM - 11:59 PM;Wednesday:12:00 AM - 11:59 PM;Thursday:12:00 AM - 11:59 PM;Friday:12:00 AM - 11:59 PM;Saturday:12:00 AM - 11:59 PM;Sunday:12:00 AM - 11:59 PM;,,0
Kum & Go,0409,2388 North College Ave,,Fayetteville,AR,72703,US,479-251-1519,36.0949173,-94.15247,Monday:12:00 AM - 11:59 PM;Tuesday:12:00 AM - 11:59 PM;Wednesday:12:00 AM - 11:59 PM;Thursday:12:00 AM - 11:59 PM;Friday:12:00 AM - 11:59 PM;Saturday:12:00 AM - 11:59 PM;Sunday:12:00 AM - 11:59 PM;,,0
Kum & Go,0631,1400 N Cliff Ave,,Sioux Falls,SD,57101,US,605-221-0151,43.56238,-96.71082,Monday:12:00 AM - 11:59 PM;Tuesday:12:00 AM - 11:59 PM;Wednesday:12:00 AM - 11:59 PM;Thursday:12:00 AM - 11:59 PM;Friday:12:00 AM - 11:59 PM;Saturday:12:00 AM - 11:59 PM;Sunday:12:00 AM - 11:59 PM;,,0
Kum & Go,0611,501 N Minnesota Ave,,Sioux Falls,SD,57104,US,605-334-5212,43.55275,-96.73164,Monday:12:00 AM - 11:59 PM;Tuesday:12:00 AM - 11:59 PM;Wednesday:12:00 AM - 11:59 PM;Thursday:12:00 AM - 11:59 PM;Friday:12:00 AM - 11:59 PM;Saturday:12:00 AM - 11:59 PM;Sunday:12:00 AM - 11:59 PM;,,0
Kum & Go,0625,7100 W 41st St,,Sioux Falls,SD,57106,US,605-361-3725,43.5151672,-96.8125458,Monday:12:00 AM - 11:59 PM;Tuesday:12:00 AM - 11:59 PM;Wednesday:12:00 AM - 11:59 PM;Thursday:12:00 AM - 11:59 PM;Friday:12:00 AM - 11:59 PM;Saturday:12:00 AM - 11:59 PM;Sunday:12:00 AM - 11:59 PM;,,0
Kum & Go,0633,1400 N Minnesota Ave,,Sioux Falls,SD,57104,US,605-338-0016,43.56466,-96.7307,Monday:12:00 AM - 11:59 PM;Tuesday:12:00 AM - 11:59 PM;Wednesday:12:00 AM - 11:59 PM;Thursday:12:00 AM - 11:59 PM;Friday:12:00 AM - 11:59 PM;Saturday:12:00 AM - 11:59 PM;Sunday:12:00 AM - 11:59 PM;,,0
Kum & Go,0840,1100 N Lynn Riggs Blvd,,Claremore,OK,74017-3040,US,,36.32207,-95.6096,Monday:12:00 AM - 11:59 PM;Tuesday:12:00 AM - 11:59 PM;Wednesday:12:00 AM - 11:59 PM;Thursday:12:00 AM - 11:59 PM;Friday:12:00 AM - 11:59 PM;Saturday:12:00 AM - 11:59 PM;Sunday:12:00 AM - 11:59 PM;,,0
Kum & Go,0820,1302 W Will Rogers Blvd,,Claremore,OK,74017,US,918-341-3856,36.3172,-95.6269,Monday:12:00 AM - 11:59 PM;Tuesday:12:00 AM - 11:59 PM;Wednesday:12:00 AM - 11:59 PM;Thursday:12:00 AM - 11:59 PM;Friday:12:00 AM - 11:59 PM;Saturday:12:00 AM - 11:59 PM;Sunday:12:00 AM - 11:59 PM;,,0
Kum & Go,0841,1035 E Will Rogers Blvd,,Claremore,OK,74017,US,918-341-8091,36.3072166,-95.59724,Monday:12:00 AM - 11:59 PM;Tuesday:12:00 AM - 11:59 PM;Wednesday:12:00 AM - 11:59 PM;Thursday:12:00 AM - 11:59 PM;Friday:12:00 AM - 11:59 PM;Saturday:12:00 AM - 11:59 PM;Sunday:12:00 AM - 11:59 PM;,,0
Kum & Go,0846,701 S OK Highway 82,,Locust Grove,OK,74352,US,918-479-2212,36.1903,-95.1596,Monday:12:00 AM - 11:59 PM;Tuesday:12:00 AM - 11:59 PM;Wednesday:12:00 AM - 11:59 PM;Thursday:12:00 AM - 11:59 PM;Friday:12:00 AM - 11:59 PM;Saturday:12:00 AM - 11:59 PM;Sunday:12:00 AM - 11:59 PM;,,0
Kum & Go,0413,729 W Martin Luther King Blvd,,Fayetteville,AR,72701,US,479-695-1174,36.05655,-94.1701,Monday:12:00 AM - 11:59 PM;Tuesday:12:00 AM - 11:59 PM;Wednesday:12:00 AM - 11:59 PM;Thursday:12:00 AM - 11:59 PM;Friday:12:00 AM - 11:59 PM;Saturday:12:00 AM - 11:59 PM;Sunday:12:00 AM - 11:59 PM;,,0
Kum & Go,0423,90 E Main St,,Farmington,AR,72730,US,479-267-8003,36.04293,-94.2364,Monday:12:00 AM - 11:59 PM;Tuesday:12:00 AM - 11:59 PM;Wednesday:12:00 AM - 11:59 PM;Thursday:12:00 AM - 11:59 PM;Friday:12:00 AM - 11:59 PM;Saturday:12:00 AM - 11:59 PM;Sunday:12:00 AM - 11:59 PM;,,0
Kum & Go,0864,951 W Rogers Blvd,,Skiatook,OK,74070-1015,US,,36.3684845,-96.0162,Monday:12:00 AM - 11:59 PM;Tuesday:12:00 AM - 11:59 PM;Wednesday:12:00 AM - 11:59 PM;Thursday:12:00 AM - 11:59 PM;Friday:12:00 AM - 11:59 PM;Saturday:12:00 AM - 11:59 PM;Sunday:12:00 AM - 11:59 PM;,,0
Kum & Go,0876,14505 E 86th St N,,Owasso,OK,74055,US,918-274-8006,36.27889,-95.8119,Monday:12:00 AM - 11:59 PM;Tuesday:12:00 AM - 11:59 PM;Wednesday:12:00 AM - 11:59 PM;Thursday:12:00 AM - 11:59 PM;Friday:12:00 AM - 11:59 PM;Saturday:12:00 AM - 11:59 PM;Sunday:12:00 AM - 11:59 PM;,,0
Kum & Go,0886,10603 E 86th St N,,Owasso,OK,74055,US,918-376-2546,36.27872,-95.85472,Monday:12:00 AM - 11:59 PM;Tuesday:12:00 AM - 11:59 PM;Wednesday:12:00 AM - 11:59 PM;Thursday:12:00 AM - 11:59 PM;Friday:12:00 AM - 11:59 PM;Saturday:12:00 AM - 11:59 PM;Sunday:12:00 AM - 11:59 PM;,,0
Kum & Go,0858,307 E 2nd Ave,,Owasso,OK,74055-3202,US,,36.2641449,-95.85239,Monday:12:00 AM - 11:59 PM;Tuesday:12:00 AM - 11:59 PM;Wednesday:12:00 AM - 11:59 PM;Thursday:12:00 AM - 11:59 PM;Friday:12:00 AM - 11:59 PM;Saturday:12:00 AM - 11:59 PM;Sunday:12:00 AM - 11:59 PM;,,0
Kum & Go,0881,2502  N Harvard Ave,,Tulsa,OK,74115,US,918-835-5597,36.19133,-95.94076,Monday:12:00 AM - 11:59 PM;Tuesday:12:00 AM - 11:59 PM;Wednesday:12:00 AM - 11:59 PM;Thursday:12:00 AM - 11:59 PM;Friday:12:00 AM - 11:59 PM;Saturday:12:00 AM - 11:59 PM;Sunday:12:00 AM - 11:59 PM;,,0
Kum & Go,0883,2109 S Sheridan Rd,,Tulsa,OK,74129,US,918-836-2619,36.133,-95.904,Monday:12:00 AM - 11:59 PM;Tuesday:12:00 AM - 11:59 PM;Wednesday:12:00 AM - 11:59 PM;Thursday:12:00 AM - 11:59 PM;Friday:12:00 AM - 11:59 PM;Saturday:12:00 AM - 11:59 PM;Sunday:12:00 AM - 11:59 PM;,,0
Kum & Go,0866,14495 E 51st St S,,Tulsa,OK,74134,US,,36.0901642,-95.81546,Monday:12:00 AM - 11:59 PM;Tuesday:12:00 AM - 11:59 PM;Wednesday:12:00 AM - 11:59 PM;Thursday:12:00 AM - 11:59 PM;Friday:12:00 AM - 11:59 PM;Saturday:12:00 AM - 11:59 PM;Sunday:12:00 AM - 11:59 PM;,,0
Kum & Go,0877,1050 E Albany St,,Broken Arrow,OK,74012,US,918-355-0341,36.0755234,-95.7779541,Monday:12:00 AM - 11:59 PM;Tuesday:12:00 AM - 11:59 PM;Wednesday:12:00 AM - 11:59 PM;Thursday:12:00 AM - 11:59 PM;Friday:12:00 AM - 11:59 PM;Saturday:12:00 AM - 11:59 PM;Sunday:12:00 AM - 11:59 PM;,,0
Kum & Go,0871,5105 S Mingo Rd,,Tulsa,OK,74146,US,,36.0898,-95.86847,Monday:12:00 AM - 11:59 PM;Tuesday:12:00 AM - 11:59 PM;Wednesday:12:00 AM - 11:59 PM;Thursday:12:00 AM - 11:59 PM;Friday:12:00 AM - 11:59 PM;Saturday:12:00 AM - 11:59 PM;Sunday:12:00 AM - 11:59 PM;,,0
Kum & Go,0838,1000 E Kenosha St,,Broken Arrow,OK,74012,US,,36.0613747,-95.77918,Monday:12:00 AM - 11:59 PM;Tuesday:12:00 AM - 11:59 PM;Wednesday:12:00 AM - 11:59 PM;Thursday:12:00 AM - 11:59 PM;Friday:12:00 AM - 11:59 PM;Saturday:12:00 AM - 11:59 PM;Sunday:12:00 AM - 11:59 PM;,,0
Kum & Go,0991,2221 W OK Highway 51,,Wagoner,OK,74467,US,,35.95879,-95.40955,Monday:12:00 AM - 11:59 PM;Tuesday:12:00 AM - 11:59 PM;Wednesday:12:00 AM - 11:59 PM;Thursday:12:00 AM - 11:59 PM;Friday:12:00 AM - 11:59 PM;Saturday:12:00 AM - 11:59 PM;Sunday:12:00 AM - 11:59 PM;,,0
Kum & Go,0865,7675 E 51st St,,Tulsa,OK,74145,US,,36.0901031,-95.8906555,Monday:12:00 AM - 11:59 PM;Tuesday:12:00 AM - 11:59 PM;Wednesday:12:00 AM - 11:59 PM;Thursday:12:00 AM - 11:59 PM;Friday:12:00 AM - 11:59 PM;Saturday:12:00 AM - 11:59 PM;Sunday:12:00 AM - 11:59 PM;,,0
Kum & Go,0885,4728 S Yale Ave,,Tulsa,OK,74135,US,918-960-5009,36.0931,-95.9226,Monday:12:00 AM - 11:59 PM;Tuesday:12:00 AM - 11:59 PM;Wednesday:12:00 AM - 11:59 PM;Thursday:12:00 AM - 11:59 PM;Friday:12:00 AM - 11:59 PM;Saturday:12:00 AM - 11:59 PM;Sunday:12:00 AM - 11:59 PM;,,0
Kum & Go,0873,3939 S Peoria Ave,,Tulsa,OK,74105-3130,US,,36.1052,-95.9743,Monday:12:00 AM - 11:59 PM;Tuesday:12:00 AM - 11:59 PM;Wednesday:12:00 AM - 11:59 PM;Thursday:12:00 AM - 11:59 PM;Friday:12:00 AM - 11:59 PM;Saturday:12:00 AM - 11:59 PM;Sunday:12:00 AM - 11:59 PM;,,0
Kum & Go,0867,11296 E 71st St,,Tulsa,OK,74133,US,,36.0606155,-95.85539,Monday:12:00 AM - 11:59 PM;Tuesday:12:00 AM - 11:59 PM;Wednesday:12:00 AM - 11:59 PM;Thursday:12:00 AM - 11:59 PM;Friday:12:00 AM - 11:59 PM;Saturday:12:00 AM - 11:59 PM;Sunday:12:00 AM - 11:59 PM;,,0
Kum & Go,0862,230 S Adams Rd,,Sand Springs,OK,74063,US,,36.13419,-96.10176,Monday:12:00 AM - 11:59 PM;Tuesday:12:00 AM - 11:59 PM;Wednesday:12:00 AM - 11:59 PM;Thursday:12:00 AM - 11:59 PM;Friday:12:00 AM - 11:59 PM;Saturday:12:00 AM - 11:59 PM;Sunday:12:00 AM - 11:59 PM;,,0
Kum & Go,0879,8001 S Garnett Rd,,Broken Arrow,OK,74012,US,,36.04651,-95.85076,Monday:12:00 AM - 11:59 PM;Tuesday:12:00 AM - 11:59 PM;Wednesday:12:00 AM - 11:59 PM;Thursday:12:00 AM - 11:59 PM;Friday:12:00 AM - 11:59 PM;Saturday:12:00 AM - 11:59 PM;Sunday:12:00 AM - 11:59 PM;,,0
Kum & Go,1837,24055 E Hwy 51,,Broken Arrow,OK,74014,US,918-251-0230,35.9884,-95.67164,Monday:12:00 AM - 11:59 PM;Tuesday:12:00 AM - 11:59 PM;Wednesday:12:00 AM - 11:59 PM;Thursday:12:00 AM - 11:59 PM;Friday:12:00 AM - 11:59 PM;Saturday:12:00 AM - 11:59 PM;Sunday:12:00 AM - 11:59 PM;,,0
Kum & Go,0884,3621 S Elm St,,Broken Arrow,OK,74011,US,918-259-8145,36.0168,-95.7968,Monday:12:00 AM - 11:59 PM;Tuesday:12:00 AM - 11:59 PM;Wednesday:12:00 AM - 11:59 PM;Thursday:12:00 AM - 11:59 PM;Friday:12:00 AM - 11:59 PM;Saturday:12:00 AM - 11:59 PM;Sunday:12:00 AM - 11:59 PM;,,0
Kum & Go,0839,2100 W New Orleans St,,Broken Arrow,OK,74012,US,,36.0175171,-95.8151855,Monday:12:00 AM - 11:59 PM;Tuesday:12:00 AM - 11:59 PM;Wednesday:12:00 AM - 11:59 PM;Thursday:12:00 AM - 11:59 PM;Friday:12:00 AM - 11:59 PM;Saturday:12:00 AM - 11:59 PM;Sunday:12:00 AM - 11:59 PM;,,0
Kum & Go,0872,10021 S Mingo Rd,,Tulsa,OK,74133,US,918-250-2619,36.01787,-95.868,Monday:12:00 AM - 11:59 PM;Tuesday:12:00 AM - 11:59 PM;Wednesday:12:00 AM - 11:59 PM;Thursday:12:00 AM - 11:59 PM;Friday:12:00 AM - 11:59 PM;Saturday:12:00 AM - 11:59 PM;Sunday:12:00 AM - 11:59 PM;,,0
Kum & Go,0982,15139 S OK Highway 72,,Coweta,OK,74429,US,918-486-4711,35.9444962,-95.6501846,Monday:12:00 AM - 11:59 PM;Tuesday:12:00 AM - 11:59 PM;Wednesday:12:00 AM - 11:59 PM;Thursday:12:00 AM - 11:59 PM;Friday:12:00 AM - 11:59 PM;Saturday:12:00 AM - 11:59 PM;Sunday:12:00 AM - 11:59 PM;,,0
Kum & Go,0887,1111 W 81st St S,,Tulsa,OK,74132,US,918-445-6382,36.04689,-96.00499,Monday:12:00 AM - 11:59 PM;Tuesday:12:00 AM - 11:59 PM;Wednesday:12:00 AM - 11:59 PM;Thursday:12:00 AM - 11:59 PM;Friday:12:00 AM - 11:59 PM;Saturday:12:00 AM - 11:59 PM;Sunday:12:00 AM - 11:59 PM;,,0
Kum & Go,0834,11115 S Memorial Dr,,Bixby,OK,74008-2032,US,918-364-3498,36.0025864,-95.88611,Monday:12:00 AM - 11:59 PM;Tuesday:12:00 AM - 11:59 PM;Wednesday:12:00 AM - 11:59 PM;Thursday:12:00 AM - 11:59 PM;Friday:12:00 AM - 11:59 PM;Saturday:12:00 AM - 11:59 PM;Sunday:12:00 AM - 11:59 PM;,,0
Kum & Go,0874,10010 S Riverside Pkwy,,Tulsa,OK,74137,US,918-298-1278,36.0170937,-95.94943,Monday:12:00 AM - 11:59 PM;Tuesday:12:00 AM - 11:59 PM;Wednesday:12:00 AM - 11:59 PM;Thursday:12:00 AM - 11:59 PM;Friday:12:00 AM - 11:59 PM;Saturday:12:00 AM - 11:59 PM;Sunday:12:00 AM - 11:59 PM;,,0
Kum & Go,0875,510 S Elm St,,Jenks,OK,74037,US,918-299-3653,36.0177841,-95.97618,Monday:12:00 AM - 11:59 PM;Tuesday:12:00 AM - 11:59 PM;Wednesday:12:00 AM - 11:59 PM;Thursday:12:00 AM - 11:59 PM;Friday:12:00 AM - 11:59 PM;Saturday:12:00 AM - 11:59 PM;Sunday:12:00 AM - 11:59 PM;,,0
Kum & Go,0844,11030 S Elm St,,Jenks,OK,74037,US,,36.0032349,-95.97629,Monday:12:00 AM - 11:59 PM;Tuesday:12:00 AM - 11:59 PM;Wednesday:12:00 AM - 11:59 PM;Thursday:12:00 AM - 11:59 PM;Friday:12:00 AM - 11:59 PM;Saturday:12:00 AM - 11:59 PM;Sunday:12:00 AM - 11:59 PM;,,0
Kum & Go,0835,13101 S Memorial Dr,,Bixby,OK,74008-3107,US,,35.9735756,-95.88628,Monday:12:00 AM - 11:59 PM;Tuesday:12:00 AM - 11:59 PM;Wednesday:12:00 AM - 11:59 PM;Thursday:12:00 AM - 11:59 PM;Friday:12:00 AM - 11:59 PM;Saturday:12:00 AM - 11:59 PM;Sunday:12:00 AM - 11:59 PM;,,0
Kum & Go,0863,801 N 9th St,,Sapulpa,OK,74066,US,918-227-7889,36.0077133,-96.11173,Monday:12:00 AM - 11:59 PM;Tuesday:12:00 AM - 11:59 PM;Wednesday:12:00 AM - 11:59 PM;Thursday:12:00 AM - 11:59 PM;Friday:12:00 AM - 11:59 PM;Saturday:12:00 AM - 11:59 PM;Sunday:12:00 AM - 11:59 PM;,,0
Kum & Go,0989,3500 E Shawnee Rd,,Muskogee,OK,74401,US,918-686-0104,35.7705,-95.3224,Monday:12:00 AM - 11:59 PM;Tuesday:12:00 AM - 11:59 PM;Wednesday:12:00 AM - 11:59 PM;Thursday:12:00 AM - 11:59 PM;Friday:12:00 AM - 11:59 PM;Saturday:12:00 AM - 11:59 PM;Sunday:12:00 AM - 11:59 PM;,,0
Kum & Go,0379,3430 US Highway 63,,Black Rock,AR,72450,US,870-878-6107,36.1044159,-91.0994949,Monday:12:00 AM - 11:59 PM;Tuesday:12:00 AM - 11:59 PM;Wednesday:12:00 AM - 11:59 PM;Thursday:12:00 AM - 11:59 PM;Friday:12:00 AM - 11:59 PM;Saturday:12:00 AM - 11:59 PM;Sunday:12:00 AM - 11:59 PM;,,0
Kum & Go,0986,3305 Chandler Rd,,Muskogee,OK,74403,US,,35.7405052,-95.32975,Monday:12:00 AM - 11:59 PM;Tuesday:12:00 AM - 11:59 PM;Wednesday:12:00 AM - 11:59 PM;Thursday:12:00 AM - 11:59 PM;Friday:12:00 AM - 11:59 PM;Saturday:12:00 AM - 11:59 PM;Sunday:12:00 AM - 11:59 PM;,,0
Kum & Go,0850,2315 E Chandler Rd,,Muskogee,OK,74403-4628,US,,35.74045,-95.34057,Monday:12:00 AM - 11:59 PM;Tuesday:12:00 AM - 11:59 PM;Wednesday:12:00 AM - 11:59 PM;Thursday:12:00 AM - 11:59 PM;Friday:12:00 AM - 11:59 PM;Saturday:12:00 AM - 11:59 PM;Sunday:12:00 AM - 11:59 PM;,,0
Kum & Go,0851,4001 W Okmulgee Ave,,Muskogee,OK,74401-4658,US,,35.75481,-95.4118,Monday:12:00 AM - 11:59 PM;Tuesday:12:00 AM - 11:59 PM;Wednesday:12:00 AM - 11:59 PM;Thursday:12:00 AM - 11:59 PM;Friday:12:00 AM - 11:59 PM;Saturday:12:00 AM - 11:59 PM;Sunday:12:00 AM - 11:59 PM;,,0
Kum & Go,0849,702 S 32nd St,,Muskogee,OK,74401-5013,US,,35.7478142,-95.40222,Monday:12:00 AM - 11:59 PM;Tuesday:12:00 AM - 11:59 PM;Wednesday:12:00 AM - 11:59 PM;Thursday:12:00 AM - 11:59 PM;Friday:12:00 AM - 11:59 PM;Saturday:12:00 AM - 11:59 PM;Sunday:12:00 AM - 11:59 PM;,,0
Kum & Go,0853,29 W Southside Blvd,,Muskogee,OK,74403-7046,US,,35.7409134,-95.374054,Monday:5:30 AM - 11:00 PM;Tuesday:5:30 AM - 11:00 PM;Wednesday:5:30 AM - 11:00 PM;Thursday:5:30 AM - 11:00 PM;Friday:5:30 AM - 11:00 PM;Saturday:5:30 AM - 11:00 PM;Sunday:5:30 AM - 11:00 PM;,,0
Kum & Go,0880,"Cimarron Turnpike, Exit 36",,Lone Chimney,OK,74058,US,918-454-2808,36.22491,-96.797,Monday:12:00 AM - 11:59 PM;Tuesday:12:00 AM - 11:59 PM;Wednesday:12:00 AM - 11:59 PM;Thursday:12:00 AM - 11:59 PM;Friday:12:00 AM - 11:59 PM;Saturday:12:00 AM - 11:59 PM;Sunday:12:00 AM - 11:59 PM;,,0
Kum & Go,0987,2400 E Hancock Rd,,Muskogee,OK,74403,US,918-683-1339,35.7264,-95.3398,Monday:12:00 AM - 11:59 PM;Tuesday:12:00 AM - 11:59 PM;Wednesday:12:00 AM - 11:59 PM;Thursday:12:00 AM - 11:59 PM;Friday:12:00 AM - 11:59 PM;Saturday:12:00 AM - 11:59 PM;Sunday:12:00 AM - 11:59 PM;,,0
Kum & Go,0852,76 E Peak Blvd,,Muskogee,OK,74403,US,,35.71159,-95.37509,Monday:12:00 AM - 11:59 PM;Tuesday:12:00 AM - 11:59 PM;Wednesday:12:00 AM - 11:59 PM;Thursday:12:00 AM - 11:59 PM;Friday:12:00 AM - 11:59 PM;Saturday:12:00 AM - 11:59 PM;Sunday:12:00 AM - 11:59 PM;,,0
Kum & Go,0385,2720 Alma Hwy,,Van Buren,AR,72956,US,,35.4413872,-94.3291855,Monday:12:00 AM - 11:59 PM;Tuesday:12:00 AM - 11:59 PM;Wednesday:12:00 AM - 11:59 PM;Thursday:12:00 AM - 11:59 PM;Friday:12:00 AM - 11:59 PM;Saturday:12:00 AM - 11:59 PM;Sunday:12:00 AM - 11:59 PM;,,0
Kum & Go,0878,1890 N Perkins Rd,,Stillwater,OK,74075,US,405-707-0471,36.1405258,-97.05188,Monday:12:00 AM - 11:59 PM;Tuesday:12:00 AM - 11:59 PM;Wednesday:12:00 AM - 11:59 PM;Thursday:12:00 AM - 11:59 PM;Friday:12:00 AM - 11:59 PM;Saturday:12:00 AM - 11:59 PM;Sunday:12:00 AM - 11:59 PM;,,0
Kum & Go,0842,2001 E Main St,,Cushing,OK,74023,US,,35.9854164,-96.7409058,Monday:12:00 AM - 11:59 PM;Tuesday:12:00 AM - 11:59 PM;Wednesday:12:00 AM - 11:59 PM;Thursday:12:00 AM - 11:59 PM;Friday:12:00 AM - 11:59 PM;Saturday:12:00 AM - 11:59 PM;Sunday:12:00 AM - 11:59 PM;,,0
Kum & Go,0981,510 S Main St,,Bristow,OK,74010,US,,35.8286171,-96.39117,Monday:12:00 AM - 11:59 PM;Tuesday:12:00 AM - 11:59 PM;Wednesday:12:00 AM - 11:59 PM;Thursday:12:00 AM - 11:59 PM;Friday:12:00 AM - 11:59 PM;Saturday:12:00 AM - 11:59 PM;Sunday:12:00 AM - 11:59 PM;,,0
Kum & Go,0380,2112 Dodson Ave,,Fort Smith,AR,72901,US,,35.3722343,-94.40994,Monday:12:00 AM - 11:59 PM;Tuesday:12:00 AM - 11:59 PM;Wednesday:12:00 AM - 11:59 PM;Thursday:12:00 AM - 11:59 PM;Friday:12:00 AM - 11:59 PM;Saturday:12:00 AM - 11:59 PM;Sunday:12:00 AM - 11:59 PM;,,0
Kum & Go,0398,4610 W Kings Hwy,,Paragould,AR,72450,US,,36.05988,-90.5479,Monday:12:00 AM - 11:59 PM;Tuesday:12:00 AM - 11:59 PM;Wednesday:12:00 AM - 11:59 PM;Thursday:12:00 AM - 11:59 PM;Friday:12:00 AM - 11:59 PM;Saturday:12:00 AM - 11:59 PM;Sunday:12:00 AM - 11:59 PM;,,0
Kum & Go,0394,2625 W Kingshighway,,Paragould,AR,72450,US,870-240-0139,36.0602,-90.5209,Monday:12:00 AM - 11:59 PM;Tuesday:12:00 AM - 11:59 PM;Wednesday:12:00 AM - 11:59 PM;Thursday:12:00 AM - 11:59 PM;Friday:12:00 AM - 11:59 PM;Saturday:12:00 AM - 11:59 PM;Sunday:12:00 AM - 11:59 PM;,,0
Kum & Go,0386,200 US Highway 63,,Bono,AR,72416,US,870-972-6958,35.90865,-90.80216,Monday:12:00 AM - 11:59 PM;Tuesday:12:00 AM - 11:59 PM;Wednesday:12:00 AM - 11:59 PM;Thursday:12:00 AM - 11:59 PM;Friday:12:00 AM - 11:59 PM;Saturday:12:00 AM - 11:59 PM;Sunday:12:00 AM - 11:59 PM;,,0
Kum & Go,0349,3400 Linwood Dr,,Paragould,AR,72450,US,870-215-0963,36.0199,-90.5264,Monday:12:00 AM - 11:59 PM;Tuesday:12:00 AM - 11:59 PM;Wednesday:12:00 AM - 11:59 PM;Thursday:12:00 AM - 11:59 PM;Friday:12:00 AM - 11:59 PM;Saturday:12:00 AM - 11:59 PM;Sunday:12:00 AM - 11:59 PM;,,0
Kum & Go,0387,10144 US Highway 63,,Bono,AR,72416,US,870-932-5073,35.89574,-90.79622,Monday:12:00 AM - 11:59 PM;Tuesday:12:00 AM - 11:59 PM;Wednesday:12:00 AM - 11:59 PM;Thursday:12:00 AM - 11:59 PM;Friday:12:00 AM - 11:59 PM;Saturday:12:00 AM - 11:59 PM;Sunday:12:00 AM - 11:59 PM;,,0
Kum & Go,0389,2028 N Church St,,Jonesboro,AR,72401,US,870-972-6953,35.86412,-90.70279,Monday:5:00 AM - 11:00 PM;Tuesday:5:00 AM - 11:00 PM;Wednesday:5:00 AM - 11:00 PM;Thursday:5:00 AM - 11:00 PM;Friday:5:00 AM - 11:00 PM;Saturday:5:00 AM - 11:00 PM;Sunday:5:00 AM - 11:00 PM;,,0
Kum & Go,0388,801 N Holman St,,Brookland,AR,72450,US,870-972-5851,35.9097748,-90.5773544,Monday:12:00 AM - 11:59 PM;Tuesday:12:00 AM - 11:59 PM;Wednesday:12:00 AM - 11:59 PM;Thursday:12:00 AM - 11:59 PM;Friday:12:00 AM - 11:59 PM;Saturday:12:00 AM - 11:59 PM;Sunday:12:00 AM - 11:59 PM;,,0
Kum & Go,0393,3418 E Johnson Ave,,Jonesboro,AR,72401,US,870-972-6955,35.8575172,-90.6569443,Monday:12:00 AM - 11:59 PM;Tuesday:12:00 AM - 11:59 PM;Wednesday:12:00 AM - 11:59 PM;Thursday:12:00 AM - 11:59 PM;Friday:12:00 AM - 11:59 PM;Saturday:12:00 AM - 11:59 PM;Sunday:12:00 AM - 11:59 PM;,,0
Kum & Go,0362,2214 E Johnson Ave,,Jonesboro,AR,72401,US,870-934-8436,35.8477,-90.6774,Monday:12:00 AM - 11:59 PM;Tuesday:12:00 AM - 11:59 PM;Wednesday:12:00 AM - 11:59 PM;Thursday:12:00 AM - 11:59 PM;Friday:12:00 AM - 11:59 PM;Saturday:12:00 AM - 11:59 PM;Sunday:12:00 AM - 11:59 PM;,,0
Kum & Go,0390,680 Southwest Dr,,Jonesboro,AR,72401,US,870-972-8834,35.8146,-90.7139,Monday:12:00 AM - 11:59 PM;Tuesday:12:00 AM - 11:59 PM;Wednesday:12:00 AM - 11:59 PM;Thursday:12:00 AM - 11:59 PM;Friday:12:00 AM - 11:59 PM;Saturday:12:00 AM - 11:59 PM;Sunday:12:00 AM - 11:59 PM;,,0
Kum & Go,0395,2607 Stadium Blvd,,Jonesboro,AR,72401,US,870-972-6325,35.81244,-90.66971,Monday:12:00 AM - 11:59 PM;Tuesday:12:00 AM - 11:59 PM;Wednesday:12:00 AM - 11:59 PM;Thursday:12:00 AM - 11:59 PM;Friday:12:00 AM - 11:59 PM;Saturday:12:00 AM - 11:59 PM;Sunday:12:00 AM - 11:59 PM;,,0
Kum & Go,0391,4810 E Highland Dr,,Jonesboro,AR,72401,US,870-972-6952,35.821106,-90.63816,Monday:12:00 AM - 11:59 PM;Tuesday:12:00 AM - 11:59 PM;Wednesday:12:00 AM - 11:59 PM;Thursday:12:00 AM - 11:59 PM;Friday:12:00 AM - 11:59 PM;Saturday:12:00 AM - 11:59 PM;Sunday:12:00 AM - 11:59 PM;,,0
Kum & Go,0397,3105 Stadium Blvd,,Jonesboro,AR,72401,US,870-268-7502,35.8034554,-90.66973,Monday:12:00 AM - 11:59 PM;Tuesday:12:00 AM - 11:59 PM;Wednesday:12:00 AM - 11:59 PM;Thursday:12:00 AM - 11:59 PM;Friday:12:00 AM - 11:59 PM;Saturday:12:00 AM - 11:59 PM;Sunday:12:00 AM - 11:59 PM;,,0
Kum & Go,0171,1775 Old Morrilton Hwy,,Conway,AR,72032,US,501-504-2245,35.1125,-92.4476,Monday:12:00 AM - 11:59 PM;Tuesday:12:00 AM - 11:59 PM;Wednesday:12:00 AM - 11:59 PM;Thursday:12:00 AM - 11:59 PM;Friday:12:00 AM - 11:59 PM;Saturday:12:00 AM - 11:59 PM;Sunday:12:00 AM - 11:59 PM;,,0
Kum & Go,0159,4095 Prince St,,Conway,AR,72034,US,501-932-3143,35.08916,-92.49745,Monday:12:00 AM - 11:59 PM;Tuesday:12:00 AM - 11:59 PM;Wednesday:12:00 AM - 11:59 PM;Thursday:12:00 AM - 11:59 PM;Friday:12:00 AM - 11:59 PM;Saturday:12:00 AM - 11:59 PM;Sunday:12:00 AM - 11:59 PM;,,0
Kum & Go,0158,2050 Dave Ward Dr,,Conway,AR,72032,US,501-932-0900,35.07053,-92.45412,Monday:12:00 AM - 11:59 PM;Tuesday:12:00 AM - 11:59 PM;Wednesday:12:00 AM - 11:59 PM;Thursday:12:00 AM - 11:59 PM;Friday:12:00 AM - 11:59 PM;Saturday:12:00 AM - 11:59 PM;Sunday:12:00 AM - 11:59 PM;,,0
Kum & Go,0155,21510 Hwy 365 N,,Maumelle,AR,72113,US,501-333-2761,34.88406,-92.39183,Monday:12:00 AM - 11:59 PM;Tuesday:12:00 AM - 11:59 PM;Wednesday:12:00 AM - 11:59 PM;Thursday:12:00 AM - 11:59 PM;Friday:12:00 AM - 11:59 PM;Saturday:12:00 AM - 11:59 PM;Sunday:12:00 AM - 11:59 PM;,,0
Kum & Go,0143,1303 S Pine St,,Cabot,AR,72023,US,501-941-3019,34.9525,-92.008255,Monday:12:00 AM - 11:59 PM;Tuesday:12:00 AM - 11:59 PM;Wednesday:12:00 AM - 11:59 PM;Thursday:12:00 AM - 11:59 PM;Friday:12:00 AM - 11:59 PM;Saturday:12:00 AM - 11:59 PM;Sunday:12:00 AM - 11:59 PM;,,0
Kum & Go,0153,8801 Maumelle Blvd,,North Little Rock,AR,72113,US,501-771-7751,34.81272,-92.36077,Monday:12:00 AM - 11:59 PM;Tuesday:12:00 AM - 11:59 PM;Wednesday:12:00 AM - 11:59 PM;Thursday:12:00 AM - 11:59 PM;Friday:12:00 AM - 11:59 PM;Saturday:12:00 AM - 11:59 PM;Sunday:12:00 AM - 11:59 PM;,,0
Kum & Go,0150,3400 E Kiehl Ave,,Sherwood,AR,72120,US,501-992-5006,34.83213,-92.1973,Monday:12:00 AM - 11:59 PM;Tuesday:12:00 AM - 11:59 PM;Wednesday:12:00 AM - 11:59 PM;Thursday:12:00 AM - 11:59 PM;Friday:12:00 AM - 11:59 PM;Saturday:12:00 AM - 11:59 PM;Sunday:12:00 AM - 11:59 PM;,,0
Kum & Go,0144,5216 JFK Blvd,,North Little Rock,AR,72116,US,501-975-1609,34.8027573,-92.25355,Monday:12:00 AM - 11:59 PM;Tuesday:12:00 AM - 11:59 PM;Wednesday:12:00 AM - 11:59 PM;Thursday:12:00 AM - 11:59 PM;Friday:12:00 AM - 11:59 PM;Saturday:12:00 AM - 11:59 PM;Sunday:12:00 AM - 11:59 PM;,,0
Kum & Go,0152,3220 Springhill Dr,,North Little Rock,AR,72117,US,501-945-4705,34.784,-92.21829,Monday:12:00 AM - 11:59 PM;Tuesday:12:00 AM - 11:59 PM;Wednesday:12:00 AM - 11:59 PM;Thursday:12:00 AM - 11:59 PM;Friday:12:00 AM - 11:59 PM;Saturday:12:00 AM - 11:59 PM;Sunday:12:00 AM - 11:59 PM;,,0
Kum & Go,0140,6201 Colonel Glenn Rd,,Little Rock,AR,72204,US,501-975-1742,34.71729,-92.34365,Monday:12:00 AM - 11:59 PM;Tuesday:12:00 AM - 11:59 PM;Wednesday:12:00 AM - 11:59 PM;Thursday:12:00 AM - 11:59 PM;Friday:12:00 AM - 11:59 PM;Saturday:12:00 AM - 11:59 PM;Sunday:12:00 AM - 11:59 PM;,,0
Kum & Go,0146,7620 Baseline Rd,,Little Rock,AR,72209,US,501-907-7516,34.67012,-92.36249,Monday:12:00 AM - 11:59 PM;Tuesday:12:00 AM - 11:59 PM;Wednesday:12:00 AM - 11:59 PM;Thursday:12:00 AM - 11:59 PM;Friday:12:00 AM - 11:59 PM;Saturday:12:00 AM - 11:59 PM;Sunday:12:00 AM - 11:59 PM;,,0
Kum & Go,0147,1709 N Reynolds Rd,,Bryant,AR,72022,US,501-847-0702,34.61014,-92.49452,Monday:12:00 AM - 11:59 PM;Tuesday:12:00 AM - 11:59 PM;Wednesday:12:00 AM - 11:59 PM;Thursday:12:00 AM - 11:59 PM;Friday:12:00 AM - 11:59 PM;Saturday:12:00 AM - 11:59 PM;Sunday:12:00 AM - 11:59 PM;,,0
Kum & Go,0166,2202 Military Rd,,Benton,AR,72015,US,501-778-4954,34.5849,-92.568,Monday:12:00 AM - 11:59 PM;Tuesday:12:00 AM - 11:59 PM;Wednesday:12:00 AM - 11:59 PM;Thursday:12:00 AM - 11:59 PM;Friday:12:00 AM - 11:59 PM;Saturday:12:00 AM - 11:59 PM;Sunday:12:00 AM - 11:59 PM;,,0
Kum & Go,0818,2237 13th Ave S,,Fargo,ND,58102,US,,46.8617744,-96.8168259,Monday:12:00 AM - 11:59 PM;Tuesday:12:00 AM - 11:59 PM;Wednesday:12:00 AM - 11:59 PM;Thursday:12:00 AM - 11:59 PM;Friday:12:00 AM - 11:59 PM;Saturday:12:00 AM - 11:59 PM;Sunday:12:00 AM - 11:59 PM;,,0
Kum & Go,0305,3033 8th Ave,,Evans,CO,80620,US,970-352-9042,40.3851,-104.69155,Monday:12:00 AM - 11:59 PM;Tuesday:12:00 AM - 11:59 PM;Wednesday:12:00 AM - 11:59 PM;Thursday:12:00 AM - 11:59 PM;Friday:12:00 AM - 11:59 PM;Saturday:12:00 AM - 11:59 PM;Sunday:12:00 AM - 11:59 PM;,,0
Kum & Go,0931,2901 37th St,,Evans,CO,80620,US,970-330-7020,40.3776855,-104.725533,Monday:12:00 AM - 11:59 PM;Tuesday:12:00 AM - 11:59 PM;Wednesday:12:00 AM - 11:59 PM;Thursday:12:00 AM - 11:59 PM;Friday:12:00 AM - 11:59 PM;Saturday:12:00 AM - 11:59 PM;Sunday:12:00 AM - 11:59 PM;,,0
Kum & Go,0813,207 E Rosser Ave,,Bismarck,ND,58501,US,,46.8084335,-100.788994,Monday:12:00 AM - 11:59 PM;Tuesday:12:00 AM - 11:59 PM;Wednesday:12:00 AM - 11:59 PM;Thursday:12:00 AM - 11:59 PM;Friday:12:00 AM - 11:59 PM;Saturday:12:00 AM - 11:59 PM;Sunday:12:00 AM - 11:59 PM;,,0
Kum & Go,0952,3354 E Lincolnway,,Cheyenne,WY,82001,US,307-638-8568,41.13888,-104.768967,Monday:12:00 AM - 11:59 PM;Tuesday:12:00 AM - 11:59 PM;Wednesday:12:00 AM - 11:59 PM;Thursday:12:00 AM - 11:59 PM;Friday:12:00 AM - 11:59 PM;Saturday:12:00 AM - 11:59 PM;Sunday:12:00 AM - 11:59 PM;,,0
Kum & Go,1957,4505 Ridge Rd,,Cheyenne,WY,82001,US,307-634-5428,41.15977,-104.76776,Monday:12:00 AM - 11:59 PM;Tuesday:12:00 AM - 11:59 PM;Wednesday:12:00 AM - 11:59 PM;Thursday:12:00 AM - 11:59 PM;Friday:12:00 AM - 11:59 PM;Saturday:12:00 AM - 11:59 PM;Sunday:12:00 AM - 11:59 PM;,,0
Kum & Go,0942,6503 29th St,,Greeley,CO,80634,US,970-330-3130,40.39164,-104.784988,Monday:12:00 AM - 11:59 PM;Tuesday:12:00 AM - 11:59 PM;Wednesday:12:00 AM - 11:59 PM;Thursday:12:00 AM - 11:59 PM;Friday:12:00 AM - 11:59 PM;Saturday:12:00 AM - 11:59 PM;Sunday:12:00 AM - 11:59 PM;,,0
Kum & Go,0910,366 71st Ave,,Greeley,CO,80634,US,970-475-0143,40.4295921,-104.792976,Monday:12:00 AM - 11:59 PM;Tuesday:12:00 AM - 11:59 PM;Wednesday:12:00 AM - 11:59 PM;Thursday:12:00 AM - 11:59 PM;Friday:12:00 AM - 11:59 PM;Saturday:12:00 AM - 11:59 PM;Sunday:12:00 AM - 11:59 PM;,,0
Kum & Go,0914,7027 20th St,,Greeley,CO,80634,US,970-330-7253,40.40716,-104.79393,Monday:12:00 AM - 11:59 PM;Tuesday:12:00 AM - 11:59 PM;Wednesday:12:00 AM - 11:59 PM;Thursday:12:00 AM - 11:59 PM;Friday:12:00 AM - 11:59 PM;Saturday:12:00 AM - 11:59 PM;Sunday:12:00 AM - 11:59 PM;,,0
Kum & Go,0956,215 E Lincolnway,,Cheyenne,WY,82001,US,,41.133812,-104.812004,Monday:12:00 AM - 11:59 PM;Tuesday:12:00 AM - 11:59 PM;Wednesday:12:00 AM - 11:59 PM;Thursday:12:00 AM - 11:59 PM;Friday:12:00 AM - 11:59 PM;Saturday:12:00 AM - 11:59 PM;Sunday:12:00 AM - 11:59 PM;,,0
Kum & Go,0930,2150 E Bridge St,,Brighton,CO,80601,US,720-685-8977,39.9866562,-104.796028,Monday:12:00 AM - 11:59 PM;Tuesday:12:00 AM - 11:59 PM;Wednesday:12:00 AM - 11:59 PM;Thursday:12:00 AM - 11:59 PM;Friday:12:00 AM - 11:59 PM;Saturday:12:00 AM - 11:59 PM;Sunday:12:00 AM - 11:59 PM;,,0
Kum & Go,0940,70 W Bridge St,,Brighton,CO,80601,US,303-659-0061,39.98668,-104.82653,Monday:12:00 AM - 11:59 PM;Tuesday:12:00 AM - 11:59 PM;Wednesday:12:00 AM - 11:59 PM;Thursday:12:00 AM - 11:59 PM;Friday:12:00 AM - 11:59 PM;Saturday:12:00 AM - 11:59 PM;Sunday:12:00 AM - 11:59 PM;,,0
Kum & Go,0669,6735 N Carefree Cir,,Colorado Springs,CO,80922,US,719-434-4649,38.88621,-104.703171,Monday:12:00 AM - 11:59 PM;Tuesday:12:00 AM - 11:59 PM;Wednesday:12:00 AM - 11:59 PM;Thursday:12:00 AM - 11:59 PM;Friday:12:00 AM - 11:59 PM;Saturday:12:00 AM - 11:59 PM;Sunday:12:00 AM - 11:59 PM;,,0
Kum & Go,0658,6125 Barnes Rd,,Colorado Springs,CO,80922,US,719-219-0688,38.89436,-104.714752,Monday:12:00 AM - 11:59 PM;Tuesday:12:00 AM - 11:59 PM;Wednesday:12:00 AM - 11:59 PM;Thursday:12:00 AM - 11:59 PM;Friday:12:00 AM - 11:59 PM;Saturday:12:00 AM - 11:59 PM;Sunday:12:00 AM - 11:59 PM;,,0
Kum & Go,0667,7385 Duryea Rd,,Colorado Springs,CO,80920,US,719-445-5098,38.93957,-104.7286,Monday:12:00 AM - 11:59 PM;Tuesday:12:00 AM - 11:59 PM;Wednesday:12:00 AM - 11:59 PM;Thursday:12:00 AM - 11:59 PM;Friday:12:00 AM - 11:59 PM;Saturday:12:00 AM - 11:59 PM;Sunday:12:00 AM - 11:59 PM;,,0
Kum & Go,0659,9665 Prominent Pt,,Colorado Springs,CO,80603,US,719-282-8295,38.9704655,-104.7415691,Monday:12:00 AM - 11:59 PM;Tuesday:12:00 AM - 11:59 PM;Wednesday:12:00 AM - 11:59 PM;Thursday:12:00 AM - 11:59 PM;Friday:12:00 AM - 11:59 PM;Saturday:12:00 AM - 11:59 PM;Sunday:12:00 AM - 11:59 PM;,,0
Kum & Go,0663,5771 N Carefree Cir,,Colorado Springs,CO,80917,US,719-219-0223,38.88467,-104.720688,Monday:12:00 AM - 11:59 PM;Tuesday:12:00 AM - 11:59 PM;Wednesday:12:00 AM - 11:59 PM;Thursday:12:00 AM - 11:59 PM;Friday:12:00 AM - 11:59 PM;Saturday:12:00 AM - 11:59 PM;Sunday:12:00 AM - 11:59 PM;,,0
Kum & Go,0313,5480 E 120th Ave,,Thornton,CO,80421,US,720-557-8375,39.91289,-104.922607,Monday:12:00 AM - 11:59 PM;Tuesday:12:00 AM - 11:59 PM;Wednesday:12:00 AM - 11:59 PM;Thursday:12:00 AM - 11:59 PM;Friday:12:00 AM - 11:59 PM;Saturday:12:00 AM - 11:59 PM;Sunday:12:00 AM - 11:59 PM;,,0
Kum & Go,0913,13799 Pacific Cir,,Longmont,CO,80504,US,970-535-4601,40.20423,-104.974693,Monday:12:00 AM - 11:59 PM;Tuesday:12:00 AM - 11:59 PM;Wednesday:12:00 AM - 11:59 PM;Thursday:12:00 AM - 11:59 PM;Friday:12:00 AM - 11:59 PM;Saturday:12:00 AM - 11:59 PM;Sunday:12:00 AM - 11:59 PM;,,0
Kum & Go,0670,8050 Fountain Mesa Rd,,Fountain,CO,80817,US,719-382-9028,38.7155,-104.701607,Monday:12:00 AM - 11:59 PM;Tuesday:12:00 AM - 11:59 PM;Wednesday:12:00 AM - 11:59 PM;Thursday:12:00 AM - 11:59 PM;Friday:12:00 AM - 11:59 PM;Saturday:12:00 AM - 11:59 PM;Sunday:12:00 AM - 11:59 PM;,,0
Kum & Go,0687,525 Wooten Rd,,Colorado Springs,CO,80915,US,719-559-3482,38.84063,-104.73796,Monday:12:00 AM - 11:59 PM;Tuesday:12:00 AM - 11:59 PM;Wednesday:12:00 AM - 11:59 PM;Thursday:12:00 AM - 11:59 PM;Friday:12:00 AM - 11:59 PM;Saturday:12:00 AM - 11:59 PM;Sunday:12:00 AM - 11:59 PM;,,0
Kum & Go,0934,8150 6th St,,Wellington,CO,80549,US,970-568-3173,40.70301,-104.999985,Monday:12:00 AM - 11:59 PM;Tuesday:12:00 AM - 11:59 PM;Wednesday:12:00 AM - 11:59 PM;Thursday:12:00 AM - 11:59 PM;Friday:12:00 AM - 11:59 PM;Saturday:12:00 AM - 11:59 PM;Sunday:12:00 AM - 11:59 PM;,,0
Kum & Go,0973,127 Laura Way,,Dacono,CO,80514,US,303-833-3935,40.0869064,-104.974556,Monday:12:00 AM - 11:59 PM;Tuesday:12:00 AM - 11:59 PM;Wednesday:12:00 AM - 11:59 PM;Thursday:12:00 AM - 11:59 PM;Friday:12:00 AM - 11:59 PM;Saturday:12:00 AM - 11:59 PM;Sunday:12:00 AM - 11:59 PM;,,0
Kum & Go,0684,2422 Research Pkwy,,Colorado Springs,CO,80920,US,719-559-2277,38.96039,-104.78309,Monday:12:00 AM - 11:59 PM;Tuesday:12:00 AM - 11:59 PM;Wednesday:12:00 AM - 11:59 PM;Thursday:12:00 AM - 11:59 PM;Friday:12:00 AM - 11:59 PM;Saturday:12:00 AM - 11:59 PM;Sunday:12:00 AM - 11:59 PM;,,0
Kum & Go,0665,1206 Interquest Pkwy,,Colorado Springs,CO,80921,US,719-219-0699,38.99138,-104.807137,Monday:12:00 AM - 11:59 PM;Tuesday:12:00 AM - 11:59 PM;Wednesday:12:00 AM - 11:59 PM;Thursday:12:00 AM - 11:59 PM;Friday:12:00 AM - 11:59 PM;Saturday:12:00 AM - 11:59 PM;Sunday:12:00 AM - 11:59 PM;,,0
Kum & Go,0657,2190 Vickers Dr,,Colorado Springs,CO,80903,US,719-219-0329,38.91557,-104.78775,Monday:12:00 AM - 11:59 PM;Tuesday:12:00 AM - 11:59 PM;Wednesday:12:00 AM - 11:59 PM;Thursday:12:00 AM - 11:59 PM;Friday:12:00 AM - 11:59 PM;Saturday:12:00 AM - 11:59 PM;Sunday:12:00 AM - 11:59 PM;,,0
Kum & Go,0672,3025 Hancock Expy,,Colorado Springs,CO,80916,US,719-473-8339,38.78935,-104.7547,Monday:12:00 AM - 11:59 PM;Tuesday:12:00 AM - 11:59 PM;Wednesday:12:00 AM - 11:59 PM;Thursday:12:00 AM - 11:59 PM;Friday:12:00 AM - 11:59 PM;Saturday:12:00 AM - 11:59 PM;Sunday:12:00 AM - 11:59 PM;,,0
Kum & Go,0676,2588 Airport Rd,,Colorado Springs,CO,80910,US,719-434-3022,38.82565,-104.7815,Monday:12:00 AM - 11:59 PM;Tuesday:12:00 AM - 11:59 PM;Wednesday:12:00 AM - 11:59 PM;Thursday:12:00 AM - 11:59 PM;Friday:12:00 AM - 11:59 PM;Saturday:12:00 AM - 11:59 PM;Sunday:12:00 AM - 11:59 PM;,,0
Kum & Go,0650,1410 Cipriani Lp,,Monument,CO,80132,US,719-487-2739,39.09293,-104.852089,Monday:12:00 AM - 11:59 PM;Tuesday:12:00 AM - 11:59 PM;Wednesday:12:00 AM - 11:59 PM;Thursday:12:00 AM - 11:59 PM;Friday:12:00 AM - 11:59 PM;Saturday:12:00 AM - 11:59 PM;Sunday:12:00 AM - 11:59 PM;,,0
Kum & Go,0673,620 E Fillmore St,,Colorado Springs,CO,80907,US,719-219-0728,38.87467,-104.81321,Monday:12:00 AM - 11:59 PM;Tuesday:12:00 AM - 11:59 PM;Wednesday:12:00 AM - 11:59 PM;Thursday:12:00 AM - 11:59 PM;Friday:12:00 AM - 11:59 PM;Saturday:12:00 AM - 11:59 PM;Sunday:12:00 AM - 11:59 PM;,,0
Kum & Go,0995,1600 E Eisenhower Blvd,,Loveland,CO,80537,US,970-612-0114,40.40719,-105.0545,Monday:12:00 AM - 11:59 PM;Tuesday:12:00 AM - 11:59 PM;Wednesday:12:00 AM - 11:59 PM;Thursday:12:00 AM - 11:59 PM;Friday:12:00 AM - 11:59 PM;Saturday:12:00 AM - 11:59 PM;Sunday:12:00 AM - 11:59 PM;,,0
Kum & Go,0316,2999 Bonanza Dr,,Erie,CO,80241,US,720-974-1606,40.00078,-105.03642,Monday:12:00 AM - 11:59 PM;Tuesday:12:00 AM - 11:59 PM;Wednesday:12:00 AM - 11:59 PM;Thursday:12:00 AM - 11:59 PM;Friday:12:00 AM - 11:59 PM;Saturday:12:00 AM - 11:59 PM;Sunday:12:00 AM - 11:59 PM;,,0
Kum & Go,0668,3091 N Chestnut St,,Colorado Springs,CO,80907,US,719-424-4582,38.87692,-104.83663,Monday:12:00 AM - 11:59 PM;Tuesday:12:00 AM - 11:59 PM;Wednesday:12:00 AM - 11:59 PM;Thursday:12:00 AM - 11:59 PM;Friday:12:00 AM - 11:59 PM;Saturday:12:00 AM - 11:59 PM;Sunday:12:00 AM - 11:59 PM;,,0
Kum & Go,0933,115 Knobcone Dr,,Loveland,CO,80538,US,970-612-0078,40.43848,-105.0771,Monday:12:00 AM - 11:59 PM;Tuesday:12:00 AM - 11:59 PM;Wednesday:12:00 AM - 11:59 PM;Thursday:12:00 AM - 11:59 PM;Friday:12:00 AM - 11:59 PM;Saturday:12:00 AM - 11:59 PM;Sunday:12:00 AM - 11:59 PM;,,0
Kum & Go,0674,1021 S Nevada Ave,,Colorado Springs,CO,80903,US,719-418-4292,38.81865,-104.822037,Monday:12:00 AM - 11:59 PM;Tuesday:12:00 AM - 11:59 PM;Wednesday:12:00 AM - 11:59 PM;Thursday:12:00 AM - 11:59 PM;Friday:12:00 AM - 11:59 PM;Saturday:12:00 AM - 11:59 PM;Sunday:12:00 AM - 11:59 PM;,,0
Kum & Go,2811,306 Adams Ave,,Hettinger,ND,58639,US,,46.0013237,-102.638672,Monday:12:00 AM - 11:59 PM;Tuesday:12:00 AM - 11:59 PM;Wednesday:12:00 AM - 11:59 PM;Thursday:12:00 AM - 11:59 PM;Friday:12:00 AM - 11:59 PM;Saturday:12:00 AM - 11:59 PM;Sunday:12:00 AM - 11:59 PM;,,0
Kum & Go,0912,30393 Kings Valley Dr,,Conifer,CO,80433,US,303-816-0558,39.491333,-105.348022,Monday:12:00 AM - 11:59 PM;Tuesday:12:00 AM - 11:59 PM;Wednesday:12:00 AM - 11:59 PM;Thursday:12:00 AM - 11:59 PM;Friday:12:00 AM - 11:59 PM;Saturday:12:00 AM - 11:59 PM;Sunday:12:00 AM - 11:59 PM;,,0
Kum & Go,0975,1319 Miner St,,Idaho Springs,CO,80452,US,303-567-2385,39.74179,-105.519112,Monday:12:00 AM - 11:59 PM;Tuesday:12:00 AM - 11:59 PM;Wednesday:12:00 AM - 11:59 PM;Thursday:12:00 AM - 11:59 PM;Friday:12:00 AM - 11:59 PM;Saturday:12:00 AM - 11:59 PM;Sunday:12:00 AM - 11:59 PM;,,0
Kum & Go,0964,569 N 3rd St,,Laramie,WY,82070,US,,41.317318,-105.592766,Monday:12:00 AM - 11:59 PM;Tuesday:12:00 AM - 11:59 PM;Wednesday:12:00 AM - 11:59 PM;Thursday:12:00 AM - 11:59 PM;Friday:12:00 AM - 11:59 PM;Saturday:12:00 AM - 11:59 PM;Sunday:12:00 AM - 11:59 PM;,,0
Kum & Go,0801,611 1st Ave SW,,Bowman,ND,58623,US,,46.1770363,-103.396355,Monday:12:00 AM - 11:59 PM;Tuesday:12:00 AM - 11:59 PM;Wednesday:12:00 AM - 11:59 PM;Thursday:12:00 AM - 11:59 PM;Friday:12:00 AM - 11:59 PM;Saturday:12:00 AM - 11:59 PM;Sunday:12:00 AM - 11:59 PM;,,0
Kum & Go,0938,308 Agate Ave,,Granby,CO,80446,US,970-887-3031,40.0854721,-105.939308,Monday:12:00 AM - 11:59 PM;Tuesday:12:00 AM - 11:59 PM;Wednesday:12:00 AM - 11:59 PM;Thursday:12:00 AM - 11:59 PM;Friday:12:00 AM - 11:59 PM;Saturday:12:00 AM - 11:59 PM;Sunday:12:00 AM - 11:59 PM;,,0
Kum & Go,0907,101 Ruby Ranch Rd,,Silverthorne,CO,80498,US,970-468-0888,39.646347,-106.079079,Monday:12:00 AM - 11:59 PM;Tuesday:12:00 AM - 11:59 PM;Wednesday:12:00 AM - 11:59 PM;Thursday:12:00 AM - 11:59 PM;Friday:12:00 AM - 11:59 PM;Saturday:12:00 AM - 11:59 PM;Sunday:12:00 AM - 11:59 PM;,,0
Kum & Go,0960,1504 US Highway 14-16,,Gillette,WY,82716,US,307-686-2365,44.2911644,-105.478271,Monday:12:00 AM - 11:59 PM;Tuesday:12:00 AM - 11:59 PM;Wednesday:12:00 AM - 11:59 PM;Thursday:12:00 AM - 11:59 PM;Friday:12:00 AM - 11:59 PM;Saturday:12:00 AM - 11:59 PM;Sunday:12:00 AM - 11:59 PM;,,0
Kum & Go,0961,310 Skyline Dr,,Gillette,WY,82716,US,,44.2913437,-105.531876,Monday:12:00 AM - 11:59 PM;Tuesday:12:00 AM - 11:59 PM;Wednesday:12:00 AM - 11:59 PM;Thursday:12:00 AM - 11:59 PM;Friday:12:00 AM - 11:59 PM;Saturday:12:00 AM - 11:59 PM;Sunday:12:00 AM - 11:59 PM;,,0
Kum & Go,0959,719 N US Highway 14-16,,Gillette,WY,82716,US,307-686-8463,44.30069,-105.52993,Monday:12:00 AM - 11:59 PM;Tuesday:12:00 AM - 11:59 PM;Wednesday:12:00 AM - 11:59 PM;Thursday:12:00 AM - 11:59 PM;Friday:12:00 AM - 11:59 PM;Saturday:12:00 AM - 11:59 PM;Sunday:12:00 AM - 11:59 PM;,,0
Kum & Go,0909,605 Park Ave,,Kremmling,CO,80459,US,970-724-1105,40.05897,-106.388626,Monday:12:00 AM - 11:59 PM;Tuesday:12:00 AM - 11:59 PM;Wednesday:12:00 AM - 11:59 PM;Thursday:12:00 AM - 11:59 PM;Friday:12:00 AM - 11:59 PM;Saturday:12:00 AM - 11:59 PM;Sunday:12:00 AM - 11:59 PM;,,0
Kum & Go,0915,300 Harrison Ave,,Leadville,CO,80461,US,719-486-3175,39.2463722,-106.290855,Monday:12:00 AM - 11:59 PM;Tuesday:12:00 AM - 11:59 PM;Wednesday:12:00 AM - 11:59 PM;Thursday:12:00 AM - 11:59 PM;Friday:12:00 AM - 11:59 PM;Saturday:12:00 AM - 11:59 PM;Sunday:12:00 AM - 11:59 PM;,,0
Kum & Go,0916,203 Mountain View Dr,,Leadville,CO,80461,US,,39.25948,-106.29364,Monday:12:00 AM - 11:59 PM;Tuesday:12:00 AM - 11:59 PM;Wednesday:12:00 AM - 11:59 PM;Thursday:12:00 AM - 11:59 PM;Friday:12:00 AM - 11:59 PM;Saturday:12:00 AM - 11:59 PM;Sunday:12:00 AM - 11:59 PM;,,0
Kum & Go,0816,2626 E Burdick Expy,,Minot,ND,58701,US,701-839-4197,48.22887,-101.253372,Monday:12:00 AM - 11:59 PM;Tuesday:12:00 AM - 11:59 PM;Wednesday:12:00 AM - 11:59 PM;Thursday:12:00 AM - 11:59 PM;Friday:12:00 AM - 11:59 PM;Saturday:12:00 AM - 11:59 PM;Sunday:12:00 AM - 11:59 PM;,,0
Kum & Go,0958,3 Curtiss St,,Evansville,WY,82636,US,,42.85748,-106.270683,Monday:12:00 AM - 11:59 PM;Tuesday:12:00 AM - 11:59 PM;Wednesday:12:00 AM - 11:59 PM;Thursday:12:00 AM - 11:59 PM;Friday:12:00 AM - 11:59 PM;Saturday:12:00 AM - 11:59 PM;Sunday:12:00 AM - 11:59 PM;,,0
Kum & Go,0954,1455 S McKinley St,,Casper,WY,82601,US,,42.8355675,-106.312332,Monday:12:00 AM - 11:59 PM;Tuesday:12:00 AM - 11:59 PM;Wednesday:12:00 AM - 11:59 PM;Thursday:12:00 AM - 11:59 PM;Friday:12:00 AM - 11:59 PM;Saturday:12:00 AM - 11:59 PM;Sunday:12:00 AM - 11:59 PM;,,0
Kum & Go,0970,312 S 1st St,,Saratoga,WY,82331,US,307-326-5346,41.4521828,-106.807777,Monday:12:00 AM - 11:59 PM;Tuesday:12:00 AM - 11:59 PM;Wednesday:12:00 AM - 11:59 PM;Thursday:12:00 AM - 11:59 PM;Friday:12:00 AM - 11:59 PM;Saturday:12:00 AM - 11:59 PM;Sunday:12:00 AM - 11:59 PM;,,0
Kum & Go,0928,80 Anglers Dr,,Steamboat Springs,CO,80477,US,,40.46817,-106.827141,Monday:12:00 AM - 11:59 PM;Tuesday:12:00 AM - 11:59 PM;Wednesday:12:00 AM - 11:59 PM;Thursday:12:00 AM - 11:59 PM;Friday:12:00 AM - 11:59 PM;Saturday:12:00 AM - 11:59 PM;Sunday:12:00 AM - 11:59 PM;,,0
Kum & Go,0920,2032 Curve Plz,,Steamboat Springs,CO,80477,US,970-871-3324,40.5017471,-106.85701,Monday:12:00 AM - 11:59 PM;Tuesday:12:00 AM - 11:59 PM;Wednesday:12:00 AM - 11:59 PM;Thursday:12:00 AM - 11:59 PM;Friday:12:00 AM - 11:59 PM;Saturday:12:00 AM - 11:59 PM;Sunday:12:00 AM - 11:59 PM;,,0
Kum & Go,0978,18 Market St,,Eagle,CO,81631,US,,39.6609268,-106.828072,Monday:12:00 AM - 11:59 PM;Tuesday:12:00 AM - 11:59 PM;Wednesday:12:00 AM - 11:59 PM;Thursday:12:00 AM - 11:59 PM;Friday:12:00 AM - 11:59 PM;Saturday:12:00 AM - 11:59 PM;Sunday:12:00 AM - 11:59 PM;,,0
Kum & Go,0935,103 Oakridge Dr,,Gypsum,CO,81637,US,970-524-1833,39.64575,-106.94738,Monday:12:00 AM - 11:59 PM;Tuesday:12:00 AM - 11:59 PM;Wednesday:12:00 AM - 11:59 PM;Thursday:12:00 AM - 11:59 PM;Friday:12:00 AM - 11:59 PM;Saturday:12:00 AM - 11:59 PM;Sunday:12:00 AM - 11:59 PM;,,0
Kum & Go,0804,124 Main St S,,Watford City,ND,58854,US,701-842-2920,47.79937,-103.282852,Monday:12:00 AM - 11:59 PM;Tuesday:12:00 AM - 11:59 PM;Wednesday:12:00 AM - 11:59 PM;Thursday:12:00 AM - 11:59 PM;Friday:12:00 AM - 11:59 PM;Saturday:12:00 AM - 11:59 PM;Sunday:12:00 AM - 11:59 PM;,,0
Kum & Go,0966,1115 N Higley Blvd,,Rawlins,WY,82301,US,,41.7986679,-107.216393,Monday:12:00 AM - 11:59 PM;Tuesday:12:00 AM - 11:59 PM;Wednesday:12:00 AM - 11:59 PM;Thursday:12:00 AM - 11:59 PM;Friday:12:00 AM - 11:59 PM;Saturday:12:00 AM - 11:59 PM;Sunday:12:00 AM - 11:59 PM;,,0
Kum & Go,4904,230 W Jefferson Ave,,Hayden,CO,81639,US,970-276-3625,40.4949379,-107.258949,Monday:12:00 AM - 11:59 PM;Tuesday:12:00 AM - 11:59 PM;Wednesday:12:00 AM - 11:59 PM;Thursday:12:00 AM - 11:59 PM;Friday:12:00 AM - 11:59 PM;Saturday:12:00 AM - 11:59 PM;Sunday:12:00 AM - 11:59 PM;,,0
Kum & Go,4951,105 6th St,,Glenwood Springs,CO,81601,US,,39.5504532,-107.326805,Monday:12:00 AM - 11:59 PM;Tuesday:12:00 AM - 11:59 PM;Wednesday:12:00 AM - 11:59 PM;Thursday:12:00 AM - 11:59 PM;Friday:12:00 AM - 11:59 PM;Saturday:12:00 AM - 11:59 PM;Sunday:12:00 AM - 11:59 PM;,,0
Kum & Go,2926,2510 Gilstrap Ct,,Glenwood Springs,CO,81601,US,970-947-1469,39.56064,-107.364967,Monday:12:00 AM - 11:59 PM;Tuesday:12:00 AM - 11:59 PM;Wednesday:12:00 AM - 11:59 PM;Thursday:12:00 AM - 11:59 PM;Friday:12:00 AM - 11:59 PM;Saturday:12:00 AM - 11:59 PM;Sunday:12:00 AM - 11:59 PM;,,0
Kum & Go,0953,109 N Main St,,Buffalo,WY,82834,US,,44.34911,-106.698807,Monday:12:00 AM - 11:59 PM;Tuesday:12:00 AM - 11:59 PM;Wednesday:12:00 AM - 11:59 PM;Thursday:12:00 AM - 11:59 PM;Friday:12:00 AM - 11:59 PM;Saturday:12:00 AM - 11:59 PM;Sunday:12:00 AM - 11:59 PM;,,0
Kum & Go,1903,700 E Victory Way,,Craig,CO,81625,US,970-824-5721,40.514,-107.53863,Monday:12:00 AM - 11:59 PM;Tuesday:12:00 AM - 11:59 PM;Wednesday:12:00 AM - 11:59 PM;Thursday:12:00 AM - 11:59 PM;Friday:12:00 AM - 11:59 PM;Saturday:12:00 AM - 11:59 PM;Sunday:12:00 AM - 11:59 PM;,,0
Kum & Go,0901,895 Yampa Ave,,Craig,CO,81625,US,970-824-7325,40.521328,-107.54705,Monday:12:00 AM - 11:59 PM;Tuesday:12:00 AM - 11:59 PM;Wednesday:12:00 AM - 11:59 PM;Thursday:12:00 AM - 11:59 PM;Friday:12:00 AM - 11:59 PM;Saturday:12:00 AM - 11:59 PM;Sunday:12:00 AM - 11:59 PM;,,0
Kum & Go,0902,1302 W Victory Way,,Craig,CO,81625,US,970-824-2568,40.51395,-107.562973,Monday:12:00 AM - 11:59 PM;Tuesday:12:00 AM - 11:59 PM;Wednesday:12:00 AM - 11:59 PM;Thursday:12:00 AM - 11:59 PM;Friday:12:00 AM - 11:59 PM;Saturday:12:00 AM - 11:59 PM;Sunday:12:00 AM - 11:59 PM;,,0
Kum & Go,2812,518 2nd St NE,,Tioga,ND,58852,US,701-664-2390,48.39557,-102.9297,Monday:12:00 AM - 11:59 PM;Tuesday:12:00 AM - 11:59 PM;Wednesday:12:00 AM - 11:59 PM;Thursday:12:00 AM - 11:59 PM;Friday:12:00 AM - 11:59 PM;Saturday:12:00 AM - 11:59 PM;Sunday:12:00 AM - 11:59 PM;,,0
Kum & Go,0927,801 Castle Valley Blvd,,New Castle,CO,81647,US,970-984-9618,39.5684624,-107.5163,Monday:12:00 AM - 11:59 PM;Tuesday:12:00 AM - 11:59 PM;Wednesday:12:00 AM - 11:59 PM;Thursday:12:00 AM - 11:59 PM;Friday:12:00 AM - 11:59 PM;Saturday:12:00 AM - 11:59 PM;Sunday:12:00 AM - 11:59 PM;,,0
Kum & Go,0905,905 Main St,,Silt,CO,81652,US,970-876-0683,39.54693,-107.653404,Monday:12:00 AM - 11:59 PM;Tuesday:12:00 AM - 11:59 PM;Wednesday:12:00 AM - 11:59 PM;Thursday:12:00 AM - 11:59 PM;Friday:12:00 AM - 11:59 PM;Saturday:12:00 AM - 11:59 PM;Sunday:12:00 AM - 11:59 PM;,,0
Kum & Go,0805,910 11th St E,,Williston,ND,58801,US,701-572-5149,48.1545,-103.608,Monday:12:00 AM - 11:59 PM;Tuesday:12:00 AM - 11:59 PM;Wednesday:12:00 AM - 11:59 PM;Thursday:12:00 AM - 11:59 PM;Friday:12:00 AM - 11:59 PM;Saturday:12:00 AM - 11:59 PM;Sunday:12:00 AM - 11:59 PM;,,0
Kum & Go,0807,1404 2nd St W,,Williston,ND,58801,US,,48.1453819,-103.643738,Monday:12:00 AM - 11:59 PM;Tuesday:12:00 AM - 11:59 PM;Wednesday:12:00 AM - 11:59 PM;Thursday:12:00 AM - 11:59 PM;Friday:12:00 AM - 11:59 PM;Saturday:12:00 AM - 11:59 PM;Sunday:12:00 AM - 11:59 PM;,,0
Kum & Go,0806,1301 Bison Dr,,Williston,ND,58801,US,701-572-3377,48.161499,-103.642869,Monday:12:00 AM - 11:59 PM;Tuesday:12:00 AM - 11:59 PM;Wednesday:12:00 AM - 11:59 PM;Thursday:12:00 AM - 11:59 PM;Friday:12:00 AM - 11:59 PM;Saturday:12:00 AM - 11:59 PM;Sunday:12:00 AM - 11:59 PM;,,0
Kum & Go,0922,120 E 26th St,,Rifle,CO,81650,US,970-625-2700,39.55302,-107.777008,Monday:12:00 AM - 11:59 PM;Tuesday:12:00 AM - 11:59 PM;Wednesday:12:00 AM - 11:59 PM;Thursday:12:00 AM - 11:59 PM;Friday:12:00 AM - 11:59 PM;Saturday:12:00 AM - 11:59 PM;Sunday:12:00 AM - 11:59 PM;,,0
Kum & Go,4923,705 Taughenbaugh Blvd,,Rifle,CO,81650,US,970-625-5104,39.5223,-107.7774,Monday:12:00 AM - 11:59 PM;Tuesday:12:00 AM - 11:59 PM;Wednesday:12:00 AM - 11:59 PM;Thursday:12:00 AM - 11:59 PM;Friday:12:00 AM - 11:59 PM;Saturday:12:00 AM - 11:59 PM;Sunday:12:00 AM - 11:59 PM;,,0
Kum & Go,0921,120 E 1st St,,Rifle,CO,81650,US,970-625-5475,39.52996,-107.78299,Monday:12:00 AM - 11:59 PM;Tuesday:12:00 AM - 11:59 PM;Wednesday:12:00 AM - 11:59 PM;Thursday:12:00 AM - 11:59 PM;Friday:12:00 AM - 11:59 PM;Saturday:12:00 AM - 11:59 PM;Sunday:12:00 AM - 11:59 PM;,,0
Kum & Go,2925,39065 CO Highway 13,,Meeker,CO,81641,US,,40.022522,-107.957062,Monday:12:00 AM - 11:59 PM;Tuesday:12:00 AM - 11:59 PM;Wednesday:12:00 AM - 11:59 PM;Thursday:12:00 AM - 11:59 PM;Friday:12:00 AM - 11:59 PM;Saturday:12:00 AM - 11:59 PM;Sunday:12:00 AM - 11:59 PM;,,0
Kum & Go,0929,59 Tamarisk Trl,,Battlement Mesa,CO,81635,US,,39.4285126,-108.036858,Monday:12:00 AM - 11:59 PM;Tuesday:12:00 AM - 11:59 PM;Wednesday:12:00 AM - 11:59 PM;Thursday:12:00 AM - 11:59 PM;Friday:12:00 AM - 11:59 PM;Saturday:12:00 AM - 11:59 PM;Sunday:12:00 AM - 11:59 PM;,,0
Kum & Go,0906,10 Stone Quarry Rd,,Battlement Mesa,CO,81635,US,970-285-5637,39.4022865,-108.106064,Monday:12:00 AM - 11:59 PM;Tuesday:12:00 AM - 11:59 PM;Wednesday:12:00 AM - 11:59 PM;Thursday:12:00 AM - 11:59 PM;Friday:12:00 AM - 11:59 PM;Saturday:12:00 AM - 11:59 PM;Sunday:12:00 AM - 11:59 PM;,,0
Kum & Go,0937,4530 Old US Highway 6,,De Beque,CO,81630,US,970-283-8635,39.32612,-108.208107,Monday:12:00 AM - 11:59 PM;Tuesday:12:00 AM - 11:59 PM;Wednesday:12:00 AM - 11:59 PM;Thursday:12:00 AM - 11:59 PM;Friday:12:00 AM - 11:59 PM;Saturday:12:00 AM - 11:59 PM;Sunday:12:00 AM - 11:59 PM;,,0
Kum & Go,0919,317 E Main St,,Rangely,CO,81648,US,970-675-2858,40.0874443,-108.800392,Monday:12:00 AM - 11:59 PM;Tuesday:12:00 AM - 11:59 PM;Wednesday:12:00 AM - 11:59 PM;Thursday:12:00 AM - 11:59 PM;Friday:12:00 AM - 11:59 PM;Saturday:12:00 AM - 11:59 PM;Sunday:12:00 AM - 11:59 PM;,,0
Kum & Go,0808,211 1st Ave W,,Plentywood,MT,59254,US,,48.77517,-104.562424,Monday:12:00 AM - 11:59 PM;Tuesday:12:00 AM - 11:59 PM;Wednesday:12:00 AM - 11:59 PM;Thursday:12:00 AM - 11:59 PM;Friday:12:00 AM - 11:59 PM;Saturday:12:00 AM - 11:59 PM;Sunday:12:00 AM - 11:59 PM;,,0
Kum & Go,0969,1540 9th St,,Rock Springs,WY,82901,US,307-382-1130,41.5978928,-109.206039,Monday:12:00 AM - 11:59 PM;Tuesday:12:00 AM - 11:59 PM;Wednesday:12:00 AM - 11:59 PM;Thursday:12:00 AM - 11:59 PM;Friday:12:00 AM - 11:59 PM;Saturday:12:00 AM - 11:59 PM;Sunday:12:00 AM - 11:59 PM;,,0
Kum & Go,0967,1806 Elk St,,Rock Springs,WY,82901,US,307-362-7741,41.617527,-109.2313,Monday:12:00 AM - 11:59 PM;Tuesday:12:00 AM - 11:59 PM;Wednesday:12:00 AM - 11:59 PM;Thursday:12:00 AM - 11:59 PM;Friday:12:00 AM - 11:59 PM;Saturday:12:00 AM - 11:59 PM;Sunday:12:00 AM - 11:59 PM;,,0
Kum & Go,0968,2004 Dewer Dr,,Rock Springs,WY,82901,US,,41.5755577,-109.2475,Monday:12:00 AM - 11:59 PM;Tuesday:12:00 AM - 11:59 PM;Wednesday:12:00 AM - 11:59 PM;Thursday:12:00 AM - 11:59 PM;Friday:12:00 AM - 11:59 PM;Saturday:12:00 AM - 11:59 PM;Sunday:12:00 AM - 11:59 PM;,,0
Kum & Go,0979,3910 Foothill Blvd,,Rock Springs,WY,82901,US,307-382-1031,41.5918423,-109.2519118,Monday:12:00 AM - 11:59 PM;Tuesday:12:00 AM - 11:59 PM;Wednesday:12:00 AM - 11:59 PM;Thursday:12:00 AM - 11:59 PM;Friday:12:00 AM - 11:59 PM;Saturday:12:00 AM - 11:59 PM;Sunday:12:00 AM - 11:59 PM;,,0
Kum & Go,0963,1209 Beech St,,Kemmerer,WY,83101,US,,41.78949,-110.539368,Monday:12:00 AM - 11:59 PM;Tuesday:12:00 AM - 11:59 PM;Wednesday:12:00 AM - 11:59 PM;Thursday:12:00 AM - 11:59 PM;Friday:12:00 AM - 11:59 PM;Saturday:12:00 AM - 11:59 PM;Sunday:12:00 AM - 11:59 PM;,,0
