store_name,store_number,address,address2,city,state,zip_code,country,phone_number,latitude,longitude,store_hours,other_fields,coming_soon
Loaf 'N Jug,00156,305 N Federal Blvd,,Riverton,WY,82501,United States,3078560217,43.0270195,-108.3801651,fridayOpen:07:00;thursdayClose:07:00;recordId:67300156;wednesdayOpen:07:00;thursdayOpen:07:00;tuesdayOpen:07:00;wednesdayClose:07:00;saturdayOpen:07:00;mondayOpen:07:00;tuesdayClose:07:00;fridayClose:07:00;mondayClose:07:00;saturdayClose:07:00;sundayClose:07:00;sundayOpen:07:00;,,
Smith's,00183,1200 W Main St,,Riverton,WY,82501,United States,3078564931,43.0255124,-108.4090145,fridayOpen:06:00;thursdayClose:00:00;recordId:70600183;wednesdayOpen:06:00;thursdayOpen:06:00;tuesdayOpen:06:00;wednesdayClose:00:00;saturdayOpen:06:00;mondayOpen:06:00;tuesdayClose:00:00;fridayClose:00:00;mondayClose:00:00;saturdayClose:00:00;sundayClose:00:00;sundayOpen:06:00;,,
Loaf 'N Jug,00103,285 Honeysuckle St,,Casper,WY,82604,United States,3072656946,42.8109855,-106.4019317,fridayOpen:07:00;thursdayClose:07:00;recordId:67300103;wednesdayOpen:07:00;thursdayOpen:07:00;tuesdayOpen:07:00;wednesdayClose:07:00;saturdayOpen:07:00;mondayOpen:07:00;tuesdayClose:07:00;fridayClose:07:00;mondayClose:07:00;saturdayClose:07:00;sundayClose:07:00;sundayOpen:07:00;,,
Loaf 'N Jug,00114,4603 W. Yellowstone,,Mills,WY,82644,United States,3072666851,42.8503074,-106.3825836,fridayOpen:07:00;thursdayClose:07:00;recordId:67300114;wednesdayOpen:07:00;thursdayOpen:07:00;tuesdayOpen:07:00;wednesdayClose:07:00;saturdayOpen:07:00;mondayOpen:07:00;tuesdayClose:07:00;fridayClose:07:00;mondayClose:07:00;saturdayClose:07:00;sundayClose:07:00;sundayOpen:07:00;,,
Loaf 'N Jug,00155,195 Main St,,Lander,WY,82520,United States,3073326216,42.8326074,-108.7289388,fridayOpen:07:00;thursdayClose:07:00;recordId:67300155;wednesdayOpen:07:00;thursdayOpen:07:00;tuesdayOpen:07:00;wednesdayClose:07:00;saturdayOpen:07:00;mondayOpen:07:00;tuesdayClose:07:00;fridayClose:07:00;mondayClose:07:00;saturdayClose:07:00;sundayClose:07:00;sundayOpen:07:00;,,
Loaf 'N Jug,00110,3597 Salt Creek Hwy,,Casper,WY,82601,United States,3072356261,42.8978538,-106.3429412,fridayOpen:07:00;thursdayClose:07:00;recordId:67300110;wednesdayOpen:07:00;thursdayOpen:07:00;tuesdayOpen:07:00;wednesdayClose:07:00;saturdayOpen:07:00;mondayOpen:07:00;tuesdayClose:07:00;fridayClose:07:00;mondayClose:07:00;saturdayClose:07:00;sundayClose:07:00;sundayOpen:07:00;,,
Loaf 'N Jug,00104,2400 Cy Ave,,Casper,WY,82604,United States,3072350238,42.8291447,-106.353366,fridayOpen:07:00;thursdayClose:07:00;recordId:67300104;wednesdayOpen:07:00;thursdayOpen:07:00;tuesdayOpen:07:00;wednesdayClose:07:00;saturdayOpen:07:00;mondayOpen:07:00;tuesdayClose:07:00;fridayClose:07:00;mondayClose:07:00;saturdayClose:07:00;sundayClose:07:00;sundayOpen:07:00;,,
Smith's,00185,2405 Cy Ave,,Casper,WY,82604,United States,3072666242,42.8279296,-106.3530667,fridayOpen:06:00;thursdayClose:00:00;recordId:70600185;wednesdayOpen:06:00;thursdayOpen:06:00;tuesdayOpen:06:00;wednesdayClose:00:00;saturdayOpen:06:00;mondayOpen:06:00;tuesdayClose:00:00;fridayClose:00:00;mondayClose:00:00;saturdayClose:00:00;sundayClose:00:00;sundayOpen:06:00;,,
Loaf 'N Jug,00130,938 S Poplar St,,Casper,WY,82601,United States,3074732160,42.8413407,-106.3370997,fridayOpen:07:00;thursdayClose:07:00;recordId:67300130;wednesdayOpen:07:00;thursdayOpen:07:00;tuesdayOpen:07:00;wednesdayClose:07:00;saturdayOpen:07:00;mondayOpen:07:00;tuesdayClose:07:00;fridayClose:07:00;mondayClose:07:00;saturdayClose:07:00;sundayClose:07:00;sundayOpen:07:00;,,
Loaf 'N Jug,00106,4380 S Poplar St,,Casper,WY,82601,United States,3072651941,42.8074678,-106.3445368,fridayOpen:07:00;thursdayClose:07:00;recordId:67300106;wednesdayOpen:07:00;thursdayOpen:07:00;tuesdayOpen:07:00;wednesdayClose:07:00;saturdayOpen:07:00;mondayOpen:07:00;tuesdayClose:07:00;fridayClose:07:00;mondayClose:07:00;saturdayClose:07:00;sundayClose:07:00;sundayOpen:07:00;,,
Loaf 'N Jug,00105,1900 E 2Nd St,,Casper,WY,82601,United States,3072374156,42.8487449,-106.2994931,fridayOpen:07:00;thursdayClose:07:00;recordId:67300105;wednesdayOpen:07:00;thursdayOpen:07:00;tuesdayOpen:07:00;wednesdayClose:07:00;saturdayOpen:07:00;mondayOpen:07:00;tuesdayClose:07:00;fridayClose:07:00;mondayClose:07:00;saturdayClose:07:00;sundayClose:07:00;sundayOpen:07:00;,,
Loaf 'N Jug,00109,1199 S Beverly St,,Casper,WY,82609,United States,3072345284,42.8390166,-106.2978268,fridayOpen:07:00;thursdayClose:07:00;recordId:67300109;wednesdayOpen:07:00;thursdayOpen:07:00;tuesdayOpen:07:00;wednesdayClose:07:00;saturdayOpen:07:00;mondayOpen:07:00;tuesdayClose:07:00;fridayClose:07:00;mondayClose:07:00;saturdayClose:07:00;sundayClose:07:00;sundayOpen:07:00;,,
Loaf 'N Jug,00111,3830 E 2Nd St,,Casper,WY,82609,United States,3072656399,42.84892,-106.2766353,fridayOpen:07:00;thursdayClose:07:00;recordId:67300111;wednesdayOpen:07:00;thursdayOpen:07:00;tuesdayOpen:07:00;wednesdayClose:07:00;saturdayOpen:07:00;mondayOpen:07:00;tuesdayClose:07:00;fridayClose:07:00;mondayClose:07:00;saturdayClose:07:00;sundayClose:07:00;sundayOpen:07:00;,,
Loaf 'N Jug,00127,59 S. Curtis,,Evansville,WY,82636,United States,3072659312,42.859369,-106.270612,fridayOpen:07:00;thursdayClose:07:00;recordId:67300127;wednesdayOpen:07:00;thursdayOpen:07:00;tuesdayOpen:07:00;wednesdayClose:07:00;saturdayOpen:07:00;mondayOpen:07:00;tuesdayClose:07:00;fridayClose:07:00;mondayClose:07:00;saturdayClose:07:00;sundayClose:07:00;sundayOpen:07:00;,,
Loaf 'N Jug,00131,1510 Centennial Court,,Casper,WY,82609,United States,3072346506,42.8340565,-106.2708076,fridayOpen:07:00;thursdayClose:07:00;recordId:67300131;wednesdayOpen:07:00;thursdayOpen:07:00;tuesdayOpen:07:00;wednesdayClose:07:00;saturdayOpen:07:00;mondayOpen:07:00;tuesdayClose:07:00;fridayClose:07:00;mondayClose:07:00;saturdayClose:07:00;sundayClose:07:00;sundayOpen:07:00;,,
Loaf 'N Jug,00157,1200 Big Horn Ave,,Worland,WY,82401,United States,3073478365,44.0167967,-107.9528289,fridayOpen:07:00;thursdayClose:07:00;recordId:67300157;wednesdayOpen:07:00;thursdayOpen:07:00;tuesdayOpen:07:00;wednesdayClose:07:00;saturdayOpen:07:00;mondayOpen:07:00;tuesdayClose:07:00;fridayClose:07:00;mondayClose:07:00;saturdayClose:07:00;sundayClose:07:00;sundayOpen:07:00;,,
City Market,00412,602 N Higley Blvd,,Rawlins,WY,82301,United States,3073281421,41.7946075,-107.2173541,fridayOpen:06:00;thursdayClose:23:00;recordId:62000412;wednesdayOpen:06:00;thursdayOpen:06:00;tuesdayOpen:06:00;wednesdayClose:23:00;saturdayOpen:06:00;mondayOpen:06:00;tuesdayClose:23:00;fridayClose:23:00;mondayClose:23:00;saturdayClose:23:00;sundayClose:23:00;sundayOpen:06:00;,,
Loaf 'N Jug,00124,902 W Spruce St,,Rawlins,WY,82301,United States,3073281931,41.7892134,-107.2462056,fridayOpen:07:00;thursdayClose:07:00;recordId:67300124;wednesdayOpen:07:00;thursdayOpen:07:00;tuesdayOpen:07:00;wednesdayClose:07:00;saturdayOpen:07:00;mondayOpen:07:00;tuesdayClose:07:00;fridayClose:07:00;mondayClose:07:00;saturdayClose:07:00;sundayClose:07:00;sundayOpen:07:00;,,
Loaf 'N Jug,00125,714 S 4Th St,,Douglas,WY,82633,United States,3073585040,42.7507896,-105.3831253,fridayOpen:07:00;thursdayClose:07:00;recordId:67300125;wednesdayOpen:07:00;thursdayOpen:07:00;tuesdayOpen:07:00;wednesdayClose:07:00;saturdayOpen:07:00;mondayOpen:07:00;tuesdayClose:07:00;fridayClose:07:00;mondayClose:07:00;saturdayClose:07:00;sundayClose:07:00;sundayOpen:07:00;,,
Loaf 'N Jug,00159,3036 College Dr,,Rock Springs,WY,82901,United States,3073622683,41.5964736,-109.240776,fridayOpen:07:00;thursdayClose:07:00;recordId:67300159;wednesdayOpen:07:00;thursdayOpen:07:00;tuesdayOpen:07:00;wednesdayClose:07:00;saturdayOpen:07:00;mondayOpen:07:00;tuesdayClose:07:00;fridayClose:07:00;mondayClose:07:00;saturdayClose:07:00;sundayClose:07:00;sundayOpen:07:00;,,
Loaf 'N Jug,00150,1310 Dewar Dr,,Rock Springs,WY,82901,United States,3073623168,41.577465,-109.2359313,fridayOpen:07:00;thursdayClose:07:00;recordId:67300150;wednesdayOpen:07:00;thursdayOpen:07:00;tuesdayOpen:07:00;wednesdayClose:07:00;saturdayOpen:07:00;mondayOpen:07:00;tuesdayClose:07:00;fridayClose:07:00;mondayClose:07:00;saturdayClose:07:00;sundayClose:07:00;sundayOpen:07:00;,,
Loaf 'N Jug,00151,2558 Foothill Blvd,,Rock Springs,WY,82901,United States,3073621713,41.5821952,-109.2575683,fridayOpen:07:00;thursdayClose:07:00;recordId:67300151;wednesdayOpen:07:00;thursdayOpen:07:00;tuesdayOpen:07:00;wednesdayClose:07:00;saturdayOpen:07:00;mondayOpen:07:00;tuesdayClose:07:00;fridayClose:07:00;mondayClose:07:00;saturdayClose:07:00;sundayClose:07:00;sundayOpen:07:00;,,
Smith's,00182,2531 Foothill Blvd,,Rock Springs,WY,82901,United States,3073621722,41.582958,-109.260703,fridayOpen:05:00;thursdayClose:00:00;recordId:70600182;wednesdayOpen:05:00;thursdayOpen:05:00;tuesdayOpen:05:00;wednesdayClose:00:00;saturdayOpen:05:00;mondayOpen:05:00;tuesdayClose:00:00;fridayClose:00:00;mondayClose:00:00;saturdayClose:00:00;sundayClose:00:00;sundayOpen:05:00;,,
Loaf 'N Jug,00134,109 Hwy 189,,Marbleton,WY,83113,United States,3072763263,42.553974,-110.110268,fridayOpen:07:00;thursdayClose:07:00;recordId:67300134;wednesdayOpen:07:00;thursdayOpen:07:00;tuesdayOpen:07:00;wednesdayClose:07:00;saturdayOpen:07:00;mondayOpen:07:00;tuesdayClose:07:00;fridayClose:07:00;mondayClose:07:00;saturdayClose:07:00;sundayClose:07:00;sundayOpen:07:00;,,
Loaf 'N Jug,00162,2800 South Hwy 59,,Gillette,WY,82716,United States,3076865644,44.268791,-105.494621,fridayOpen:07:00;thursdayClose:07:00;recordId:67300162;wednesdayOpen:07:00;thursdayOpen:07:00;tuesdayOpen:07:00;wednesdayClose:07:00;saturdayOpen:07:00;mondayOpen:07:00;tuesdayClose:07:00;fridayClose:07:00;mondayClose:07:00;saturdayClose:07:00;sundayClose:07:00;sundayOpen:07:00;,,
Smith's,00180,906 Carmel Dr,,Gillette,WY,82716,United States,3076821103,44.2809,-105.4903522,fridayOpen:07:00;thursdayClose:07:00;recordId:70600180;wednesdayOpen:07:00;thursdayOpen:07:00;tuesdayOpen:07:00;wednesdayClose:07:00;saturdayOpen:07:00;mondayOpen:07:00;tuesdayClose:07:00;fridayClose:07:00;mondayClose:07:00;saturdayClose:07:00;sundayClose:07:00;sundayOpen:07:00;,,
Loaf 'N Jug,00149,401 S Douglas Hwy,,Gillette,WY,82716,United States,3076821695,44.2911531,-105.4940754,fridayOpen:07:00;thursdayClose:07:00;recordId:67300149;wednesdayOpen:07:00;thursdayOpen:07:00;tuesdayOpen:07:00;wednesdayClose:07:00;saturdayOpen:07:00;mondayOpen:07:00;tuesdayClose:07:00;fridayClose:07:00;mondayClose:07:00;saturdayClose:07:00;sundayClose:07:00;sundayOpen:07:00;,,
Loaf 'N Jug,00154,515 E Flaming Gorge Way,,Green River,WY,82935,United States,3078756733,41.5261268,-109.4615173,fridayOpen:07:00;thursdayClose:07:00;recordId:67300154;wednesdayOpen:07:00;thursdayOpen:07:00;tuesdayOpen:07:00;wednesdayClose:07:00;saturdayOpen:07:00;mondayOpen:07:00;tuesdayClose:07:00;fridayClose:07:00;mondayClose:07:00;saturdayClose:07:00;sundayClose:07:00;sundayOpen:07:00;,,
Loaf 'N Jug,00152,1325 Bridger Dr,,Green River,WY,82935,United States,3078756519,41.5034751,-109.4544754,fridayOpen:07:00;thursdayClose:07:00;recordId:67300152;wednesdayOpen:07:00;thursdayOpen:07:00;tuesdayOpen:07:00;wednesdayClose:07:00;saturdayOpen:07:00;mondayOpen:07:00;tuesdayClose:07:00;fridayClose:07:00;mondayClose:07:00;saturdayClose:07:00;sundayClose:07:00;sundayOpen:07:00;,,
Smith's,00187,905 Bridger Dr,,Green River,WY,82935,United States,3078756900,41.5044202,-109.4582419,fridayOpen:05:00;thursdayClose:00:00;recordId:70600187;wednesdayOpen:05:00;thursdayOpen:05:00;tuesdayOpen:05:00;wednesdayClose:00:00;saturdayOpen:05:00;mondayOpen:05:00;tuesdayClose:00:00;fridayClose:00:00;mondayClose:00:00;saturdayClose:00:00;sundayClose:00:00;sundayOpen:05:00;,,
Loaf 'N Jug,00153,895 Uinta Dr,,Green River,WY,82935,United States,3078755526,41.5113983,-109.4722824,fridayOpen:07:00;thursdayClose:07:00;recordId:67300153;wednesdayOpen:07:00;thursdayOpen:07:00;tuesdayOpen:07:00;wednesdayClose:07:00;saturdayOpen:07:00;mondayOpen:07:00;tuesdayClose:07:00;fridayClose:07:00;mondayClose:07:00;saturdayClose:07:00;sundayClose:07:00;sundayOpen:07:00;,,
Loaf 'N Jug,00122,818 S 3rd St,,Laramie,WY,82070,United States,3077420241,41.3057494,-105.5938703,fridayOpen:07:00;thursdayClose:07:00;recordId:67300122;wednesdayOpen:07:00;thursdayOpen:07:00;tuesdayOpen:07:00;wednesdayClose:07:00;saturdayOpen:07:00;mondayOpen:07:00;tuesdayClose:07:00;fridayClose:07:00;mondayClose:07:00;saturdayClose:07:00;sundayClose:07:00;sundayOpen:07:00;,,
Loaf 'N Jug,00123,2318 E Grand Ave,,Laramie,WY,82070,United States,3077428402,41.3091783,-105.5624851,fridayOpen:07:00;thursdayClose:07:00;recordId:67300123;wednesdayOpen:07:00;thursdayOpen:07:00;tuesdayOpen:07:00;wednesdayClose:07:00;saturdayOpen:07:00;mondayOpen:07:00;tuesdayClose:07:00;fridayClose:07:00;mondayClose:07:00;saturdayClose:07:00;sundayClose:07:00;sundayOpen:07:00;,,
Loaf 'N Jug,00136,397 W Broadway Ave,,Jackson,WY,83001,United States,3077337947,43.4793832,-110.7686159,fridayOpen:07:00;thursdayClose:07:00;recordId:67300136;wednesdayOpen:07:00;thursdayOpen:07:00;tuesdayOpen:07:00;wednesdayClose:07:00;saturdayOpen:07:00;mondayOpen:07:00;tuesdayClose:07:00;fridayClose:07:00;mondayClose:07:00;saturdayClose:07:00;sundayClose:07:00;sundayOpen:07:00;,,
Lucky's Market,00017,974 W Broadway,,Jackson,WY,83001,United States,,43.4729,-110.784347,fridayOpen:07:00;thursdayClose:07:00;recordId:07200017;wednesdayOpen:07:00;thursdayOpen:07:00;tuesdayOpen:07:00;wednesdayClose:07:00;saturdayOpen:07:00;mondayOpen:07:00;tuesdayClose:07:00;fridayClose:07:00;mondayClose:07:00;saturdayClose:07:00;sundayClose:07:00;sundayOpen:07:00;,,
Smith's,00184,1425 S Hwy 89,,Jackson,WY,83001,United States,3077338908,43.4587962,-110.7956985,fridayOpen:06:00;thursdayClose:00:00;recordId:70600184;wednesdayOpen:06:00;thursdayOpen:06:00;tuesdayOpen:06:00;wednesdayClose:00:00;saturdayOpen:06:00;mondayOpen:06:00;tuesdayClose:00:00;fridayClose:00:00;mondayClose:00:00;saturdayClose:00:00;sundayClose:00:00;sundayOpen:06:00;,,
City Market,00415,505 W Victory Way,,Craig,CO,81625,United States,9708246515,40.5150144,-107.5538186,fridayOpen:05:00;thursdayClose:22:00;recordId:62000415;wednesdayOpen:05:00;thursdayOpen:05:00;tuesdayOpen:05:00;wednesdayClose:22:00;saturdayOpen:05:00;mondayOpen:05:00;tuesdayClose:22:00;fridayClose:22:00;mondayClose:22:00;saturdayClose:22:00;sundayClose:22:00;sundayOpen:05:00;,,
Loaf 'N Jug,00869,2441 W Victory Way,,Craig,CO,81625,United States,9708247740,40.5143078,-107.57497000000001,fridayOpen:07:00;thursdayClose:07:00;recordId:67300869;wednesdayOpen:07:00;thursdayOpen:07:00;tuesdayOpen:07:00;wednesdayClose:07:00;saturdayOpen:07:00;mondayOpen:07:00;tuesdayClose:07:00;fridayClose:07:00;mondayClose:07:00;saturdayClose:07:00;sundayClose:07:00;sundayOpen:07:00;,,
Loaf 'N Jug,00167,731 Washington Blvd,,Newcastle,WY,82701,United States,3077464080,43.8488951,-104.1960371,fridayOpen:07:00;thursdayClose:07:00;recordId:67300167;wednesdayOpen:07:00;thursdayOpen:07:00;tuesdayOpen:07:00;wednesdayClose:07:00;saturdayOpen:07:00;mondayOpen:07:00;tuesdayClose:07:00;fridayClose:07:00;mondayClose:07:00;saturdayClose:07:00;sundayClose:07:00;sundayOpen:07:00;,,
City Market,00414,1825 Central Park Plaza,,Steamboat Springs,CO,80477,United States,9708793290,40.4630805,-106.8215977,fridayOpen:06:00;thursdayClose:23:00;recordId:62000414;wednesdayOpen:06:00;thursdayOpen:06:00;tuesdayOpen:06:00;wednesdayClose:23:00;saturdayOpen:06:00;mondayOpen:06:00;tuesdayClose:23:00;fridayClose:23:00;mondayClose:23:00;saturdayClose:23:00;sundayClose:23:00;sundayOpen:06:00;,,
Loaf 'N Jug,00804,555 Marketplace Plaza,,Steamboat Springs,CO,80488,United States,9708706848,40.4589943,-106.819896,fridayOpen:07:00;thursdayClose:07:00;recordId:67300804;wednesdayOpen:07:00;thursdayOpen:07:00;tuesdayOpen:07:00;wednesdayClose:07:00;saturdayOpen:07:00;mondayOpen:07:00;tuesdayClose:07:00;fridayClose:07:00;mondayClose:07:00;saturdayClose:07:00;sundayClose:07:00;sundayOpen:07:00;,,
Loaf 'N Jug,00119,534 Vandehei Ave,,Cheyenne,WY,82009,United States,3076375859,41.1840362,-104.8362121,fridayOpen:07:00;thursdayClose:07:00;recordId:67300119;wednesdayOpen:07:00;thursdayOpen:07:00;tuesdayOpen:07:00;wednesdayClose:07:00;saturdayOpen:07:00;mondayOpen:07:00;tuesdayClose:07:00;fridayClose:07:00;mondayClose:07:00;saturdayClose:07:00;sundayClose:07:00;sundayOpen:07:00;,,
Loaf 'N Jug,00116,5539 Yellowstone Rd,,Cheyenne,WY,82009,United States,3076322118,41.1714141,-104.8282257,fridayOpen:07:00;thursdayClose:07:00;recordId:67300116;wednesdayOpen:07:00;thursdayOpen:07:00;tuesdayOpen:07:00;wednesdayClose:07:00;saturdayOpen:07:00;mondayOpen:07:00;tuesdayClose:07:00;fridayClose:07:00;mondayClose:07:00;saturdayClose:07:00;sundayClose:07:00;sundayOpen:07:00;,,
Loaf 'N Jug,00115,820 Randall Ave,,Cheyenne,WY,82001,United States,3076328235,41.14402,-104.8311462,fridayOpen:07:00;thursdayClose:07:00;recordId:67300115;wednesdayOpen:07:00;thursdayOpen:07:00;tuesdayOpen:07:00;wednesdayClose:07:00;saturdayOpen:07:00;mondayOpen:07:00;tuesdayClose:07:00;fridayClose:07:00;mondayClose:07:00;saturdayClose:07:00;sundayClose:07:00;sundayOpen:07:00;,,
Loaf 'N Jug,00193,2414 Dell Range Blvd,,Cheyenne,WY,82009,United States,3076378551,41.1605415,-104.7826766,fridayOpen:07:00;thursdayClose:07:00;recordId:67300193;wednesdayOpen:07:00;thursdayOpen:07:00;tuesdayOpen:07:00;wednesdayClose:07:00;saturdayOpen:07:00;mondayOpen:07:00;tuesdayClose:07:00;fridayClose:07:00;mondayClose:07:00;saturdayClose:07:00;sundayClose:07:00;sundayOpen:07:00;,,
Loaf 'N Jug,00118,1922 E Lincolnway,,Cheyenne,WY,82001,United States,3076358257,41.1386871,-104.7943038,fridayOpen:07:00;thursdayClose:07:00;recordId:67300118;wednesdayOpen:07:00;thursdayOpen:07:00;tuesdayOpen:07:00;wednesdayClose:07:00;saturdayOpen:07:00;mondayOpen:07:00;tuesdayClose:07:00;fridayClose:07:00;mondayClose:07:00;saturdayClose:07:00;sundayClose:07:00;sundayOpen:07:00;,,
King Soopers,00079,3702 Dell Range Blvd,,Cheyenne,WY,82009,United States,3076380014,41.1613168,-104.764616,fridayOpen:07:00;thursdayClose:07:00;recordId:62000079;wednesdayOpen:07:00;thursdayOpen:07:00;tuesdayOpen:07:00;wednesdayClose:07:00;saturdayOpen:07:00;mondayOpen:07:00;tuesdayClose:07:00;fridayClose:07:00;mondayClose:07:00;saturdayClose:07:00;sundayClose:07:00;sundayOpen:07:00;,,
Loaf 'N Jug,00195,4373 E Lincolnway,,Cheyenne,WY,82001,United States,3074338637,41.1443214,-104.7559509,fridayOpen:07:00;thursdayClose:07:00;recordId:67300195;wednesdayOpen:07:00;thursdayOpen:07:00;tuesdayOpen:07:00;wednesdayClose:07:00;saturdayOpen:07:00;mondayOpen:07:00;tuesdayClose:07:00;fridayClose:07:00;mondayClose:07:00;saturdayClose:07:00;sundayClose:07:00;sundayOpen:07:00;,,
Loaf 'N Jug,00192,3920 E 12Th St,,Cheyenne,WY,82001,United States,3076378546,41.1368446,-104.76190940000001,fridayOpen:07:00;thursdayClose:07:00;recordId:67300192;wednesdayOpen:07:00;thursdayOpen:07:00;tuesdayOpen:07:00;wednesdayClose:07:00;saturdayOpen:07:00;mondayOpen:07:00;tuesdayClose:07:00;fridayClose:07:00;mondayClose:07:00;saturdayClose:07:00;sundayClose:07:00;sundayOpen:07:00;,,
Loaf 'N Jug,00194,1610 S Greeley Hwy,,Cheyenne,WY,82007,United States,3076355226,41.1026344,-104.8010253,fridayOpen:07:00;thursdayClose:07:00;recordId:67300194;wednesdayOpen:07:00;thursdayOpen:07:00;tuesdayOpen:07:00;wednesdayClose:07:00;saturdayOpen:07:00;mondayOpen:07:00;tuesdayClose:07:00;fridayClose:07:00;mondayClose:07:00;saturdayClose:07:00;sundayClose:07:00;sundayOpen:07:00;,,
Littman Jewelers,00952,5580 Goods Ln Ste 2108,,Altoona,PA,16602,United States,8149418423,40.469126,-78.411944,fridayOpen:10:00;thursdayClose:21:00;recordId:70200952;wednesdayOpen:10:00;thursdayOpen:10:00;tuesdayOpen:10:00;wednesdayClose:21:00;saturdayOpen:10:00;mondayOpen:10:00;tuesdayClose:21:00;fridayClose:21:00;mondayClose:21:00;saturdayClose:21:00;sundayClose:18:00;sundayOpen:12:00;,,
Turkey Hill,00201,2688 Euclid Ave,,Duboistown,PA,17702,United States,5703267350,41.2228448,-77.0364761,fridayOpen:07:00;thursdayClose:07:00;recordId:67000201;wednesdayOpen:07:00;thursdayOpen:07:00;tuesdayOpen:07:00;wednesdayClose:07:00;saturdayOpen:07:00;mondayOpen:07:00;tuesdayClose:07:00;fridayClose:07:00;mondayClose:07:00;saturdayClose:07:00;sundayClose:07:00;sundayOpen:07:00;,,
Turkey Hill,00238,3106 Everett Rd,,East Freedom,PA,16637,United States,8146953533,40.3673583,-78.4276487,fridayOpen:07:00;thursdayClose:07:00;recordId:67000238;wednesdayOpen:07:00;thursdayOpen:07:00;tuesdayOpen:07:00;wednesdayClose:07:00;saturdayOpen:07:00;mondayOpen:07:00;tuesdayClose:07:00;fridayClose:07:00;mondayClose:07:00;saturdayClose:07:00;sundayClose:07:00;sundayOpen:07:00;,,
Turkey Hill,00256,7637 Woodbury Pike,,Roaring Spring,PA,16673,United States,8142245084,40.3368307,-78.3909762,fridayOpen:05:30;thursdayClose:00:00;recordId:67000256;wednesdayOpen:05:30;thursdayOpen:05:30;tuesdayOpen:05:30;wednesdayClose:00:00;saturdayOpen:05:30;mondayOpen:05:30;tuesdayClose:00:00;fridayClose:00:00;mondayClose:00:00;saturdayClose:00:00;sundayClose:00:00;sundayOpen:05:30;,,
Turkey Hill,00210,700 Washington Blvd,,Williamsport,PA,17701,United States,5703279190,41.2476009,-76.9905151,fridayOpen:07:00;thursdayClose:07:00;recordId:67000210;wednesdayOpen:07:00;thursdayOpen:07:00;tuesdayOpen:07:00;wednesdayClose:07:00;saturdayOpen:07:00;mondayOpen:07:00;tuesdayClose:07:00;fridayClose:07:00;mondayClose:07:00;saturdayClose:07:00;sundayClose:07:00;sundayOpen:07:00;,,
Turkey Hill,00309,1980 N. Susquehanna Trail,,Selinsgrove,PA,17870,United States,5707437135,40.8349724,-76.8349609,fridayOpen:07:00;thursdayClose:07:00;recordId:67000309;wednesdayOpen:07:00;thursdayOpen:07:00;tuesdayOpen:07:00;wednesdayClose:07:00;saturdayOpen:07:00;mondayOpen:07:00;tuesdayClose:07:00;fridayClose:07:00;mondayClose:07:00;saturdayClose:07:00;sundayClose:07:00;sundayOpen:07:00;,,
Turkey Hill,00208,854 Mahoning St,,Milton,PA,17847,United States,5707422680,41.0102777,-76.8391956,fridayOpen:07:00;thursdayClose:07:00;recordId:67000208;wednesdayOpen:07:00;thursdayOpen:07:00;tuesdayOpen:07:00;wednesdayClose:07:00;saturdayOpen:07:00;mondayOpen:07:00;tuesdayClose:07:00;fridayClose:07:00;mondayClose:07:00;saturdayClose:07:00;sundayClose:07:00;sundayOpen:07:00;,,
Turkey Hill,00211,300 Broad St,,Montoursville,PA,17754,United States,5703688005,41.2496931,-76.9276106,fridayOpen:07:00;thursdayClose:07:00;recordId:67000211;wednesdayOpen:07:00;thursdayOpen:07:00;tuesdayOpen:07:00;wednesdayClose:07:00;saturdayOpen:07:00;mondayOpen:07:00;tuesdayClose:07:00;fridayClose:07:00;mondayClose:07:00;saturdayClose:07:00;sundayClose:07:00;sundayOpen:07:00;,,
Turkey Hill,00202,276 State Route 87,,Montoursville,PA,17754,United States,5704334533,41.2660847,-76.9130294,fridayOpen:05:00;thursdayClose:00:00;recordId:67000202;wednesdayOpen:05:00;thursdayOpen:05:00;tuesdayOpen:05:00;wednesdayClose:00:00;saturdayOpen:05:00;mondayOpen:05:00;tuesdayClose:00:00;fridayClose:00:00;mondayClose:00:00;saturdayClose:00:00;sundayClose:00:00;sundayOpen:05:00;,,
Turkey Hill,00209,501 N. Front St.,,Sunbury,PA,17801,United States,5702863166,40.8689615,-76.7941868,fridayOpen:07:00;thursdayClose:07:00;recordId:67000209;wednesdayOpen:07:00;thursdayOpen:07:00;tuesdayOpen:07:00;wednesdayClose:07:00;saturdayOpen:07:00;mondayOpen:07:00;tuesdayClose:07:00;fridayClose:07:00;mondayClose:07:00;saturdayClose:07:00;sundayClose:07:00;sundayOpen:07:00;,,
Turkey Hill,00225,900 N 4Th St,,Sunbury,PA,17801,United States,5702860890,40.8711596,-76.7857465,fridayOpen:07:00;thursdayClose:07:00;recordId:67000225;wednesdayOpen:07:00;thursdayOpen:07:00;tuesdayOpen:07:00;wednesdayClose:07:00;saturdayOpen:07:00;mondayOpen:07:00;tuesdayClose:07:00;fridayClose:07:00;mondayClose:07:00;saturdayClose:07:00;sundayClose:07:00;sundayOpen:07:00;,,
Turkey Hill,00216,1 Cranes Gap Rd,,Carlisle,PA,17013,United States,7172492065,40.2425384,-77.1793823,fridayOpen:06:00;thursdayClose:00:00;recordId:67000216;wednesdayOpen:06:00;thursdayOpen:06:00;tuesdayOpen:06:00;wednesdayClose:00:00;saturdayOpen:06:00;mondayOpen:06:00;tuesdayClose:00:00;fridayClose:00:00;mondayClose:00:00;saturdayClose:00:00;sundayClose:00:00;sundayOpen:06:00;,,
Turkey Hill,00199,4760 State Route 54,,Turbotville,PA,17772,United States,5706496224,41.1070941,-76.7673104,fridayOpen:07:00;thursdayClose:07:00;recordId:67000199;wednesdayOpen:07:00;thursdayOpen:07:00;tuesdayOpen:07:00;wednesdayClose:07:00;saturdayOpen:07:00;mondayOpen:07:00;tuesdayClose:07:00;fridayClose:07:00;mondayClose:07:00;saturdayClose:07:00;sundayClose:07:00;sundayOpen:07:00;,,
Littman Jewelers,00965,300 Lycoming Mall Cir Ste 228,,Pennsdale,PA,17756,United States,5705466966,41.240007,-76.826526,fridayOpen:10:00;thursdayClose:21:00;recordId:70200965;wednesdayOpen:10:00;thursdayOpen:10:00;tuesdayOpen:10:00;wednesdayClose:21:00;saturdayOpen:10:00;mondayOpen:10:00;tuesdayClose:21:00;fridayClose:21:00;mondayClose:21:00;saturdayClose:21:00;sundayClose:17:00;sundayOpen:11:00;,,
Turkey Hill,00206,18 East Water Street,,Muncy,PA,17756,United States,5705463940,41.2055801,-76.7847997,fridayOpen:07:00;thursdayClose:07:00;recordId:67000206;wednesdayOpen:07:00;thursdayOpen:07:00;tuesdayOpen:07:00;wednesdayClose:07:00;saturdayOpen:07:00;mondayOpen:07:00;tuesdayClose:07:00;fridayClose:07:00;mondayClose:07:00;saturdayClose:07:00;sundayClose:07:00;sundayOpen:07:00;,,
Turkey Hill,00268,7040 Wertzville Rd,,Mechanicsburg,PA,17050,United States,7177669598,40.2834663,-77.0510711,fridayOpen:07:00;thursdayClose:07:00;recordId:67000268;wednesdayOpen:07:00;thursdayOpen:07:00;tuesdayOpen:07:00;wednesdayClose:07:00;saturdayOpen:07:00;mondayOpen:07:00;tuesdayClose:07:00;fridayClose:07:00;mondayClose:07:00;saturdayClose:07:00;sundayClose:07:00;sundayOpen:07:00;,,
Turkey Hill,00283,209 W King St,,Shippensburg,PA,17257,United States,7175326800,40.0482478,-77.5260845,fridayOpen:07:00;thursdayClose:07:00;recordId:67000283;wednesdayOpen:07:00;thursdayOpen:07:00;tuesdayOpen:07:00;wednesdayClose:07:00;saturdayOpen:07:00;mondayOpen:07:00;tuesdayClose:07:00;fridayClose:07:00;mondayClose:07:00;saturdayClose:07:00;sundayClose:07:00;sundayOpen:07:00;,,
Turkey Hill,00294,6708 Carlisle Pike,,Mechanicsburg,PA,17050,United States,7176971045,40.2396181,-77.0535369,fridayOpen:07:00;thursdayClose:07:00;recordId:67000294;wednesdayOpen:07:00;thursdayOpen:07:00;tuesdayOpen:07:00;wednesdayClose:07:00;saturdayOpen:07:00;mondayOpen:07:00;tuesdayClose:07:00;fridayClose:07:00;mondayClose:07:00;saturdayClose:07:00;sundayClose:07:00;sundayOpen:07:00;,,
Turkey Hill,00280,2060 Good Hope Rd,,Enola,PA,17025,United States,7177289711,40.2885665,-76.9863204,fridayOpen:07:00;thursdayClose:07:00;recordId:67000280;wednesdayOpen:07:00;thursdayOpen:07:00;tuesdayOpen:07:00;wednesdayClose:07:00;saturdayOpen:07:00;mondayOpen:07:00;tuesdayClose:07:00;fridayClose:07:00;mondayClose:07:00;saturdayClose:07:00;sundayClose:07:00;sundayOpen:07:00;,,
Turkey Hill,00236,5150 Simpson Ferry Rd,,Mechanicsburg,PA,17055,United States,7177958290,40.2183418,-76.9772186,fridayOpen:07:00;thursdayClose:07:00;recordId:67000236;wednesdayOpen:07:00;thursdayOpen:07:00;tuesdayOpen:07:00;wednesdayClose:07:00;saturdayOpen:07:00;mondayOpen:07:00;tuesdayClose:07:00;fridayClose:07:00;mondayClose:07:00;saturdayClose:07:00;sundayClose:07:00;sundayOpen:07:00;,,
Turkey Hill,00266,2015 Dotson Ct,,Harrisburg,PA,17110,United States,7176719290,40.306448,-76.8522995,fridayOpen:07:00;thursdayClose:07:00;recordId:67000266;wednesdayOpen:07:00;thursdayOpen:07:00;tuesdayOpen:07:00;wednesdayClose:07:00;saturdayOpen:07:00;mondayOpen:07:00;tuesdayClose:07:00;fridayClose:07:00;mondayClose:07:00;saturdayClose:07:00;sundayClose:07:00;sundayOpen:07:00;,,
Littman Jewelers,00896,3541 Capital City Mall Dr,,Camp Hill,PA,17011,United States,7177376849,40.223018,-76.931934,fridayOpen:10:00;thursdayClose:21:00;recordId:70200896;wednesdayOpen:10:00;thursdayOpen:10:00;tuesdayOpen:10:00;wednesdayClose:21:00;saturdayOpen:10:00;mondayOpen:10:00;tuesdayClose:21:00;fridayClose:21:00;mondayClose:21:00;saturdayClose:21:00;sundayClose:18:00;sundayOpen:11:00;,,
Littman Jewelers,00905,500 Galleria Dr Ste 240,,Johnstown,PA,15904,United States,8142666199,40.294593,-78.833817,fridayOpen:10:00;thursdayClose:21:00;recordId:70200905;wednesdayOpen:10:00;thursdayOpen:10:00;tuesdayOpen:10:00;wednesdayClose:21:00;saturdayOpen:10:00;mondayOpen:10:00;tuesdayClose:21:00;fridayClose:21:00;mondayClose:21:00;saturdayClose:21:00;sundayClose:17:00;sundayOpen:12:00;,,
Turkey Hill,00135,501 N 2Nd St,,Shamokin,PA,17872,United States,5706481620,40.7892382,-76.5640747,fridayOpen:07:00;thursdayClose:07:00;recordId:67000135;wednesdayOpen:07:00;thursdayOpen:07:00;tuesdayOpen:07:00;wednesdayClose:07:00;saturdayOpen:07:00;mondayOpen:07:00;tuesdayClose:07:00;fridayClose:07:00;mondayClose:07:00;saturdayClose:07:00;sundayClose:07:00;sundayOpen:07:00;,,
Turkey Hill,00240,2130 S Market St,,Mechanicsburg,PA,17055,United States,7176977280,40.175373,-76.9846343,fridayOpen:07:00;thursdayClose:07:00;recordId:67000240;wednesdayOpen:07:00;thursdayOpen:07:00;tuesdayOpen:07:00;wednesdayClose:07:00;saturdayOpen:07:00;mondayOpen:07:00;tuesdayClose:07:00;fridayClose:07:00;mondayClose:07:00;saturdayClose:07:00;sundayClose:07:00;sundayOpen:07:00;,,
Turkey Hill,00098,707 N Mountain Rd,,Linglestown,PA,17112,United States,7176573493,40.333294,-76.790779,fridayOpen:07:00;thursdayClose:07:00;recordId:67000098;wednesdayOpen:07:00;thursdayOpen:07:00;tuesdayOpen:07:00;wednesdayClose:07:00;saturdayOpen:07:00;mondayOpen:07:00;tuesdayClose:07:00;fridayClose:07:00;mondayClose:07:00;saturdayClose:07:00;sundayClose:07:00;sundayOpen:07:00;,,
Kroger,00800,555 W Marion Rd,,Mount Gilead,OH,43338,United States,4199479191,40.5472654,-82.8465263,fridayOpen:06:00;thursdayClose:01:00;recordId:01600800;wednesdayOpen:06:00;thursdayOpen:06:00;tuesdayOpen:06:00;wednesdayClose:01:00;saturdayOpen:06:00;mondayOpen:06:00;tuesdayClose:01:00;fridayClose:01:00;mondayClose:01:00;saturdayClose:01:00;sundayClose:01:00;sundayOpen:06:00;,,
Kroger,00820,855 Coshocton Ave,,Mount Vernon,OH,43050,United States,7403931425,40.4010188,-82.4588259,fridayOpen:07:00;thursdayClose:07:00;recordId:01600820;wednesdayOpen:07:00;thursdayOpen:07:00;tuesdayOpen:07:00;wednesdayClose:07:00;saturdayOpen:07:00;mondayOpen:07:00;tuesdayClose:07:00;fridayClose:07:00;mondayClose:07:00;saturdayClose:07:00;sundayClose:07:00;sundayOpen:07:00;,,
Kroger,00802,131 State Route 3,,Sunbury,OH,43074,United States,7409650500,40.2462815,-82.8686806,fridayOpen:06:00;thursdayClose:01:00;recordId:01600802;wednesdayOpen:06:00;thursdayOpen:06:00;tuesdayOpen:06:00;wednesdayClose:01:00;saturdayOpen:06:00;mondayOpen:06:00;tuesdayClose:01:00;fridayClose:01:00;mondayClose:01:00;saturdayClose:01:00;sundayClose:01:00;sundayOpen:06:00;,,
Kroger,00546,800 W Coshocton St,,Johnstown,OH,43031,United States,7409668300,40.147049,-82.7076001,fridayOpen:06:00;thursdayClose:01:00;recordId:01600546;wednesdayOpen:06:00;thursdayOpen:06:00;tuesdayOpen:06:00;wednesdayClose:01:00;saturdayOpen:06:00;mondayOpen:06:00;tuesdayClose:01:00;fridayClose:01:00;mondayClose:01:00;saturdayClose:01:00;sundayClose:01:00;sundayOpen:06:00;,,
Kroger,00847,7345 S.R. 3,,Westerville,OH,43082,United States,6147945555,40.1496446,-82.9208478,fridayOpen:07:00;thursdayClose:07:00;recordId:01600847;wednesdayOpen:07:00;thursdayOpen:07:00;tuesdayOpen:07:00;wednesdayClose:07:00;saturdayOpen:07:00;mondayOpen:07:00;tuesdayClose:07:00;fridayClose:07:00;mondayClose:07:00;saturdayClose:07:00;sundayClose:07:00;sundayOpen:07:00;,,
Harris Teeter,00324,15501 Annapolis Rd. #400,,Bowie,MD,20715,United States,3013832935,38.9793447,-76.7351125,fridayOpen:07:00;thursdayClose:07:00;recordId:09700324;wednesdayOpen:07:00;thursdayOpen:07:00;tuesdayOpen:07:00;wednesdayClose:07:00;saturdayOpen:07:00;mondayOpen:07:00;tuesdayClose:07:00;fridayClose:07:00;mondayClose:07:00;saturdayClose:07:00;sundayClose:07:00;sundayOpen:07:00;,,
Harris Teeter,00408,14702 Baltimore Ave,,Laurel,MD,20707,United States,3014906039,39.0929405,-76.8584304,fridayOpen:06:00;thursdayClose:00:00;recordId:09700408;wednesdayOpen:06:00;thursdayOpen:06:00;tuesdayOpen:06:00;wednesdayClose:00:00;saturdayOpen:06:00;mondayOpen:06:00;tuesdayClose:00:00;fridayClose:00:00;mondayClose:00:00;saturdayClose:00:00;sundayClose:00:00;sundayOpen:06:00;,,
Littman Jewelers,00864,7900 Ritchie Hwy E153,,Glen Burnie,MD,21061,United States,4107601045,39.138554,-76.60566,fridayOpen:10:00;thursdayClose:21:00;recordId:70200864;wednesdayOpen:10:00;thursdayOpen:10:00;tuesdayOpen:10:00;wednesdayClose:21:00;saturdayOpen:10:00;mondayOpen:10:00;tuesdayClose:21:00;fridayClose:21:00;mondayClose:21:00;saturdayClose:21:00;sundayClose:18:00;sundayOpen:11:00;,,
Harris Teeter,00282,1350 Potomac Ave SE,,WASHINGTON,DC,20003,United States,2025431040,38.880136,-76.9868323,fridayOpen:07:00;thursdayClose:00:00;recordId:09700282;wednesdayOpen:07:00;thursdayOpen:07:00;tuesdayOpen:07:00;wednesdayClose:00:00;saturdayOpen:07:00;mondayOpen:07:00;tuesdayClose:00:00;fridayClose:00:00;mondayClose:00:00;saturdayClose:00:00;sundayClose:00:00;sundayOpen:07:00;,,
Harris Teeter,00352,1201 First St NE,,WASHINGTON,DC,20002,United States,2025890351,38.9058758,-77.0055935,fridayOpen:07:00;thursdayClose:00:00;recordId:09700352;wednesdayOpen:07:00;thursdayOpen:07:00;tuesdayOpen:07:00;wednesdayClose:00:00;saturdayOpen:07:00;mondayOpen:07:00;tuesdayClose:00:00;fridayClose:00:00;mondayClose:00:00;saturdayClose:00:00;sundayClose:00:00;sundayOpen:07:00;,,
Harris Teeter,00383,401 M Street SE,,Washington,DC,20003,United States,2025540164,38.8758757,-77.0000152,fridayOpen:06:00;thursdayClose:00:00;recordId:09700383;wednesdayOpen:06:00;thursdayOpen:06:00;tuesdayOpen:06:00;wednesdayClose:00:00;saturdayOpen:06:00;mondayOpen:06:00;tuesdayClose:00:00;fridayClose:00:00;mondayClose:00:00;saturdayClose:00:00;sundayClose:00:00;sundayOpen:06:00;,,
Harris Teeter,00322,8620 Guilford Rd,,COLUMBIA,MD,21046,United States,4102905902,39.1700226,-76.8642506,fridayOpen:07:00;thursdayClose:07:00;recordId:09700322;wednesdayOpen:07:00;thursdayOpen:07:00;tuesdayOpen:07:00;wednesdayClose:07:00;saturdayOpen:07:00;mondayOpen:07:00;tuesdayClose:07:00;fridayClose:07:00;mondayClose:07:00;saturdayClose:07:00;sundayClose:07:00;sundayOpen:07:00;,,
Harris Teeter,00323,8184 Westside Blvd,,FULTON,MD,20759,United States,3013625761,39.1496753,-76.9112813,fridayOpen:07:00;thursdayClose:07:00;recordId:09700323;wednesdayOpen:07:00;thursdayOpen:07:00;tuesdayOpen:07:00;wednesdayClose:07:00;saturdayOpen:07:00;mondayOpen:07:00;tuesdayClose:07:00;fridayClose:07:00;mondayClose:07:00;saturdayClose:07:00;sundayClose:07:00;sundayOpen:07:00;,,
Harris Teeter,00231,1631 Kalorama Road NW,,WASHINGTON,DC,20009,United States,2029861415,38.9219804,-77.0384578,fridayOpen:07:00;thursdayClose:00:00;recordId:09700231;wednesdayOpen:07:00;thursdayOpen:07:00;tuesdayOpen:07:00;wednesdayClose:00:00;saturdayOpen:07:00;mondayOpen:07:00;tuesdayClose:00:00;fridayClose:00:00;mondayClose:00:00;saturdayClose:00:00;sundayClose:00:00;sundayOpen:07:00;,,
Littman Jewelers,00561,10300 Little Patuxent Pkwy,,Columbia,MD,21044,United States,4109976494,39.215383,-76.86063,fridayOpen:10:00;thursdayClose:21:00;recordId:70200561;wednesdayOpen:10:00;thursdayOpen:10:00;tuesdayOpen:10:00;wednesdayClose:21:00;saturdayOpen:10:00;mondayOpen:10:00;tuesdayClose:21:00;fridayClose:21:00;mondayClose:21:00;saturdayClose:21:00;sundayClose:18:00;sundayOpen:12:00;,,
Harris Teeter,00083,900 Army-Navy Drive,,ARLINGTON,VA,22202,United States,7034137112,38.8652564,-77.0619613,fridayOpen:07:00;thursdayClose:07:00;recordId:09700083;wednesdayOpen:07:00;thursdayOpen:07:00;tuesdayOpen:07:00;wednesdayClose:07:00;saturdayOpen:07:00;mondayOpen:07:00;tuesdayClose:07:00;fridayClose:07:00;mondayClose:07:00;saturdayClose:07:00;sundayClose:07:00;sundayOpen:07:00;,,
Harris Teeter,00262,3600 S. Glebe Rd Suite W100,,ARLINGTON,VA,22202,United States,7034121544,38.8423887,-77.051868,fridayOpen:07:00;thursdayClose:07:00;recordId:09700262;wednesdayOpen:07:00;thursdayOpen:07:00;tuesdayOpen:07:00;wednesdayClose:07:00;saturdayOpen:07:00;mondayOpen:07:00;tuesdayClose:07:00;fridayClose:07:00;mondayClose:07:00;saturdayClose:07:00;sundayClose:07:00;sundayOpen:07:00;,,
Harris Teeter,00398,735 N. Saint Asaph St.,,Alexandria,VA,22314,United States,7034193837,38.8126592,-77.0437344,fridayOpen:07:00;thursdayClose:07:00;recordId:09700398;wednesdayOpen:07:00;thursdayOpen:07:00;tuesdayOpen:07:00;wednesdayClose:07:00;saturdayOpen:07:00;mondayOpen:07:00;tuesdayClose:07:00;fridayClose:07:00;mondayClose:07:00;saturdayClose:07:00;sundayClose:07:00;sundayOpen:07:00;,,
Harris Teeter,00404,4805 Battery Lane,,Bethesda,MD,20814,United States,2406308635,38.9927564,-77.0965308,fridayOpen:07:00;thursdayClose:07:00;recordId:09700404;wednesdayOpen:07:00;thursdayOpen:07:00;tuesdayOpen:07:00;wednesdayClose:07:00;saturdayOpen:07:00;mondayOpen:07:00;tuesdayClose:07:00;fridayClose:07:00;mondayClose:07:00;saturdayClose:07:00;sundayClose:07:00;sundayOpen:07:00;,,
Harris Teeter,00235,4250 Campbell Avenue,,ARLINGTON,VA,22206,United States,7033792003,38.8413764,-77.090135,fridayOpen:07:00;thursdayClose:07:00;recordId:09700235;wednesdayOpen:07:00;thursdayOpen:07:00;tuesdayOpen:07:00;wednesdayClose:07:00;saturdayOpen:07:00;mondayOpen:07:00;tuesdayClose:07:00;fridayClose:07:00;mondayClose:07:00;saturdayClose:07:00;sundayClose:07:00;sundayOpen:07:00;,,
Harris Teeter,00376,1801 Whetstone Way,,BALTIMORE,MD,21230,United States,4105288484,39.2677001,-76.5997946,fridayOpen:06:00;thursdayClose:00:00;recordId:09700376;wednesdayOpen:06:00;thursdayOpen:06:00;tuesdayOpen:06:00;wednesdayClose:00:00;saturdayOpen:06:00;mondayOpen:06:00;tuesdayClose:00:00;fridayClose:00:00;mondayClose:00:00;saturdayClose:00:00;sundayClose:00:00;sundayOpen:06:00;,,
Harris Teeter,00086,600 North Glebe Road,,ARLINGTON,VA,22203,United States,7035269100,38.8766666,-77.1098822,fridayOpen:07:00;thursdayClose:07:00;recordId:09700086;wednesdayOpen:07:00;thursdayOpen:07:00;tuesdayOpen:07:00;wednesdayClose:07:00;saturdayOpen:07:00;mondayOpen:07:00;tuesdayClose:07:00;fridayClose:07:00;mondayClose:07:00;saturdayClose:07:00;sundayClose:07:00;sundayOpen:07:00;,,
Harris Teeter,00328,11845 Old Georgetown Rd,,ROCKVILLE,MD,20852,United States,3014683029,39.0495356,-77.1092944,fridayOpen:07:00;thursdayClose:07:00;recordId:09700328;wednesdayOpen:07:00;thursdayOpen:07:00;tuesdayOpen:07:00;wednesdayClose:07:00;saturdayOpen:07:00;mondayOpen:07:00;tuesdayClose:07:00;fridayClose:07:00;mondayClose:07:00;saturdayClose:07:00;sundayClose:07:00;sundayOpen:07:00;,,
Harris Teeter,00392,3501 Boston St.,,Baltimore,MD,21298,United States,4105220270,39.2749,-76.5649999,fridayOpen:06:00;thursdayClose:00:00;recordId:09700392;wednesdayOpen:06:00;thursdayOpen:06:00;tuesdayOpen:06:00;wednesdayClose:00:00;saturdayOpen:06:00;mondayOpen:06:00;tuesdayClose:00:00;fridayClose:00:00;mondayClose:00:00;saturdayClose:00:00;sundayClose:00:00;sundayOpen:06:00;,,
Harris Teeter,00023,2425 North Harrison Street,,ARLINGTON,VA,22207,United States,7035328663,38.8969894,-77.137529,fridayOpen:07:00;thursdayClose:07:00;recordId:09700023;wednesdayOpen:07:00;thursdayOpen:07:00;tuesdayOpen:07:00;wednesdayClose:07:00;saturdayOpen:07:00;mondayOpen:07:00;tuesdayClose:07:00;fridayClose:07:00;mondayClose:07:00;saturdayClose:07:00;sundayClose:07:00;sundayOpen:07:00;,,
Harris Teeter,00403,18169 Town Center Dr,,OLNEY,MD,20832,United States,3012601792,39.1535417,-77.0619678,fridayOpen:07:00;thursdayClose:07:00;recordId:09700403;wednesdayOpen:07:00;thursdayOpen:07:00;tuesdayOpen:07:00;wednesdayClose:07:00;saturdayOpen:07:00;mondayOpen:07:00;tuesdayClose:07:00;fridayClose:07:00;mondayClose:07:00;saturdayClose:07:00;sundayClose:07:00;sundayOpen:07:00;,,
Harris Teeter,00133,4641 Duke Street,,ALEXANDRIA,VA,22314,United States,7034617082,38.8128453,-77.1125492,fridayOpen:07:00;thursdayClose:07:00;recordId:09700133;wednesdayOpen:07:00;thursdayOpen:07:00;tuesdayOpen:07:00;wednesdayClose:07:00;saturdayOpen:07:00;mondayOpen:07:00;tuesdayClose:07:00;fridayClose:07:00;mondayClose:07:00;saturdayClose:07:00;sundayClose:07:00;sundayOpen:07:00;,,
Harris Teeter,00373,12525 Park Potomac Ave,,POTOMAC,MD,20854,United States,3012945329,39.0614378,-77.1572299,fridayOpen:07:00;thursdayClose:07:00;recordId:09700373;wednesdayOpen:07:00;thursdayOpen:07:00;tuesdayOpen:07:00;wednesdayClose:07:00;saturdayOpen:07:00;mondayOpen:07:00;tuesdayClose:07:00;fridayClose:07:00;mondayClose:07:00;saturdayClose:07:00;sundayClose:07:00;sundayOpen:07:00;,,
Harris Teeter,00279,6351 Columbia Pike,,FALLS CHURCH,VA,22041,United States,7032566615,38.8356087,-77.1554044,fridayOpen:07:00;thursdayClose:07:00;recordId:09700279;wednesdayOpen:07:00;thursdayOpen:07:00;tuesdayOpen:07:00;wednesdayClose:07:00;saturdayOpen:07:00;mondayOpen:07:00;tuesdayClose:07:00;fridayClose:07:00;mondayClose:07:00;saturdayClose:07:00;sundayClose:07:00;sundayOpen:07:00;,,
Harris Teeter,00307,307 West Broad,,Falls Church,VA,22041,United States,5714196869,38.883774,-77.1739222,fridayOpen:07:00;thursdayClose:07:00;recordId:09700307;wednesdayOpen:07:00;thursdayOpen:07:00;tuesdayOpen:07:00;wednesdayClose:07:00;saturdayOpen:07:00;mondayOpen:07:00;tuesdayClose:07:00;fridayClose:07:00;mondayClose:07:00;saturdayClose:07:00;sundayClose:07:00;sundayOpen:07:00;,,
Harris Teeter,00382,11075 Resort Rd,,ELLICOTT CITY,MD,21042,United States,4104615014,39.297814,-76.8973359,fridayOpen:07:00;thursdayClose:07:00;recordId:09700382;wednesdayOpen:07:00;thursdayOpen:07:00;tuesdayOpen:07:00;wednesdayClose:07:00;saturdayOpen:07:00;mondayOpen:07:00;tuesdayClose:07:00;fridayClose:07:00;mondayClose:07:00;saturdayClose:07:00;sundayClose:07:00;sundayOpen:07:00;,,
Littman Jewelers,00891,11110 Mall Cir Sp E-12,,Waldorf,MD,20603,United States,3017058140,38.617436,-76.925413,fridayOpen:10:00;thursdayClose:21:00;recordId:70200891;wednesdayOpen:10:00;thursdayOpen:10:00;tuesdayOpen:10:00;wednesdayClose:21:00;saturdayOpen:10:00;mondayOpen:10:00;tuesdayClose:21:00;fridayClose:21:00;mondayClose:21:00;saturdayClose:21:00;sundayClose:18:00;sundayOpen:11:00;,,
Harris Teeter,00302,8200 Crestwood Heights Dr,,MCLEAN,VA,22102,United States,7034480132,38.9299784,-77.2276195,fridayOpen:07:00;thursdayClose:07:00;recordId:09700302;wednesdayOpen:07:00;thursdayOpen:07:00;tuesdayOpen:07:00;wednesdayClose:07:00;saturdayOpen:07:00;mondayOpen:07:00;tuesdayClose:07:00;fridayClose:07:00;mondayClose:07:00;saturdayClose:07:00;sundayClose:07:00;sundayOpen:07:00;,,
Harris Teeter,00384,323 Copley Place,,GAITHERSBURG,MD,20878,United States,3019637904,39.1153487,-77.207685,fridayOpen:07:00;thursdayClose:07:00;recordId:09700384;wednesdayOpen:07:00;thursdayOpen:07:00;tuesdayOpen:07:00;wednesdayClose:07:00;saturdayOpen:07:00;mondayOpen:07:00;tuesdayClose:07:00;fridayClose:07:00;mondayClose:07:00;saturdayClose:07:00;sundayClose:07:00;sundayOpen:07:00;,,
Harris Teeter,00308,2675 Avenir Place,,Vienna,VA,22180,United States,7032040840,38.8966789,-77.2547913,fridayOpen:07:00;thursdayClose:07:00;recordId:09700308;wednesdayOpen:07:00;thursdayOpen:07:00;tuesdayOpen:07:00;wednesdayClose:07:00;saturdayOpen:07:00;mondayOpen:07:00;tuesdayClose:07:00;fridayClose:07:00;mondayClose:07:00;saturdayClose:07:00;sundayClose:07:00;sundayOpen:07:00;,,
Littman Jewelers,00900,825 Dulaney Valley Rd,,Towson,MD,21204,United States,4108231373,39.403707,-76.599352,fridayOpen:10:00;thursdayClose:21:00;recordId:70200900;wednesdayOpen:10:00;thursdayOpen:10:00;tuesdayOpen:10:00;wednesdayClose:21:00;saturdayOpen:10:00;mondayOpen:10:00;tuesdayClose:21:00;fridayClose:21:00;mondayClose:21:00;saturdayClose:21:00;sundayClose:18:00;sundayOpen:11:00;,,
Littman Jewelers,00838,8200 Perry Hall Blvd,,Baltimore,MD,21236,United States,4109317225,39.375106,-76.467277,fridayOpen:10:00;thursdayClose:21:00;recordId:70200838;wednesdayOpen:10:00;thursdayOpen:10:00;tuesdayOpen:10:00;wednesdayClose:21:00;saturdayOpen:10:00;mondayOpen:10:00;tuesdayClose:21:00;fridayClose:21:00;mondayClose:21:00;saturdayClose:21:00;sundayClose:18:00;sundayOpen:12:00;,,
Harris Teeter,00325,14101 Darnestown Rd,,GAITHERSBURG,MD,20874,United States,2406311310,39.1043626,-77.2916108,fridayOpen:05:00;thursdayClose:00:00;recordId:09700325;wednesdayOpen:05:00;thursdayOpen:05:00;tuesdayOpen:05:00;wednesdayClose:00:00;saturdayOpen:05:00;mondayOpen:05:00;tuesdayClose:00:00;fridayClose:00:00;mondayClose:00:00;saturdayClose:00:00;sundayClose:00:00;sundayOpen:05:00;,,
Harris Teeter,00380,28528 Marlboro Ave,,Easton,MD,21601,United States,4106907203,38.7833449,-76.0877151,fridayOpen:07:00;thursdayClose:07:00;recordId:09700380;wednesdayOpen:07:00;thursdayOpen:07:00;tuesdayOpen:07:00;wednesdayClose:07:00;saturdayOpen:07:00;mondayOpen:07:00;tuesdayClose:07:00;fridayClose:07:00;mondayClose:07:00;saturdayClose:07:00;sundayClose:07:00;sundayOpen:07:00;,,
Harris Teeter,00409,22700 Sweetshrub Dr,,CLARKSBURG,MD,20871,United States,3019167280,39.2295949,-77.2504013,fridayOpen:07:00;thursdayClose:07:00;recordId:09700409;wednesdayOpen:07:00;thursdayOpen:07:00;tuesdayOpen:07:00;wednesdayClose:07:00;saturdayOpen:07:00;mondayOpen:07:00;tuesdayClose:07:00;fridayClose:07:00;mondayClose:07:00;saturdayClose:07:00;sundayClose:07:00;sundayOpen:07:00;,,
Harris Teeter,00081,11806 Spectrum Center,,RESTON,VA,20190,United States,7034355800,38.9660949,-77.3548599,fridayOpen:07:00;thursdayClose:07:00;recordId:09700081;wednesdayOpen:07:00;thursdayOpen:07:00;tuesdayOpen:07:00;wednesdayClose:07:00;saturdayOpen:07:00;mondayOpen:07:00;tuesdayClose:07:00;fridayClose:07:00;mondayClose:07:00;saturdayClose:07:00;sundayClose:07:00;sundayOpen:07:00;,,
Harris Teeter,00253,3905 Fair Ridge Dr.,,FAIRFAX,VA,22033,United States,7038770580,38.872995,-77.3742857,fridayOpen:07:00;thursdayClose:07:00;recordId:09700253;wednesdayOpen:07:00;thursdayOpen:07:00;tuesdayOpen:07:00;wednesdayClose:07:00;saturdayOpen:07:00;mondayOpen:07:00;tuesdayClose:07:00;fridayClose:07:00;mondayClose:07:00;saturdayClose:07:00;sundayClose:07:00;sundayOpen:07:00;,,
Harris Teeter,00085,12960 Highland Crossing Drive,,HERNDON,VA,20171,United States,7034647934,38.949801,-77.394948,fridayOpen:07:00;thursdayClose:07:00;recordId:09700085;wednesdayOpen:07:00;thursdayOpen:07:00;tuesdayOpen:07:00;wednesdayClose:07:00;saturdayOpen:07:00;mondayOpen:07:00;tuesdayClose:07:00;fridayClose:07:00;mondayClose:07:00;saturdayClose:07:00;sundayClose:07:00;sundayOpen:07:00;,,
Harris Teeter,00326,21399 Epicerie Plaza,,Sterling,VA,20164,United States,5715264835,39.0124207,-77.3960114,fridayOpen:07:00;thursdayClose:07:00;recordId:09700326;wednesdayOpen:07:00;thursdayOpen:07:00;tuesdayOpen:07:00;wednesdayClose:07:00;saturdayOpen:07:00;mondayOpen:07:00;tuesdayClose:07:00;fridayClose:07:00;mondayClose:07:00;saturdayClose:07:00;sundayClose:07:00;sundayOpen:07:00;,,
Harris Teeter,00316,12745 Galveston Ct,,MANASSAS,VA,20112,United States,7035800251,38.6803398,-77.3633746,fridayOpen:07:00;thursdayClose:07:00;recordId:09700316;wednesdayOpen:07:00;thursdayOpen:07:00;tuesdayOpen:07:00;wednesdayClose:07:00;saturdayOpen:07:00;mondayOpen:07:00;tuesdayClose:07:00;fridayClose:07:00;mondayClose:07:00;saturdayClose:07:00;sundayClose:07:00;sundayOpen:07:00;,,
Harris Teeter,00242,20070 Ashbrook Commons Plaza Suite 151,,ASHBURN,VA,20147,United States,5712230110,39.0603736,-77.4705422,fridayOpen:07:00;thursdayClose:07:00;recordId:09700242;wednesdayOpen:07:00;thursdayOpen:07:00;tuesdayOpen:07:00;wednesdayClose:07:00;saturdayOpen:07:00;mondayOpen:07:00;tuesdayClose:07:00;fridayClose:07:00;mondayClose:07:00;saturdayClose:07:00;sundayClose:07:00;sundayOpen:07:00;,,
Littman Jewelers,00863,5065 Main St,,Trumbull,CT,06611,United States,2033740031,41.229373,-73.226259,fridayOpen:10:30;thursdayClose:21:30;recordId:70200863;wednesdayOpen:10:30;thursdayOpen:10:30;tuesdayOpen:10:30;wednesdayClose:21:30;saturdayOpen:10:00;mondayOpen:10:30;tuesdayClose:21:30;fridayClose:21:30;mondayClose:21:30;saturdayClose:21:30;sundayClose:18:00;sundayOpen:11:00;,,
Littman Jewelers,00845,136 Smith Haven Mall,,Lake Grove,NY,11755,United States,6312651199,40.865175,-73.130061,fridayOpen:10:00;thursdayClose:21:30;recordId:70200845;wednesdayOpen:10:00;thursdayOpen:10:00;tuesdayOpen:10:00;wednesdayClose:21:30;saturdayOpen:10:00;mondayOpen:10:00;tuesdayClose:21:30;fridayClose:21:30;mondayClose:21:30;saturdayClose:21:30;sundayClose:18:00;sundayOpen:11:00;,,
Littman Jewelers,00870,2001 South Rd Ste Mailbox,,Poughkeepsie,NY,12601,United States,8452981217,41.626363,-73.920368,fridayOpen:10:00;thursdayClose:21:30;recordId:70200870;wednesdayOpen:10:00;thursdayOpen:10:00;tuesdayOpen:10:00;wednesdayClose:21:30;saturdayOpen:10:00;mondayOpen:10:00;tuesdayClose:21:30;fridayClose:21:30;mondayClose:21:30;saturdayClose:21:30;sundayClose:18:00;sundayOpen:11:00;,,
Lucky's Market,00019,7700 Peters Rd,,Plantation,FL,33324,United States,,26.1053798,-80.2522704,fridayOpen:07:00;thursdayClose:07:00;recordId:07200019;wednesdayOpen:07:00;thursdayOpen:07:00;tuesdayOpen:07:00;wednesdayClose:07:00;saturdayOpen:07:00;mondayOpen:07:00;tuesdayClose:07:00;fridayClose:07:00;mondayClose:07:00;saturdayClose:07:00;sundayClose:07:00;sundayOpen:07:00;,,
Littman Jewelers,00920,8000 W Broward Blvd Ste 411,,Plantation,FL,33388,United States,9547230355,26.117657,-80.254768,fridayOpen:10:00;thursdayClose:21:00;recordId:70200920;wednesdayOpen:10:00;thursdayOpen:10:00;tuesdayOpen:10:00;wednesdayClose:21:00;saturdayOpen:10:00;mondayOpen:10:00;tuesdayClose:21:00;fridayClose:21:00;mondayClose:21:00;saturdayClose:21:00;sundayClose:18:00;sundayOpen:11:00;,,
Fred Meyer Jewelers,00021,61535 S Highway 97,,Bend,OR,97702,United States,5413856640,44.034764,-121.309502,fridayOpen:09:00;thursdayClose:21:00;recordId:70200021;wednesdayOpen:09:00;thursdayOpen:09:00;tuesdayOpen:09:00;wednesdayClose:21:00;saturdayOpen:09:00;mondayOpen:09:00;tuesdayClose:21:00;fridayClose:21:00;mondayClose:21:00;saturdayClose:21:00;sundayClose:18:00;sundayOpen:10:00;,,
Copps,00132,1500 Pinecrest Ave,,STEVENS POINT,WI,54481,United States,7153451937,44.5208971,-89.5507832,fridayOpen:07:00;thursdayClose:23:00;recordId:53400132;wednesdayOpen:07:00;thursdayOpen:07:00;tuesdayOpen:07:00;wednesdayClose:23:00;saturdayOpen:07:00;mondayOpen:07:00;tuesdayClose:23:00;fridayClose:23:00;mondayClose:23:00;saturdayClose:23:00;sundayClose:23:00;sundayOpen:07:00;,,
Loaf 'N Jug,00685,2835 N Washington St,,Bismarck,ND,58501,United States,7012583680,46.8375639,-100.7938742,fridayOpen:07:00;thursdayClose:07:00;recordId:67300685;wednesdayOpen:07:00;thursdayOpen:07:00;tuesdayOpen:07:00;wednesdayClose:07:00;saturdayOpen:07:00;mondayOpen:07:00;tuesdayClose:07:00;fridayClose:07:00;mondayClose:07:00;saturdayClose:07:00;sundayClose:07:00;sundayOpen:07:00;,,
Loaf 'N Jug,00682,2600 E Rosser Ave,,Bismarck,ND,58501,United States,7012585315,46.8081548,-100.7518695,fridayOpen:07:00;thursdayClose:07:00;recordId:67300682;wednesdayOpen:07:00;thursdayOpen:07:00;tuesdayOpen:07:00;wednesdayClose:07:00;saturdayOpen:07:00;mondayOpen:07:00;tuesdayClose:07:00;fridayClose:07:00;mondayClose:07:00;saturdayClose:07:00;sundayClose:07:00;sundayOpen:07:00;,,
Loaf 'N Jug,00684,513 W Main St,,Beulah,ND,58523,United States,7018732206,47.2634451,-101.78453,fridayOpen:07:00;thursdayClose:07:00;recordId:67300684;wednesdayOpen:07:00;thursdayOpen:07:00;tuesdayOpen:07:00;wednesdayClose:07:00;saturdayOpen:07:00;mondayOpen:07:00;tuesdayClose:07:00;fridayClose:07:00;mondayClose:07:00;saturdayClose:07:00;sundayClose:07:00;sundayOpen:07:00;,,
Loaf 'N Jug,00671,409 Burdick Expressway East,,Minot,ND,58701,United States,7018521563,48.2327505,-101.2871492,fridayOpen:07:00;thursdayClose:07:00;recordId:67300671;wednesdayOpen:07:00;thursdayOpen:07:00;tuesdayOpen:07:00;wednesdayClose:07:00;saturdayOpen:07:00;mondayOpen:07:00;tuesdayClose:07:00;fridayClose:07:00;mondayClose:07:00;saturdayClose:07:00;sundayClose:07:00;sundayOpen:07:00;,,
Loaf 'N Jug,00673,810 N Broadway,,Minot,ND,58703,United States,7018526194,48.2444737,-101.2959925,fridayOpen:07:00;thursdayClose:07:00;recordId:67300673;wednesdayOpen:07:00;thursdayOpen:07:00;tuesdayOpen:07:00;wednesdayClose:07:00;saturdayOpen:07:00;mondayOpen:07:00;tuesdayClose:07:00;fridayClose:07:00;mondayClose:07:00;saturdayClose:07:00;sundayClose:07:00;sundayOpen:07:00;,,
Loaf 'N Jug,00670,1512 4Th Ave Nw,,Minot,ND,58703,United States,7018525331,48.2401051,-101.3165073,fridayOpen:07:00;thursdayClose:07:00;recordId:67300670;wednesdayOpen:07:00;thursdayOpen:07:00;tuesdayOpen:07:00;wednesdayClose:07:00;saturdayOpen:07:00;mondayOpen:07:00;tuesdayClose:07:00;fridayClose:07:00;mondayClose:07:00;saturdayClose:07:00;sundayClose:07:00;sundayOpen:07:00;,,
Loaf 'N Jug,00679,424 1st Ave N,,Jamestown,ND,58401,United States,7012512880,46.9119657,-98.7085566,fridayOpen:07:00;thursdayClose:07:00;recordId:67300679;wednesdayOpen:07:00;thursdayOpen:07:00;tuesdayOpen:07:00;wednesdayClose:07:00;saturdayOpen:07:00;mondayOpen:07:00;tuesdayClose:07:00;fridayClose:07:00;mondayClose:07:00;saturdayClose:07:00;sundayClose:07:00;sundayOpen:07:00;,,
Loaf 'N Jug,00675,797 S Main Ave,,Dickinson,ND,58601,United States,7012254263,46.8617313,-102.789767,fridayOpen:07:00;thursdayClose:07:00;recordId:67300675;wednesdayOpen:07:00;thursdayOpen:07:00;tuesdayOpen:07:00;wednesdayClose:07:00;saturdayOpen:07:00;mondayOpen:07:00;tuesdayClose:07:00;fridayClose:07:00;mondayClose:07:00;saturdayClose:07:00;sundayClose:07:00;sundayOpen:07:00;,,
Loaf 'N Jug,00642,4250 University Ave,,Grand Forks,ND,58203,United States,7017468701,47.922691,-97.088791,fridayOpen:07:00;thursdayClose:07:00;recordId:67300642;wednesdayOpen:07:00;thursdayOpen:07:00;tuesdayOpen:07:00;wednesdayClose:07:00;saturdayOpen:07:00;mondayOpen:07:00;tuesdayClose:07:00;fridayClose:07:00;mondayClose:07:00;saturdayClose:07:00;sundayClose:07:00;sundayOpen:07:00;,,
Loaf 'N Jug,00664,4326 Gateway Dr,,Grand Forks,ND,58203,United States,7017752537,47.9339179,-97.0910949,fridayOpen:07:00;thursdayClose:07:00;recordId:67300664;wednesdayOpen:07:00;thursdayOpen:07:00;tuesdayOpen:07:00;wednesdayClose:07:00;saturdayOpen:07:00;mondayOpen:07:00;tuesdayClose:07:00;fridayClose:07:00;mondayClose:07:00;saturdayClose:07:00;sundayClose:07:00;sundayOpen:07:00;,,
Loaf 'N Jug,00714,516 S. Ellery,,Fairview,MT,59221,United States,4067475024,47.8520713,-104.0446626,fridayOpen:07:00;thursdayClose:07:00;recordId:67300714;wednesdayOpen:07:00;thursdayOpen:07:00;tuesdayOpen:07:00;wednesdayClose:07:00;saturdayOpen:07:00;mondayOpen:07:00;tuesdayClose:07:00;fridayClose:07:00;mondayClose:07:00;saturdayClose:07:00;sundayClose:07:00;sundayOpen:07:00;,,
Loaf 'N Jug,00712,706 S Central Ave,,Sidney,MT,59270,United States,4064825647,47.7094488,-104.1610812,fridayOpen:07:00;thursdayClose:07:00;recordId:67300712;wednesdayOpen:07:00;thursdayOpen:07:00;tuesdayOpen:07:00;wednesdayClose:07:00;saturdayOpen:07:00;mondayOpen:07:00;tuesdayClose:07:00;fridayClose:07:00;mondayClose:07:00;saturdayClose:07:00;sundayClose:07:00;sundayOpen:07:00;,,
Loaf 'N Jug,00689,2201 18Th St S,,Fargo,ND,58103,United States,7012939905,46.8455047,-96.8192138,fridayOpen:07:00;thursdayClose:07:00;recordId:67300689;wednesdayOpen:07:00;thursdayOpen:07:00;tuesdayOpen:07:00;wednesdayClose:07:00;saturdayOpen:07:00;mondayOpen:07:00;tuesdayClose:07:00;fridayClose:07:00;mondayClose:07:00;saturdayClose:07:00;sundayClose:07:00;sundayOpen:07:00;,,
Loaf 'N Jug,00687,1201 University Dr N,,Fargo,ND,58102,United States,7012930413,46.890625,-96.7976455,fridayOpen:07:00;thursdayClose:07:00;recordId:67300687;wednesdayOpen:07:00;thursdayOpen:07:00;tuesdayOpen:07:00;wednesdayClose:07:00;saturdayOpen:07:00;mondayOpen:07:00;tuesdayClose:07:00;fridayClose:07:00;mondayClose:07:00;saturdayClose:07:00;sundayClose:07:00;sundayOpen:07:00;,,
Loaf 'N Jug,00688,3201 Broadway N,,Fargo,ND,58102,United States,7012329418,46.9195747,-96.7865753,fridayOpen:07:00;thursdayClose:07:00;recordId:67300688;wednesdayOpen:07:00;thursdayOpen:07:00;tuesdayOpen:07:00;wednesdayClose:07:00;saturdayOpen:07:00;mondayOpen:07:00;tuesdayClose:07:00;fridayClose:07:00;mondayClose:07:00;saturdayClose:07:00;sundayClose:07:00;sundayOpen:07:00;,,
Loaf 'N Jug,00619,1833 University Dr S,,Fargo,ND,58103,United States,7012379224,46.8504371,-96.7991027,fridayOpen:07:00;thursdayClose:07:00;recordId:67300619;wednesdayOpen:07:00;thursdayOpen:07:00;tuesdayOpen:07:00;wednesdayClose:07:00;saturdayOpen:07:00;mondayOpen:07:00;tuesdayClose:07:00;fridayClose:07:00;mondayClose:07:00;saturdayClose:07:00;sundayClose:07:00;sundayOpen:07:00;,,
Loaf 'N Jug,00710,322 E Barry St,,Glendive,MT,59330,United States,4063656111,47.0989036,-104.7136535,fridayOpen:07:00;thursdayClose:07:00;recordId:67300710;wednesdayOpen:07:00;thursdayOpen:07:00;tuesdayOpen:07:00;wednesdayClose:07:00;saturdayOpen:07:00;mondayOpen:07:00;tuesdayClose:07:00;fridayClose:07:00;mondayClose:07:00;saturdayClose:07:00;sundayClose:07:00;sundayOpen:07:00;,,
Loaf 'N Jug,00445,813 Main St,,Spearfish,SD,57783,United States,6056425881,44.4913351,-103.8593649,fridayOpen:07:00;thursdayClose:07:00;recordId:67300445;wednesdayOpen:07:00;thursdayOpen:07:00;tuesdayOpen:07:00;wednesdayClose:07:00;saturdayOpen:07:00;mondayOpen:07:00;tuesdayClose:07:00;fridayClose:07:00;mondayClose:07:00;saturdayClose:07:00;sundayClose:07:00;sundayOpen:07:00;,,
Loaf 'N Jug,00449,437 N Ellsworth Rd,,Box Elder,SD,57719,United States,6059234935,44.1304673,-103.0709161,fridayOpen:07:00;thursdayClose:07:00;recordId:67300449;wednesdayOpen:07:00;thursdayOpen:07:00;tuesdayOpen:07:00;wednesdayClose:07:00;saturdayOpen:07:00;mondayOpen:07:00;tuesdayClose:07:00;fridayClose:07:00;mondayClose:07:00;saturdayClose:07:00;sundayClose:07:00;sundayOpen:07:00;,,
Loaf 'N Jug,00447,1601 North Haines,,Rapid City,SD,57701,United States,6053486484,44.100559,-103.222237,fridayOpen:07:00;thursdayClose:07:00;recordId:67300447;wednesdayOpen:07:00;thursdayOpen:07:00;tuesdayOpen:07:00;wednesdayClose:07:00;saturdayOpen:07:00;mondayOpen:07:00;tuesdayClose:07:00;fridayClose:07:00;mondayClose:07:00;saturdayClose:07:00;sundayClose:07:00;sundayOpen:07:00;,,
Loaf 'N Jug,00446,2700 Highway 44 East,,Rapid City,SD,57703,United States,6053413370,44.0708389,-103.1708526,fridayOpen:05:00;thursdayClose:22:00;recordId:67300446;wednesdayOpen:05:00;thursdayOpen:05:00;tuesdayOpen:05:00;wednesdayClose:22:00;saturdayOpen:05:00;mondayOpen:05:00;tuesdayClose:22:00;fridayClose:22:00;mondayClose:22:00;saturdayClose:22:00;sundayClose:22:00;sundayOpen:05:00;,,
Loaf 'N Jug,00444,1627 Mount Rushmore Rd,,Rapid City,SD,57701,United States,6053489580,44.0698509,-103.2328643,fridayOpen:07:00;thursdayClose:07:00;recordId:67300444;wednesdayOpen:07:00;thursdayOpen:07:00;tuesdayOpen:07:00;wednesdayClose:07:00;saturdayOpen:07:00;mondayOpen:07:00;tuesdayClose:07:00;fridayClose:07:00;mondayClose:07:00;saturdayClose:07:00;sundayClose:07:00;sundayOpen:07:00;,,
Loaf 'N Jug,00443,3106 W Main St,,Rapid City,SD,57701,United States,6053485151,44.0825309,-103.2711257,fridayOpen:07:00;thursdayClose:07:00;recordId:67300443;wednesdayOpen:07:00;thursdayOpen:07:00;tuesdayOpen:07:00;wednesdayClose:07:00;saturdayOpen:07:00;mondayOpen:07:00;tuesdayClose:07:00;fridayClose:07:00;mondayClose:07:00;saturdayClose:07:00;sundayClose:07:00;sundayOpen:07:00;,,
Littman Jewelers,00955,9705 Destiny Usa Dr,,Syracuse,NY,13204,United States,3152340088,43.069262,-76.172678,fridayOpen:10:00;thursdayClose:21:30;recordId:70200955;wednesdayOpen:10:00;thursdayOpen:10:00;tuesdayOpen:10:00;wednesdayClose:21:30;saturdayOpen:10:00;mondayOpen:10:00;tuesdayClose:21:30;fridayClose:21:30;mondayClose:21:30;saturdayClose:21:30;sundayClose:18:00;sundayOpen:11:00;,,
Littman Jewelers,00563,4155 State Route 31,,Clay,NY,13041,United States,3157151119,43.188575,-76.224719,fridayOpen:10:00;thursdayClose:21:00;recordId:70200563;wednesdayOpen:10:00;thursdayOpen:10:00;tuesdayOpen:10:00;wednesdayClose:21:00;saturdayOpen:10:00;mondayOpen:10:00;tuesdayClose:21:00;fridayClose:21:00;mondayClose:21:00;saturdayClose:21:00;sundayClose:18:00;sundayOpen:11:00;,,
Littman Jewelers,00921,3300 Chambers Rd,,Horseheads,NY,14845,United States,6077394006,42.159786,-76.875413,fridayOpen:10:00;thursdayClose:21:00;recordId:70200921;wednesdayOpen:10:00;thursdayOpen:10:00;tuesdayOpen:10:00;wednesdayClose:21:00;saturdayOpen:10:00;mondayOpen:10:00;tuesdayClose:21:00;fridayClose:21:30;mondayClose:21:00;saturdayClose:21:30;sundayClose:18:00;sundayOpen:11:00;,,
Smith's,00388,1740 Mountain City Hwy,,Elko,NV,89801,United States,7757771333,40.8349607,-115.7847216,fridayOpen:07:00;thursdayClose:07:00;recordId:70600388;wednesdayOpen:07:00;thursdayOpen:07:00;tuesdayOpen:07:00;wednesdayClose:07:00;saturdayOpen:07:00;mondayOpen:07:00;tuesdayClose:07:00;fridayClose:07:00;mondayClose:07:00;saturdayClose:07:00;sundayClose:07:00;sundayOpen:07:00;,,
Quik Stop Market,00171,360 S Hwy 95A,,Fernley,NV,89408,United States,7758356800,39.6027908,-119.2504653,fridayOpen:07:00;thursdayClose:07:00;recordId:67500171;wednesdayOpen:07:00;thursdayOpen:07:00;tuesdayOpen:07:00;wednesdayClose:07:00;saturdayOpen:07:00;mondayOpen:07:00;tuesdayClose:07:00;fridayClose:07:00;mondayClose:07:00;saturdayClose:07:00;sundayClose:07:00;sundayOpen:07:00;,,
Kroger,00257,115 Russell Pkwy,,Warner Robins,GA,31088,United States,4789229047,32.5922284,-83.6255568,fridayOpen:06:00;thursdayClose:01:00;recordId:01100257;wednesdayOpen:06:00;thursdayOpen:06:00;tuesdayOpen:06:00;wednesdayClose:01:00;saturdayOpen:06:00;mondayOpen:06:00;tuesdayClose:01:00;fridayClose:01:00;mondayClose:01:00;saturdayClose:01:00;sundayClose:01:00;sundayOpen:06:00;,,
Kroger,00606,110 Commons Dr,,Maumelle,AR,72113,United States,5012107670,34.8478559,-92.4084377,fridayOpen:06:00;thursdayClose:00:00;recordId:02500606;wednesdayOpen:06:00;thursdayOpen:06:00;tuesdayOpen:06:00;wednesdayClose:00:00;saturdayOpen:06:00;mondayOpen:06:00;tuesdayClose:00:00;fridayClose:00:00;mondayClose:00:00;saturdayClose:00:00;sundayClose:00:00;sundayOpen:06:00;,,
Kroger Marketplace,00622,14000 Cantrell Rd.,,Little Rock,AR,72223,United States,5012254588,34.8043165,-92.430042,fridayOpen:06:00;thursdayClose:00:00;recordId:02500622;wednesdayOpen:06:00;thursdayOpen:06:00;tuesdayOpen:06:00;wednesdayClose:00:00;saturdayOpen:06:00;mondayOpen:06:00;tuesdayClose:00:00;fridayClose:00:00;mondayClose:00:00;saturdayClose:00:00;sundayClose:00:00;sundayOpen:06:00;,,
Fred Meyer Jewelers,00101,14000 Cantrell Rd.,,Little Rock,AR,72223,United States,5012282120,34.804029,-92.428671,fridayOpen:10:00;thursdayClose:20:00;recordId:70200101;wednesdayOpen:10:00;thursdayOpen:10:00;tuesdayOpen:10:00;wednesdayClose:20:00;saturdayOpen:10:00;mondayOpen:10:00;tuesdayClose:20:00;fridayClose:20:00;mondayClose:20:00;saturdayClose:20:00;sundayClose:18:00;sundayOpen:12:00;,,
Kroger,00582,10300 N Rodney Parham Rd,,Little Rock,AR,72227,United States,5012276364,34.7683326,-92.3879841,fridayOpen:06:00;thursdayClose:00:00;recordId:02500582;wednesdayOpen:06:00;thursdayOpen:06:00;tuesdayOpen:06:00;wednesdayClose:00:00;saturdayOpen:06:00;mondayOpen:06:00;tuesdayClose:00:00;fridayClose:00:00;mondayClose:00:00;saturdayClose:00:00;sundayClose:00:00;sundayOpen:06:00;,,
Fred Meyer Jewelers,00059,16105 Chenal Pkwy,,Little Rock,AR,72223,United States,5012177950,34.756234,-92.449156,fridayOpen:10:00;thursdayClose:20:00;recordId:70200059;wednesdayOpen:10:00;thursdayOpen:10:00;tuesdayOpen:10:00;wednesdayClose:20:00;saturdayOpen:10:00;mondayOpen:10:00;tuesdayClose:20:00;fridayClose:20:00;mondayClose:20:00;saturdayClose:20:00;sundayClose:18:00;sundayOpen:12:00;,,
Kroger Marketplace,00623,16105-B Chenal Pkwy,,Little Rock,AR,72223,United States,5012177910,34.7561924,-92.4490834,fridayOpen:06:00;thursdayClose:00:00;recordId:02500623;wednesdayOpen:06:00;thursdayOpen:06:00;tuesdayOpen:06:00;wednesdayClose:00:00;saturdayOpen:06:00;mondayOpen:06:00;tuesdayClose:00:00;fridayClose:00:00;mondayClose:00:00;saturdayClose:00:00;sundayClose:00:00;sundayOpen:06:00;,,
Kroger,00644,1900 N Polk St,,Little Rock,AR,72207,United States,5016634748,34.7695589,-92.33521,fridayOpen:06:00;thursdayClose:00:00;recordId:02500644;wednesdayOpen:06:00;thursdayOpen:06:00;tuesdayOpen:06:00;wednesdayClose:00:00;saturdayOpen:06:00;mondayOpen:06:00;tuesdayClose:00:00;fridayClose:00:00;mondayClose:00:00;saturdayClose:00:00;sundayClose:00:00;sundayOpen:06:00;,,
Kroger,00630,8415 W Markham St,,Little Rock,AR,72205,United States,5012277262,34.7518831,-92.3682139,fridayOpen:06:00;thursdayClose:02:00;recordId:02500630;wednesdayOpen:06:00;thursdayOpen:06:00;tuesdayOpen:06:00;wednesdayClose:02:00;saturdayOpen:06:00;mondayOpen:06:00;tuesdayClose:02:00;fridayClose:02:00;mondayClose:02:00;saturdayClose:02:00;sundayClose:02:00;sundayOpen:06:00;,,
Kroger,00636,614 Beechwood St,,Little Rock,AR,72205,United States,5016660102,34.7567667,-92.3248647,fridayOpen:06:00;thursdayClose:00:00;recordId:02500636;wednesdayOpen:06:00;thursdayOpen:06:00;tuesdayOpen:06:00;wednesdayClose:00:00;saturdayOpen:06:00;mondayOpen:06:00;tuesdayClose:00:00;fridayClose:00:00;mondayClose:00:00;saturdayClose:00:00;sundayClose:00:00;sundayOpen:06:00;,,
Kroger,00638,4401 Camp Robinson Rd,,North Little Rock,AR,72118,United States,5017586858,34.7950808,-92.2729244,fridayOpen:06:00;thursdayClose:22:00;recordId:02500638;wednesdayOpen:06:00;thursdayOpen:06:00;tuesdayOpen:06:00;wednesdayClose:22:00;saturdayOpen:06:00;mondayOpen:06:00;tuesdayClose:22:00;fridayClose:22:00;mondayClose:22:00;saturdayClose:22:00;sundayClose:22:00;sundayOpen:06:00;,,
Kwik Shop,00763,510 N Douglas Ave,,Ellsworth,KS,67439,United States,7854724971,38.7322012,-98.2281891,fridayOpen:07:00;thursdayClose:07:00;recordId:67200763;wednesdayOpen:07:00;thursdayOpen:07:00;tuesdayOpen:07:00;wednesdayClose:07:00;saturdayOpen:07:00;mondayOpen:07:00;tuesdayClose:07:00;fridayClose:07:00;mondayClose:07:00;saturdayClose:07:00;sundayClose:07:00;sundayOpen:07:00;,,
Dillons,00007,212 S Broadway Ave,,Sterling,KS,67579,United States,6202782311,38.2080439,-98.2064226,fridayOpen:08:00;thursdayClose:20:00;recordId:61500007;wednesdayOpen:08:00;thursdayOpen:08:00;tuesdayOpen:08:00;wednesdayClose:20:00;saturdayOpen:08:00;mondayOpen:08:00;tuesdayClose:20:00;fridayClose:20:00;mondayClose:20:00;saturdayClose:20:00;sundayClose:18:00;sundayOpen:10:00;,,
Kwik Shop,00747,2334 North Main,,Great Bend,KS,67530,United States,6207936213,38.3757001,-98.7651425,fridayOpen:07:00;thursdayClose:07:00;recordId:67200747;wednesdayOpen:07:00;thursdayOpen:07:00;tuesdayOpen:07:00;wednesdayClose:07:00;saturdayOpen:07:00;mondayOpen:07:00;tuesdayClose:07:00;fridayClose:07:00;mondayClose:07:00;saturdayClose:07:00;sundayClose:07:00;sundayOpen:07:00;,,
Dillons,00003,1811 Main St,,Great Bend,KS,67530,United States,6207937887,38.3703081,-98.7656017,fridayOpen:07:00;thursdayClose:22:00;recordId:61500003;wednesdayOpen:07:00;thursdayOpen:07:00;tuesdayOpen:07:00;wednesdayClose:22:00;saturdayOpen:07:00;mondayOpen:07:00;tuesdayClose:22:00;fridayClose:22:00;mondayClose:22:00;saturdayClose:22:00;sundayClose:22:00;sundayOpen:07:00;,,
Kwik Shop,00753,3907 Broadway Ave,,Great Bend,KS,67530,United States,6207921521,38.3663439,-98.7916253,fridayOpen:07:00;thursdayClose:07:00;recordId:67200753;wednesdayOpen:07:00;thursdayOpen:07:00;tuesdayOpen:07:00;wednesdayClose:07:00;saturdayOpen:07:00;mondayOpen:07:00;tuesdayClose:07:00;fridayClose:07:00;mondayClose:07:00;saturdayClose:07:00;sundayClose:07:00;sundayOpen:07:00;,,
Dillons,00051,4107 10Th St,,Great Bend,KS,67530,United States,6207923591,38.3599667,-98.7941046,fridayOpen:06:00;thursdayClose:23:00;recordId:61500051;wednesdayOpen:06:00;thursdayOpen:06:00;tuesdayOpen:06:00;wednesdayClose:23:00;saturdayOpen:06:00;mondayOpen:06:00;tuesdayClose:23:00;fridayClose:23:00;mondayClose:23:00;saturdayClose:23:00;sundayClose:23:00;sundayOpen:06:00;,,
Kwik Shop,00766,12 S Nickerson St,,Nickerson,KS,67561,United States,6204225274,38.1451416,-98.0830841,fridayOpen:07:00;thursdayClose:07:00;recordId:67200766;wednesdayOpen:07:00;thursdayOpen:07:00;tuesdayOpen:07:00;wednesdayClose:07:00;saturdayOpen:07:00;mondayOpen:07:00;tuesdayClose:07:00;fridayClose:07:00;mondayClose:07:00;saturdayClose:07:00;sundayClose:07:00;sundayOpen:07:00;,,
Smith's,00075,632 S 100 W,,Payson,UT,84651,United States,8014659213,40.0343051,-111.7349825,fridayOpen:06:00;thursdayClose:00:00;recordId:70600075;wednesdayOpen:06:00;thursdayOpen:06:00;tuesdayOpen:06:00;wednesdayClose:00:00;saturdayOpen:06:00;mondayOpen:06:00;tuesdayClose:00:00;fridayClose:00:00;mondayClose:00:00;saturdayClose:00:00;sundayClose:00:00;sundayOpen:06:00;,,
Smith's,00048,1075 E Main St,,Price,UT,84501,United States,4356376200,39.6003929,-110.7935349,fridayOpen:06:00;thursdayClose:00:00;recordId:70600048;wednesdayOpen:06:00;thursdayOpen:06:00;tuesdayOpen:06:00;wednesdayClose:00:00;saturdayOpen:06:00;mondayOpen:06:00;tuesdayClose:00:00;fridayClose:00:00;mondayClose:00:00;saturdayClose:00:00;sundayClose:00:00;sundayOpen:06:00;,,
Fred Meyer Jewelers,00803,1200 Towne Centre Blvd,,Provo,UT,84601,United States,8018523110,40.217517,-111.662819,fridayOpen:10:00;thursdayClose:21:00;recordId:70200803;wednesdayOpen:10:00;thursdayOpen:10:00;tuesdayOpen:10:00;wednesdayClose:21:00;saturdayOpen:10:00;mondayOpen:10:00;tuesdayClose:21:00;fridayClose:21:00;mondayClose:21:00;saturdayClose:21:00;sundayClose:18:00;sundayOpen:12:00;,,
Kroger,00492,1070 Highway 51,,Madison,MS,39110,United States,6018532410,32.4637475,-90.1081963,fridayOpen:07:00;thursdayClose:07:00;recordId:02500492;wednesdayOpen:07:00;thursdayOpen:07:00;tuesdayOpen:07:00;wednesdayClose:07:00;saturdayOpen:07:00;mondayOpen:07:00;tuesdayClose:07:00;fridayClose:07:00;mondayClose:07:00;saturdayClose:07:00;sundayClose:07:00;sundayOpen:07:00;,,
Kroger,00493,1070 Spillway Cir,,Brandon,MS,39047,United States,6018290740,32.38348,-90.0392812,fridayOpen:06:00;thursdayClose:00:00;recordId:02500493;wednesdayOpen:06:00;thursdayOpen:06:00;tuesdayOpen:06:00;wednesdayClose:00:00;saturdayOpen:06:00;mondayOpen:06:00;tuesdayClose:00:00;fridayClose:00:00;mondayClose:00:00;saturdayClose:00:00;sundayClose:00:00;sundayOpen:06:00;,,
Kroger,00497,143 Fresh and Friendly Drive,,Flowood,MS,39232,United States,6019927552,32.3556064,-90.0138273,fridayOpen:06:00;thursdayClose:23:00;recordId:02500497;wednesdayOpen:06:00;thursdayOpen:06:00;tuesdayOpen:06:00;wednesdayClose:23:00;saturdayOpen:06:00;mondayOpen:06:00;tuesdayClose:23:00;fridayClose:23:00;mondayClose:23:00;saturdayClose:23:00;sundayClose:23:00;sundayOpen:06:00;,,
Kroger,00472,115 Colony Crossing Way,,Madison,MS,39110,United States,6016055020,32.4748841,-90.1419176,fridayOpen:06:00;thursdayClose:23:00;recordId:02500472;wednesdayOpen:06:00;thursdayOpen:06:00;tuesdayOpen:06:00;wednesdayClose:23:00;saturdayOpen:06:00;mondayOpen:06:00;tuesdayClose:23:00;fridayClose:23:00;mondayClose:23:00;saturdayClose:23:00;sundayClose:23:00;sundayOpen:06:00;,,
Kroger,00494,7045 Old Canton Rd,,Ridgeland,MS,39157,United States,6018563442,32.4159654,-90.1069897,fridayOpen:06:00;thursdayClose:00:00;recordId:02500494;wednesdayOpen:06:00;thursdayOpen:06:00;tuesdayOpen:06:00;wednesdayClose:00:00;saturdayOpen:06:00;mondayOpen:06:00;tuesdayClose:00:00;fridayClose:00:00;mondayClose:00:00;saturdayClose:00:00;sundayClose:00:00;sundayOpen:06:00;,,
Kroger,00357,2000 E County Line Rd,,Ridgeland,MS,39157,United States,6019560331,32.3995406,-90.1106934,fridayOpen:06:00;thursdayClose:22:00;recordId:02500357;wednesdayOpen:06:00;thursdayOpen:06:00;tuesdayOpen:06:00;wednesdayClose:22:00;saturdayOpen:06:00;mondayOpen:06:00;tuesdayClose:22:00;fridayClose:22:00;mondayClose:22:00;saturdayClose:22:00;sundayClose:22:00;sundayOpen:06:00;,,
Kroger,00479,110 Promenade Blvd,,Flowood,MS,39232,United States,6017182230,32.3423425,-90.0637235,fridayOpen:06:00;thursdayClose:23:00;recordId:02500479;wednesdayOpen:06:00;thursdayOpen:06:00;tuesdayOpen:06:00;wednesdayClose:23:00;saturdayOpen:06:00;mondayOpen:06:00;tuesdayClose:23:00;fridayClose:23:00;mondayClose:23:00;saturdayClose:23:00;sundayClose:23:00;sundayOpen:06:00;,,
Dillons,00038,425 N Summit St,,Arkansas City,KS,67005,United States,6204427931,37.0665729,-97.0399322,fridayOpen:07:00;thursdayClose:23:00;recordId:61500038;wednesdayOpen:07:00;thursdayOpen:07:00;tuesdayOpen:07:00;wednesdayClose:23:00;saturdayOpen:07:00;mondayOpen:07:00;tuesdayClose:23:00;fridayClose:23:00;mondayClose:23:00;saturdayClose:23:00;sundayClose:23:00;sundayOpen:07:00;,,
Dillons,00063,1111 W 8Th St,,Wellington,KS,67152,United States,6203265907,37.2683832,-97.411695,fridayOpen:07:00;thursdayClose:22:00;recordId:61500063;wednesdayOpen:07:00;thursdayOpen:07:00;tuesdayOpen:07:00;wednesdayClose:22:00;saturdayOpen:07:00;mondayOpen:07:00;tuesdayClose:22:00;fridayClose:22:00;mondayClose:22:00;saturdayClose:22:00;sundayClose:22:00;sundayOpen:07:00;,,
Dillons,00045,2310 Main St,,Winfield,KS,67156,United States,6202215700,37.2259182,-96.9936985,fridayOpen:06:00;thursdayClose:23:00;recordId:61500045;wednesdayOpen:06:00;thursdayOpen:06:00;tuesdayOpen:06:00;wednesdayClose:23:00;saturdayOpen:06:00;mondayOpen:06:00;tuesdayClose:23:00;fridayClose:23:00;mondayClose:23:00;saturdayClose:23:00;sundayClose:23:00;sundayOpen:06:00;,,
Dillons,00032,1203 N 2Nd Ave,,Mulvane,KS,67110,United States,3167771159,37.4866879,-97.2452175,fridayOpen:07:00;thursdayClose:22:00;recordId:61500032;wednesdayOpen:07:00;thursdayOpen:07:00;tuesdayOpen:07:00;wednesdayClose:22:00;saturdayOpen:07:00;mondayOpen:07:00;tuesdayClose:22:00;fridayClose:22:00;mondayClose:22:00;saturdayClose:22:00;sundayClose:22:00;sundayOpen:07:00;,,
Dillons,00057,200 W Greenway St,,Derby,KS,67037,United States,3167882809,37.5580231,-97.2721672,fridayOpen:07:00;thursdayClose:22:00;recordId:61500057;wednesdayOpen:07:00;thursdayOpen:07:00;tuesdayOpen:07:00;wednesdayClose:22:00;saturdayOpen:07:00;mondayOpen:07:00;tuesdayClose:22:00;fridayClose:22:00;mondayClose:22:00;saturdayClose:22:00;sundayClose:22:00;sundayOpen:07:00;,,
Kwik Shop,00776,7150 S Meridian,,Haysville,KS,67060,United States,3165298655,37.5654242,-97.370465,fridayOpen:07:00;thursdayClose:07:00;recordId:67200776;wednesdayOpen:07:00;thursdayOpen:07:00;tuesdayOpen:07:00;wednesdayClose:07:00;saturdayOpen:07:00;mondayOpen:07:00;tuesdayClose:07:00;fridayClose:07:00;mondayClose:07:00;saturdayClose:07:00;sundayClose:07:00;sundayOpen:07:00;,,
Kroger,00739,2908 State St,,Gassaway,WV,26624,United States,3043642332,38.6582624,-80.7494591,fridayOpen:07:00;thursdayClose:23:00;recordId:02900739;wednesdayOpen:07:00;thursdayOpen:07:00;tuesdayOpen:07:00;wednesdayClose:23:00;saturdayOpen:07:00;mondayOpen:07:00;tuesdayClose:23:00;fridayClose:23:00;mondayClose:23:00;saturdayClose:23:00;sundayClose:23:00;sundayOpen:08:00;,,
Kroger,00722,80 Skyline Plaza Dr.,,Buckhannon,WV,26201,United States,3044720918,38.9735058,-80.2308613,fridayOpen:07:00;thursdayClose:23:00;recordId:02900722;wednesdayOpen:07:00;thursdayOpen:07:00;tuesdayOpen:07:00;wednesdayClose:23:00;saturdayOpen:07:00;mondayOpen:07:00;tuesdayClose:23:00;fridayClose:23:00;mondayClose:23:00;saturdayClose:23:00;sundayClose:22:00;sundayOpen:08:00;,,
Kroger,00730,450 11Th St,,Elkins,WV,26241,United States,3046366888,38.9187102,-79.8438147,fridayOpen:07:00;thursdayClose:23:00;recordId:02900730;wednesdayOpen:07:00;thursdayOpen:07:00;tuesdayOpen:07:00;wednesdayClose:23:00;saturdayOpen:07:00;mondayOpen:07:00;tuesdayClose:23:00;fridayClose:23:00;mondayClose:23:00;saturdayClose:23:00;sundayClose:22:00;sundayOpen:08:00;,,
Fred Meyer Jewelers,00789,3200 S Airport Rd W,,Traverse City,MI,49684,United States,2319291133,44.7237063,-85.6361277,fridayOpen:10:00;thursdayClose:21:00;recordId:70200789;wednesdayOpen:10:00;thursdayOpen:10:00;tuesdayOpen:10:00;wednesdayClose:21:00;saturdayOpen:10:00;mondayOpen:10:00;tuesdayClose:21:00;fridayClose:21:00;mondayClose:21:00;saturdayClose:21:00;sundayClose:18:00;sundayOpen:12:00;,,
Lucky's Market,00022,3587 Market Pl,,Traverse City,MI,49684,United States,,44.6567307,-85.7674179,fridayOpen:07:00;thursdayClose:07:00;recordId:07200022;wednesdayOpen:07:00;thursdayOpen:07:00;tuesdayOpen:07:00;wednesdayClose:07:00;saturdayOpen:07:00;mondayOpen:07:00;tuesdayClose:07:00;fridayClose:07:00;mondayClose:07:00;saturdayClose:07:00;sundayClose:07:00;sundayOpen:07:00;,,
Pick n Save,00329,1847 Egg Harbor Rd,,STURGEON BAY,WI,54235,United States,9207438830,44.8504115,-87.3494893,fridayOpen:06:00;thursdayClose:23:00;recordId:53400329;wednesdayOpen:06:00;thursdayOpen:06:00;tuesdayOpen:06:00;wednesdayClose:23:00;saturdayOpen:06:00;mondayOpen:06:00;tuesdayClose:23:00;fridayClose:23:00;mondayClose:23:00;saturdayClose:23:00;sundayClose:23:00;sundayOpen:06:00;,,
Kroger,00889,4080 E Blue Grass Rd,,Mount Pleasant,MI,48858,United States,9897733360,43.5723246,-84.764745,fridayOpen:06:00;thursdayClose:00:00;recordId:01800889;wednesdayOpen:06:00;thursdayOpen:06:00;tuesdayOpen:06:00;wednesdayClose:00:00;saturdayOpen:06:00;mondayOpen:06:00;tuesdayClose:00:00;fridayClose:00:00;mondayClose:00:00;saturdayClose:00:00;sundayClose:22:00;sundayOpen:06:00;,,
Littman Jewelers,00700,1365 N Dupont Hwy Ste 3096,,Dover,DE,19901,United States,3026727193,39.194486,-75.540258,fridayOpen:10:00;thursdayClose:21:00;recordId:70200700;wednesdayOpen:10:00;thursdayOpen:10:00;tuesdayOpen:10:00;wednesdayClose:21:00;saturdayOpen:10:00;mondayOpen:10:00;tuesdayClose:21:00;fridayClose:21:00;mondayClose:21:00;saturdayClose:21:00;sundayClose:18:00;sundayOpen:11:00;,,
Harris Teeter,00336,26370 Bay Farm Rd,,MILLSBORO,DE,19966,United States,3029451705,38.6250628,-75.1946885,fridayOpen:07:00;thursdayClose:23:00;recordId:09700336;wednesdayOpen:07:00;thursdayOpen:07:00;tuesdayOpen:07:00;wednesdayClose:23:00;saturdayOpen:07:00;mondayOpen:07:00;tuesdayClose:23:00;fridayClose:23:00;mondayClose:23:00;saturdayClose:23:00;sundayClose:23:00;sundayOpen:07:00;,,
Littman Jewelers,00821,131 Oxford Valley Mall #,,Langhorne,PA,19047,United States,2157520131,40.183906,-74.880298,fridayOpen:10:00;thursdayClose:21:00;recordId:70200821;wednesdayOpen:10:00;thursdayOpen:10:00;tuesdayOpen:10:00;wednesdayClose:21:00;saturdayOpen:10:00;mondayOpen:10:00;tuesdayClose:21:00;fridayClose:21:00;mondayClose:21:00;saturdayClose:21:00;sundayClose:18:00;sundayOpen:11:00;,,
Littman Jewelers,00879,225 Neshaminy Mall,,Bensalem,PA,19020,United States,2153229950,40.138758,-74.955172,fridayOpen:10:00;thursdayClose:21:00;recordId:70200879;wednesdayOpen:10:00;thursdayOpen:10:00;tuesdayOpen:10:00;wednesdayClose:21:00;saturdayOpen:10:00;mondayOpen:10:00;tuesdayClose:21:00;fridayClose:21:00;mondayClose:21:00;saturdayClose:21:00;sundayClose:18:00;sundayOpen:11:00;,,
Littman Jewelers,00818,400 W Route 38 Unit 1580,,Moorestown,NJ,08057,United States,8564390822,39.943502,-74.963148,fridayOpen:10:00;thursdayClose:21:00;recordId:70200818;wednesdayOpen:10:00;thursdayOpen:10:00;tuesdayOpen:10:00;wednesdayClose:21:00;saturdayOpen:10:00;mondayOpen:10:00;tuesdayClose:21:00;fridayClose:21:00;mondayClose:21:00;saturdayClose:21:00;sundayClose:18:00;sundayOpen:11:00;,,
Loaf 'N Jug,00765,3726 2Nd Ave N,,Great Falls,MT,59401,United States,4067277917,47.5069084,-111.2418975,fridayOpen:07:00;thursdayClose:07:00;recordId:67300765;wednesdayOpen:07:00;thursdayOpen:07:00;tuesdayOpen:07:00;wednesdayClose:07:00;saturdayOpen:07:00;mondayOpen:07:00;tuesdayClose:07:00;fridayClose:07:00;mondayClose:07:00;saturdayClose:07:00;sundayClose:07:00;sundayOpen:07:00;,,
Fred Meyer,00654,11 Grant Rd,,East Wenatchee,WA,98802,United States,5098812800,47.4070717,-120.2909944,fridayOpen:07:00;thursdayClose:23:00;recordId:70100654;wednesdayOpen:07:00;thursdayOpen:07:00;tuesdayOpen:07:00;wednesdayClose:23:00;saturdayOpen:07:00;mondayOpen:07:00;tuesdayClose:23:00;fridayClose:23:00;mondayClose:23:00;saturdayClose:23:00;sundayClose:23:00;sundayOpen:07:00;,,
Foodsco,00784,3657 W Shaw Ave,,Fresno,CA,93711,United States,5592741130,36.8058832,-119.85970259999999,fridayOpen:06:00;thursdayClose:01:00;recordId:70400784;wednesdayOpen:06:00;thursdayOpen:06:00;tuesdayOpen:06:00;wednesdayClose:01:00;saturdayOpen:06:00;mondayOpen:06:00;tuesdayClose:01:00;fridayClose:01:00;mondayClose:01:00;saturdayClose:01:00;sundayClose:01:00;sundayOpen:06:00;,,
Foodsco,00339,3053 E Shields Ave,,Fresno,CA,93726,United States,5592439660,36.7811129,-119.7737968,fridayOpen:06:00;thursdayClose:01:00;recordId:70400339;wednesdayOpen:06:00;thursdayOpen:06:00;tuesdayOpen:06:00;wednesdayClose:01:00;saturdayOpen:06:00;mondayOpen:06:00;tuesdayClose:01:00;fridayClose:01:00;mondayClose:01:00;saturdayClose:01:00;sundayClose:01:00;sundayOpen:06:00;,,
Littman Jewelers,00967,7846 Citrus Park Town Center Mall,,Tampa,FL,33625,United States,8139208470,28.068994,-82.576411,fridayOpen:10:00;thursdayClose:21:00;recordId:70200967;wednesdayOpen:10:00;thursdayOpen:10:00;tuesdayOpen:10:00;wednesdayClose:21:00;saturdayOpen:10:00;mondayOpen:10:00;tuesdayClose:21:00;fridayClose:21:00;mondayClose:21:00;saturdayClose:21:00;sundayClose:18:00;sundayOpen:12:00;,,
Littman Jewelers,00915,312 Brandon Town Center Mall,,Brandon,FL,33511,United States,8136616737,27.933867,-82.326567,fridayOpen:10:00;thursdayClose:21:00;recordId:70200915;wednesdayOpen:10:00;thursdayOpen:10:00;tuesdayOpen:10:00;wednesdayClose:21:00;saturdayOpen:10:00;mondayOpen:10:00;tuesdayClose:21:00;fridayClose:21:00;mondayClose:21:00;saturdayClose:21:00;sundayClose:18:00;sundayOpen:11:00;,,
Littman Jewelers,00557,8001 S Orange Blossom Trl,,Orlando,FL,32809,United States,4072402775,28.445938,-81.395502,fridayOpen:10:00;thursdayClose:21:00;recordId:70200557;wednesdayOpen:10:00;thursdayOpen:10:00;tuesdayOpen:10:00;wednesdayClose:21:00;saturdayOpen:10:00;mondayOpen:10:00;tuesdayClose:21:00;fridayClose:21:00;mondayClose:21:00;saturdayClose:21:00;sundayClose:19:00;sundayOpen:11:00;,,
Kroger Specialty Pharmacy,00004,6435 Hazeltine National Dr. #140,,Orlando,FL,32822,United States,8552741694,28.4600773,-81.295311,fridayOpen:07:00;thursdayClose:07:00;recordId:20800004;wednesdayOpen:07:00;thursdayOpen:07:00;tuesdayOpen:07:00;wednesdayClose:07:00;saturdayOpen:07:00;mondayOpen:07:00;tuesdayClose:07:00;fridayClose:07:00;mondayClose:07:00;saturdayClose:07:00;sundayClose:07:00;sundayOpen:07:00;,,
Lucky's Market,00025,11750 E Colonial Dr,,Orlando,FL,32817,United States,,28.5658455,-81.2092743,fridayOpen:07:00;thursdayClose:07:00;recordId:07200025;wednesdayOpen:07:00;thursdayOpen:07:00;tuesdayOpen:07:00;wednesdayClose:07:00;saturdayOpen:07:00;mondayOpen:07:00;tuesdayClose:07:00;fridayClose:07:00;mondayClose:07:00;saturdayClose:07:00;sundayClose:07:00;sundayOpen:07:00;,,
Lucky's Market,00016,1459 NW 23rd Ave,,Gainesville,FL,32605,United States,,29.6739797,-82.3404922,fridayOpen:07:00;thursdayClose:07:00;recordId:07200016;wednesdayOpen:07:00;thursdayOpen:07:00;tuesdayOpen:07:00;wednesdayClose:07:00;saturdayOpen:07:00;mondayOpen:07:00;tuesdayClose:07:00;fridayClose:07:00;mondayClose:07:00;saturdayClose:07:00;sundayClose:07:00;sundayOpen:07:00;,,
Lucky's Market,00031,3170 W New Haven Ave,,Melbourne,FL,32904,United States,,28.0789599,-80.6737809,fridayOpen:07:00;thursdayClose:07:00;recordId:07200031;wednesdayOpen:07:00;thursdayOpen:07:00;tuesdayOpen:07:00;wednesdayClose:07:00;saturdayOpen:07:00;mondayOpen:07:00;tuesdayClose:07:00;fridayClose:07:00;mondayClose:07:00;saturdayClose:07:00;sundayClose:07:00;sundayOpen:07:00;,,
Littman Jewelers,00817,1910 Wells Rd Ste C5,,Orange Park,FL,32073,United States,9042696688,30.184782,-81.734924,fridayOpen:10:00;thursdayClose:21:00;recordId:70200817;wednesdayOpen:10:00;thursdayOpen:10:00;tuesdayOpen:10:00;wednesdayClose:21:00;saturdayOpen:10:00;mondayOpen:10:00;tuesdayClose:21:00;fridayClose:21:00;mondayClose:21:00;saturdayClose:21:00;sundayClose:18:00;sundayOpen:12:00;,,
Littman Jewelers,00812,4125 Cleveland Ave,,Fort Myers,FL,33901,United States,2399365700,26.602241,-81.869827,fridayOpen:10:00;thursdayClose:21:00;recordId:70200812;wednesdayOpen:10:00;thursdayOpen:10:00;tuesdayOpen:10:00;wednesdayClose:21:00;saturdayOpen:10:00;mondayOpen:10:00;tuesdayClose:21:00;fridayClose:21:00;mondayClose:21:00;saturdayClose:21:00;sundayClose:17:30;sundayOpen:11:30;,,
Lucky's Market,00028,580 Atlantic Blvd,,Neptune Beach,FL,32266,United States,,30.3244932,-81.4027081,fridayOpen:07:00;thursdayClose:07:00;recordId:07200028;wednesdayOpen:07:00;thursdayOpen:07:00;tuesdayOpen:07:00;wednesdayClose:07:00;saturdayOpen:07:00;mondayOpen:07:00;tuesdayClose:07:00;fridayClose:07:00;mondayClose:07:00;saturdayClose:07:00;sundayClose:07:00;sundayOpen:07:00;,,
Harris Teeter,00034,4800 First Coast Highway,,FERNANDINA BEACH,FL,32034,United States,9044911213,30.5922543,-81.4559714,fridayOpen:07:00;thursdayClose:22:00;recordId:09700034;wednesdayOpen:07:00;thursdayOpen:07:00;tuesdayOpen:07:00;wednesdayClose:22:00;saturdayOpen:07:00;mondayOpen:07:00;tuesdayClose:22:00;fridayClose:22:00;mondayClose:22:00;saturdayClose:22:00;sundayClose:22:00;sundayOpen:07:00;,,
Littman Jewelers,00928,1918 Tamiami Trl N,,Naples,FL,34102,United States,2392610220,26.170083,-81.794242,fridayOpen:10:00;thursdayClose:21:00;recordId:70200928;wednesdayOpen:10:00;thursdayOpen:10:00;tuesdayOpen:10:00;wednesdayClose:21:00;saturdayOpen:10:00;mondayOpen:10:00;tuesdayClose:21:00;fridayClose:21:00;mondayClose:21:00;saturdayClose:21:00;sundayClose:18:00;sundayOpen:12:00;,,
Lucky's Market,00024,3815 Tamiami Trail E,,Naples,FL,34112,United States,,26.1195874,-81.7590905,fridayOpen:07:00;thursdayClose:07:00;recordId:07200024;wednesdayOpen:07:00;thursdayOpen:07:00;tuesdayOpen:07:00;wednesdayClose:07:00;saturdayOpen:07:00;mondayOpen:07:00;tuesdayClose:07:00;fridayClose:07:00;mondayClose:07:00;saturdayClose:07:00;sundayClose:07:00;sundayOpen:07:00;,,
Lucky's Market,00029,"1964 W Tennessee St, Ste 10",,Tallahassee,FL,32304,United States,,30.4502754,-84.3160095,fridayOpen:07:00;thursdayClose:07:00;recordId:07200029;wednesdayOpen:07:00;thursdayOpen:07:00;tuesdayOpen:07:00;wednesdayClose:07:00;saturdayOpen:07:00;mondayOpen:07:00;tuesdayClose:07:00;fridayClose:07:00;mondayClose:07:00;saturdayClose:07:00;sundayClose:07:00;sundayOpen:07:00;,,
Kroger,00439,1606 Memorial Dr,,Waycross,GA,31501,United States,9122872270,31.2066164,-82.3391679,fridayOpen:06:00;thursdayClose:01:00;recordId:01100439;wednesdayOpen:06:00;thursdayOpen:06:00;tuesdayOpen:06:00;wednesdayClose:01:00;saturdayOpen:06:00;mondayOpen:06:00;tuesdayClose:01:00;fridayClose:01:00;mondayClose:01:00;saturdayClose:01:00;sundayClose:01:00;sundayOpen:06:00;,,
Harris Teeter,00168,600 Sea Island Road Suite 23,,ST. SIMONS ISLAND,GA,31522,United States,9126388100,31.1836498,-81.3803795,fridayOpen:07:00;thursdayClose:22:00;recordId:09700168;wednesdayOpen:07:00;thursdayOpen:07:00;tuesdayOpen:07:00;wednesdayClose:22:00;saturdayOpen:07:00;mondayOpen:07:00;tuesdayClose:22:00;fridayClose:22:00;mondayClose:22:00;saturdayClose:22:00;sundayClose:22:00;sundayOpen:07:00;,,
Littman Jewelers,00813,801 N Congress Ave,,Boynton Beach,FL,33426,United States,5617368699,26.535741,-80.095727,fridayOpen:10:00;thursdayClose:21:00;recordId:70200813;wednesdayOpen:10:00;thursdayOpen:10:00;tuesdayOpen:10:00;wednesdayClose:21:00;saturdayOpen:10:00;mondayOpen:10:00;tuesdayClose:21:00;fridayClose:21:00;mondayClose:21:00;saturdayClose:21:00;sundayClose:18:00;sundayOpen:12:00;,,
Tom Thumb,00018,423 S Forest Ave,,Luverne,AL,36049,United States,3343353988,31.7099068,-86.264226,fridayOpen:07:00;thursdayClose:07:00;recordId:67100018;wednesdayOpen:07:00;thursdayOpen:07:00;tuesdayOpen:07:00;wednesdayClose:07:00;saturdayOpen:07:00;mondayOpen:07:00;tuesdayClose:07:00;fridayClose:07:00;mondayClose:07:00;saturdayClose:07:00;sundayClose:07:00;sundayOpen:07:00;,,
Kroger,00260,300 N Dean Road,,Auburn,AL,36830,United States,3348211325,32.6105645,-85.463195,fridayOpen:07:00;thursdayClose:07:00;recordId:01100260;wednesdayOpen:07:00;thursdayOpen:07:00;tuesdayOpen:07:00;wednesdayClose:07:00;saturdayOpen:07:00;mondayOpen:07:00;tuesdayClose:07:00;fridayClose:07:00;mondayClose:07:00;saturdayClose:07:00;sundayClose:07:00;sundayOpen:07:00;,,
Kroger,00631,2460 Enterprise Dr,,Opelika,AL,36801,United States,3347372643,32.6207323,-85.4116953,fridayOpen:06:00;thursdayClose:01:00;recordId:01100631;wednesdayOpen:06:00;thursdayOpen:06:00;tuesdayOpen:06:00;wednesdayClose:01:00;saturdayOpen:06:00;mondayOpen:06:00;tuesdayClose:01:00;fridayClose:01:00;mondayClose:01:00;saturdayClose:01:00;sundayClose:01:00;sundayOpen:06:00;,,
Kroger,00310,1401 S Gilmer Ave,,Lanett,AL,36863,United States,3346442100,32.8557411,-85.1908535,fridayOpen:06:00;thursdayClose:01:00;recordId:01100310;wednesdayOpen:06:00;thursdayOpen:06:00;tuesdayOpen:06:00;wednesdayClose:01:00;saturdayOpen:06:00;mondayOpen:06:00;tuesdayClose:01:00;fridayClose:01:00;mondayClose:01:00;saturdayClose:01:00;sundayClose:01:00;sundayOpen:06:00;,,
Kroger,00427,1829 Highway 45 N,,Columbus,MS,39705,United States,6623271140,33.5169277,-88.4364069,fridayOpen:06:00;thursdayClose:23:00;recordId:02500427;wednesdayOpen:06:00;thursdayOpen:06:00;tuesdayOpen:06:00;wednesdayClose:23:00;saturdayOpen:06:00;mondayOpen:06:00;tuesdayClose:23:00;fridayClose:23:00;mondayClose:23:00;saturdayClose:23:00;sundayClose:23:00;sundayOpen:06:00;,,
Quik Stop Market,00099,575 Crespi Dr,,Pacifica,CA,94044,United States,6503595670,37.598854,-122.49845880000001,fridayOpen:07:00;thursdayClose:07:00;recordId:67500099;wednesdayOpen:07:00;thursdayOpen:07:00;tuesdayOpen:07:00;wednesdayClose:07:00;saturdayOpen:07:00;mondayOpen:07:00;tuesdayClose:07:00;fridayClose:07:00;mondayClose:07:00;saturdayClose:07:00;sundayClose:07:00;sundayOpen:07:00;,,
Quik Stop Market,00066,5960 Highway 9,,Felton,CA,95018,United States,8313353668,37.0476303,-122.0730056,fridayOpen:07:00;thursdayClose:07:00;recordId:67500066;wednesdayOpen:07:00;thursdayOpen:07:00;tuesdayOpen:07:00;wednesdayClose:07:00;saturdayOpen:07:00;mondayOpen:07:00;tuesdayClose:07:00;fridayClose:07:00;mondayClose:07:00;saturdayClose:07:00;sundayClose:07:00;sundayOpen:07:00;,,
Quik Stop Market,00090,2407 Fremont St,,Monterey,CA,93940,United States,8313753272,36.5976982,-121.8542327,fridayOpen:07:00;thursdayClose:07:00;recordId:67500090;wednesdayOpen:07:00;thursdayOpen:07:00;tuesdayOpen:07:00;wednesdayClose:07:00;saturdayOpen:07:00;mondayOpen:07:00;tuesdayClose:07:00;fridayClose:07:00;mondayClose:07:00;saturdayClose:07:00;sundayClose:07:00;sundayOpen:07:00;,,
Quik Stop Market,00141,601 N Cloverdale Blvd,,Cloverdale,CA,95425,United States,7078944984,38.8124122,-123.022789,fridayOpen:07:00;thursdayClose:07:00;recordId:67500141;wednesdayOpen:07:00;thursdayOpen:07:00;tuesdayOpen:07:00;wednesdayClose:07:00;saturdayOpen:07:00;mondayOpen:07:00;tuesdayClose:07:00;fridayClose:07:00;mondayClose:07:00;saturdayClose:07:00;sundayClose:07:00;sundayOpen:07:00;,,
Foodsco,00351,345 Williams Ave,,San Francisco,CA,94124,United States,4153301870,37.7298405,-122.398825,fridayOpen:06:00;thursdayClose:00:00;recordId:70400351;wednesdayOpen:06:00;thursdayOpen:06:00;tuesdayOpen:06:00;wednesdayClose:00:00;saturdayOpen:06:00;mondayOpen:06:00;tuesdayClose:00:00;fridayClose:00:00;mondayClose:00:00;saturdayClose:00:00;sundayClose:00:00;sundayOpen:06:00;,,
Kroger,00012,3403 Forest Drive,,Columbia,SC,29204,United States,8037380225,34.0199676,-80.9912105,fridayOpen:07:00;thursdayClose:07:00;recordId:01100012;wednesdayOpen:07:00;thursdayOpen:07:00;tuesdayOpen:07:00;wednesdayClose:07:00;saturdayOpen:07:00;mondayOpen:07:00;tuesdayClose:07:00;fridayClose:07:00;mondayClose:07:00;saturdayClose:07:00;sundayClose:07:00;sundayOpen:07:00;,,
Kroger,00448,10136 Two Notch Rd,,Columbia,SC,29229,United States,8037886171,34.1148958,-80.8824875,fridayOpen:06:00;thursdayClose:01:00;recordId:01100448;wednesdayOpen:06:00;thursdayOpen:06:00;tuesdayOpen:06:00;wednesdayClose:01:00;saturdayOpen:06:00;mondayOpen:06:00;tuesdayClose:01:00;fridayClose:01:00;mondayClose:01:00;saturdayClose:01:00;sundayClose:01:00;sundayOpen:06:00;,,
Kroger Marketplace,00678,1028 Roberts Branch Pkwy,,Columbia,SC,29203,United States,8032347130,34.1411691,-80.9480529,fridayOpen:06:00;thursdayClose:01:00;recordId:01100678;wednesdayOpen:06:00;thursdayOpen:06:00;tuesdayOpen:06:00;wednesdayClose:01:00;saturdayOpen:06:00;mondayOpen:06:00;tuesdayClose:01:00;fridayClose:01:00;mondayClose:01:00;saturdayClose:01:00;sundayClose:01:00;sundayOpen:06:00;,,
Kroger,00002,7467 Saint Andrews Rd Suite 6,,Irmo,SC,29063,United States,8037320423,34.0857892,-81.186262,fridayOpen:07:00;thursdayClose:07:00;recordId:01100002;wednesdayOpen:07:00;thursdayOpen:07:00;tuesdayOpen:07:00;wednesdayClose:07:00;saturdayOpen:07:00;mondayOpen:07:00;tuesdayClose:07:00;fridayClose:07:00;mondayClose:07:00;saturdayClose:07:00;sundayClose:07:00;sundayOpen:07:00;,,
Littman Jewelers,00844,1 Crossgates Mall B-230,,Albany,NY,12203,United States,5184563699,42.689569,-73.850941,fridayOpen:10:00;thursdayClose:21:30;recordId:70200844;wednesdayOpen:10:00;thursdayOpen:10:00;tuesdayOpen:10:00;wednesdayClose:21:30;saturdayOpen:10:00;mondayOpen:10:00;tuesdayClose:21:30;fridayClose:21:30;mondayClose:21:30;saturdayClose:21:30;sundayClose:18:00;sundayOpen:11:00;,,
Kroger,00521,1622 Middle Tennessee Blvd,,Murfreesboro,TN,37130,United States,6158930184,35.8309411,-86.3759317,fridayOpen:07:00;thursdayClose:07:00;recordId:02600521;wednesdayOpen:07:00;thursdayOpen:07:00;tuesdayOpen:07:00;wednesdayClose:07:00;saturdayOpen:07:00;mondayOpen:07:00;tuesdayClose:07:00;fridayClose:07:00;mondayClose:07:00;saturdayClose:07:00;sundayClose:07:00;sundayOpen:07:00;,,
Kroger,00564,2050 Lascassas Pike,,Murfreesboro,TN,37130,United States,6159076223,35.8728633,-86.3522028,fridayOpen:07:00;thursdayClose:07:00;recordId:02600564;wednesdayOpen:07:00;thursdayOpen:07:00;tuesdayOpen:07:00;wednesdayClose:07:00;saturdayOpen:07:00;mondayOpen:07:00;tuesdayClose:07:00;fridayClose:07:00;mondayClose:07:00;saturdayClose:07:00;sundayClose:07:00;sundayOpen:07:00;,,
Kroger,00850,1475 Woodlawn Rd,,Lincoln,IL,62656,United States,2177353301,40.1564115,-89.3929356,fridayOpen:07:00;thursdayClose:07:00;recordId:02100850;wednesdayOpen:07:00;thursdayOpen:07:00;tuesdayOpen:07:00;wednesdayClose:07:00;saturdayOpen:07:00;mondayOpen:07:00;tuesdayClose:07:00;fridayClose:07:00;mondayClose:07:00;saturdayClose:07:00;sundayClose:07:00;sundayOpen:07:00;,,
Kroger,00922,3070 N Water St,,Decatur,IL,62526,United States,2178751296,39.8779267,-88.952885,fridayOpen:06:00;thursdayClose:00:00;recordId:02100922;wednesdayOpen:06:00;thursdayOpen:06:00;tuesdayOpen:06:00;wednesdayClose:00:00;saturdayOpen:06:00;mondayOpen:06:00;tuesdayClose:00:00;fridayClose:00:00;mondayClose:00:00;saturdayClose:00:00;sundayClose:00:00;sundayOpen:06:00;,,
Kroger,00250,1401 W King St,,Decatur,IL,62522,United States,2174295347,39.8478129,-88.9788043,fridayOpen:07:00;thursdayClose:07:00;recordId:02100250;wednesdayOpen:07:00;thursdayOpen:07:00;tuesdayOpen:07:00;wednesdayClose:07:00;saturdayOpen:07:00;mondayOpen:07:00;tuesdayClose:07:00;fridayClose:07:00;mondayClose:07:00;saturdayClose:07:00;sundayClose:07:00;sundayOpen:07:00;,,
Kroger,00924,255 W 1St Dr,,Decatur,IL,62521,United States,2174294998,39.8214416,-88.9579138,fridayOpen:06:00;thursdayClose:00:00;recordId:02100924;wednesdayOpen:06:00;thursdayOpen:06:00;tuesdayOpen:06:00;wednesdayClose:00:00;saturdayOpen:06:00;mondayOpen:06:00;tuesdayClose:00:00;fridayClose:00:00;mondayClose:00:00;saturdayClose:00:00;sundayClose:00:00;sundayOpen:06:00;,,
Kroger,00946,1818 Airport Plaza,,Decatur,IL,62521,United States,2178645031,39.8205993,-88.8819432,fridayOpen:06:00;thursdayClose:00:00;recordId:02100946;wednesdayOpen:06:00;thursdayOpen:06:00;tuesdayOpen:06:00;wednesdayClose:00:00;saturdayOpen:06:00;mondayOpen:06:00;tuesdayClose:00:00;fridayClose:00:00;mondayClose:00:00;saturdayClose:00:00;sundayClose:00:00;sundayOpen:06:00;,,
Kroger,00943,2507 E Oakland Ave,,Bloomington,IL,61701,United States,3096625396,40.4718749,-88.9543931,fridayOpen:06:00;thursdayClose:00:00;recordId:02100943;wednesdayOpen:06:00;thursdayOpen:06:00;tuesdayOpen:06:00;wednesdayClose:00:00;saturdayOpen:06:00;mondayOpen:06:00;tuesdayClose:00:00;fridayClose:00:00;mondayClose:00:00;saturdayClose:00:00;sundayClose:00:00;sundayOpen:06:00;,,
Kroger,00856,1502 N Main St,,Bloomington,IL,61701,United States,3098285640,40.4942042,-88.9948284,fridayOpen:06:00;thursdayClose:00:00;recordId:02100856;wednesdayOpen:06:00;thursdayOpen:06:00;tuesdayOpen:06:00;wednesdayClose:00:00;saturdayOpen:06:00;mondayOpen:06:00;tuesdayClose:00:00;fridayClose:00:00;mondayClose:00:00;saturdayClose:00:00;sundayClose:00:00;sundayOpen:06:00;,,
Kroger,00347,1550 E College Ave,,Normal,IL,61761,United States,3094527476,40.5118284,-88.9561112,fridayOpen:07:00;thursdayClose:07:00;recordId:02100347;wednesdayOpen:07:00;thursdayOpen:07:00;tuesdayOpen:07:00;wednesdayClose:07:00;saturdayOpen:07:00;mondayOpen:07:00;tuesdayClose:07:00;fridayClose:07:00;mondayClose:07:00;saturdayClose:07:00;sundayClose:07:00;sundayOpen:07:00;,,
Ruler,00258,2711 East Sangamon,,Springfield,IL,62702,United States,2177534290,39.8324633,-89.614973,fridayOpen:08:00;thursdayClose:21:00;recordId:09000258;wednesdayOpen:08:00;thursdayOpen:08:00;tuesdayOpen:08:00;wednesdayClose:21:00;saturdayOpen:08:00;mondayOpen:08:00;tuesdayClose:21:00;fridayClose:21:00;mondayClose:21:00;saturdayClose:21:00;sundayClose:21:00;sundayOpen:08:00;,,
Kroger,00647,1001 W Jackson St,,Morton,IL,61550,United States,3092665366,40.6211009,-89.4709273,fridayOpen:06:00;thursdayClose:00:00;recordId:02100647;wednesdayOpen:06:00;thursdayOpen:06:00;tuesdayOpen:06:00;wednesdayClose:00:00;saturdayOpen:06:00;mondayOpen:06:00;tuesdayClose:00:00;fridayClose:00:00;mondayClose:00:00;saturdayClose:00:00;sundayClose:00:00;sundayOpen:06:00;,,
Kroger,00888,201 E Bidwell St,,Taylorville,IL,62568,United States,2178242911,39.5605074,-89.2941297,fridayOpen:06:00;thursdayClose:00:00;recordId:02100888;wednesdayOpen:06:00;thursdayOpen:06:00;tuesdayOpen:06:00;wednesdayClose:00:00;saturdayOpen:06:00;mondayOpen:06:00;tuesdayClose:00:00;fridayClose:00:00;mondayClose:00:00;saturdayClose:00:00;sundayClose:00:00;sundayOpen:06:00;,,
Kroger,00923,1607 Broadway St,,Pekin,IL,61554,United States,3093535300,40.5688641,-89.6284805,fridayOpen:07:00;thursdayClose:07:00;recordId:02100923;wednesdayOpen:07:00;thursdayOpen:07:00;tuesdayOpen:07:00;wednesdayClose:07:00;saturdayOpen:07:00;mondayOpen:07:00;tuesdayClose:07:00;fridayClose:07:00;mondayClose:07:00;saturdayClose:07:00;sundayClose:07:00;sundayOpen:07:00;,,
Kroger,00657,#20 Cherry Tree S/C,,Washington,IL,61571,United States,3094448585,40.706467,-89.4468667,fridayOpen:06:00;thursdayClose:00:00;recordId:02100657;wednesdayOpen:06:00;thursdayOpen:06:00;tuesdayOpen:06:00;wednesdayClose:00:00;saturdayOpen:06:00;mondayOpen:06:00;tuesdayClose:00:00;fridayClose:00:00;mondayClose:00:00;saturdayClose:00:00;sundayClose:00:00;sundayOpen:06:00;,,
Kroger,00705,201 S Main St,,East Peoria,IL,61611,United States,3096946298,40.6646016,-89.5808218,fridayOpen:07:00;thursdayClose:07:00;recordId:02100705;wednesdayOpen:07:00;thursdayOpen:07:00;tuesdayOpen:07:00;wednesdayClose:07:00;saturdayOpen:07:00;mondayOpen:07:00;tuesdayClose:07:00;fridayClose:07:00;mondayClose:07:00;saturdayClose:07:00;sundayClose:07:00;sundayOpen:07:00;,,
Kroger,00531,1405 W Garfield Ave,,Bartonville,IL,61607,United States,3096978811,40.6462452,-89.6750279,fridayOpen:06:00;thursdayClose:00:00;recordId:02100531;wednesdayOpen:06:00;thursdayOpen:06:00;tuesdayOpen:06:00;wednesdayClose:00:00;saturdayOpen:06:00;mondayOpen:06:00;tuesdayClose:00:00;fridayClose:00:00;mondayClose:00:00;saturdayClose:00:00;sundayClose:00:00;sundayOpen:06:00;,,
Ruler,00290,2002 W. Springfield Ave.,,Champaign,IL,61821,United States,2173731450,40.1138976,-88.2802593,fridayOpen:08:00;thursdayClose:21:00;recordId:09000290;wednesdayOpen:08:00;thursdayOpen:08:00;tuesdayOpen:08:00;wednesdayClose:21:00;saturdayOpen:08:00;mondayOpen:08:00;tuesdayClose:21:00;fridayClose:21:00;mondayClose:21:00;saturdayClose:21:00;sundayClose:21:00;sundayOpen:08:00;,,
Kroger,00767,3103 W Harmon Hwy,,Peoria,IL,61604,United States,3096741188,40.6826729,-89.6428158,fridayOpen:06:00;thursdayClose:23:00;recordId:02100767;wednesdayOpen:06:00;thursdayOpen:06:00;tuesdayOpen:06:00;wednesdayClose:23:00;saturdayOpen:06:00;mondayOpen:06:00;tuesdayClose:23:00;fridayClose:23:00;mondayClose:23:00;saturdayClose:23:00;sundayClose:23:00;sundayOpen:06:00;,,
Kwik Shop,00568,300 E Blairs Ferry Rd,,Hiawatha,IA,52233,United States,3193936934,42.0347326,-91.702031,fridayOpen:07:00;thursdayClose:07:00;recordId:67200568;wednesdayOpen:07:00;thursdayOpen:07:00;tuesdayOpen:07:00;wednesdayClose:07:00;saturdayOpen:07:00;mondayOpen:07:00;tuesdayClose:07:00;fridayClose:07:00;mondayClose:07:00;saturdayClose:07:00;sundayClose:07:00;sundayOpen:07:00;,,
Kroger,00406,7789 Richmond Hwy,,Appomattox,VA,24522,United States,4343520817,37.3659656,-78.8444999,fridayOpen:06:00;thursdayClose:00:00;recordId:02900406;wednesdayOpen:06:00;thursdayOpen:06:00;tuesdayOpen:06:00;wednesdayClose:00:00;saturdayOpen:06:00;mondayOpen:06:00;tuesdayClose:00:00;fridayClose:00:00;mondayClose:00:00;saturdayClose:00:00;sundayClose:00:00;sundayOpen:06:00;,,
Kroger,00261,302 N Main Ave,,Brownwood,TX,76801,United States,3256467546,31.7257274,-98.9816662,fridayOpen:06:00;thursdayClose:01:00;recordId:03500261;wednesdayOpen:06:00;thursdayOpen:06:00;tuesdayOpen:06:00;wednesdayClose:01:00;saturdayOpen:06:00;mondayOpen:06:00;tuesdayClose:01:00;fridayClose:01:00;mondayClose:01:00;saturdayClose:01:00;sundayClose:01:00;sundayOpen:06:00;,,
Fred Meyer Jewelers,00213,3915 Hwy 377 East,,Granbury,TX,76049,United States,6824984235,32.453795,-97.726793,fridayOpen:10:00;thursdayClose:20:00;recordId:70200213;wednesdayOpen:10:00;thursdayOpen:10:00;tuesdayOpen:10:00;wednesdayClose:20:00;saturdayOpen:10:00;mondayOpen:10:00;tuesdayClose:20:00;fridayClose:20:00;mondayClose:20:00;saturdayClose:20:00;sundayClose:18:00;sundayOpen:12:00;,,
Kroger Marketplace,00917,3915 Hwy. 377 East,,Granbury,TX,76049,United States,6824984222,32.4575041,-97.7297362,fridayOpen:06:00;thursdayClose:01:00;recordId:03500917;wednesdayOpen:06:00;thursdayOpen:06:00;tuesdayOpen:06:00;wednesdayClose:01:00;saturdayOpen:06:00;mondayOpen:06:00;tuesdayClose:01:00;fridayClose:01:00;mondayClose:01:00;saturdayClose:01:00;sundayClose:01:00;sundayOpen:06:00;,,
Harris Teeter,00311,324 Village Walk Dr,,HOLLY SPRINGS,NC,27540,United States,9195521596,35.6395862,-78.8391135,fridayOpen:07:00;thursdayClose:07:00;recordId:09700311;wednesdayOpen:07:00;thursdayOpen:07:00;tuesdayOpen:07:00;wednesdayClose:07:00;saturdayOpen:07:00;mondayOpen:07:00;tuesdayClose:07:00;fridayClose:07:00;mondayClose:07:00;saturdayClose:07:00;sundayClose:07:00;sundayOpen:07:00;,,
Harris Teeter,00137,88 Chatham Downs,,CHAPEL HILL,NC,27517,United States,9199600275,35.8309838,-79.0864031,fridayOpen:07:00;thursdayClose:07:00;recordId:09700137;wednesdayOpen:07:00;thursdayOpen:07:00;tuesdayOpen:07:00;wednesdayClose:07:00;saturdayOpen:07:00;mondayOpen:07:00;tuesdayClose:07:00;fridayClose:07:00;mondayClose:07:00;saturdayClose:07:00;sundayClose:07:00;sundayOpen:07:00;,,
Harris Teeter,00058,750 W. Williams Street,,APEX,NC,27539,United States,9193623782,35.7376806,-78.8625298,fridayOpen:07:00;thursdayClose:07:00;recordId:09700058;wednesdayOpen:07:00;thursdayOpen:07:00;tuesdayOpen:07:00;wednesdayClose:07:00;saturdayOpen:07:00;mondayOpen:07:00;tuesdayClose:07:00;fridayClose:07:00;mondayClose:07:00;saturdayClose:07:00;sundayClose:07:00;sundayOpen:07:00;,,
Kroger,00371,1371 E Broad St,,Fuquay Varina,NC,27526,United States,9195677423,35.59573,-78.7757337,fridayOpen:06:00;thursdayClose:00:00;recordId:02900371;wednesdayOpen:06:00;thursdayOpen:06:00;tuesdayOpen:06:00;wednesdayClose:00:00;saturdayOpen:06:00;mondayOpen:06:00;tuesdayClose:00:00;fridayClose:00:00;mondayClose:00:00;saturdayClose:00:00;sundayClose:00:00;sundayOpen:06:00;,,
