store_name,store_number,address,address2,city,state,zip_code,country,phone_number,latitude,longitude,store_hours,other_fields,coming_soon
Littman Jewelers,00952,5580 Goods Ln Ste 2108,,Altoona,PA,16602,United States,8149418423,40.469126,-78.411944,fridayOpen:10:00;thursdayClose:21:00;recordId:70200952;wednesdayOpen:10:00;thursdayOpen:10:00;tuesdayOpen:10:00;wednesdayClose:21:00;saturdayOpen:10:00;mondayOpen:10:00;tuesdayClose:21:00;fridayClose:21:00;mondayClose:21:00;saturdayClose:21:00;sundayClose:18:00;sundayOpen:12:00;,,
Turkey Hill,00201,2688 Euclid Ave,,Duboistown,PA,17702,United States,5703267350,41.2228448,-77.0364761,fridayOpen:07:00;thursdayClose:07:00;recordId:67000201;wednesdayOpen:07:00;thursdayOpen:07:00;tuesdayOpen:07:00;wednesdayClose:07:00;saturdayOpen:07:00;mondayOpen:07:00;tuesdayClose:07:00;fridayClose:07:00;mondayClose:07:00;saturdayClose:07:00;sundayClose:07:00;sundayOpen:07:00;,,
Turkey Hill,00238,3106 Everett Rd,,East Freedom,PA,16637,United States,8146953533,40.3673583,-78.4276487,fridayOpen:07:00;thursdayClose:07:00;recordId:67000238;wednesdayOpen:07:00;thursdayOpen:07:00;tuesdayOpen:07:00;wednesdayClose:07:00;saturdayOpen:07:00;mondayOpen:07:00;tuesdayClose:07:00;fridayClose:07:00;mondayClose:07:00;saturdayClose:07:00;sundayClose:07:00;sundayOpen:07:00;,,
Turkey Hill,00256,7637 Woodbury Pike,,Roaring Spring,PA,16673,United States,8142245084,40.3368307,-78.3909762,fridayOpen:05:30;thursdayClose:00:00;recordId:67000256;wednesdayOpen:05:30;thursdayOpen:05:30;tuesdayOpen:05:30;wednesdayClose:00:00;saturdayOpen:05:30;mondayOpen:05:30;tuesdayClose:00:00;fridayClose:00:00;mondayClose:00:00;saturdayClose:00:00;sundayClose:00:00;sundayOpen:05:30;,,
Turkey Hill,00210,700 Washington Blvd,,Williamsport,PA,17701,United States,5703279190,41.2476009,-76.9905151,fridayOpen:07:00;thursdayClose:07:00;recordId:67000210;wednesdayOpen:07:00;thursdayOpen:07:00;tuesdayOpen:07:00;wednesdayClose:07:00;saturdayOpen:07:00;mondayOpen:07:00;tuesdayClose:07:00;fridayClose:07:00;mondayClose:07:00;saturdayClose:07:00;sundayClose:07:00;sundayOpen:07:00;,,
Turkey Hill,00309,1980 N. Susquehanna Trail,,Selinsgrove,PA,17870,United States,5707437135,40.8349724,-76.8349609,fridayOpen:07:00;thursdayClose:07:00;recordId:67000309;wednesdayOpen:07:00;thursdayOpen:07:00;tuesdayOpen:07:00;wednesdayClose:07:00;saturdayOpen:07:00;mondayOpen:07:00;tuesdayClose:07:00;fridayClose:07:00;mondayClose:07:00;saturdayClose:07:00;sundayClose:07:00;sundayOpen:07:00;,,
Turkey Hill,00208,854 Mahoning St,,Milton,PA,17847,United States,5707422680,41.0102777,-76.8391956,fridayOpen:07:00;thursdayClose:07:00;recordId:67000208;wednesdayOpen:07:00;thursdayOpen:07:00;tuesdayOpen:07:00;wednesdayClose:07:00;saturdayOpen:07:00;mondayOpen:07:00;tuesdayClose:07:00;fridayClose:07:00;mondayClose:07:00;saturdayClose:07:00;sundayClose:07:00;sundayOpen:07:00;,,
Turkey Hill,00211,300 Broad St,,Montoursville,PA,17754,United States,5703688005,41.2496931,-76.9276106,fridayOpen:07:00;thursdayClose:07:00;recordId:67000211;wednesdayOpen:07:00;thursdayOpen:07:00;tuesdayOpen:07:00;wednesdayClose:07:00;saturdayOpen:07:00;mondayOpen:07:00;tuesdayClose:07:00;fridayClose:07:00;mondayClose:07:00;saturdayClose:07:00;sundayClose:07:00;sundayOpen:07:00;,,
Turkey Hill,00202,276 State Route 87,,Montoursville,PA,17754,United States,5704334533,41.2660847,-76.9130294,fridayOpen:05:00;thursdayClose:00:00;recordId:67000202;wednesdayOpen:05:00;thursdayOpen:05:00;tuesdayOpen:05:00;wednesdayClose:00:00;saturdayOpen:05:00;mondayOpen:05:00;tuesdayClose:00:00;fridayClose:00:00;mondayClose:00:00;saturdayClose:00:00;sundayClose:00:00;sundayOpen:05:00;,,
Turkey Hill,00209,501 N. Front St.,,Sunbury,PA,17801,United States,5702863166,40.8689615,-76.7941868,fridayOpen:07:00;thursdayClose:07:00;recordId:67000209;wednesdayOpen:07:00;thursdayOpen:07:00;tuesdayOpen:07:00;wednesdayClose:07:00;saturdayOpen:07:00;mondayOpen:07:00;tuesdayClose:07:00;fridayClose:07:00;mondayClose:07:00;saturdayClose:07:00;sundayClose:07:00;sundayOpen:07:00;,,
Turkey Hill,00225,900 N 4Th St,,Sunbury,PA,17801,United States,5702860890,40.8711596,-76.7857465,fridayOpen:07:00;thursdayClose:07:00;recordId:67000225;wednesdayOpen:07:00;thursdayOpen:07:00;tuesdayOpen:07:00;wednesdayClose:07:00;saturdayOpen:07:00;mondayOpen:07:00;tuesdayClose:07:00;fridayClose:07:00;mondayClose:07:00;saturdayClose:07:00;sundayClose:07:00;sundayOpen:07:00;,,
Turkey Hill,00216,1 Cranes Gap Rd,,Carlisle,PA,17013,United States,7172492065,40.2425384,-77.1793823,fridayOpen:06:00;thursdayClose:00:00;recordId:67000216;wednesdayOpen:06:00;thursdayOpen:06:00;tuesdayOpen:06:00;wednesdayClose:00:00;saturdayOpen:06:00;mondayOpen:06:00;tuesdayClose:00:00;fridayClose:00:00;mondayClose:00:00;saturdayClose:00:00;sundayClose:00:00;sundayOpen:06:00;,,
Turkey Hill,00199,4760 State Route 54,,Turbotville,PA,17772,United States,5706496224,41.1070941,-76.7673104,fridayOpen:07:00;thursdayClose:07:00;recordId:67000199;wednesdayOpen:07:00;thursdayOpen:07:00;tuesdayOpen:07:00;wednesdayClose:07:00;saturdayOpen:07:00;mondayOpen:07:00;tuesdayClose:07:00;fridayClose:07:00;mondayClose:07:00;saturdayClose:07:00;sundayClose:07:00;sundayOpen:07:00;,,
Littman Jewelers,00965,300 Lycoming Mall Cir Ste 228,,Pennsdale,PA,17756,United States,5705466966,41.240007,-76.826526,fridayOpen:10:00;thursdayClose:21:00;recordId:70200965;wednesdayOpen:10:00;thursdayOpen:10:00;tuesdayOpen:10:00;wednesdayClose:21:00;saturdayOpen:10:00;mondayOpen:10:00;tuesdayClose:21:00;fridayClose:21:00;mondayClose:21:00;saturdayClose:21:00;sundayClose:17:00;sundayOpen:11:00;,,
Turkey Hill,00206,18 East Water Street,,Muncy,PA,17756,United States,5705463940,41.2055801,-76.7847997,fridayOpen:07:00;thursdayClose:07:00;recordId:67000206;wednesdayOpen:07:00;thursdayOpen:07:00;tuesdayOpen:07:00;wednesdayClose:07:00;saturdayOpen:07:00;mondayOpen:07:00;tuesdayClose:07:00;fridayClose:07:00;mondayClose:07:00;saturdayClose:07:00;sundayClose:07:00;sundayOpen:07:00;,,
Turkey Hill,00268,7040 Wertzville Rd,,Mechanicsburg,PA,17050,United States,7177669598,40.2834663,-77.0510711,fridayOpen:07:00;thursdayClose:07:00;recordId:67000268;wednesdayOpen:07:00;thursdayOpen:07:00;tuesdayOpen:07:00;wednesdayClose:07:00;saturdayOpen:07:00;mondayOpen:07:00;tuesdayClose:07:00;fridayClose:07:00;mondayClose:07:00;saturdayClose:07:00;sundayClose:07:00;sundayOpen:07:00;,,
Turkey Hill,00283,209 W King St,,Shippensburg,PA,17257,United States,7175326800,40.0482478,-77.5260845,fridayOpen:07:00;thursdayClose:07:00;recordId:67000283;wednesdayOpen:07:00;thursdayOpen:07:00;tuesdayOpen:07:00;wednesdayClose:07:00;saturdayOpen:07:00;mondayOpen:07:00;tuesdayClose:07:00;fridayClose:07:00;mondayClose:07:00;saturdayClose:07:00;sundayClose:07:00;sundayOpen:07:00;,,
Turkey Hill,00294,6708 Carlisle Pike,,Mechanicsburg,PA,17050,United States,7176971045,40.2396181,-77.0535369,fridayOpen:07:00;thursdayClose:07:00;recordId:67000294;wednesdayOpen:07:00;thursdayOpen:07:00;tuesdayOpen:07:00;wednesdayClose:07:00;saturdayOpen:07:00;mondayOpen:07:00;tuesdayClose:07:00;fridayClose:07:00;mondayClose:07:00;saturdayClose:07:00;sundayClose:07:00;sundayOpen:07:00;,,
Turkey Hill,00280,2060 Good Hope Rd,,Enola,PA,17025,United States,7177289711,40.2885665,-76.9863204,fridayOpen:07:00;thursdayClose:07:00;recordId:67000280;wednesdayOpen:07:00;thursdayOpen:07:00;tuesdayOpen:07:00;wednesdayClose:07:00;saturdayOpen:07:00;mondayOpen:07:00;tuesdayClose:07:00;fridayClose:07:00;mondayClose:07:00;saturdayClose:07:00;sundayClose:07:00;sundayOpen:07:00;,,
Turkey Hill,00236,5150 Simpson Ferry Rd,,Mechanicsburg,PA,17055,United States,7177958290,40.2183418,-76.9772186,fridayOpen:07:00;thursdayClose:07:00;recordId:67000236;wednesdayOpen:07:00;thursdayOpen:07:00;tuesdayOpen:07:00;wednesdayClose:07:00;saturdayOpen:07:00;mondayOpen:07:00;tuesdayClose:07:00;fridayClose:07:00;mondayClose:07:00;saturdayClose:07:00;sundayClose:07:00;sundayOpen:07:00;,,
Turkey Hill,00266,2015 Dotson Ct,,Harrisburg,PA,17110,United States,7176719290,40.306448,-76.8522995,fridayOpen:07:00;thursdayClose:07:00;recordId:67000266;wednesdayOpen:07:00;thursdayOpen:07:00;tuesdayOpen:07:00;wednesdayClose:07:00;saturdayOpen:07:00;mondayOpen:07:00;tuesdayClose:07:00;fridayClose:07:00;mondayClose:07:00;saturdayClose:07:00;sundayClose:07:00;sundayOpen:07:00;,,
Littman Jewelers,00896,3541 Capital City Mall Dr,,Camp Hill,PA,17011,United States,7177376849,40.223018,-76.931934,fridayOpen:10:00;thursdayClose:21:00;recordId:70200896;wednesdayOpen:10:00;thursdayOpen:10:00;tuesdayOpen:10:00;wednesdayClose:21:00;saturdayOpen:10:00;mondayOpen:10:00;tuesdayClose:21:00;fridayClose:21:00;mondayClose:21:00;saturdayClose:21:00;sundayClose:18:00;sundayOpen:11:00;,,
Littman Jewelers,00905,500 Galleria Dr Ste 240,,Johnstown,PA,15904,United States,8142666199,40.294593,-78.833817,fridayOpen:10:00;thursdayClose:21:00;recordId:70200905;wednesdayOpen:10:00;thursdayOpen:10:00;tuesdayOpen:10:00;wednesdayClose:21:00;saturdayOpen:10:00;mondayOpen:10:00;tuesdayClose:21:00;fridayClose:21:00;mondayClose:21:00;saturdayClose:21:00;sundayClose:17:00;sundayOpen:12:00;,,
Turkey Hill,00135,501 N 2Nd St,,Shamokin,PA,17872,United States,5706481620,40.7892382,-76.5640747,fridayOpen:07:00;thursdayClose:07:00;recordId:67000135;wednesdayOpen:07:00;thursdayOpen:07:00;tuesdayOpen:07:00;wednesdayClose:07:00;saturdayOpen:07:00;mondayOpen:07:00;tuesdayClose:07:00;fridayClose:07:00;mondayClose:07:00;saturdayClose:07:00;sundayClose:07:00;sundayOpen:07:00;,,
Turkey Hill,00240,2130 S Market St,,Mechanicsburg,PA,17055,United States,7176977280,40.175373,-76.9846343,fridayOpen:07:00;thursdayClose:07:00;recordId:67000240;wednesdayOpen:07:00;thursdayOpen:07:00;tuesdayOpen:07:00;wednesdayClose:07:00;saturdayOpen:07:00;mondayOpen:07:00;tuesdayClose:07:00;fridayClose:07:00;mondayClose:07:00;saturdayClose:07:00;sundayClose:07:00;sundayOpen:07:00;,,
Turkey Hill,00098,707 N Mountain Rd,,Linglestown,PA,17112,United States,7176573493,40.333294,-76.790779,fridayOpen:07:00;thursdayClose:07:00;recordId:67000098;wednesdayOpen:07:00;thursdayOpen:07:00;tuesdayOpen:07:00;wednesdayClose:07:00;saturdayOpen:07:00;mondayOpen:07:00;tuesdayClose:07:00;fridayClose:07:00;mondayClose:07:00;saturdayClose:07:00;sundayClose:07:00;sundayOpen:07:00;,,
Turkey Hill,00184,140 W Lincoln St,,Shamokin,PA,17872,United States,5706442291,40.7892376,-76.5579733,fridayOpen:07:00;thursdayClose:07:00;recordId:67000184;wednesdayOpen:07:00;thursdayOpen:07:00;tuesdayOpen:07:00;wednesdayClose:07:00;saturdayOpen:07:00;mondayOpen:07:00;tuesdayClose:07:00;fridayClose:07:00;mondayClose:07:00;saturdayClose:07:00;sundayClose:07:00;sundayOpen:07:00;,,
Turkey Hill,00091,438 S 3rd St,,Lemoyne,PA,17043,United States,7177743335,40.241249,-76.8869781,fridayOpen:05:00;thursdayClose:00:00;recordId:67000091;wednesdayOpen:05:00;thursdayOpen:05:00;tuesdayOpen:05:00;wednesdayClose:00:00;saturdayOpen:05:00;mondayOpen:05:00;tuesdayClose:00:00;fridayClose:00:00;mondayClose:00:00;saturdayClose:00:00;sundayClose:00:00;sundayOpen:05:00;,,
Littman Jewelers,00927,12 Colonial Park Mall,,Harrisburg,PA,17109,United States,7176579280,40.302025,-76.81928,fridayOpen:10:00;thursdayClose:21:00;recordId:70200927;wednesdayOpen:10:00;thursdayOpen:10:00;tuesdayOpen:10:00;wednesdayClose:21:00;saturdayOpen:10:00;mondayOpen:10:00;tuesdayClose:21:00;fridayClose:21:00;mondayClose:21:00;saturdayClose:21:00;sundayClose:18:00;sundayOpen:12:00;,,
Turkey Hill,00207,122 E Valley Ave,,Elysburg,PA,17824,United States,5706729138,40.8620844,-76.5486051,fridayOpen:07:00;thursdayClose:07:00;recordId:67000207;wednesdayOpen:07:00;thursdayOpen:07:00;tuesdayOpen:07:00;wednesdayClose:07:00;saturdayOpen:07:00;mondayOpen:07:00;tuesdayClose:07:00;fridayClose:07:00;mondayClose:07:00;saturdayClose:07:00;sundayClose:07:00;sundayOpen:07:00;,,
Turkey Hill,00095,390 N Houcks Rd,,Harrisburg,PA,17109,United States,7176573489,40.3056144,-76.8124465,fridayOpen:07:00;thursdayClose:07:00;recordId:67000095;wednesdayOpen:07:00;thursdayOpen:07:00;tuesdayOpen:07:00;wednesdayClose:07:00;saturdayOpen:07:00;mondayOpen:07:00;tuesdayClose:07:00;fridayClose:07:00;mondayClose:07:00;saturdayClose:07:00;sundayClose:07:00;sundayOpen:07:00;,,
Turkey Hill,00090,5009 Locust Ln,,Harrisburg,PA,17109,United States,7176527601,40.2931365,-76.8037948,fridayOpen:07:00;thursdayClose:07:00;recordId:67000090;wednesdayOpen:07:00;thursdayOpen:07:00;tuesdayOpen:07:00;wednesdayClose:07:00;saturdayOpen:07:00;mondayOpen:07:00;tuesdayClose:07:00;fridayClose:07:00;mondayClose:07:00;saturdayClose:07:00;sundayClose:07:00;sundayOpen:07:00;,,
Turkey Hill,00279,2885 Paxton St,,Harrisburg,PA,17111,United States,7175611562,40.2558776,-76.8396697,fridayOpen:07:00;thursdayClose:07:00;recordId:67000279;wednesdayOpen:07:00;thursdayOpen:07:00;tuesdayOpen:07:00;wednesdayClose:07:00;saturdayOpen:07:00;mondayOpen:07:00;tuesdayClose:07:00;fridayClose:07:00;mondayClose:07:00;saturdayClose:07:00;sundayClose:07:00;sundayOpen:07:00;,,
Turkey Hill,00227,4850 Union Deposit Rd,,Harrisburg,PA,17111,United States,7175418790,40.281681,-76.7991333,fridayOpen:07:00;thursdayClose:07:00;recordId:67000227;wednesdayOpen:07:00;thursdayOpen:07:00;tuesdayOpen:07:00;wednesdayClose:07:00;saturdayOpen:07:00;mondayOpen:07:00;tuesdayClose:07:00;fridayClose:07:00;mondayClose:07:00;saturdayClose:07:00;sundayClose:07:00;sundayOpen:07:00;,,
Turkey Hill,00186,50 N Front St,,Steelton,PA,17113,United States,7179394835,40.234901,-76.841141,fridayOpen:07:00;thursdayClose:07:00;recordId:67000186;wednesdayOpen:07:00;thursdayOpen:07:00;tuesdayOpen:07:00;wednesdayClose:07:00;saturdayOpen:07:00;mondayOpen:07:00;tuesdayClose:07:00;fridayClose:07:00;mondayClose:07:00;saturdayClose:07:00;sundayClose:07:00;sundayOpen:07:00;,,
Turkey Hill,00296,7601 Allentown Blvd,,Harrisburg,PA,17112,United States,7175262106,40.334921,-76.730261,fridayOpen:07:00;thursdayClose:07:00;recordId:67000296;wednesdayOpen:07:00;thursdayOpen:07:00;tuesdayOpen:07:00;wednesdayClose:07:00;saturdayOpen:07:00;mondayOpen:07:00;tuesdayClose:07:00;fridayClose:07:00;mondayClose:07:00;saturdayClose:07:00;sundayClose:07:00;sundayOpen:07:00;,,
Turkey Hill,00094,12 S Harrisburg St,,Oberlin,PA,17113,United States,7179396382,40.238457,-76.815224,fridayOpen:06:00;thursdayClose:00:00;recordId:67000094;wednesdayOpen:06:00;thursdayOpen:06:00;tuesdayOpen:06:00;wednesdayClose:00:00;saturdayOpen:06:00;mondayOpen:06:00;tuesdayClose:00:00;fridayClose:00:00;mondayClose:00:00;saturdayClose:00:00;sundayClose:00:00;sundayOpen:06:00;,,
Turkey Hill,00234,6300 Derry St,,Harrisburg,PA,17111,United States,7175611094,40.2643699,-76.7778854,fridayOpen:07:00;thursdayClose:07:00;recordId:67000234;wednesdayOpen:07:00;thursdayOpen:07:00;tuesdayOpen:07:00;wednesdayClose:07:00;saturdayOpen:07:00;mondayOpen:07:00;tuesdayClose:07:00;fridayClose:07:00;mondayClose:07:00;saturdayClose:07:00;sundayClose:07:00;sundayOpen:07:00;,,
Turkey Hill,00129,862 Chestnut St,,Kulpmont,PA,17834,United States,5703733102,40.7938496,-76.4717598,fridayOpen:06:00;thursdayClose:00:00;recordId:67000129;wednesdayOpen:06:00;thursdayOpen:06:00;tuesdayOpen:06:00;wednesdayClose:00:00;saturdayOpen:06:00;mondayOpen:06:00;tuesdayClose:00:00;fridayClose:00:00;mondayClose:00:00;saturdayClose:00:00;sundayClose:00:00;sundayOpen:06:00;,,
Turkey Hill,00282,240 Hershey Rd,,Hummelstown,PA,17036,United States,7175667327,40.3103942,-76.6980048,fridayOpen:07:00;thursdayClose:07:00;recordId:67000282;wednesdayOpen:07:00;thursdayOpen:07:00;tuesdayOpen:07:00;wednesdayClose:07:00;saturdayOpen:07:00;mondayOpen:07:00;tuesdayClose:07:00;fridayClose:07:00;mondayClose:07:00;saturdayClose:07:00;sundayClose:07:00;sundayOpen:07:00;,,
Turkey Hill,00125,686 2Nd St,,Highspire,PA,17034,United States,7179391750,40.2027091,-76.771759,fridayOpen:07:00;thursdayClose:07:00;recordId:67000125;wednesdayOpen:07:00;thursdayOpen:07:00;tuesdayOpen:07:00;wednesdayClose:07:00;saturdayOpen:07:00;mondayOpen:07:00;tuesdayClose:07:00;fridayClose:07:00;mondayClose:07:00;saturdayClose:07:00;sundayClose:07:00;sundayOpen:07:00;,,
Turkey Hill,00191,119 Front Street,,Mount Carmel,PA,17851,United States,5703395255,40.800415,-76.4275154,fridayOpen:07:00;thursdayClose:07:00;recordId:67000191;wednesdayOpen:07:00;thursdayOpen:07:00;tuesdayOpen:07:00;wednesdayClose:07:00;saturdayOpen:07:00;mondayOpen:07:00;tuesdayClose:07:00;fridayClose:07:00;mondayClose:07:00;saturdayClose:07:00;sundayClose:07:00;sundayOpen:07:00;,,
Turkey Hill,00265,1025 Middletown Rd,,Hummelstown,PA,17036,United States,7175666865,40.2381911,-76.7122533,fridayOpen:07:00;thursdayClose:07:00;recordId:67000265;wednesdayOpen:07:00;thursdayOpen:07:00;tuesdayOpen:07:00;wednesdayClose:07:00;saturdayOpen:07:00;mondayOpen:07:00;tuesdayClose:07:00;fridayClose:07:00;mondayClose:07:00;saturdayClose:07:00;sundayClose:07:00;sundayOpen:07:00;,,
Turkey Hill,00222,10 W Hershey Park Dr,,Hershey,PA,17033,United States,7175330303,40.2946865,-76.6527244,fridayOpen:07:00;thursdayClose:07:00;recordId:67000222;wednesdayOpen:07:00;thursdayOpen:07:00;tuesdayOpen:07:00;wednesdayClose:07:00;saturdayOpen:07:00;mondayOpen:07:00;tuesdayClose:07:00;fridayClose:07:00;mondayClose:07:00;saturdayClose:07:00;sundayClose:07:00;sundayOpen:07:00;,,
Turkey Hill,00133,130 E 5Th St,,Mount Carmel,PA,17851,United States,5703390699,40.795011,-76.4108461,fridayOpen:07:00;thursdayClose:07:00;recordId:67000133;wednesdayOpen:07:00;thursdayOpen:07:00;tuesdayOpen:07:00;wednesdayClose:07:00;saturdayOpen:07:00;mondayOpen:07:00;tuesdayClose:07:00;fridayClose:07:00;mondayClose:07:00;saturdayClose:07:00;sundayClose:07:00;sundayOpen:07:00;,,
Turkey Hill,00088,17 Briarcrest Sq,,Hershey,PA,17033,United States,7175341938,40.2688287,-76.6716125,fridayOpen:07:00;thursdayClose:07:00;recordId:67000088;wednesdayOpen:07:00;thursdayOpen:07:00;tuesdayOpen:07:00;wednesdayClose:07:00;saturdayOpen:07:00;mondayOpen:07:00;tuesdayClose:07:00;fridayClose:07:00;mondayClose:07:00;saturdayClose:07:00;sundayClose:07:00;sundayOpen:07:00;,,
Turkey Hill,00034,170 E Main St,,Middletown,PA,17057,United States,7179444145,40.2005615,-76.7282714,fridayOpen:07:00;thursdayClose:07:00;recordId:67000034;wednesdayOpen:07:00;thursdayOpen:07:00;tuesdayOpen:07:00;wednesdayClose:07:00;saturdayOpen:07:00;mondayOpen:07:00;tuesdayClose:07:00;fridayClose:07:00;mondayClose:07:00;saturdayClose:07:00;sundayClose:07:00;sundayOpen:07:00;,,
Turkey Hill,00232,2931 Fairgrounds Rd,,Ashland,PA,17921,United States,5708752050,40.7636985,-76.383171,fridayOpen:07:00;thursdayClose:07:00;recordId:67000232;wednesdayOpen:07:00;thursdayOpen:07:00;tuesdayOpen:07:00;wednesdayClose:07:00;saturdayOpen:07:00;mondayOpen:07:00;tuesdayClose:07:00;fridayClose:07:00;mondayClose:07:00;saturdayClose:07:00;sundayClose:07:00;sundayOpen:07:00;,,
Turkey Hill,00197,100 W Main St,,Palmyra,PA,17078,United States,7178389754,40.3065032,-76.5971984,fridayOpen:07:00;thursdayClose:07:00;recordId:67000197;wednesdayOpen:07:00;thursdayOpen:07:00;tuesdayOpen:07:00;wednesdayClose:07:00;saturdayOpen:07:00;mondayOpen:07:00;tuesdayClose:07:00;fridayClose:07:00;mondayClose:07:00;saturdayClose:07:00;sundayClose:07:00;sundayOpen:07:00;,,
Turkey Hill,00106,500 Jonestown Rd,,Jonestown,PA,17038,United States,7178655357,40.4126024,-76.4974332,fridayOpen:05:00;thursdayClose:00:00;recordId:67000106;wednesdayOpen:05:00;thursdayOpen:05:00;tuesdayOpen:05:00;wednesdayClose:00:00;saturdayOpen:05:00;mondayOpen:05:00;tuesdayClose:00:00;fridayClose:00:00;mondayClose:00:00;saturdayClose:00:00;sundayClose:00:00;sundayOpen:05:00;,,
Loaf 'N Jug,00156,305 N Federal Blvd,,Riverton,WY,82501,United States,3078560217,43.0270195,-108.3801651,fridayOpen:07:00;thursdayClose:07:00;recordId:67300156;wednesdayOpen:07:00;thursdayOpen:07:00;tuesdayOpen:07:00;wednesdayClose:07:00;saturdayOpen:07:00;mondayOpen:07:00;tuesdayClose:07:00;fridayClose:07:00;mondayClose:07:00;saturdayClose:07:00;sundayClose:07:00;sundayOpen:07:00;,,
Smith's,00183,1200 W Main St,,Riverton,WY,82501,United States,3078564931,43.0255124,-108.4090145,fridayOpen:06:00;thursdayClose:00:00;recordId:70600183;wednesdayOpen:06:00;thursdayOpen:06:00;tuesdayOpen:06:00;wednesdayClose:00:00;saturdayOpen:06:00;mondayOpen:06:00;tuesdayClose:00:00;fridayClose:00:00;mondayClose:00:00;saturdayClose:00:00;sundayClose:00:00;sundayOpen:06:00;,,
Loaf 'N Jug,00103,285 Honeysuckle St,,Casper,WY,82604,United States,3072656946,42.8109855,-106.4019317,fridayOpen:07:00;thursdayClose:07:00;recordId:67300103;wednesdayOpen:07:00;thursdayOpen:07:00;tuesdayOpen:07:00;wednesdayClose:07:00;saturdayOpen:07:00;mondayOpen:07:00;tuesdayClose:07:00;fridayClose:07:00;mondayClose:07:00;saturdayClose:07:00;sundayClose:07:00;sundayOpen:07:00;,,
Loaf 'N Jug,00114,4603 W. Yellowstone,,Mills,WY,82644,United States,3072666851,42.8503074,-106.3825836,fridayOpen:07:00;thursdayClose:07:00;recordId:67300114;wednesdayOpen:07:00;thursdayOpen:07:00;tuesdayOpen:07:00;wednesdayClose:07:00;saturdayOpen:07:00;mondayOpen:07:00;tuesdayClose:07:00;fridayClose:07:00;mondayClose:07:00;saturdayClose:07:00;sundayClose:07:00;sundayOpen:07:00;,,
Loaf 'N Jug,00155,195 Main St,,Lander,WY,82520,United States,3073326216,42.8326074,-108.7289388,fridayOpen:07:00;thursdayClose:07:00;recordId:67300155;wednesdayOpen:07:00;thursdayOpen:07:00;tuesdayOpen:07:00;wednesdayClose:07:00;saturdayOpen:07:00;mondayOpen:07:00;tuesdayClose:07:00;fridayClose:07:00;mondayClose:07:00;saturdayClose:07:00;sundayClose:07:00;sundayOpen:07:00;,,
Loaf 'N Jug,00110,3597 Salt Creek Hwy,,Casper,WY,82601,United States,3072356261,42.8978538,-106.3429412,fridayOpen:07:00;thursdayClose:07:00;recordId:67300110;wednesdayOpen:07:00;thursdayOpen:07:00;tuesdayOpen:07:00;wednesdayClose:07:00;saturdayOpen:07:00;mondayOpen:07:00;tuesdayClose:07:00;fridayClose:07:00;mondayClose:07:00;saturdayClose:07:00;sundayClose:07:00;sundayOpen:07:00;,,
Loaf 'N Jug,00104,2400 Cy Ave,,Casper,WY,82604,United States,3072350238,42.8291447,-106.353366,fridayOpen:07:00;thursdayClose:07:00;recordId:67300104;wednesdayOpen:07:00;thursdayOpen:07:00;tuesdayOpen:07:00;wednesdayClose:07:00;saturdayOpen:07:00;mondayOpen:07:00;tuesdayClose:07:00;fridayClose:07:00;mondayClose:07:00;saturdayClose:07:00;sundayClose:07:00;sundayOpen:07:00;,,
Smith's,00185,2405 Cy Ave,,Casper,WY,82604,United States,3072666242,42.8279296,-106.3530667,fridayOpen:06:00;thursdayClose:00:00;recordId:70600185;wednesdayOpen:06:00;thursdayOpen:06:00;tuesdayOpen:06:00;wednesdayClose:00:00;saturdayOpen:06:00;mondayOpen:06:00;tuesdayClose:00:00;fridayClose:00:00;mondayClose:00:00;saturdayClose:00:00;sundayClose:00:00;sundayOpen:06:00;,,
Loaf 'N Jug,00130,938 S Poplar St,,Casper,WY,82601,United States,3074732160,42.8413407,-106.3370997,fridayOpen:07:00;thursdayClose:07:00;recordId:67300130;wednesdayOpen:07:00;thursdayOpen:07:00;tuesdayOpen:07:00;wednesdayClose:07:00;saturdayOpen:07:00;mondayOpen:07:00;tuesdayClose:07:00;fridayClose:07:00;mondayClose:07:00;saturdayClose:07:00;sundayClose:07:00;sundayOpen:07:00;,,
Kroger,00800,555 W Marion Rd,,Mount Gilead,OH,43338,United States,4199479191,40.5472654,-82.8465263,fridayOpen:06:00;thursdayClose:01:00;recordId:01600800;wednesdayOpen:06:00;thursdayOpen:06:00;tuesdayOpen:06:00;wednesdayClose:01:00;saturdayOpen:06:00;mondayOpen:06:00;tuesdayClose:01:00;fridayClose:01:00;mondayClose:01:00;saturdayClose:01:00;sundayClose:01:00;sundayOpen:06:00;,,
Kroger,00820,855 Coshocton Ave,,Mount Vernon,OH,43050,United States,7403931425,40.4010188,-82.4588259,fridayOpen:07:00;thursdayClose:07:00;recordId:01600820;wednesdayOpen:07:00;thursdayOpen:07:00;tuesdayOpen:07:00;wednesdayClose:07:00;saturdayOpen:07:00;mondayOpen:07:00;tuesdayClose:07:00;fridayClose:07:00;mondayClose:07:00;saturdayClose:07:00;sundayClose:07:00;sundayOpen:07:00;,,
Kroger,00802,131 State Route 3,,Sunbury,OH,43074,United States,7409650500,40.2462815,-82.8686806,fridayOpen:06:00;thursdayClose:01:00;recordId:01600802;wednesdayOpen:06:00;thursdayOpen:06:00;tuesdayOpen:06:00;wednesdayClose:01:00;saturdayOpen:06:00;mondayOpen:06:00;tuesdayClose:01:00;fridayClose:01:00;mondayClose:01:00;saturdayClose:01:00;sundayClose:01:00;sundayOpen:06:00;,,
Kroger,00546,800 W Coshocton St,,Johnstown,OH,43031,United States,7409668300,40.147049,-82.7076001,fridayOpen:06:00;thursdayClose:01:00;recordId:01600546;wednesdayOpen:06:00;thursdayOpen:06:00;tuesdayOpen:06:00;wednesdayClose:01:00;saturdayOpen:06:00;mondayOpen:06:00;tuesdayClose:01:00;fridayClose:01:00;mondayClose:01:00;saturdayClose:01:00;sundayClose:01:00;sundayOpen:06:00;,,
Kroger,00847,7345 S.R. 3,,Westerville,OH,43082,United States,6147945555,40.1496446,-82.9208478,fridayOpen:07:00;thursdayClose:07:00;recordId:01600847;wednesdayOpen:07:00;thursdayOpen:07:00;tuesdayOpen:07:00;wednesdayClose:07:00;saturdayOpen:07:00;mondayOpen:07:00;tuesdayClose:07:00;fridayClose:07:00;mondayClose:07:00;saturdayClose:07:00;sundayClose:07:00;sundayOpen:07:00;,,
Harris Teeter,00324,15501 Annapolis Rd. #400,,Bowie,MD,20715,United States,3013832935,38.9793447,-76.7351125,fridayOpen:07:00;thursdayClose:07:00;recordId:09700324;wednesdayOpen:07:00;thursdayOpen:07:00;tuesdayOpen:07:00;wednesdayClose:07:00;saturdayOpen:07:00;mondayOpen:07:00;tuesdayClose:07:00;fridayClose:07:00;mondayClose:07:00;saturdayClose:07:00;sundayClose:07:00;sundayOpen:07:00;,,
Harris Teeter,00408,14702 Baltimore Ave,,Laurel,MD,20707,United States,3014906039,39.0929405,-76.8584304,fridayOpen:06:00;thursdayClose:00:00;recordId:09700408;wednesdayOpen:06:00;thursdayOpen:06:00;tuesdayOpen:06:00;wednesdayClose:00:00;saturdayOpen:06:00;mondayOpen:06:00;tuesdayClose:00:00;fridayClose:00:00;mondayClose:00:00;saturdayClose:00:00;sundayClose:00:00;sundayOpen:06:00;,,
Littman Jewelers,00864,7900 Ritchie Hwy E153,,Glen Burnie,MD,21061,United States,4107601045,39.138554,-76.60566,fridayOpen:10:00;thursdayClose:21:00;recordId:70200864;wednesdayOpen:10:00;thursdayOpen:10:00;tuesdayOpen:10:00;wednesdayClose:21:00;saturdayOpen:10:00;mondayOpen:10:00;tuesdayClose:21:00;fridayClose:21:00;mondayClose:21:00;saturdayClose:21:00;sundayClose:18:00;sundayOpen:11:00;,,
Smith's,00414,2580 Main St Ne,,Los Lunas,NM,87031,United States,5058653330,34.8089516,-106.7023818,fridayOpen:06:00;thursdayClose:00:00;recordId:70600414;wednesdayOpen:06:00;thursdayOpen:06:00;tuesdayOpen:06:00;wednesdayClose:00:00;saturdayOpen:06:00;mondayOpen:06:00;tuesdayClose:00:00;fridayClose:00:00;mondayClose:00:00;saturdayClose:00:00;sundayClose:00:00;sundayOpen:06:00;,,
Smith's,00424,2B State Road 344,,Edgewood,NM,87015,United States,5052866691,35.0615633,-106.1895066,fridayOpen:06:00;thursdayClose:00:00;recordId:70600424;wednesdayOpen:06:00;thursdayOpen:06:00;tuesdayOpen:06:00;wednesdayClose:00:00;saturdayOpen:06:00;mondayOpen:06:00;tuesdayClose:00:00;fridayClose:00:00;mondayClose:00:00;saturdayClose:00:00;sundayClose:00:00;sundayOpen:06:00;,,
Smith's,00427,200 Tramway Blvd Se,,Albuquerque,NM,87123,United States,5052961544,35.0669314,-106.4961468,fridayOpen:06:00;thursdayClose:00:00;recordId:70600427;wednesdayOpen:06:00;thursdayOpen:06:00;tuesdayOpen:06:00;wednesdayClose:00:00;saturdayOpen:06:00;mondayOpen:06:00;tuesdayClose:00:00;fridayClose:00:00;mondayClose:00:00;saturdayClose:00:00;sundayClose:00:00;sundayOpen:06:00;,,
Smith's,00446,6001 Lomas Blvd Ne,,Albuquerque,NM,87110,United States,5052667401,35.0881112,-106.5791873,fridayOpen:06:00;thursdayClose:00:00;recordId:70600446;wednesdayOpen:06:00;thursdayOpen:06:00;tuesdayOpen:06:00;wednesdayClose:00:00;saturdayOpen:06:00;mondayOpen:06:00;tuesdayClose:00:00;fridayClose:00:00;mondayClose:00:00;saturdayClose:00:00;sundayClose:00:00;sundayOpen:06:00;,,
Smith's,00443,320 Yale Blvd Se,,Albuquerque,NM,87106,United States,5052660201,35.076141,-106.6217149,fridayOpen:06:00;thursdayClose:00:00;recordId:70600443;wednesdayOpen:06:00;thursdayOpen:06:00;tuesdayOpen:06:00;wednesdayClose:00:00;saturdayOpen:06:00;mondayOpen:06:00;tuesdayClose:00:00;fridayClose:00:00;mondayClose:00:00;saturdayClose:00:00;sundayClose:00:00;sundayOpen:06:00;,,
Smith's,00439,4700 Tramway Blvd Ne,,Albuquerque,NM,87111,United States,5052925484,35.132974,-106.4967846,fridayOpen:06:00;thursdayClose:00:00;recordId:70600439;wednesdayOpen:06:00;thursdayOpen:06:00;tuesdayOpen:06:00;wednesdayClose:00:00;saturdayOpen:06:00;mondayOpen:06:00;tuesdayClose:00:00;fridayClose:00:00;mondayClose:00:00;saturdayClose:00:00;sundayClose:00:00;sundayOpen:06:00;,,
Smith's,00496,3701 Constitution Ave Ne,,Albuquerque,NM,87110,United States,5052569423,35.095678,-106.6029809,fridayOpen:06:00;thursdayClose:00:00;recordId:70600496;wednesdayOpen:06:00;thursdayOpen:06:00;tuesdayOpen:06:00;wednesdayClose:00:00;saturdayOpen:06:00;mondayOpen:06:00;tuesdayClose:00:00;fridayClose:00:00;mondayClose:00:00;saturdayClose:00:00;sundayClose:00:00;sundayOpen:06:00;,,
Smith's,00571,1601 Arenal Rd Sw,,Albuquerque,NM,87105,United States,5058774183,35.0542048,-106.679308,fridayOpen:06:00;thursdayClose:00:00;recordId:70600571;wednesdayOpen:06:00;thursdayOpen:06:00;tuesdayOpen:06:00;wednesdayClose:00:00;saturdayOpen:06:00;mondayOpen:06:00;tuesdayClose:00:00;fridayClose:00:00;mondayClose:00:00;saturdayClose:00:00;sundayClose:00:00;sundayOpen:06:00;,,
Smith's,00485,4016 Louisiana Blvd Ne,,Albuquerque,NM,87110,United States,5058841860,35.1293234,-106.5674173,fridayOpen:06:00;thursdayClose:00:00;recordId:70600485;wednesdayOpen:06:00;thursdayOpen:06:00;tuesdayOpen:06:00;wednesdayClose:00:00;saturdayOpen:06:00;mondayOpen:06:00;tuesdayClose:00:00;fridayClose:00:00;mondayClose:00:00;saturdayClose:00:00;sundayClose:00:00;sundayOpen:06:00;,,
Smith's,00494,5850 Eubank Blvd Ne,,Albuquerque,NM,87111,United States,5052990848,35.1466933,-106.5276099,fridayOpen:06:00;thursdayClose:00:00;recordId:70600494;wednesdayOpen:06:00;thursdayOpen:06:00;tuesdayOpen:06:00;wednesdayClose:00:00;saturdayOpen:06:00;mondayOpen:06:00;tuesdayClose:00:00;fridayClose:00:00;mondayClose:00:00;saturdayClose:00:00;sundayClose:00:00;sundayOpen:06:00;,,
Smith's,00450,8040 Academy Rd Ne,,Albuquerque,NM,87111,United States,5058239500,35.1458417,-106.5492129,fridayOpen:06:00;thursdayClose:00:00;recordId:70600450;wednesdayOpen:06:00;thursdayOpen:06:00;tuesdayOpen:06:00;wednesdayClose:00:00;saturdayOpen:06:00;mondayOpen:06:00;tuesdayClose:00:00;fridayClose:00:00;mondayClose:00:00;saturdayClose:00:00;sundayClose:00:00;sundayOpen:06:00;,,
Smith's,00498,111 Coors Blvd Nw,,Albuquerque,NM,87121,United States,5058315545,35.0806071,-106.7132405,fridayOpen:06:00;thursdayClose:00:00;recordId:70600498;wednesdayOpen:06:00;thursdayOpen:06:00;tuesdayOpen:06:00;wednesdayClose:00:00;saturdayOpen:06:00;mondayOpen:06:00;tuesdayClose:00:00;fridayClose:00:00;mondayClose:00:00;saturdayClose:00:00;sundayClose:00:00;sundayOpen:06:00;,,
Smith's,00459,8100 Wyoming Blvd Ne,,Albuquerque,NM,87113,United States,5058579728,35.175941,-106.557674,fridayOpen:06:00;thursdayClose:00:00;recordId:70600459;wednesdayOpen:06:00;thursdayOpen:06:00;tuesdayOpen:06:00;wednesdayClose:00:00;saturdayOpen:06:00;mondayOpen:06:00;tuesdayClose:00:00;fridayClose:00:00;mondayClose:00:00;saturdayClose:00:00;sundayClose:00:00;sundayOpen:06:00;,,
Smith's,00423,6125 4Th St Nw,,Albuquerque,NM,87107,United States,5053442363,35.14676,-106.64047,fridayOpen:06:00;thursdayClose:00:00;recordId:70600423;wednesdayOpen:06:00;thursdayOpen:06:00;tuesdayOpen:06:00;wednesdayClose:00:00;saturdayOpen:06:00;mondayOpen:06:00;tuesdayClose:00:00;fridayClose:00:00;mondayClose:00:00;saturdayClose:00:00;sundayClose:00:00;sundayOpen:06:00;,,
Smith's,00448,8301 Golf Course Rd Nw,,Albuquerque,NM,87120,United States,5058973411,35.17885,-106.689853,fridayOpen:06:00;thursdayClose:00:00;recordId:70600448;wednesdayOpen:06:00;thursdayOpen:06:00;tuesdayOpen:06:00;wednesdayClose:00:00;saturdayOpen:06:00;mondayOpen:06:00;tuesdayClose:00:00;fridayClose:00:00;mondayClose:00:00;saturdayClose:00:00;sundayClose:00:00;sundayOpen:06:00;,,
Smith's,00463,4800 Mcmahon Blvd Nw,,Albuquerque,NM,87114,United States,5059224300,35.205061,-106.67731,fridayOpen:06:00;thursdayClose:00:00;recordId:70600463;wednesdayOpen:06:00;thursdayOpen:06:00;tuesdayOpen:06:00;wednesdayClose:00:00;saturdayOpen:06:00;mondayOpen:06:00;tuesdayClose:00:00;fridayClose:00:00;mondayClose:00:00;saturdayClose:00:00;sundayClose:00:00;sundayOpen:06:00;,,
Smith's,00413,1000 Rio Rancho Dr Se,,Rio Rancho,NM,87124,United States,5058921791,35.23968,-106.65476,fridayOpen:06:00;thursdayClose:00:00;recordId:70600413;wednesdayOpen:06:00;thursdayOpen:06:00;tuesdayOpen:06:00;wednesdayClose:00:00;saturdayOpen:06:00;mondayOpen:06:00;tuesdayClose:00:00;fridayClose:00:00;mondayClose:00:00;saturdayClose:00:00;sundayClose:00:00;sundayOpen:06:00;,,
Smith's,00491,2110 S Pacheco St,,Santa Fe,NM,87505,United States,5054735560,35.657437,-105.959747,fridayOpen:06:00;thursdayClose:00:00;recordId:70600491;wednesdayOpen:06:00;thursdayOpen:06:00;tuesdayOpen:06:00;wednesdayClose:00:00;saturdayOpen:06:00;mondayOpen:06:00;tuesdayClose:00:00;fridayClose:00:00;mondayClose:00:00;saturdayClose:00:00;sundayClose:00:00;sundayOpen:06:00;,,
Smith's,00461,2308 Cerrillos Rd,,Santa Fe,NM,87505,United States,5054719024,35.6594342,-105.979901,fridayOpen:06:00;thursdayClose:00:00;recordId:70600461;wednesdayOpen:06:00;thursdayOpen:06:00;tuesdayOpen:06:00;wednesdayClose:00:00;saturdayOpen:06:00;mondayOpen:06:00;tuesdayClose:00:00;fridayClose:00:00;mondayClose:00:00;saturdayClose:00:00;sundayClose:00:00;sundayOpen:06:00;,,
Smith's,00432,31 Sherwood Blvd,,White Rock,NM,87547,United States,5056723811,35.8260729,-106.2107247,fridayOpen:06:00;thursdayClose:00:00;recordId:70600432;wednesdayOpen:06:00;thursdayOpen:06:00;tuesdayOpen:06:00;wednesdayClose:00:00;saturdayOpen:06:00;mondayOpen:06:00;tuesdayClose:00:00;fridayClose:00:00;mondayClose:00:00;saturdayClose:00:00;sundayClose:00:00;sundayOpen:06:00;,,
Smith's Marketplace,00467,751 Trinity Drive,,Los Alamos,NM,87544,United States,5056612757,35.8788996,-106.2932031,fridayOpen:06:00;thursdayClose:00:00;recordId:70600467;wednesdayOpen:06:00;thursdayOpen:06:00;tuesdayOpen:06:00;wednesdayClose:00:00;saturdayOpen:06:00;mondayOpen:06:00;tuesdayClose:00:00;fridayClose:00:00;mondayClose:00:00;saturdayClose:00:00;sundayClose:00:00;sundayOpen:06:00;,,
Smith's,00415,700 E Roosevelt Ave,,Grants,NM,87020,United States,5052856336,35.1626181,-107.8324963,fridayOpen:07:00;thursdayClose:23:00;recordId:70600415;wednesdayOpen:07:00;thursdayOpen:07:00;tuesdayOpen:07:00;wednesdayClose:23:00;saturdayOpen:07:00;mondayOpen:07:00;tuesdayClose:23:00;fridayClose:23:00;mondayClose:23:00;saturdayClose:23:00;sundayClose:23:00;sundayOpen:07:00;,,
Smith's,00426,224 Paseo Del Pueblo Sur,,Taos,NM,87571,United States,5757583711,36.404048,-105.575503,fridayOpen:06:00;thursdayClose:23:00;recordId:70600426;wednesdayOpen:06:00;thursdayOpen:06:00;tuesdayOpen:06:00;wednesdayClose:23:00;saturdayOpen:06:00;mondayOpen:06:00;tuesdayClose:23:00;fridayClose:23:00;mondayClose:23:00;saturdayClose:23:00;sundayClose:23:00;sundayOpen:06:00;,,
Loaf 'N Jug,00027,1262 S 2Nd St,,Raton,NM,87740,United States,5054458661,36.8809868,-104.4400665,fridayOpen:07:00;thursdayClose:07:00;recordId:67300027;wednesdayOpen:07:00;thursdayOpen:07:00;tuesdayOpen:07:00;wednesdayClose:07:00;saturdayOpen:07:00;mondayOpen:07:00;tuesdayClose:07:00;fridayClose:07:00;mondayClose:07:00;saturdayClose:07:00;sundayClose:07:00;sundayOpen:07:00;,,
Smith's,00409,600 E 20Th St,,Farmington,NM,87401,United States,5053277326,36.7494541,-108.1985719,fridayOpen:06:00;thursdayClose:00:00;recordId:70600409;wednesdayOpen:06:00;thursdayOpen:06:00;tuesdayOpen:06:00;wednesdayClose:00:00;saturdayOpen:06:00;mondayOpen:06:00;tuesdayClose:00:00;fridayClose:00:00;mondayClose:00:00;saturdayClose:00:00;sundayClose:00:00;sundayOpen:06:00;,,
City Market,00445,165 Country Center Dr,,Pagosa Springs,CO,81147,United States,9707316000,37.2571364,-107.0762517,fridayOpen:06:00;thursdayClose:22:00;recordId:62000445;wednesdayOpen:06:00;thursdayOpen:06:00;tuesdayOpen:06:00;wednesdayClose:22:00;saturdayOpen:06:00;mondayOpen:06:00;tuesdayClose:22:00;fridayClose:22:00;mondayClose:22:00;saturdayClose:22:00;sundayClose:22:00;sundayOpen:06:00;,,
City Market,00422,131 Market St,,Alamosa,CO,81101,United States,7195892492,37.4758336,-105.8916844,fridayOpen:06:00;thursdayClose:22:00;recordId:62000422;wednesdayOpen:06:00;thursdayOpen:06:00;tuesdayOpen:06:00;wednesdayClose:22:00;saturdayOpen:06:00;mondayOpen:06:00;tuesdayClose:22:00;fridayClose:22:00;mondayClose:22:00;saturdayClose:22:00;sundayClose:22:00;sundayOpen:06:00;,,
Loaf 'N Jug,00010,102 Highway 160 East,,Alamosa,CO,81101,United States,7195893214,37.5352131,-106.0363617,fridayOpen:07:00;thursdayClose:07:00;recordId:67300010;wednesdayOpen:07:00;thursdayOpen:07:00;tuesdayOpen:07:00;wednesdayClose:07:00;saturdayOpen:07:00;mondayOpen:07:00;tuesdayClose:07:00;fridayClose:07:00;mondayClose:07:00;saturdayClose:07:00;sundayClose:07:00;sundayOpen:07:00;,,
City Market,00402,Us 491 & Nm Hwy 64,,Shiprock,NM,87420,United States,5053684248,36.776082,-108.6995549,fridayOpen:06:00;thursdayClose:22:00;recordId:62000402;wednesdayOpen:06:00;thursdayOpen:06:00;tuesdayOpen:06:00;wednesdayClose:22:00;saturdayOpen:06:00;mondayOpen:06:00;tuesdayClose:22:00;fridayClose:22:00;mondayClose:22:00;saturdayClose:22:00;sundayClose:22:00;sundayOpen:06:00;,,
City Market,00406,#6 Town Plaza Shop Center,,Durango,CO,81301,United States,9702474475,37.2742404,-107.8824442,fridayOpen:06:00;thursdayClose:23:00;recordId:62000406;wednesdayOpen:06:00;thursdayOpen:06:00;tuesdayOpen:06:00;wednesdayClose:23:00;saturdayOpen:06:00;mondayOpen:06:00;tuesdayClose:23:00;fridayClose:23:00;mondayClose:23:00;saturdayClose:23:00;sundayClose:23:00;sundayOpen:06:00;,,
City Market,00421,3130 Main Ave,,Durango,CO,81301,United States,9702590240,37.2999012,-107.870071,fridayOpen:06:00;thursdayClose:23:00;recordId:62000421;wednesdayOpen:06:00;thursdayOpen:06:00;tuesdayOpen:06:00;wednesdayClose:23:00;saturdayOpen:06:00;mondayOpen:06:00;tuesdayClose:23:00;fridayClose:23:00;mondayClose:23:00;saturdayClose:23:00;sundayClose:23:00;sundayOpen:06:00;,,
Loaf 'N Jug,00003,200 Main St,,Walsenburg,CO,81089,United States,7197383515,37.6273604,-104.7827515,fridayOpen:07:00;thursdayClose:07:00;recordId:67300003;wednesdayOpen:07:00;thursdayOpen:07:00;tuesdayOpen:07:00;wednesdayClose:07:00;saturdayOpen:07:00;mondayOpen:07:00;tuesdayClose:07:00;fridayClose:07:00;mondayClose:07:00;saturdayClose:07:00;sundayClose:07:00;sundayOpen:07:00;,,
Littman Jewelers,00863,5065 Main St,,Trumbull,CT,06611,United States,2033740031,41.229373,-73.226259,fridayOpen:10:30;thursdayClose:21:30;recordId:70200863;wednesdayOpen:10:30;thursdayOpen:10:30;tuesdayOpen:10:30;wednesdayClose:21:30;saturdayOpen:10:00;mondayOpen:10:30;tuesdayClose:21:30;fridayClose:21:30;mondayClose:21:30;saturdayClose:21:30;sundayClose:18:00;sundayOpen:11:00;,,
Littman Jewelers,00845,136 Smith Haven Mall,,Lake Grove,NY,11755,United States,6312651199,40.865175,-73.130061,fridayOpen:10:00;thursdayClose:21:30;recordId:70200845;wednesdayOpen:10:00;thursdayOpen:10:00;tuesdayOpen:10:00;wednesdayClose:21:30;saturdayOpen:10:00;mondayOpen:10:00;tuesdayClose:21:30;fridayClose:21:30;mondayClose:21:30;saturdayClose:21:30;sundayClose:18:00;sundayOpen:11:00;,,
Littman Jewelers,00870,2001 South Rd Ste Mailbox,,Poughkeepsie,NY,12601,United States,8452981217,41.626363,-73.920368,fridayOpen:10:00;thursdayClose:21:30;recordId:70200870;wednesdayOpen:10:00;thursdayOpen:10:00;tuesdayOpen:10:00;wednesdayClose:21:30;saturdayOpen:10:00;mondayOpen:10:00;tuesdayClose:21:30;fridayClose:21:30;mondayClose:21:30;saturdayClose:21:30;sundayClose:18:00;sundayOpen:11:00;,,
Fred Meyer Jewelers,00021,61535 S Highway 97,,Bend,OR,97702,United States,5413856640,44.034764,-121.309502,fridayOpen:09:00;thursdayClose:21:00;recordId:70200021;wednesdayOpen:09:00;thursdayOpen:09:00;tuesdayOpen:09:00;wednesdayClose:21:00;saturdayOpen:09:00;mondayOpen:09:00;tuesdayClose:21:00;fridayClose:21:00;mondayClose:21:00;saturdayClose:21:00;sundayClose:18:00;sundayOpen:10:00;,,
Copps,00132,1500 Pinecrest Ave,,STEVENS POINT,WI,54481,United States,7153451937,44.5208971,-89.5507832,fridayOpen:07:00;thursdayClose:23:00;recordId:53400132;wednesdayOpen:07:00;thursdayOpen:07:00;tuesdayOpen:07:00;wednesdayClose:23:00;saturdayOpen:07:00;mondayOpen:07:00;tuesdayClose:23:00;fridayClose:23:00;mondayClose:23:00;saturdayClose:23:00;sundayClose:23:00;sundayOpen:07:00;,,
Pick n Save,00404,10101 Market Street,,MOSINEE,WI,54474,United States,7152410191,44.8646897,-89.6342833,fridayOpen:06:00;thursdayClose:22:00;recordId:53400404;wednesdayOpen:06:00;thursdayOpen:06:00;tuesdayOpen:06:00;wednesdayClose:22:00;saturdayOpen:06:00;mondayOpen:06:00;tuesdayClose:22:00;fridayClose:22:00;mondayClose:22:00;saturdayClose:22:00;sundayClose:22:00;sundayOpen:06:00;,,
Copps,00101,1850 Plover Rd.,,PLOVER,WI,54467,United States,7153420011,44.4562144,-89.5275752,fridayOpen:06:00;thursdayClose:22:00;recordId:53400101;wednesdayOpen:06:00;thursdayOpen:06:00;tuesdayOpen:06:00;wednesdayClose:22:00;saturdayOpen:06:00;mondayOpen:06:00;tuesdayClose:22:00;fridayClose:22:00;mondayClose:22:00;saturdayClose:22:00;sundayClose:22:00;sundayOpen:06:00;,,
Loaf 'N Jug,00685,2835 N Washington St,,Bismarck,ND,58501,United States,7012583680,46.8375639,-100.7938742,fridayOpen:07:00;thursdayClose:07:00;recordId:67300685;wednesdayOpen:07:00;thursdayOpen:07:00;tuesdayOpen:07:00;wednesdayClose:07:00;saturdayOpen:07:00;mondayOpen:07:00;tuesdayClose:07:00;fridayClose:07:00;mondayClose:07:00;saturdayClose:07:00;sundayClose:07:00;sundayOpen:07:00;,,
Loaf 'N Jug,00682,2600 E Rosser Ave,,Bismarck,ND,58501,United States,7012585315,46.8081548,-100.7518695,fridayOpen:07:00;thursdayClose:07:00;recordId:67300682;wednesdayOpen:07:00;thursdayOpen:07:00;tuesdayOpen:07:00;wednesdayClose:07:00;saturdayOpen:07:00;mondayOpen:07:00;tuesdayClose:07:00;fridayClose:07:00;mondayClose:07:00;saturdayClose:07:00;sundayClose:07:00;sundayOpen:07:00;,,
Loaf 'N Jug,00684,513 W Main St,,Beulah,ND,58523,United States,7018732206,47.2634451,-101.78453,fridayOpen:07:00;thursdayClose:07:00;recordId:67300684;wednesdayOpen:07:00;thursdayOpen:07:00;tuesdayOpen:07:00;wednesdayClose:07:00;saturdayOpen:07:00;mondayOpen:07:00;tuesdayClose:07:00;fridayClose:07:00;mondayClose:07:00;saturdayClose:07:00;sundayClose:07:00;sundayOpen:07:00;,,
Loaf 'N Jug,00671,409 Burdick Expressway East,,Minot,ND,58701,United States,7018521563,48.2327505,-101.2871492,fridayOpen:07:00;thursdayClose:07:00;recordId:67300671;wednesdayOpen:07:00;thursdayOpen:07:00;tuesdayOpen:07:00;wednesdayClose:07:00;saturdayOpen:07:00;mondayOpen:07:00;tuesdayClose:07:00;fridayClose:07:00;mondayClose:07:00;saturdayClose:07:00;sundayClose:07:00;sundayOpen:07:00;,,
Loaf 'N Jug,00673,810 N Broadway,,Minot,ND,58703,United States,7018526194,48.2444737,-101.2959925,fridayOpen:07:00;thursdayClose:07:00;recordId:67300673;wednesdayOpen:07:00;thursdayOpen:07:00;tuesdayOpen:07:00;wednesdayClose:07:00;saturdayOpen:07:00;mondayOpen:07:00;tuesdayClose:07:00;fridayClose:07:00;mondayClose:07:00;saturdayClose:07:00;sundayClose:07:00;sundayOpen:07:00;,,
Loaf 'N Jug,00670,1512 4Th Ave Nw,,Minot,ND,58703,United States,7018525331,48.2401051,-101.3165073,fridayOpen:07:00;thursdayClose:07:00;recordId:67300670;wednesdayOpen:07:00;thursdayOpen:07:00;tuesdayOpen:07:00;wednesdayClose:07:00;saturdayOpen:07:00;mondayOpen:07:00;tuesdayClose:07:00;fridayClose:07:00;mondayClose:07:00;saturdayClose:07:00;sundayClose:07:00;sundayOpen:07:00;,,
Loaf 'N Jug,00679,424 1st Ave N,,Jamestown,ND,58401,United States,7012512880,46.9119657,-98.7085566,fridayOpen:07:00;thursdayClose:07:00;recordId:67300679;wednesdayOpen:07:00;thursdayOpen:07:00;tuesdayOpen:07:00;wednesdayClose:07:00;saturdayOpen:07:00;mondayOpen:07:00;tuesdayClose:07:00;fridayClose:07:00;mondayClose:07:00;saturdayClose:07:00;sundayClose:07:00;sundayOpen:07:00;,,
Loaf 'N Jug,00675,797 S Main Ave,,Dickinson,ND,58601,United States,7012254263,46.8617313,-102.789767,fridayOpen:07:00;thursdayClose:07:00;recordId:67300675;wednesdayOpen:07:00;thursdayOpen:07:00;tuesdayOpen:07:00;wednesdayClose:07:00;saturdayOpen:07:00;mondayOpen:07:00;tuesdayClose:07:00;fridayClose:07:00;mondayClose:07:00;saturdayClose:07:00;sundayClose:07:00;sundayOpen:07:00;,,
Loaf 'N Jug,00642,4250 University Ave,,Grand Forks,ND,58203,United States,7017468701,47.922691,-97.088791,fridayOpen:07:00;thursdayClose:07:00;recordId:67300642;wednesdayOpen:07:00;thursdayOpen:07:00;tuesdayOpen:07:00;wednesdayClose:07:00;saturdayOpen:07:00;mondayOpen:07:00;tuesdayClose:07:00;fridayClose:07:00;mondayClose:07:00;saturdayClose:07:00;sundayClose:07:00;sundayOpen:07:00;,,
Loaf 'N Jug,00664,4326 Gateway Dr,,Grand Forks,ND,58203,United States,7017752537,47.9339179,-97.0910949,fridayOpen:07:00;thursdayClose:07:00;recordId:67300664;wednesdayOpen:07:00;thursdayOpen:07:00;tuesdayOpen:07:00;wednesdayClose:07:00;saturdayOpen:07:00;mondayOpen:07:00;tuesdayClose:07:00;fridayClose:07:00;mondayClose:07:00;saturdayClose:07:00;sundayClose:07:00;sundayOpen:07:00;,,
Loaf 'N Jug,00714,516 S. Ellery,,Fairview,MT,59221,United States,4067475024,47.8520713,-104.0446626,fridayOpen:07:00;thursdayClose:07:00;recordId:67300714;wednesdayOpen:07:00;thursdayOpen:07:00;tuesdayOpen:07:00;wednesdayClose:07:00;saturdayOpen:07:00;mondayOpen:07:00;tuesdayClose:07:00;fridayClose:07:00;mondayClose:07:00;saturdayClose:07:00;sundayClose:07:00;sundayOpen:07:00;,,
Loaf 'N Jug,00712,706 S Central Ave,,Sidney,MT,59270,United States,4064825647,47.7094488,-104.1610812,fridayOpen:07:00;thursdayClose:07:00;recordId:67300712;wednesdayOpen:07:00;thursdayOpen:07:00;tuesdayOpen:07:00;wednesdayClose:07:00;saturdayOpen:07:00;mondayOpen:07:00;tuesdayClose:07:00;fridayClose:07:00;mondayClose:07:00;saturdayClose:07:00;sundayClose:07:00;sundayOpen:07:00;,,
Loaf 'N Jug,00689,2201 18Th St S,,Fargo,ND,58103,United States,7012939905,46.8455047,-96.8192138,fridayOpen:07:00;thursdayClose:07:00;recordId:67300689;wednesdayOpen:07:00;thursdayOpen:07:00;tuesdayOpen:07:00;wednesdayClose:07:00;saturdayOpen:07:00;mondayOpen:07:00;tuesdayClose:07:00;fridayClose:07:00;mondayClose:07:00;saturdayClose:07:00;sundayClose:07:00;sundayOpen:07:00;,,
Loaf 'N Jug,00687,1201 University Dr N,,Fargo,ND,58102,United States,7012930413,46.890625,-96.7976455,fridayOpen:07:00;thursdayClose:07:00;recordId:67300687;wednesdayOpen:07:00;thursdayOpen:07:00;tuesdayOpen:07:00;wednesdayClose:07:00;saturdayOpen:07:00;mondayOpen:07:00;tuesdayClose:07:00;fridayClose:07:00;mondayClose:07:00;saturdayClose:07:00;sundayClose:07:00;sundayOpen:07:00;,,
Loaf 'N Jug,00688,3201 Broadway N,,Fargo,ND,58102,United States,7012329418,46.9195747,-96.7865753,fridayOpen:07:00;thursdayClose:07:00;recordId:67300688;wednesdayOpen:07:00;thursdayOpen:07:00;tuesdayOpen:07:00;wednesdayClose:07:00;saturdayOpen:07:00;mondayOpen:07:00;tuesdayClose:07:00;fridayClose:07:00;mondayClose:07:00;saturdayClose:07:00;sundayClose:07:00;sundayOpen:07:00;,,
Loaf 'N Jug,00619,1833 University Dr S,,Fargo,ND,58103,United States,7012379224,46.8504371,-96.7991027,fridayOpen:07:00;thursdayClose:07:00;recordId:67300619;wednesdayOpen:07:00;thursdayOpen:07:00;tuesdayOpen:07:00;wednesdayClose:07:00;saturdayOpen:07:00;mondayOpen:07:00;tuesdayClose:07:00;fridayClose:07:00;mondayClose:07:00;saturdayClose:07:00;sundayClose:07:00;sundayOpen:07:00;,,
Loaf 'N Jug,00710,322 E Barry St,,Glendive,MT,59330,United States,4063656111,47.0989036,-104.7136535,fridayOpen:07:00;thursdayClose:07:00;recordId:67300710;wednesdayOpen:07:00;thursdayOpen:07:00;tuesdayOpen:07:00;wednesdayClose:07:00;saturdayOpen:07:00;mondayOpen:07:00;tuesdayClose:07:00;fridayClose:07:00;mondayClose:07:00;saturdayClose:07:00;sundayClose:07:00;sundayOpen:07:00;,,
Smith's,00388,1740 Mountain City Hwy,,Elko,NV,89801,United States,7757771333,40.8349607,-115.7847216,fridayOpen:07:00;thursdayClose:07:00;recordId:70600388;wednesdayOpen:07:00;thursdayOpen:07:00;tuesdayOpen:07:00;wednesdayClose:07:00;saturdayOpen:07:00;mondayOpen:07:00;tuesdayClose:07:00;fridayClose:07:00;mondayClose:07:00;saturdayClose:07:00;sundayClose:07:00;sundayOpen:07:00;,,
Quik Stop Market,00171,360 S Hwy 95A,,Fernley,NV,89408,United States,7758356800,39.6027908,-119.2504653,fridayOpen:07:00;thursdayClose:07:00;recordId:67500171;wednesdayOpen:07:00;thursdayOpen:07:00;tuesdayOpen:07:00;wednesdayClose:07:00;saturdayOpen:07:00;mondayOpen:07:00;tuesdayClose:07:00;fridayClose:07:00;mondayClose:07:00;saturdayClose:07:00;sundayClose:07:00;sundayOpen:07:00;,,
Smith's,00392,2200 Us Highway 50 E,,Dayton,NV,89403,United States,7752460242,39.2640085,-119.5825816,fridayOpen:07:00;thursdayClose:07:00;recordId:70600392;wednesdayOpen:07:00;thursdayOpen:07:00;tuesdayOpen:07:00;wednesdayClose:07:00;saturdayOpen:07:00;mondayOpen:07:00;tuesdayClose:07:00;fridayClose:07:00;mondayClose:07:00;saturdayClose:07:00;sundayClose:07:00;sundayOpen:07:00;,,
Quik Stop Market,00170,125 Salomon Cir,,Sparks,NV,89434,United States,7753316855,39.5289955,-119.7009506,fridayOpen:07:00;thursdayClose:07:00;recordId:67500170;wednesdayOpen:07:00;thursdayOpen:07:00;tuesdayOpen:07:00;wednesdayClose:07:00;saturdayOpen:07:00;mondayOpen:07:00;tuesdayClose:07:00;fridayClose:07:00;mondayClose:07:00;saturdayClose:07:00;sundayClose:07:00;sundayOpen:07:00;,,
Smith's,00357,1255 Baring Blvd,,Sparks,NV,89434,United States,7753596800,39.5546929,-119.7221863,fridayOpen:07:00;thursdayClose:07:00;recordId:70600357;wednesdayOpen:07:00;thursdayOpen:07:00;tuesdayOpen:07:00;wednesdayClose:07:00;saturdayOpen:07:00;mondayOpen:07:00;tuesdayClose:07:00;fridayClose:07:00;mondayClose:07:00;saturdayClose:07:00;sundayClose:07:00;sundayOpen:07:00;,,
Quik Stop Market,00168,1195 South Rock Blvd.,,Reno,NV,89502,United States,7758572225,39.4990742,-119.75278159999999,fridayOpen:07:00;thursdayClose:07:00;recordId:67500168;wednesdayOpen:07:00;thursdayOpen:07:00;tuesdayOpen:07:00;wednesdayClose:07:00;saturdayOpen:07:00;mondayOpen:07:00;tuesdayClose:07:00;fridayClose:07:00;mondayClose:07:00;saturdayClose:07:00;sundayClose:07:00;sundayOpen:07:00;,,
Smith's,00378,750 S Meadows Pkwy,,Reno,NV,89521,United States,7758518050,39.4373756,-119.7567463,fridayOpen:07:00;thursdayClose:07:00;recordId:70600378;wednesdayOpen:07:00;thursdayOpen:07:00;tuesdayOpen:07:00;wednesdayClose:07:00;saturdayOpen:07:00;mondayOpen:07:00;tuesdayClose:07:00;fridayClose:07:00;mondayClose:07:00;saturdayClose:07:00;sundayClose:07:00;sundayOpen:07:00;,,
Smith's,00390,1855 W Wendover Blvd,,Wendover,NV,89883,United States,7756643306,40.7396328,-114.0780147,fridayOpen:06:00;thursdayClose:00:00;recordId:70600390;wednesdayOpen:06:00;thursdayOpen:06:00;tuesdayOpen:06:00;wednesdayClose:00:00;saturdayOpen:06:00;mondayOpen:06:00;tuesdayClose:00:00;fridayClose:00:00;mondayClose:00:00;saturdayClose:00:00;sundayClose:00:00;sundayOpen:06:00;,,
Quik Stop Market,00164,3006 N Roop St,,Carson City,NV,89706,United States,7758838861,39.1868629,-119.7608184,fridayOpen:07:00;thursdayClose:07:00;recordId:67500164;wednesdayOpen:07:00;thursdayOpen:07:00;tuesdayOpen:07:00;wednesdayClose:07:00;saturdayOpen:07:00;mondayOpen:07:00;tuesdayClose:07:00;fridayClose:07:00;mondayClose:07:00;saturdayClose:07:00;sundayClose:07:00;sundayOpen:07:00;,,
Smith's,00356,599 E William St,,Carson City,NV,89701,United States,7758859922,39.1690097,-119.76272230000001,fridayOpen:05:00;thursdayClose:01:00;recordId:70600356;wednesdayOpen:05:00;thursdayOpen:05:00;tuesdayOpen:05:00;wednesdayClose:01:00;saturdayOpen:05:00;mondayOpen:05:00;tuesdayClose:01:00;fridayClose:01:00;mondayClose:01:00;saturdayClose:01:00;sundayClose:01:00;sundayOpen:05:00;,,
Quik Stop Market,00169,2990 Mill St,,Reno,NV,89502,United States,7753235506,39.5173149,-119.7779006,fridayOpen:07:00;thursdayClose:07:00;recordId:67500169;wednesdayOpen:07:00;thursdayOpen:07:00;tuesdayOpen:07:00;wednesdayClose:07:00;saturdayOpen:07:00;mondayOpen:07:00;tuesdayClose:07:00;fridayClose:07:00;mondayClose:07:00;saturdayClose:07:00;sundayClose:07:00;sundayOpen:07:00;,,
Quik Stop Market,00160,140 W 1St Ave,,Sun Valley,NV,89433,United States,7756744690,39.5778427,-119.78108209999999,fridayOpen:07:00;thursdayClose:07:00;recordId:67500160;wednesdayOpen:07:00;thursdayOpen:07:00;tuesdayOpen:07:00;wednesdayClose:07:00;saturdayOpen:07:00;mondayOpen:07:00;tuesdayClose:07:00;fridayClose:07:00;mondayClose:07:00;saturdayClose:07:00;sundayClose:07:00;sundayOpen:07:00;,,
Smith's,00389,1341 Us Highway 395 N,,Gardnerville,NV,89410,United States,7757820155,38.9375457,-119.7386016,fridayOpen:07:00;thursdayClose:00:00;recordId:70600389;wednesdayOpen:07:00;thursdayOpen:07:00;tuesdayOpen:07:00;wednesdayClose:00:00;saturdayOpen:07:00;mondayOpen:07:00;tuesdayClose:00:00;fridayClose:00:00;mondayClose:00:00;saturdayClose:00:00;sundayClose:00:00;sundayOpen:07:00;,,
Quik Stop Market,00165,1005 N Hills Blvd,,Reno,NV,89506,United States,7759720560,39.6046257,-119.83620450000001,fridayOpen:07:00;thursdayClose:07:00;recordId:67500165;wednesdayOpen:07:00;thursdayOpen:07:00;tuesdayOpen:07:00;wednesdayClose:07:00;saturdayOpen:07:00;mondayOpen:07:00;tuesdayClose:07:00;fridayClose:07:00;mondayClose:07:00;saturdayClose:07:00;sundayClose:07:00;sundayOpen:07:00;,,
Smith's,00344,175 Lemmon Dr,,Reno,NV,89506,United States,7759713310,39.613743,-119.85220290000001,fridayOpen:07:00;thursdayClose:07:00;recordId:70600344;wednesdayOpen:07:00;thursdayOpen:07:00;tuesdayOpen:07:00;wednesdayClose:07:00;saturdayOpen:07:00;mondayOpen:07:00;tuesdayClose:07:00;fridayClose:07:00;mondayClose:07:00;saturdayClose:07:00;sundayClose:07:00;sundayOpen:07:00;,,
Smith's,00341,601 S Highway 160,,Pahrump,NV,89048,United States,7757272400,36.2118853,-115.9861901,fridayOpen:07:00;thursdayClose:07:00;recordId:70600341;wednesdayOpen:07:00;thursdayOpen:07:00;tuesdayOpen:07:00;wednesdayClose:07:00;saturdayOpen:07:00;mondayOpen:07:00;tuesdayClose:07:00;fridayClose:07:00;mondayClose:07:00;saturdayClose:07:00;sundayClose:07:00;sundayOpen:07:00;,,
Smith's,00332,7130 N Durango Dr,,Las Vegas,NV,89149,United States,7026473566,36.2907187,-115.2856461,fridayOpen:07:00;thursdayClose:07:00;recordId:70600332;wednesdayOpen:07:00;thursdayOpen:07:00;tuesdayOpen:07:00;wednesdayClose:07:00;saturdayOpen:07:00;mondayOpen:07:00;tuesdayClose:07:00;fridayClose:07:00;mondayClose:07:00;saturdayClose:07:00;sundayClose:07:00;sundayOpen:07:00;,,
Smith's,00342,350 N Sandhill Blvd,,Mesquite,NV,89027,United States,7023468652,36.8083678,-114.0626908,fridayOpen:07:00;thursdayClose:07:00;recordId:70600342;wednesdayOpen:07:00;thursdayOpen:07:00;tuesdayOpen:07:00;wednesdayClose:07:00;saturdayOpen:07:00;mondayOpen:07:00;tuesdayClose:07:00;fridayClose:07:00;mondayClose:07:00;saturdayClose:07:00;sundayClose:07:00;sundayOpen:07:00;,,
Smith's,00042,633 S Main St,,Cedar City,UT,84720,United States,4355861203,37.6662364,-113.0620525,fridayOpen:07:00;thursdayClose:01:00;recordId:70600042;wednesdayOpen:07:00;thursdayOpen:07:00;tuesdayOpen:07:00;wednesdayClose:01:00;saturdayOpen:07:00;mondayOpen:07:00;tuesdayClose:01:00;fridayClose:01:00;mondayClose:01:00;saturdayClose:01:00;sundayClose:01:00;sundayOpen:07:00;,,
Smith's,00338,6855 Aliante Pkwy,,North Las Vegas,NV,89084,United States,7026423350,36.2850238,-115.1790264,fridayOpen:06:00;thursdayClose:00:00;recordId:70600338;wednesdayOpen:06:00;thursdayOpen:06:00;tuesdayOpen:06:00;wednesdayClose:00:00;saturdayOpen:06:00;mondayOpen:06:00;tuesdayClose:00:00;fridayClose:00:00;mondayClose:00:00;saturdayClose:00:00;sundayClose:00:00;sundayOpen:06:00;,,
Smith's,00189,20 N Bluff St,,Saint George,UT,84770,United States,4356738880,37.1088259,-113.5914717,fridayOpen:07:00;thursdayClose:07:00;recordId:70600189;wednesdayOpen:07:00;thursdayOpen:07:00;tuesdayOpen:07:00;wednesdayClose:07:00;saturdayOpen:07:00;mondayOpen:07:00;tuesdayClose:07:00;fridayClose:07:00;mondayClose:07:00;saturdayClose:07:00;sundayClose:07:00;sundayOpen:07:00;,,
Quik Stop Market,00161,4185 State Highway 49,,Diamond Springs,CA,95619,United States,5303440116,38.6962401,-120.8125848,fridayOpen:07:00;thursdayClose:07:00;recordId:67500161;wednesdayOpen:07:00;thursdayOpen:07:00;tuesdayOpen:07:00;wednesdayClose:07:00;saturdayOpen:07:00;mondayOpen:07:00;tuesdayClose:07:00;fridayClose:07:00;mondayClose:07:00;saturdayClose:07:00;sundayClose:07:00;sundayOpen:07:00;,,
Smith's,00361,4700 W Ann Rd,,North Las Vegas,NV,89031,United States,7023954199,36.2629501,-115.2058224,fridayOpen:06:00;thursdayClose:01:00;recordId:70600361;wednesdayOpen:06:00;thursdayOpen:06:00;tuesdayOpen:06:00;wednesdayClose:01:00;saturdayOpen:06:00;mondayOpen:06:00;tuesdayClose:01:00;fridayClose:01:00;mondayClose:01:00;saturdayClose:01:00;sundayClose:01:00;sundayOpen:06:00;,,
Smith's,00334,2255 E Centennial Pkwy,,North Las Vegas,NV,89081,United States,7026337222,36.2751999,-115.11928879999999,fridayOpen:05:00;thursdayClose:00:00;recordId:70600334;wednesdayOpen:05:00;thursdayOpen:05:00;tuesdayOpen:05:00;wednesdayClose:00:00;saturdayOpen:05:00;mondayOpen:05:00;tuesdayClose:00:00;fridayClose:00:00;mondayClose:00:00;saturdayClose:00:00;sundayClose:00:00;sundayOpen:05:00;,,
Smith's,00345,5564 Camino Al Norte,,North Las Vegas,NV,89031,United States,7023990730,36.2611326,-115.1537663,fridayOpen:07:00;thursdayClose:07:00;recordId:70600345;wednesdayOpen:07:00;thursdayOpen:07:00;tuesdayOpen:07:00;wednesdayClose:07:00;saturdayOpen:07:00;mondayOpen:07:00;tuesdayClose:07:00;fridayClose:07:00;mondayClose:07:00;saturdayClose:07:00;sundayClose:07:00;sundayOpen:07:00;,,
Smith's,00301,3013 W Craig Rd,,North Las Vegas,NV,89032,United States,7026484822,36.2379846,-115.1813713,fridayOpen:06:00;thursdayClose:00:00;recordId:70600301;wednesdayOpen:06:00;thursdayOpen:06:00;tuesdayOpen:06:00;wednesdayClose:00:00;saturdayOpen:06:00;mondayOpen:06:00;tuesdayClose:00:00;fridayClose:00:00;mondayClose:00:00;saturdayClose:00:00;sundayClose:00:00;sundayOpen:06:00;,,
Smith's,00370,3160 N Rainbow Blvd,,Las Vegas,NV,89108,United States,7026586880,36.2171704,-115.240754,fridayOpen:06:00;thursdayClose:01:00;recordId:70600370;wednesdayOpen:06:00;thursdayOpen:06:00;tuesdayOpen:06:00;wednesdayClose:01:00;saturdayOpen:06:00;mondayOpen:06:00;tuesdayClose:01:00;fridayClose:01:00;mondayClose:01:00;saturdayClose:01:00;sundayClose:01:00;sundayOpen:06:00;,,
Smith's,00385,2211 N Rampart Blvd,,Las Vegas,NV,89128,United States,7022565200,36.2016645,-115.2838091,fridayOpen:07:00;thursdayClose:07:00;recordId:70600385;wednesdayOpen:07:00;thursdayOpen:07:00;tuesdayOpen:07:00;wednesdayClose:07:00;saturdayOpen:07:00;mondayOpen:07:00;tuesdayClose:07:00;fridayClose:07:00;mondayClose:07:00;saturdayClose:07:00;sundayClose:07:00;sundayOpen:07:00;,,
Smith's,00372,1421 N Jones Blvd,,Las Vegas,NV,89108,United States,7026311932,36.1865786,-115.2250464,fridayOpen:07:00;thursdayClose:01:00;recordId:70600372;wednesdayOpen:07:00;thursdayOpen:07:00;tuesdayOpen:07:00;wednesdayClose:01:00;saturdayOpen:07:00;mondayOpen:07:00;tuesdayClose:01:00;fridayClose:01:00;mondayClose:01:00;saturdayClose:01:00;sundayClose:01:00;sundayOpen:07:00;,,
Smith's,00347,9851 W Charleston Blvd,,Las Vegas,NV,89117,United States,7029461200,36.1577063,-115.312232,fridayOpen:07:00;thursdayClose:07:00;recordId:70600347;wednesdayOpen:07:00;thursdayOpen:07:00;tuesdayOpen:07:00;wednesdayClose:07:00;saturdayOpen:07:00;mondayOpen:07:00;tuesdayClose:07:00;fridayClose:07:00;mondayClose:07:00;saturdayClose:07:00;sundayClose:07:00;sundayOpen:07:00;,,
Smith's,00306,2255 Las Vegas Blvd. N,,North Las Vegas,NV,89030,United States,7026421000,36.20247,-115.1221815,fridayOpen:06:00;thursdayClose:12:00;recordId:70600306;wednesdayOpen:06:00;thursdayOpen:06:00;tuesdayOpen:06:00;wednesdayClose:12:00;saturdayOpen:06:00;mondayOpen:06:00;tuesdayClose:12:00;fridayClose:12:00;mondayClose:12:00;saturdayClose:12:00;sundayClose:12:00;sundayOpen:06:00;,,
Smith's,00371,8555 W Sahara Ave,,Las Vegas,NV,89117,United States,7023417474,36.1426549,-115.2775834,fridayOpen:06:00;thursdayClose:00:00;recordId:70600371;wednesdayOpen:06:00;thursdayOpen:06:00;tuesdayOpen:06:00;wednesdayClose:00:00;saturdayOpen:06:00;mondayOpen:06:00;tuesdayClose:00:00;fridayClose:00:00;mondayClose:00:00;saturdayClose:00:00;sundayClose:00:00;sundayOpen:06:00;,,
Smith's,00377,850 S Rancho Dr,,Las Vegas,NV,89106,United States,7028708494,36.1613364,-115.1745174,fridayOpen:06:00;thursdayClose:00:00;recordId:70600377;wednesdayOpen:06:00;thursdayOpen:06:00;tuesdayOpen:06:00;wednesdayClose:00:00;saturdayOpen:06:00;mondayOpen:06:00;tuesdayClose:00:00;fridayClose:00:00;mondayClose:00:00;saturdayClose:00:00;sundayClose:00:00;sundayOpen:06:00;,,
Quik Stop Market,00107,148 Hughes Rd,,Grass Valley,CA,95945,United States,5302727004,39.228878,-121.053688,fridayOpen:06:00;thursdayClose:02:00;recordId:67500107;wednesdayOpen:06:00;thursdayOpen:06:00;tuesdayOpen:06:00;wednesdayClose:02:00;saturdayOpen:06:00;mondayOpen:06:00;tuesdayClose:02:00;fridayClose:02:00;mondayClose:02:00;saturdayClose:02:00;sundayClose:02:00;sundayOpen:06:00;,,
Smith's,00305,3602 E Bonanza Rd,,Las Vegas,NV,89110,United States,7024384787,36.1744412,-115.09582209999999,fridayOpen:06:00;thursdayClose:00:00;recordId:70600305;wednesdayOpen:06:00;thursdayOpen:06:00;tuesdayOpen:06:00;wednesdayClose:00:00;saturdayOpen:06:00;mondayOpen:06:00;tuesdayClose:00:00;fridayClose:00:00;mondayClose:00:00;saturdayClose:00:00;sundayClose:00:00;sundayOpen:06:00;,,
Smith's,00396,9350 W Flamingo Rd,,Las Vegas,NV,89147,United States,7022402260,36.1161817,-115.2952898,fridayOpen:07:00;thursdayClose:07:00;recordId:70600396;wednesdayOpen:07:00;thursdayOpen:07:00;tuesdayOpen:07:00;wednesdayClose:07:00;saturdayOpen:07:00;mondayOpen:07:00;tuesdayClose:07:00;fridayClose:07:00;mondayClose:07:00;saturdayClose:07:00;sundayClose:07:00;sundayOpen:07:00;,,
Smith's,00399,4840 W Desert Inn Rd,,Las Vegas,NV,89102,United States,7022481365,36.1314449,-115.2064237,fridayOpen:06:00;thursdayClose:00:00;recordId:70600399;wednesdayOpen:06:00;thursdayOpen:06:00;tuesdayOpen:06:00;wednesdayClose:00:00;saturdayOpen:06:00;mondayOpen:06:00;tuesdayClose:00:00;fridayClose:00:00;mondayClose:00:00;saturdayClose:00:00;sundayClose:00:00;sundayOpen:06:00;,,
Smith's,00363,4015 S Buffalo Dr,,Las Vegas,NV,89147,United States,7028763366,36.1160088,-115.2625587,fridayOpen:06:00;thursdayClose:01:00;recordId:70600363;wednesdayOpen:06:00;thursdayOpen:06:00;tuesdayOpen:06:00;wednesdayClose:01:00;saturdayOpen:06:00;mondayOpen:06:00;tuesdayClose:01:00;fridayClose:01:00;mondayClose:01:00;saturdayClose:01:00;sundayClose:01:00;sundayOpen:06:00;,,
Smith's,00349,10100 W Tropicana Ave,,Las Vegas,NV,89147,United States,7022207763,36.101571,-115.313164,fridayOpen:07:00;thursdayClose:07:00;recordId:70600349;wednesdayOpen:07:00;thursdayOpen:07:00;tuesdayOpen:07:00;wednesdayClose:07:00;saturdayOpen:07:00;mondayOpen:07:00;tuesdayClose:07:00;fridayClose:07:00;mondayClose:07:00;saturdayClose:07:00;sundayClose:07:00;sundayOpen:07:00;,,
Smith's,00355,450 N Nellis Blvd,,Las Vegas,NV,89110,United States,7024524718,36.1676242,-115.060332,fridayOpen:06:30;thursdayClose:00:00;recordId:70600355;wednesdayOpen:06:30;thursdayOpen:06:30;tuesdayOpen:06:30;wednesdayClose:00:00;saturdayOpen:06:30;mondayOpen:06:30;tuesdayClose:00:00;fridayClose:00:00;mondayClose:00:00;saturdayClose:00:00;sundayClose:00:00;sundayOpen:06:30;,,
Smith's,00358,2540 S Maryland Pkwy,,Las Vegas,NV,89109,United States,7027358928,36.1433781,-115.1349038,fridayOpen:07:00;thursdayClose:00:00;recordId:70600358;wednesdayOpen:07:00;thursdayOpen:07:00;tuesdayOpen:07:00;wednesdayClose:00:00;saturdayOpen:07:00;mondayOpen:07:00;tuesdayClose:00:00;fridayClose:00:00;mondayClose:00:00;saturdayClose:00:00;sundayClose:00:00;sundayOpen:07:00;,,
Smith's,00304,4001 S Decatur Blvd,,Las Vegas,NV,89103,United States,7022484400,36.1182657,-115.2096255,fridayOpen:06:00;thursdayClose:02:00;recordId:70600304;wednesdayOpen:06:00;thursdayOpen:06:00;tuesdayOpen:06:00;wednesdayClose:02:00;saturdayOpen:06:00;mondayOpen:06:00;tuesdayClose:02:00;fridayClose:02:00;mondayClose:02:00;saturdayClose:02:00;sundayClose:02:00;sundayOpen:06:00;,,
Smith's,00351,6130 W Tropicana Ave,,Las Vegas,NV,89103,United States,7028710904,36.1015027,-115.2263864,fridayOpen:07:00;thursdayClose:07:00;recordId:70600351;wednesdayOpen:07:00;thursdayOpen:07:00;tuesdayOpen:07:00;wednesdayClose:07:00;saturdayOpen:07:00;mondayOpen:07:00;tuesdayClose:07:00;fridayClose:07:00;mondayClose:07:00;saturdayClose:07:00;sundayClose:07:00;sundayOpen:07:00;,,
Smith's,00318,4965 E Sahara Ave,,Las Vegas,NV,89104,United States,7024319973,36.1429234,-115.0670568,fridayOpen:06:00;thursdayClose:12:00;recordId:70600318;wednesdayOpen:06:00;thursdayOpen:06:00;tuesdayOpen:06:00;wednesdayClose:12:00;saturdayOpen:06:00;mondayOpen:06:00;tuesdayClose:12:00;fridayClose:12:00;mondayClose:12:00;saturdayClose:12:00;sundayClose:12:00;sundayOpen:06:00;,,
Smith's,00354,3850 E Flamingo Rd,,Las Vegas,NV,89121,United States,7024512246,36.1164013,-115.0898536,fridayOpen:07:00;thursdayClose:07:00;recordId:70600354;wednesdayOpen:07:00;thursdayOpen:07:00;tuesdayOpen:07:00;wednesdayClose:07:00;saturdayOpen:07:00;mondayOpen:07:00;tuesdayClose:07:00;fridayClose:07:00;mondayClose:07:00;saturdayClose:07:00;sundayClose:07:00;sundayOpen:07:00;,,
Smith's,00311,8050 S Rainbow Blvd,,Las Vegas,NV,89139,United States,7022947201,36.0424108,-115.2417723,fridayOpen:07:00;thursdayClose:07:00;recordId:70600311;wednesdayOpen:07:00;thursdayOpen:07:00;tuesdayOpen:07:00;wednesdayClose:07:00;saturdayOpen:07:00;mondayOpen:07:00;tuesdayClose:07:00;fridayClose:07:00;mondayClose:07:00;saturdayClose:07:00;sundayClose:07:00;sundayOpen:07:00;,,
Smith's,00350,4600 E Sunset Rd,,Henderson,NV,89014,United States,7024510466,36.0725467,-115.0735019,fridayOpen:07:00;thursdayClose:07:00;recordId:70600350;wednesdayOpen:07:00;thursdayOpen:07:00;tuesdayOpen:07:00;wednesdayClose:07:00;saturdayOpen:07:00;mondayOpen:07:00;tuesdayClose:07:00;fridayClose:07:00;mondayClose:07:00;saturdayClose:07:00;sundayClose:07:00;sundayOpen:07:00;,,
Smith's,00319,8180 Las Vegas Blvd S,,Las Vegas,NV,89123,United States,7024921943,36.0401912,-115.1706842,fridayOpen:06:00;thursdayClose:12:00;recordId:70600319;wednesdayOpen:06:00;thursdayOpen:06:00;tuesdayOpen:06:00;wednesdayClose:12:00;saturdayOpen:06:00;mondayOpen:06:00;tuesdayClose:12:00;fridayClose:12:00;mondayClose:12:00;saturdayClose:12:00;sundayClose:12:00;sundayOpen:06:00;,,
Fred Meyer Jewelers,00808,1300 W Sunset Rd,,Henderson,NV,89014,United States,7024505438,36.067118,-115.042827,fridayOpen:10:00;thursdayClose:21:00;recordId:70200808;wednesdayOpen:10:00;thursdayOpen:10:00;tuesdayOpen:10:00;wednesdayClose:21:00;saturdayOpen:10:00;mondayOpen:10:00;tuesdayClose:21:00;fridayClose:21:00;mondayClose:21:00;saturdayClose:21:00;sundayClose:18:00;sundayOpen:11:00;,,
Smith's,00376,2385 E Windmill Ln,,Las Vegas,NV,89123,United States,7028370813,36.0405268,-115.1191272,fridayOpen:07:00;thursdayClose:07:00;recordId:70600376;wednesdayOpen:07:00;thursdayOpen:07:00;tuesdayOpen:07:00;wednesdayClose:07:00;saturdayOpen:07:00;mondayOpen:07:00;tuesdayClose:07:00;fridayClose:07:00;mondayClose:07:00;saturdayClose:07:00;sundayClose:07:00;sundayOpen:07:00;,,
Kroger,00257,115 Russell Pkwy,,Warner Robins,GA,31088,United States,4789229047,32.5922284,-83.6255568,fridayOpen:06:00;thursdayClose:01:00;recordId:01100257;wednesdayOpen:06:00;thursdayOpen:06:00;tuesdayOpen:06:00;wednesdayClose:01:00;saturdayOpen:06:00;mondayOpen:06:00;tuesdayClose:01:00;fridayClose:01:00;mondayClose:01:00;saturdayClose:01:00;sundayClose:01:00;sundayOpen:06:00;,,
The Little Clinic,00316,774 GA Hwy 96,,Bonaire,GA,31005,United States,4789885711,32.548481,-83.597641,fridayOpen:08:00;thursdayClose:19:30;recordId:85600316;wednesdayOpen:08:00;thursdayOpen:08:00;tuesdayOpen:08:00;wednesdayClose:19:30;saturdayOpen:08:00;mondayOpen:08:00;tuesdayClose:19:30;fridayClose:19:30;mondayClose:19:30;saturdayClose:17:00;sundayClose:17:00;sundayOpen:10:00;,,
Littman Jewelers,00955,9705 Destiny Usa Dr,,Syracuse,NY,13204,United States,3152340088,43.069262,-76.172678,fridayOpen:10:00;thursdayClose:21:30;recordId:70200955;wednesdayOpen:10:00;thursdayOpen:10:00;tuesdayOpen:10:00;wednesdayClose:21:30;saturdayOpen:10:00;mondayOpen:10:00;tuesdayClose:21:30;fridayClose:21:30;mondayClose:21:30;saturdayClose:21:30;sundayClose:18:00;sundayOpen:11:00;,,
Littman Jewelers,00563,4155 State Route 31,,Clay,NY,13041,United States,3157151119,43.188575,-76.224719,fridayOpen:10:00;thursdayClose:21:00;recordId:70200563;wednesdayOpen:10:00;thursdayOpen:10:00;tuesdayOpen:10:00;wednesdayClose:21:00;saturdayOpen:10:00;mondayOpen:10:00;tuesdayClose:21:00;fridayClose:21:00;mondayClose:21:00;saturdayClose:21:00;sundayClose:18:00;sundayOpen:11:00;,,
Littman Jewelers,00921,3300 Chambers Rd,,Horseheads,NY,14845,United States,6077394006,42.159786,-76.875413,fridayOpen:10:00;thursdayClose:21:00;recordId:70200921;wednesdayOpen:10:00;thursdayOpen:10:00;tuesdayOpen:10:00;wednesdayClose:21:00;saturdayOpen:10:00;mondayOpen:10:00;tuesdayClose:21:00;fridayClose:21:30;mondayClose:21:00;saturdayClose:21:30;sundayClose:18:00;sundayOpen:11:00;,,
Turkey Hill,00150,330 S. Main St,,Forest City,PA,18421,United States,5707855582,41.6368713,-75.4819641,fridayOpen:07:00;thursdayClose:07:00;recordId:67000150;wednesdayOpen:07:00;thursdayOpen:07:00;tuesdayOpen:07:00;wednesdayClose:07:00;saturdayOpen:07:00;mondayOpen:07:00;tuesdayClose:07:00;fridayClose:07:00;mondayClose:07:00;saturdayClose:07:00;sundayClose:07:00;sundayOpen:07:00;,,
Littman Jewelers,00844,1 Crossgates Mall B-230,,Albany,NY,12203,United States,5184563699,42.689569,-73.850941,fridayOpen:10:00;thursdayClose:21:30;recordId:70200844;wednesdayOpen:10:00;thursdayOpen:10:00;tuesdayOpen:10:00;wednesdayClose:21:30;saturdayOpen:10:00;mondayOpen:10:00;tuesdayClose:21:30;fridayClose:21:30;mondayClose:21:30;saturdayClose:21:30;sundayClose:18:00;sundayOpen:11:00;,,
Kroger,00606,110 Commons Dr,,Maumelle,AR,72113,United States,5012107670,34.8478559,-92.4084377,fridayOpen:06:00;thursdayClose:00:00;recordId:02500606;wednesdayOpen:06:00;thursdayOpen:06:00;tuesdayOpen:06:00;wednesdayClose:00:00;saturdayOpen:06:00;mondayOpen:06:00;tuesdayClose:00:00;fridayClose:00:00;mondayClose:00:00;saturdayClose:00:00;sundayClose:00:00;sundayOpen:06:00;,,
Kroger Marketplace,00622,14000 Cantrell Rd.,,Little Rock,AR,72223,United States,5012254588,34.8043165,-92.430042,fridayOpen:06:00;thursdayClose:00:00;recordId:02500622;wednesdayOpen:06:00;thursdayOpen:06:00;tuesdayOpen:06:00;wednesdayClose:00:00;saturdayOpen:06:00;mondayOpen:06:00;tuesdayClose:00:00;fridayClose:00:00;mondayClose:00:00;saturdayClose:00:00;sundayClose:00:00;sundayOpen:06:00;,,
Kwik Shop,00763,510 N Douglas Ave,,Ellsworth,KS,67439,United States,7854724971,38.7322012,-98.2281891,fridayOpen:07:00;thursdayClose:07:00;recordId:67200763;wednesdayOpen:07:00;thursdayOpen:07:00;tuesdayOpen:07:00;wednesdayClose:07:00;saturdayOpen:07:00;mondayOpen:07:00;tuesdayClose:07:00;fridayClose:07:00;mondayClose:07:00;saturdayClose:07:00;sundayClose:07:00;sundayOpen:07:00;,,
Dillons,00007,212 S Broadway Ave,,Sterling,KS,67579,United States,6202782311,38.2080439,-98.2064226,fridayOpen:08:00;thursdayClose:20:00;recordId:61500007;wednesdayOpen:08:00;thursdayOpen:08:00;tuesdayOpen:08:00;wednesdayClose:20:00;saturdayOpen:08:00;mondayOpen:08:00;tuesdayClose:20:00;fridayClose:20:00;mondayClose:20:00;saturdayClose:20:00;sundayClose:18:00;sundayOpen:10:00;,,
Kwik Shop,00747,2334 North Main,,Great Bend,KS,67530,United States,6207936213,38.3757001,-98.7651425,fridayOpen:07:00;thursdayClose:07:00;recordId:67200747;wednesdayOpen:07:00;thursdayOpen:07:00;tuesdayOpen:07:00;wednesdayClose:07:00;saturdayOpen:07:00;mondayOpen:07:00;tuesdayClose:07:00;fridayClose:07:00;mondayClose:07:00;saturdayClose:07:00;sundayClose:07:00;sundayOpen:07:00;,,
Smith's,00075,632 S 100 W,,Payson,UT,84651,United States,8014659213,40.0343051,-111.7349825,fridayOpen:06:00;thursdayClose:00:00;recordId:70600075;wednesdayOpen:06:00;thursdayOpen:06:00;tuesdayOpen:06:00;wednesdayClose:00:00;saturdayOpen:06:00;mondayOpen:06:00;tuesdayClose:00:00;fridayClose:00:00;mondayClose:00:00;saturdayClose:00:00;sundayClose:00:00;sundayOpen:06:00;,,
Smith's,00048,1075 E Main St,,Price,UT,84501,United States,4356376200,39.6003929,-110.7935349,fridayOpen:06:00;thursdayClose:00:00;recordId:70600048;wednesdayOpen:06:00;thursdayOpen:06:00;tuesdayOpen:06:00;wednesdayClose:00:00;saturdayOpen:06:00;mondayOpen:06:00;tuesdayClose:00:00;fridayClose:00:00;mondayClose:00:00;saturdayClose:00:00;sundayClose:00:00;sundayOpen:06:00;,,
Fred Meyer Jewelers,00803,1200 Towne Centre Blvd,,Provo,UT,84601,United States,8018523110,40.217517,-111.662819,fridayOpen:10:00;thursdayClose:21:00;recordId:70200803;wednesdayOpen:10:00;thursdayOpen:10:00;tuesdayOpen:10:00;wednesdayClose:21:00;saturdayOpen:10:00;mondayOpen:10:00;tuesdayClose:21:00;fridayClose:21:00;mondayClose:21:00;saturdayClose:21:00;sundayClose:18:00;sundayOpen:12:00;,,
Smith's,00136,350 N Freedom Blvd,,Provo,UT,84601,United States,8013779050,40.2386833,-111.6613853,fridayOpen:07:00;thursdayClose:07:00;recordId:70600136;wednesdayOpen:07:00;thursdayOpen:07:00;tuesdayOpen:07:00;wednesdayClose:07:00;saturdayOpen:07:00;mondayOpen:07:00;tuesdayClose:07:00;fridayClose:07:00;mondayClose:07:00;saturdayClose:07:00;sundayClose:07:00;sundayOpen:07:00;,,
Fred Meyer Jewelers,00412,575 E University Pkwy Ste E90,,Orem,UT,84097,United States,8012269073,40.275156,-111.680196,fridayOpen:10:00;thursdayClose:21:00;recordId:70200412;wednesdayOpen:10:00;thursdayOpen:10:00;tuesdayOpen:10:00;wednesdayClose:21:00;saturdayOpen:10:00;mondayOpen:10:00;tuesdayClose:21:00;fridayClose:21:00;mondayClose:21:00;saturdayClose:21:00;sundayClose:00:00;sundayOpen:00:00;,,
Smith's,00144,45 S State St,,Orem,UT,84058,United States,8012246111,40.2964537,-111.6915095,fridayOpen:07:00;thursdayClose:00:00;recordId:70600144;wednesdayOpen:07:00;thursdayOpen:07:00;tuesdayOpen:07:00;wednesdayClose:00:00;saturdayOpen:07:00;mondayOpen:07:00;tuesdayClose:00:00;fridayClose:00:00;mondayClose:00:00;saturdayClose:00:00;sundayClose:00:00;sundayOpen:07:00;,,
Smith's,00073,210 E 700 S,,Pleasant Grove,UT,84062,United States,8017859466,40.3536804,-111.7371705,fridayOpen:06:00;thursdayClose:12:00;recordId:70600073;wednesdayOpen:06:00;thursdayOpen:06:00;tuesdayOpen:06:00;wednesdayClose:12:00;saturdayOpen:06:00;mondayOpen:06:00;tuesdayClose:12:00;fridayClose:12:00;mondayClose:12:00;saturdayClose:12:00;sundayClose:12:00;sundayOpen:06:00;,,
Kroger,00492,1070 Highway 51,,Madison,MS,39110,United States,6018532410,32.4637475,-90.1081963,fridayOpen:07:00;thursdayClose:07:00;recordId:02500492;wednesdayOpen:07:00;thursdayOpen:07:00;tuesdayOpen:07:00;wednesdayClose:07:00;saturdayOpen:07:00;mondayOpen:07:00;tuesdayClose:07:00;fridayClose:07:00;mondayClose:07:00;saturdayClose:07:00;sundayClose:07:00;sundayOpen:07:00;,,
Kroger,00493,1070 Spillway Cir,,Brandon,MS,39047,United States,6018290740,32.38348,-90.0392812,fridayOpen:06:00;thursdayClose:00:00;recordId:02500493;wednesdayOpen:06:00;thursdayOpen:06:00;tuesdayOpen:06:00;wednesdayClose:00:00;saturdayOpen:06:00;mondayOpen:06:00;tuesdayClose:00:00;fridayClose:00:00;mondayClose:00:00;saturdayClose:00:00;sundayClose:00:00;sundayOpen:06:00;,,
Kroger,00497,143 Fresh and Friendly Drive,,Flowood,MS,39232,United States,6019927552,32.3556064,-90.0138273,fridayOpen:06:00;thursdayClose:23:00;recordId:02500497;wednesdayOpen:06:00;thursdayOpen:06:00;tuesdayOpen:06:00;wednesdayClose:23:00;saturdayOpen:06:00;mondayOpen:06:00;tuesdayClose:23:00;fridayClose:23:00;mondayClose:23:00;saturdayClose:23:00;sundayClose:23:00;sundayOpen:06:00;,,
Kroger,00472,115 Colony Crossing Way,,Madison,MS,39110,United States,6016055020,32.4748841,-90.1419176,fridayOpen:06:00;thursdayClose:23:00;recordId:02500472;wednesdayOpen:06:00;thursdayOpen:06:00;tuesdayOpen:06:00;wednesdayClose:23:00;saturdayOpen:06:00;mondayOpen:06:00;tuesdayClose:23:00;fridayClose:23:00;mondayClose:23:00;saturdayClose:23:00;sundayClose:23:00;sundayOpen:06:00;,,
Dillons,00038,425 N Summit St,,Arkansas City,KS,67005,United States,6204427931,37.0665729,-97.0399322,fridayOpen:07:00;thursdayClose:23:00;recordId:61500038;wednesdayOpen:07:00;thursdayOpen:07:00;tuesdayOpen:07:00;wednesdayClose:23:00;saturdayOpen:07:00;mondayOpen:07:00;tuesdayClose:23:00;fridayClose:23:00;mondayClose:23:00;saturdayClose:23:00;sundayClose:23:00;sundayOpen:07:00;,,
Dillons,00063,1111 W 8Th St,,Wellington,KS,67152,United States,6203265907,37.2683832,-97.411695,fridayOpen:07:00;thursdayClose:22:00;recordId:61500063;wednesdayOpen:07:00;thursdayOpen:07:00;tuesdayOpen:07:00;wednesdayClose:22:00;saturdayOpen:07:00;mondayOpen:07:00;tuesdayClose:22:00;fridayClose:22:00;mondayClose:22:00;saturdayClose:22:00;sundayClose:22:00;sundayOpen:07:00;,,
Dillons,00045,2310 Main St,,Winfield,KS,67156,United States,6202215700,37.2259182,-96.9936985,fridayOpen:06:00;thursdayClose:23:00;recordId:61500045;wednesdayOpen:06:00;thursdayOpen:06:00;tuesdayOpen:06:00;wednesdayClose:23:00;saturdayOpen:06:00;mondayOpen:06:00;tuesdayClose:23:00;fridayClose:23:00;mondayClose:23:00;saturdayClose:23:00;sundayClose:23:00;sundayOpen:06:00;,,
Dillons,00032,1203 N 2Nd Ave,,Mulvane,KS,67110,United States,3167771159,37.4866879,-97.2452175,fridayOpen:07:00;thursdayClose:22:00;recordId:61500032;wednesdayOpen:07:00;thursdayOpen:07:00;tuesdayOpen:07:00;wednesdayClose:22:00;saturdayOpen:07:00;mondayOpen:07:00;tuesdayClose:22:00;fridayClose:22:00;mondayClose:22:00;saturdayClose:22:00;sundayClose:22:00;sundayOpen:07:00;,,
Dillons,00057,200 W Greenway St,,Derby,KS,67037,United States,3167882809,37.5580231,-97.2721672,fridayOpen:07:00;thursdayClose:22:00;recordId:61500057;wednesdayOpen:07:00;thursdayOpen:07:00;tuesdayOpen:07:00;wednesdayClose:22:00;saturdayOpen:07:00;mondayOpen:07:00;tuesdayClose:22:00;fridayClose:22:00;mondayClose:22:00;saturdayClose:22:00;sundayClose:22:00;sundayOpen:07:00;,,
Kwik Shop,00776,7150 S Meridian,,Haysville,KS,67060,United States,3165298655,37.5654242,-97.370465,fridayOpen:07:00;thursdayClose:07:00;recordId:67200776;wednesdayOpen:07:00;thursdayOpen:07:00;tuesdayOpen:07:00;wednesdayClose:07:00;saturdayOpen:07:00;mondayOpen:07:00;tuesdayClose:07:00;fridayClose:07:00;mondayClose:07:00;saturdayClose:07:00;sundayClose:07:00;sundayOpen:07:00;,,
Kroger,00739,2908 State St,,Gassaway,WV,26624,United States,3043642332,38.6582624,-80.7494591,fridayOpen:07:00;thursdayClose:23:00;recordId:02900739;wednesdayOpen:07:00;thursdayOpen:07:00;tuesdayOpen:07:00;wednesdayClose:23:00;saturdayOpen:07:00;mondayOpen:07:00;tuesdayClose:23:00;fridayClose:23:00;mondayClose:23:00;saturdayClose:23:00;sundayClose:23:00;sundayOpen:08:00;,,
Kroger,00722,80 Skyline Plaza Dr.,,Buckhannon,WV,26201,United States,3044720918,38.9735058,-80.2308613,fridayOpen:07:00;thursdayClose:23:00;recordId:02900722;wednesdayOpen:07:00;thursdayOpen:07:00;tuesdayOpen:07:00;wednesdayClose:23:00;saturdayOpen:07:00;mondayOpen:07:00;tuesdayClose:23:00;fridayClose:23:00;mondayClose:23:00;saturdayClose:23:00;sundayClose:22:00;sundayOpen:08:00;,,
Kroger,00730,450 11Th St,,Elkins,WV,26241,United States,3046366888,38.9187102,-79.8438147,fridayOpen:07:00;thursdayClose:23:00;recordId:02900730;wednesdayOpen:07:00;thursdayOpen:07:00;tuesdayOpen:07:00;wednesdayClose:23:00;saturdayOpen:07:00;mondayOpen:07:00;tuesdayClose:23:00;fridayClose:23:00;mondayClose:23:00;saturdayClose:23:00;sundayClose:22:00;sundayOpen:08:00;,,
Fred Meyer Jewelers,00789,3200 S Airport Rd W,,Traverse City,MI,49684,United States,2319291133,44.7237063,-85.6361277,fridayOpen:10:00;thursdayClose:21:00;recordId:70200789;wednesdayOpen:10:00;thursdayOpen:10:00;tuesdayOpen:10:00;wednesdayClose:21:00;saturdayOpen:10:00;mondayOpen:10:00;tuesdayClose:21:00;fridayClose:21:00;mondayClose:21:00;saturdayClose:21:00;sundayClose:18:00;sundayOpen:12:00;,,
Lucky's Market,00022,3587 Market Pl,,Traverse City,MI,49684,United States,,44.6567307,-85.7674179,fridayOpen:07:00;thursdayClose:07:00;recordId:07200022;wednesdayOpen:07:00;thursdayOpen:07:00;tuesdayOpen:07:00;wednesdayClose:07:00;saturdayOpen:07:00;mondayOpen:07:00;tuesdayClose:07:00;fridayClose:07:00;mondayClose:07:00;saturdayClose:07:00;sundayClose:07:00;sundayOpen:07:00;,,
Pick n Save,00329,1847 Egg Harbor Rd,,STURGEON BAY,WI,54235,United States,9207438830,44.8504115,-87.3494893,fridayOpen:06:00;thursdayClose:23:00;recordId:53400329;wednesdayOpen:06:00;thursdayOpen:06:00;tuesdayOpen:06:00;wednesdayClose:23:00;saturdayOpen:06:00;mondayOpen:06:00;tuesdayClose:23:00;fridayClose:23:00;mondayClose:23:00;saturdayClose:23:00;sundayClose:23:00;sundayOpen:06:00;,,
Kroger,00889,4080 E Blue Grass Rd,,Mount Pleasant,MI,48858,United States,9897733360,43.5723246,-84.764745,fridayOpen:06:00;thursdayClose:00:00;recordId:01800889;wednesdayOpen:06:00;thursdayOpen:06:00;tuesdayOpen:06:00;wednesdayClose:00:00;saturdayOpen:06:00;mondayOpen:06:00;tuesdayClose:00:00;fridayClose:00:00;mondayClose:00:00;saturdayClose:00:00;sundayClose:22:00;sundayOpen:06:00;,,
Lucky's Market,00019,7700 Peters Rd,,Plantation,FL,33324,United States,,26.1053798,-80.2522704,fridayOpen:07:00;thursdayClose:07:00;recordId:07200019;wednesdayOpen:07:00;thursdayOpen:07:00;tuesdayOpen:07:00;wednesdayClose:07:00;saturdayOpen:07:00;mondayOpen:07:00;tuesdayClose:07:00;fridayClose:07:00;mondayClose:07:00;saturdayClose:07:00;sundayClose:07:00;sundayOpen:07:00;,,
Littman Jewelers,00920,8000 W Broward Blvd Ste 411,,Plantation,FL,33388,United States,9547230355,26.117657,-80.254768,fridayOpen:10:00;thursdayClose:21:00;recordId:70200920;wednesdayOpen:10:00;thursdayOpen:10:00;tuesdayOpen:10:00;wednesdayClose:21:00;saturdayOpen:10:00;mondayOpen:10:00;tuesdayClose:21:00;fridayClose:21:00;mondayClose:21:00;saturdayClose:21:00;sundayClose:18:00;sundayOpen:11:00;,,
Lucky's Market,00023,9184 Wiles Rd,,Coral Springs,FL,33067,United States,,26.2868882,-80.2487131,fridayOpen:07:00;thursdayClose:07:00;recordId:07200023;wednesdayOpen:07:00;thursdayOpen:07:00;tuesdayOpen:07:00;wednesdayClose:07:00;saturdayOpen:07:00;mondayOpen:07:00;tuesdayClose:07:00;fridayClose:07:00;mondayClose:07:00;saturdayClose:07:00;sundayClose:07:00;sundayOpen:07:00;,,
Littman Jewelers,00813,801 N Congress Ave,,Boynton Beach,FL,33426,United States,5617368699,26.535741,-80.095727,fridayOpen:10:00;thursdayClose:21:00;recordId:70200813;wednesdayOpen:10:00;thursdayOpen:10:00;tuesdayOpen:10:00;wednesdayClose:21:00;saturdayOpen:10:00;mondayOpen:10:00;tuesdayClose:21:00;fridayClose:21:00;mondayClose:21:00;saturdayClose:21:00;sundayClose:18:00;sundayOpen:12:00;,,
Lucky's Market,00024,3815 Tamiami Trail E,,Naples,FL,34112,United States,,26.1195874,-81.7590905,fridayOpen:07:00;thursdayClose:07:00;recordId:07200024;wednesdayOpen:07:00;thursdayOpen:07:00;tuesdayOpen:07:00;wednesdayClose:07:00;saturdayOpen:07:00;mondayOpen:07:00;tuesdayClose:07:00;fridayClose:07:00;mondayClose:07:00;saturdayClose:07:00;sundayClose:07:00;sundayOpen:07:00;,,
Littman Jewelers,00928,1918 Tamiami Trl N,,Naples,FL,34102,United States,2392610220,26.170083,-81.794242,fridayOpen:10:00;thursdayClose:21:00;recordId:70200928;wednesdayOpen:10:00;thursdayOpen:10:00;tuesdayOpen:10:00;wednesdayClose:21:00;saturdayOpen:10:00;mondayOpen:10:00;tuesdayClose:21:00;fridayClose:21:00;mondayClose:21:00;saturdayClose:21:00;sundayClose:18:00;sundayOpen:12:00;,,
Littman Jewelers,00812,4125 Cleveland Ave,,Fort Myers,FL,33901,United States,2399365700,26.602241,-81.869827,fridayOpen:10:00;thursdayClose:21:00;recordId:70200812;wednesdayOpen:10:00;thursdayOpen:10:00;tuesdayOpen:10:00;wednesdayClose:21:00;saturdayOpen:10:00;mondayOpen:10:00;tuesdayClose:21:00;fridayClose:21:00;mondayClose:21:00;saturdayClose:21:00;sundayClose:17:30;sundayOpen:11:30;,,
Lucky's Market,00031,3170 W New Haven Ave,,Melbourne,FL,32904,United States,,28.0789599,-80.6737809,fridayOpen:07:00;thursdayClose:07:00;recordId:07200031;wednesdayOpen:07:00;thursdayOpen:07:00;tuesdayOpen:07:00;wednesdayClose:07:00;saturdayOpen:07:00;mondayOpen:07:00;tuesdayClose:07:00;fridayClose:07:00;mondayClose:07:00;saturdayClose:07:00;sundayClose:07:00;sundayOpen:07:00;,,
Littman Jewelers,00915,312 Brandon Town Center Mall,,Brandon,FL,33511,United States,8136616737,27.933867,-82.326567,fridayOpen:10:00;thursdayClose:21:00;recordId:70200915;wednesdayOpen:10:00;thursdayOpen:10:00;tuesdayOpen:10:00;wednesdayClose:21:00;saturdayOpen:10:00;mondayOpen:10:00;tuesdayClose:21:00;fridayClose:21:00;mondayClose:21:00;saturdayClose:21:00;sundayClose:18:00;sundayOpen:11:00;,,
Kroger Specialty Pharmacy,00004,6435 Hazeltine National Dr. #140,,Orlando,FL,32822,United States,8552741694,28.4600773,-81.295311,fridayOpen:07:00;thursdayClose:07:00;recordId:20800004;wednesdayOpen:07:00;thursdayOpen:07:00;tuesdayOpen:07:00;wednesdayClose:07:00;saturdayOpen:07:00;mondayOpen:07:00;tuesdayClose:07:00;fridayClose:07:00;mondayClose:07:00;saturdayClose:07:00;sundayClose:07:00;sundayOpen:07:00;,,
Littman Jewelers,00557,8001 S Orange Blossom Trl,,Orlando,FL,32809,United States,4072402775,28.445938,-81.395502,fridayOpen:10:00;thursdayClose:21:00;recordId:70200557;wednesdayOpen:10:00;thursdayOpen:10:00;tuesdayOpen:10:00;wednesdayClose:21:00;saturdayOpen:10:00;mondayOpen:10:00;tuesdayClose:21:00;fridayClose:21:00;mondayClose:21:00;saturdayClose:21:00;sundayClose:19:00;sundayOpen:11:00;,,
Littman Jewelers,00967,7846 Citrus Park Town Center Mall,,Tampa,FL,33625,United States,8139208470,28.068994,-82.576411,fridayOpen:10:00;thursdayClose:21:00;recordId:70200967;wednesdayOpen:10:00;thursdayOpen:10:00;tuesdayOpen:10:00;wednesdayClose:21:00;saturdayOpen:10:00;mondayOpen:10:00;tuesdayClose:21:00;fridayClose:21:00;mondayClose:21:00;saturdayClose:21:00;sundayClose:18:00;sundayOpen:12:00;,,
Lucky's Market,00025,11750 E Colonial Dr,,Orlando,FL,32817,United States,,28.5658455,-81.2092743,fridayOpen:07:00;thursdayClose:07:00;recordId:07200025;wednesdayOpen:07:00;thursdayOpen:07:00;tuesdayOpen:07:00;wednesdayClose:07:00;saturdayOpen:07:00;mondayOpen:07:00;tuesdayClose:07:00;fridayClose:07:00;mondayClose:07:00;saturdayClose:07:00;sundayClose:07:00;sundayOpen:07:00;,,
Lucky's Market,00016,1459 NW 23rd Ave,,Gainesville,FL,32605,United States,,29.6739797,-82.3404922,fridayOpen:07:00;thursdayClose:07:00;recordId:07200016;wednesdayOpen:07:00;thursdayOpen:07:00;tuesdayOpen:07:00;wednesdayClose:07:00;saturdayOpen:07:00;mondayOpen:07:00;tuesdayClose:07:00;fridayClose:07:00;mondayClose:07:00;saturdayClose:07:00;sundayClose:07:00;sundayOpen:07:00;,,
Littman Jewelers,00817,1910 Wells Rd Ste C5,,Orange Park,FL,32073,United States,9042696688,30.184782,-81.734924,fridayOpen:10:00;thursdayClose:21:00;recordId:70200817;wednesdayOpen:10:00;thursdayOpen:10:00;tuesdayOpen:10:00;wednesdayClose:21:00;saturdayOpen:10:00;mondayOpen:10:00;tuesdayClose:21:00;fridayClose:21:00;mondayClose:21:00;saturdayClose:21:00;sundayClose:18:00;sundayOpen:12:00;,,
Lucky's Market,00028,580 Atlantic Blvd,,Neptune Beach,FL,32266,United States,,30.3244932,-81.4027081,fridayOpen:07:00;thursdayClose:07:00;recordId:07200028;wednesdayOpen:07:00;thursdayOpen:07:00;tuesdayOpen:07:00;wednesdayClose:07:00;saturdayOpen:07:00;mondayOpen:07:00;tuesdayClose:07:00;fridayClose:07:00;mondayClose:07:00;saturdayClose:07:00;sundayClose:07:00;sundayOpen:07:00;,,
Littman Jewelers,00821,131 Oxford Valley Mall #,,Langhorne,PA,19047,United States,2157520131,40.183906,-74.880298,fridayOpen:10:00;thursdayClose:21:00;recordId:70200821;wednesdayOpen:10:00;thursdayOpen:10:00;tuesdayOpen:10:00;wednesdayClose:21:00;saturdayOpen:10:00;mondayOpen:10:00;tuesdayClose:21:00;fridayClose:21:00;mondayClose:21:00;saturdayClose:21:00;sundayClose:18:00;sundayOpen:11:00;,,
Littman Jewelers,00879,225 Neshaminy Mall,,Bensalem,PA,19020,United States,2153229950,40.138758,-74.955172,fridayOpen:10:00;thursdayClose:21:00;recordId:70200879;wednesdayOpen:10:00;thursdayOpen:10:00;tuesdayOpen:10:00;wednesdayClose:21:00;saturdayOpen:10:00;mondayOpen:10:00;tuesdayClose:21:00;fridayClose:21:00;mondayClose:21:00;saturdayClose:21:00;sundayClose:18:00;sundayOpen:11:00;,,
Littman Jewelers,00818,400 W Route 38 Unit 1580,,Moorestown,NJ,08057,United States,8564390822,39.943502,-74.963148,fridayOpen:10:00;thursdayClose:21:00;recordId:70200818;wednesdayOpen:10:00;thursdayOpen:10:00;tuesdayOpen:10:00;wednesdayClose:21:00;saturdayOpen:10:00;mondayOpen:10:00;tuesdayClose:21:00;fridayClose:21:00;mondayClose:21:00;saturdayClose:21:00;sundayClose:18:00;sundayOpen:11:00;,,
Littman Jewelers,00700,1365 N Dupont Hwy Ste 3096,,Dover,DE,19901,United States,3026727193,39.194486,-75.540258,fridayOpen:10:00;thursdayClose:21:00;recordId:70200700;wednesdayOpen:10:00;thursdayOpen:10:00;tuesdayOpen:10:00;wednesdayClose:21:00;saturdayOpen:10:00;mondayOpen:10:00;tuesdayClose:21:00;fridayClose:21:00;mondayClose:21:00;saturdayClose:21:00;sundayClose:18:00;sundayOpen:11:00;,,
Harris Teeter,00336,26370 Bay Farm Rd,,MILLSBORO,DE,19966,United States,3029451705,38.6250628,-75.1946885,fridayOpen:07:00;thursdayClose:23:00;recordId:09700336;wednesdayOpen:07:00;thursdayOpen:07:00;tuesdayOpen:07:00;wednesdayClose:23:00;saturdayOpen:07:00;mondayOpen:07:00;tuesdayClose:23:00;fridayClose:23:00;mondayClose:23:00;saturdayClose:23:00;sundayClose:23:00;sundayOpen:07:00;,,
Harris Teeter,00380,28528 Marlboro Ave,,Easton,MD,21601,United States,4106907203,38.7833449,-76.0877151,fridayOpen:07:00;thursdayClose:07:00;recordId:09700380;wednesdayOpen:07:00;thursdayOpen:07:00;tuesdayOpen:07:00;wednesdayClose:07:00;saturdayOpen:07:00;mondayOpen:07:00;tuesdayClose:07:00;fridayClose:07:00;mondayClose:07:00;saturdayClose:07:00;sundayClose:07:00;sundayOpen:07:00;,,
Littman Jewelers,00823,3849 S Delsea Dr Ste B19,,Vineland,NJ,08360,United States,8563272335,39.432815,-75.035912,fridayOpen:10:00;thursdayClose:21:00;recordId:70200823;wednesdayOpen:10:00;thursdayOpen:10:00;tuesdayOpen:10:00;wednesdayClose:21:00;saturdayOpen:10:00;mondayOpen:10:00;tuesdayClose:21:00;fridayClose:21:00;mondayClose:21:00;saturdayClose:21:00;sundayClose:18:00;sundayOpen:11:00;,,
Harris Teeter,00327,31221 Americana Pkwy,,SELBYVILLE,DE,19975,United States,3024362827,38.4700572,-75.113975,fridayOpen:07:00;thursdayClose:00:00;recordId:09700327;wednesdayOpen:07:00;thursdayOpen:07:00;tuesdayOpen:07:00;wednesdayClose:00:00;saturdayOpen:07:00;mondayOpen:07:00;tuesdayClose:00:00;fridayClose:00:00;mondayClose:00:00;saturdayClose:00:00;sundayClose:00:00;sundayOpen:07:00;,,
Littman Jewelers,00895,2300 N Salisbury Blvd C113,,Salisbury,MD,21801,United States,4107494422,38.398625,-75.566339,fridayOpen:10:00;thursdayClose:21:00;recordId:70200895;wednesdayOpen:10:00;thursdayOpen:10:00;tuesdayOpen:10:00;wednesdayClose:21:00;saturdayOpen:10:00;mondayOpen:10:00;tuesdayClose:21:00;fridayClose:21:00;mondayClose:21:00;saturdayClose:21:00;sundayClose:18:00;sundayOpen:11:00;,,
Littman Jewelers,00835,502 Christiana Mall,,Newark,DE,19702,United States,3023667555,39.677987,-75.652396,fridayOpen:10:00;thursdayClose:21:00;recordId:70200835;wednesdayOpen:10:00;thursdayOpen:10:00;tuesdayOpen:10:00;wednesdayClose:21:00;saturdayOpen:10:00;mondayOpen:10:00;tuesdayClose:21:00;fridayClose:21:00;mondayClose:21:00;saturdayClose:21:00;sundayClose:18:00;sundayOpen:11:00;,,
Littman Jewelers,00869,4403 Black Horse Pike #1096,,Mays Landing,NJ,08330,United States,6096419111,39.453473,-74.641972,fridayOpen:10:00;thursdayClose:21:00;recordId:70200869;wednesdayOpen:10:00;thursdayOpen:10:00;tuesdayOpen:10:00;wednesdayClose:21:00;saturdayOpen:10:00;mondayOpen:10:00;tuesdayClose:21:00;fridayClose:21:00;mondayClose:21:00;saturdayClose:21:00;sundayClose:18:00;sundayOpen:11:00;,,
Loaf 'N Jug,00765,3726 2Nd Ave N,,Great Falls,MT,59401,United States,4067277917,47.5069084,-111.2418975,fridayOpen:07:00;thursdayClose:07:00;recordId:67300765;wednesdayOpen:07:00;thursdayOpen:07:00;tuesdayOpen:07:00;wednesdayClose:07:00;saturdayOpen:07:00;mondayOpen:07:00;tuesdayClose:07:00;fridayClose:07:00;mondayClose:07:00;saturdayClose:07:00;sundayClose:07:00;sundayOpen:07:00;,,
Loaf 'N Jug,00766,900 1St Ave N,,Great Falls,MT,59401,United States,4067618723,47.5060501,-111.2917175,fridayOpen:07:00;thursdayClose:07:00;recordId:67300766;wednesdayOpen:07:00;thursdayOpen:07:00;tuesdayOpen:07:00;wednesdayClose:07:00;saturdayOpen:07:00;mondayOpen:07:00;tuesdayClose:07:00;fridayClose:07:00;mondayClose:07:00;saturdayClose:07:00;sundayClose:07:00;sundayOpen:07:00;,,
Loaf 'N Jug,00767,601 Smelter Ave Ne,,Great Falls,MT,59404,United States,4067278578,47.5250587,-111.2997436,fridayOpen:07:00;thursdayClose:07:00;recordId:67300767;wednesdayOpen:07:00;thursdayOpen:07:00;tuesdayOpen:07:00;wednesdayClose:07:00;saturdayOpen:07:00;mondayOpen:07:00;tuesdayClose:07:00;fridayClose:07:00;mondayClose:07:00;saturdayClose:07:00;sundayClose:07:00;sundayOpen:07:00;,,
Smith's,00166,1601 Market Place Dr,,Great Falls,MT,59404,United States,4067710423,47.4847247,-111.3411345,fridayOpen:06:00;thursdayClose:00:00;recordId:70600166;wednesdayOpen:06:00;thursdayOpen:06:00;tuesdayOpen:06:00;wednesdayClose:00:00;saturdayOpen:06:00;mondayOpen:06:00;tuesdayClose:00:00;fridayClose:00:00;mondayClose:00:00;saturdayClose:00:00;sundayClose:00:00;sundayOpen:06:00;,,
Loaf 'N Jug,00768,1225 Central Ave W,,Great Falls,MT,59404,United States,4067278765,47.5081214,-111.3336563,fridayOpen:07:00;thursdayClose:07:00;recordId:67300768;wednesdayOpen:07:00;thursdayOpen:07:00;tuesdayOpen:07:00;wednesdayClose:07:00;saturdayOpen:07:00;mondayOpen:07:00;tuesdayClose:07:00;fridayClose:07:00;mondayClose:07:00;saturdayClose:07:00;sundayClose:07:00;sundayOpen:07:00;,,
Lucky's Market,00006,"1603 Grand Ave, Ste135",,Billings,MT,59102,United States,,45.7854843,-108.5569611,fridayOpen:07:00;thursdayClose:07:00;recordId:07200006;wednesdayOpen:07:00;thursdayOpen:07:00;tuesdayOpen:07:00;wednesdayClose:07:00;saturdayOpen:07:00;mondayOpen:07:00;tuesdayClose:07:00;fridayClose:07:00;mondayClose:07:00;saturdayClose:07:00;sundayClose:07:00;sundayOpen:07:00;,,
Fred Meyer,00654,11 Grant Rd,,East Wenatchee,WA,98802,United States,5098812800,47.4070717,-120.2909944,fridayOpen:07:00;thursdayClose:23:00;recordId:70100654;wednesdayOpen:07:00;thursdayOpen:07:00;tuesdayOpen:07:00;wednesdayClose:23:00;saturdayOpen:07:00;mondayOpen:07:00;tuesdayClose:23:00;fridayClose:23:00;mondayClose:23:00;saturdayClose:23:00;sundayClose:23:00;sundayOpen:07:00;,,
Foodsco,00784,3657 W Shaw Ave,,Fresno,CA,93711,United States,5592741130,36.8058832,-119.85970259999999,fridayOpen:06:00;thursdayClose:01:00;recordId:70400784;wednesdayOpen:06:00;thursdayOpen:06:00;tuesdayOpen:06:00;wednesdayClose:01:00;saturdayOpen:06:00;mondayOpen:06:00;tuesdayClose:01:00;fridayClose:01:00;mondayClose:01:00;saturdayClose:01:00;sundayClose:01:00;sundayOpen:06:00;,,
Foodsco,00339,3053 E Shields Ave,,Fresno,CA,93726,United States,5592439660,36.7811129,-119.7737968,fridayOpen:06:00;thursdayClose:01:00;recordId:70400339;wednesdayOpen:06:00;thursdayOpen:06:00;tuesdayOpen:06:00;wednesdayClose:01:00;saturdayOpen:06:00;mondayOpen:06:00;tuesdayClose:01:00;fridayClose:01:00;mondayClose:01:00;saturdayClose:01:00;sundayClose:01:00;sundayOpen:06:00;,,
Quik Stop Market,00099,575 Crespi Dr,,Pacifica,CA,94044,United States,6503595670,37.598854,-122.49845880000001,fridayOpen:07:00;thursdayClose:07:00;recordId:67500099;wednesdayOpen:07:00;thursdayOpen:07:00;tuesdayOpen:07:00;wednesdayClose:07:00;saturdayOpen:07:00;mondayOpen:07:00;tuesdayClose:07:00;fridayClose:07:00;mondayClose:07:00;saturdayClose:07:00;sundayClose:07:00;sundayOpen:07:00;,,
Quik Stop Market,00066,5960 Highway 9,,Felton,CA,95018,United States,8313353668,37.0476303,-122.0730056,fridayOpen:07:00;thursdayClose:07:00;recordId:67500066;wednesdayOpen:07:00;thursdayOpen:07:00;tuesdayOpen:07:00;wednesdayClose:07:00;saturdayOpen:07:00;mondayOpen:07:00;tuesdayClose:07:00;fridayClose:07:00;mondayClose:07:00;saturdayClose:07:00;sundayClose:07:00;sundayOpen:07:00;,,
Gerbes,00116,410 E North St,,Eldon,MO,65026,United States,5733923123,38.3499005,-92.5769667,fridayOpen:07:00;thursdayClose:22:00;recordId:61500116;wednesdayOpen:07:00;thursdayOpen:07:00;tuesdayOpen:07:00;wednesdayClose:22:00;saturdayOpen:07:00;mondayOpen:07:00;tuesdayClose:22:00;fridayClose:22:00;mondayClose:22:00;saturdayClose:22:00;sundayClose:22:00;sundayOpen:07:00;,,
Gerbes,00122,2805 W Truman Blvd,,Jefferson City,MO,65109,United States,5738933111,38.5940199,-92.2250727,fridayOpen:06:00;thursdayClose:00:00;recordId:61500122;wednesdayOpen:06:00;thursdayOpen:06:00;tuesdayOpen:06:00;wednesdayClose:00:00;saturdayOpen:06:00;mondayOpen:06:00;tuesdayClose:00:00;fridayClose:00:00;mondayClose:00:00;saturdayClose:00:00;sundayClose:00:00;sundayOpen:06:00;,,
Gerbes,00118,2101 Schotthill Woods Dr,,Jefferson City,MO,65101,United States,5736593600,38.5486427,-92.1473374,fridayOpen:06:00;thursdayClose:00:00;recordId:61500118;wednesdayOpen:06:00;thursdayOpen:06:00;tuesdayOpen:06:00;wednesdayClose:00:00;saturdayOpen:06:00;mondayOpen:06:00;tuesdayClose:00:00;fridayClose:00:00;mondayClose:00:00;saturdayClose:00:00;sundayClose:00:00;sundayOpen:06:00;,,
Gerbes,00119,1159 E Us Highway 54,,Camdenton,MO,65020,United States,5733463433,38.0210562,-92.7296932,fridayOpen:07:00;thursdayClose:22:00;recordId:61500119;wednesdayOpen:07:00;thursdayOpen:07:00;tuesdayOpen:07:00;wednesdayClose:22:00;saturdayOpen:07:00;mondayOpen:07:00;tuesdayClose:22:00;fridayClose:22:00;mondayClose:22:00;saturdayClose:22:00;sundayClose:22:00;sundayOpen:07:00;,,
Gerbes,00111,205 E Nifong Blvd,,Columbia,MO,65203,United States,5738742939,38.9110716,-92.3364922,fridayOpen:06:00;thursdayClose:00:00;recordId:61500111;wednesdayOpen:06:00;thursdayOpen:06:00;tuesdayOpen:06:00;wednesdayClose:00:00;saturdayOpen:06:00;mondayOpen:06:00;tuesdayClose:00:00;fridayClose:00:00;mondayClose:00:00;saturdayClose:00:00;sundayClose:00:00;sundayOpen:06:00;,,
Lucky's Market,00009,111 South Providence Rd,,Columbia,MO,65203,United States,,38.9501114,-92.3351059,fridayOpen:07:00;thursdayClose:07:00;recordId:07200009;wednesdayOpen:07:00;thursdayOpen:07:00;tuesdayOpen:07:00;wednesdayClose:07:00;saturdayOpen:07:00;mondayOpen:07:00;tuesdayClose:07:00;fridayClose:07:00;mondayClose:07:00;saturdayClose:07:00;sundayClose:07:00;sundayOpen:07:00;,,
Gerbes,00124,1729 W Broadway,,Columbia,MO,65203,United States,5734459433,38.9560377,-92.3643952,fridayOpen:06:00;thursdayClose:00:00;recordId:61500124;wednesdayOpen:06:00;thursdayOpen:06:00;tuesdayOpen:06:00;wednesdayClose:00:00;saturdayOpen:06:00;mondayOpen:06:00;tuesdayClose:00:00;fridayClose:00:00;mondayClose:00:00;saturdayClose:00:00;sundayClose:00:00;sundayOpen:06:00;,,
Tom Thumb,00018,423 S Forest Ave,,Luverne,AL,36049,United States,3343353988,31.7099068,-86.264226,fridayOpen:07:00;thursdayClose:07:00;recordId:67100018;wednesdayOpen:07:00;thursdayOpen:07:00;tuesdayOpen:07:00;wednesdayClose:07:00;saturdayOpen:07:00;mondayOpen:07:00;tuesdayClose:07:00;fridayClose:07:00;mondayClose:07:00;saturdayClose:07:00;sundayClose:07:00;sundayOpen:07:00;,,
Kroger,00260,300 N Dean Road,,Auburn,AL,36830,United States,3348211325,32.6105645,-85.463195,fridayOpen:07:00;thursdayClose:07:00;recordId:01100260;wednesdayOpen:07:00;thursdayOpen:07:00;tuesdayOpen:07:00;wednesdayClose:07:00;saturdayOpen:07:00;mondayOpen:07:00;tuesdayClose:07:00;fridayClose:07:00;mondayClose:07:00;saturdayClose:07:00;sundayClose:07:00;sundayOpen:07:00;,,
Kroger,00631,2460 Enterprise Dr,,Opelika,AL,36801,United States,3347372643,32.6207323,-85.4116953,fridayOpen:06:00;thursdayClose:01:00;recordId:01100631;wednesdayOpen:06:00;thursdayOpen:06:00;tuesdayOpen:06:00;wednesdayClose:01:00;saturdayOpen:06:00;mondayOpen:06:00;tuesdayClose:01:00;fridayClose:01:00;mondayClose:01:00;saturdayClose:01:00;sundayClose:01:00;sundayOpen:06:00;,,
Kroger,00310,1401 S Gilmer Ave,,Lanett,AL,36863,United States,3346442100,32.8557411,-85.1908535,fridayOpen:06:00;thursdayClose:01:00;recordId:01100310;wednesdayOpen:06:00;thursdayOpen:06:00;tuesdayOpen:06:00;wednesdayClose:01:00;saturdayOpen:06:00;mondayOpen:06:00;tuesdayClose:01:00;fridayClose:01:00;mondayClose:01:00;saturdayClose:01:00;sundayClose:01:00;sundayOpen:06:00;,,
Kroger,00012,3403 Forest Drive,,Columbia,SC,29204,United States,8037380225,34.0199676,-80.9912105,fridayOpen:07:00;thursdayClose:07:00;recordId:01100012;wednesdayOpen:07:00;thursdayOpen:07:00;tuesdayOpen:07:00;wednesdayClose:07:00;saturdayOpen:07:00;mondayOpen:07:00;tuesdayClose:07:00;fridayClose:07:00;mondayClose:07:00;saturdayClose:07:00;sundayClose:07:00;sundayOpen:07:00;,,
Loaf 'N Jug,00449,437 N Ellsworth Rd,,Box Elder,SD,57719,United States,6059234935,44.1304673,-103.0709161,fridayOpen:07:00;thursdayClose:07:00;recordId:67300449;wednesdayOpen:07:00;thursdayOpen:07:00;tuesdayOpen:07:00;wednesdayClose:07:00;saturdayOpen:07:00;mondayOpen:07:00;tuesdayClose:07:00;fridayClose:07:00;mondayClose:07:00;saturdayClose:07:00;sundayClose:07:00;sundayOpen:07:00;,,
Kroger,00850,1475 Woodlawn Rd,,Lincoln,IL,62656,United States,2177353301,40.1564115,-89.3929356,fridayOpen:07:00;thursdayClose:07:00;recordId:02100850;wednesdayOpen:07:00;thursdayOpen:07:00;tuesdayOpen:07:00;wednesdayClose:07:00;saturdayOpen:07:00;mondayOpen:07:00;tuesdayClose:07:00;fridayClose:07:00;mondayClose:07:00;saturdayClose:07:00;sundayClose:07:00;sundayOpen:07:00;,,
Kroger,00922,3070 N Water St,,Decatur,IL,62526,United States,2178751296,39.8779267,-88.952885,fridayOpen:06:00;thursdayClose:00:00;recordId:02100922;wednesdayOpen:06:00;thursdayOpen:06:00;tuesdayOpen:06:00;wednesdayClose:00:00;saturdayOpen:06:00;mondayOpen:06:00;tuesdayClose:00:00;fridayClose:00:00;mondayClose:00:00;saturdayClose:00:00;sundayClose:00:00;sundayOpen:06:00;,,
Kroger,00250,1401 W King St,,Decatur,IL,62522,United States,2174295347,39.8478129,-88.9788043,fridayOpen:07:00;thursdayClose:07:00;recordId:02100250;wednesdayOpen:07:00;thursdayOpen:07:00;tuesdayOpen:07:00;wednesdayClose:07:00;saturdayOpen:07:00;mondayOpen:07:00;tuesdayClose:07:00;fridayClose:07:00;mondayClose:07:00;saturdayClose:07:00;sundayClose:07:00;sundayOpen:07:00;,,
Kroger,00924,255 W 1St Dr,,Decatur,IL,62521,United States,2174294998,39.8214416,-88.9579138,fridayOpen:06:00;thursdayClose:00:00;recordId:02100924;wednesdayOpen:06:00;thursdayOpen:06:00;tuesdayOpen:06:00;wednesdayClose:00:00;saturdayOpen:06:00;mondayOpen:06:00;tuesdayClose:00:00;fridayClose:00:00;mondayClose:00:00;saturdayClose:00:00;sundayClose:00:00;sundayOpen:06:00;,,
Kroger,00946,1818 Airport Plaza,,Decatur,IL,62521,United States,2178645031,39.8205993,-88.8819432,fridayOpen:06:00;thursdayClose:00:00;recordId:02100946;wednesdayOpen:06:00;thursdayOpen:06:00;tuesdayOpen:06:00;wednesdayClose:00:00;saturdayOpen:06:00;mondayOpen:06:00;tuesdayClose:00:00;fridayClose:00:00;mondayClose:00:00;saturdayClose:00:00;sundayClose:00:00;sundayOpen:06:00;,,
Kroger,00943,2507 E Oakland Ave,,Bloomington,IL,61701,United States,3096625396,40.4718749,-88.9543931,fridayOpen:06:00;thursdayClose:00:00;recordId:02100943;wednesdayOpen:06:00;thursdayOpen:06:00;tuesdayOpen:06:00;wednesdayClose:00:00;saturdayOpen:06:00;mondayOpen:06:00;tuesdayClose:00:00;fridayClose:00:00;mondayClose:00:00;saturdayClose:00:00;sundayClose:00:00;sundayOpen:06:00;,,
Kroger,00856,1502 N Main St,,Bloomington,IL,61701,United States,3098285640,40.4942042,-88.9948284,fridayOpen:06:00;thursdayClose:00:00;recordId:02100856;wednesdayOpen:06:00;thursdayOpen:06:00;tuesdayOpen:06:00;wednesdayClose:00:00;saturdayOpen:06:00;mondayOpen:06:00;tuesdayClose:00:00;fridayClose:00:00;mondayClose:00:00;saturdayClose:00:00;sundayClose:00:00;sundayOpen:06:00;,,
Kroger,00521,1622 Middle Tennessee Blvd,,Murfreesboro,TN,37130,United States,6158930184,35.8309411,-86.3759317,fridayOpen:07:00;thursdayClose:07:00;recordId:02600521;wednesdayOpen:07:00;thursdayOpen:07:00;tuesdayOpen:07:00;wednesdayClose:07:00;saturdayOpen:07:00;mondayOpen:07:00;tuesdayClose:07:00;fridayClose:07:00;mondayClose:07:00;saturdayClose:07:00;sundayClose:07:00;sundayOpen:07:00;,,
Kroger,00564,2050 Lascassas Pike,,Murfreesboro,TN,37130,United States,6159076223,35.8728633,-86.3522028,fridayOpen:07:00;thursdayClose:07:00;recordId:02600564;wednesdayOpen:07:00;thursdayOpen:07:00;tuesdayOpen:07:00;wednesdayClose:07:00;saturdayOpen:07:00;mondayOpen:07:00;tuesdayClose:07:00;fridayClose:07:00;mondayClose:07:00;saturdayClose:07:00;sundayClose:07:00;sundayOpen:07:00;,,
The Little Clinic,00218,5025 W. 71st. St.,,Indianapolis,IN,46268,United States,3173478484,39.8810005,-86.2458038,fridayOpen:08:30;thursdayClose:19:30;recordId:85800218;wednesdayOpen:08:30;thursdayOpen:08:30;tuesdayOpen:08:30;wednesdayClose:19:30;saturdayOpen:08:30;mondayOpen:08:30;tuesdayClose:19:30;fridayClose:19:30;mondayClose:19:30;saturdayClose:17:00;sundayClose:17:00;sundayOpen:10:30;,,
Kroger,00962,5025 W 71St St,,Indianapolis,IN,46268,United States,3173478480,39.8807251,-86.2460179,fridayOpen:07:00;thursdayClose:07:00;recordId:02100962;wednesdayOpen:07:00;thursdayOpen:07:00;tuesdayOpen:07:00;wednesdayClose:07:00;saturdayOpen:07:00;mondayOpen:07:00;tuesdayClose:07:00;fridayClose:07:00;mondayClose:07:00;saturdayClose:07:00;sundayClose:07:00;sundayOpen:07:00;,,
Kroger,00906,2550 Lake Circle Dr,,Indianapolis,IN,46268,United States,3178792460,39.9138526,-86.205465,fridayOpen:07:00;thursdayClose:07:00;recordId:02100906;wednesdayOpen:07:00;thursdayOpen:07:00;tuesdayOpen:07:00;wednesdayClose:07:00;saturdayOpen:07:00;mondayOpen:07:00;tuesdayClose:07:00;fridayClose:07:00;mondayClose:07:00;saturdayClose:07:00;sundayClose:07:00;sundayOpen:07:00;,,
Kroger,00115,905 N Green St,,Brownsburg,IN,46112,United States,3178526076,39.854663,-86.390652,fridayOpen:07:00;thursdayClose:07:00;recordId:02100115;wednesdayOpen:07:00;thursdayOpen:07:00;tuesdayOpen:07:00;wednesdayClose:07:00;saturdayOpen:07:00;mondayOpen:07:00;tuesdayClose:07:00;fridayClose:07:00;mondayClose:07:00;saturdayClose:07:00;sundayClose:07:00;sundayOpen:07:00;,,
Kroger,00998,1365 E 86Th St,,Indianapolis,IN,46240,United States,3172171190,39.9114381,-86.1378979,fridayOpen:07:00;thursdayClose:07:00;recordId:02100998;wednesdayOpen:07:00;thursdayOpen:07:00;tuesdayOpen:07:00;wednesdayClose:07:00;saturdayOpen:07:00;mondayOpen:07:00;tuesdayClose:07:00;fridayClose:07:00;mondayClose:07:00;saturdayClose:07:00;sundayClose:07:00;sundayOpen:07:00;,,
Kroger,00158,6220 Guilford Ave,,Indianapolis,IN,46220,United States,3172515457,39.8687079,-86.1439434,fridayOpen:07:00;thursdayClose:22:00;recordId:02100158;wednesdayOpen:07:00;thursdayOpen:07:00;tuesdayOpen:07:00;wednesdayClose:22:00;saturdayOpen:07:00;mondayOpen:07:00;tuesdayClose:22:00;fridayClose:22:00;mondayClose:22:00;saturdayClose:22:00;sundayClose:22:00;sundayOpen:07:00;,,
Kroger,00500,5718 Crawfordsville Rd,,Indianapolis,IN,46224,United States,3172405000,39.799487,-86.261051,fridayOpen:07:00;thursdayClose:07:00;recordId:02100500;wednesdayOpen:07:00;thursdayOpen:07:00;tuesdayOpen:07:00;wednesdayClose:07:00;saturdayOpen:07:00;mondayOpen:07:00;tuesdayClose:07:00;fridayClose:07:00;mondayClose:07:00;saturdayClose:07:00;sundayClose:07:00;sundayOpen:07:00;,,
The Little Clinic,00219,5718 Crawfordsville Rd.,,Indianapolis,IN,46224,United States,3172405001,39.7983856,-86.2624359,fridayOpen:08:30;thursdayClose:19:30;recordId:85800219;wednesdayOpen:08:30;thursdayOpen:08:30;tuesdayOpen:08:30;wednesdayClose:19:30;saturdayOpen:08:30;mondayOpen:08:30;tuesdayClose:19:30;fridayClose:19:30;mondayClose:19:30;saturdayClose:17:00;sundayClose:17:00;sundayOpen:10:30;,,
Turkey Hill,00602,1221 S Range Line Rd,,Carmel,IN,46032,United States,3175751901,39.9608388,-86.1263651,fridayOpen:07:00;thursdayClose:07:00;recordId:66900602;wednesdayOpen:07:00;thursdayOpen:07:00;tuesdayOpen:07:00;wednesdayClose:07:00;saturdayOpen:07:00;mondayOpen:07:00;tuesdayClose:07:00;fridayClose:07:00;mondayClose:07:00;saturdayClose:07:00;sundayClose:07:00;sundayOpen:07:00;,,
The Little Clinic,00228,1217 S. Rangeline Rd.,,Carmel,IN,46032,United States,3175744680,39.9624901,-86.1257095,fridayOpen:08:30;thursdayClose:19:30;recordId:85800228;wednesdayOpen:08:30;thursdayOpen:08:30;tuesdayOpen:08:30;wednesdayClose:19:30;saturdayOpen:08:30;mondayOpen:08:30;tuesdayClose:19:30;fridayClose:19:30;mondayClose:19:30;saturdayClose:17:00;sundayClose:17:00;sundayOpen:10:30;,,
Kroger,00959,1217 S Range Line Rd,,Carmel,IN,46032,United States,3178464818,39.9626058,-86.1253498,fridayOpen:06:00;thursdayClose:00:00;recordId:02100959;wednesdayOpen:06:00;thursdayOpen:06:00;tuesdayOpen:06:00;wednesdayClose:00:00;saturdayOpen:06:00;mondayOpen:06:00;tuesdayClose:00:00;fridayClose:00:00;mondayClose:00:00;saturdayClose:00:00;sundayClose:00:00;sundayOpen:06:00;,,
Kroger,00086,2629 E 65Th St,,Indianapolis,IN,46220,United States,3172551498,39.8753605,-86.1189549,fridayOpen:07:00;thursdayClose:07:00;recordId:02100086;wednesdayOpen:07:00;thursdayOpen:07:00;tuesdayOpen:07:00;wednesdayClose:07:00;saturdayOpen:07:00;mondayOpen:07:00;tuesdayClose:07:00;fridayClose:07:00;mondayClose:07:00;saturdayClose:07:00;sundayClose:07:00;sundayOpen:07:00;,,
Kwik Shop,00568,300 E Blairs Ferry Rd,,Hiawatha,IA,52233,United States,3193936934,42.0347326,-91.702031,fridayOpen:07:00;thursdayClose:07:00;recordId:67200568;wednesdayOpen:07:00;thursdayOpen:07:00;tuesdayOpen:07:00;wednesdayClose:07:00;saturdayOpen:07:00;mondayOpen:07:00;tuesdayClose:07:00;fridayClose:07:00;mondayClose:07:00;saturdayClose:07:00;sundayClose:07:00;sundayOpen:07:00;,,
Harris Teeter,00352,1201 First St NE,,WASHINGTON,DC,20002,United States,2025890351,38.9058758,-77.0055935,fridayOpen:07:00;thursdayClose:00:00;recordId:09700352;wednesdayOpen:07:00;thursdayOpen:07:00;tuesdayOpen:07:00;wednesdayClose:00:00;saturdayOpen:07:00;mondayOpen:07:00;tuesdayClose:00:00;fridayClose:00:00;mondayClose:00:00;saturdayClose:00:00;sundayClose:00:00;sundayOpen:07:00;,,
Harris Teeter,00231,1631 Kalorama Road NW,,WASHINGTON,DC,20009,United States,2029861415,38.9219804,-77.0384578,fridayOpen:07:00;thursdayClose:00:00;recordId:09700231;wednesdayOpen:07:00;thursdayOpen:07:00;tuesdayOpen:07:00;wednesdayClose:00:00;saturdayOpen:07:00;mondayOpen:07:00;tuesdayClose:00:00;fridayClose:00:00;mondayClose:00:00;saturdayClose:00:00;sundayClose:00:00;sundayOpen:07:00;,,
Harris Teeter,00383,401 M Street SE,,Washington,DC,20003,United States,2025540164,38.8758757,-77.0000152,fridayOpen:06:00;thursdayClose:00:00;recordId:09700383;wednesdayOpen:06:00;thursdayOpen:06:00;tuesdayOpen:06:00;wednesdayClose:00:00;saturdayOpen:06:00;mondayOpen:06:00;tuesdayClose:00:00;fridayClose:00:00;mondayClose:00:00;saturdayClose:00:00;sundayClose:00:00;sundayOpen:06:00;,,
Kroger,00261,302 N Main Ave,,Brownwood,TX,76801,United States,3256467546,31.7257274,-98.9816662,fridayOpen:06:00;thursdayClose:01:00;recordId:03500261;wednesdayOpen:06:00;thursdayOpen:06:00;tuesdayOpen:06:00;wednesdayClose:01:00;saturdayOpen:06:00;mondayOpen:06:00;tuesdayClose:01:00;fridayClose:01:00;mondayClose:01:00;saturdayClose:01:00;sundayClose:01:00;sundayOpen:06:00;,,
Fred Meyer Jewelers,00213,3915 Hwy 377 East,,Granbury,TX,76049,United States,6824984235,32.453795,-97.726793,fridayOpen:10:00;thursdayClose:20:00;recordId:70200213;wednesdayOpen:10:00;thursdayOpen:10:00;tuesdayOpen:10:00;wednesdayClose:20:00;saturdayOpen:10:00;mondayOpen:10:00;tuesdayClose:20:00;fridayClose:20:00;mondayClose:20:00;saturdayClose:20:00;sundayClose:18:00;sundayOpen:12:00;,,
Kroger Marketplace,00917,3915 Hwy. 377 East,,Granbury,TX,76049,United States,6824984222,32.4575041,-97.7297362,fridayOpen:06:00;thursdayClose:01:00;recordId:03500917;wednesdayOpen:06:00;thursdayOpen:06:00;tuesdayOpen:06:00;wednesdayClose:01:00;saturdayOpen:06:00;mondayOpen:06:00;tuesdayClose:01:00;fridayClose:01:00;mondayClose:01:00;saturdayClose:01:00;sundayClose:01:00;sundayOpen:06:00;,,
