store_name,store_number,address,address2,city,state,zip_code,country,phone_number,latitude,longitude,store_hours,other_fields,coming_soon
Plaza Las Americas,657,525 F.D. Roosevelt Avenue,,San Juan,PR,00918,US,(787) 773-0455,18.4201528,-66.0745615,Sunday 11:00 a.m. - 07:00 p.m.;Monday 09:00 a.m. - 09:00 p.m.;Tuesday 09:00 a.m. - 09:00 p.m.;Wednesday 09:00 a.m. - 09:00 p.m.;Thursday 09:00 a.m. - 09:00 p.m.;Friday 09:00 a.m. - 09:00 p.m.;Saturday 09:00 a.m. - 09:00 p.m.,,0
LOFT 1909 Mall of San Juan,1909,1000 Mall of San Juan,,San Juan,PR,00924,US,(787) 759-2914,18.4124049,-66.0262131,Sunday 11:00 a.m. - 07:00 p.m.;Monday 10:00 a.m. - 09:00 p.m.;Tuesday 10:00 a.m. - 09:00 p.m.;Wednesday 10:00 a.m. - 09:00 p.m.;Thursday 10:00 a.m. - 09:00 p.m.;Friday 10:00 a.m. - 09:00 p.m.;Saturday 10:00 a.m. - 09:00 p.m.,,0
Lower Manhattan,683,2 Broadway,,New York,NY,10004,US,(212) 809-1435,40.7045399,-74.0130866,Sunday CLOSED;Monday 08:00 a.m. - 08:00 p.m.;Tuesday 08:00 a.m. - 08:00 p.m.;Wednesday 08:00 a.m. - 08:00 p.m.;Thursday 08:00 a.m. - 08:00 p.m.;Friday 08:00 a.m. - 08:00 p.m.;Saturday 11:00 a.m. - 06:00 p.m.,,0
Brooklyn Heights,1446,125 Montague Street,,Brooklyn,NY,11201,US,(718) 643-6585,40.6950335,-73.9944324,Sunday 10:00 a.m. - 07:00 p.m.;Monday 09:00 a.m. - 08:00 p.m.;Tuesday 09:00 a.m. - 08:00 p.m.;Wednesday 09:00 a.m. - 08:00 p.m.;Thursday 09:00 a.m. - 08:00 p.m.;Friday 09:00 a.m. - 08:00 p.m.;Saturday 09:00 a.m. - 08:00 p.m.,,0
NOHO,748,770 Broadway,,New York,NY,10003,US,(646) 602-1582,40.7306008,-73.9915217,Sunday 11:00 a.m. - 07:00 p.m.;Monday 10:00 a.m. - 09:00 p.m.;Tuesday 10:00 a.m. - 09:00 p.m.;Wednesday 10:00 a.m. - 09:00 p.m.;Thursday 10:00 a.m. - 09:00 p.m.;Friday 10:00 a.m. - 09:00 p.m.;Saturday 10:00 a.m. - 09:00 p.m.,,0
Newport Centre,1863,30 Mall Drive West,,Jersey City,NJ,07310,US,(201) 793-4242,40.7270588,-74.0384239,Sunday 11:00 a.m. - 06:00 p.m.;Monday 10:00 a.m. - 09:30 p.m.;Tuesday 10:00 a.m. - 09:30 p.m.;Wednesday 10:00 a.m. - 09:30 p.m.;Thursday 10:00 a.m. - 09:30 p.m.;Friday 10:00 a.m. - 09:30 p.m.;Saturday 10:00 a.m. - 09:30 p.m.,,0
Flatiron,1787,156 Fifth Avenue,,New York,NY,10010,US,(212) 675-7457,40.7399443,-73.9910549,Sunday 11:00 a.m. - 07:00 p.m.;Monday 10:00 a.m. - 09:00 p.m.;Tuesday 10:00 a.m. - 09:00 p.m.;Wednesday 10:00 a.m. - 09:00 p.m.;Thursday 10:00 a.m. - 09:00 p.m.;Friday 10:00 a.m. - 09:00 p.m.;Saturday 10:00 a.m. - 09:00 p.m.,,0
42nd and Lexington,1819,150 East 42nd Street,,New York,NY,10017,US,(212) 599-3140,40.7509156,-73.975455,Sunday 11:00 a.m. - 06:00 p.m.;Monday 08:00 a.m. - 09:00 p.m.;Tuesday 08:00 a.m. - 09:00 p.m.;Wednesday 08:00 a.m. - 09:00 p.m.;Thursday 08:00 a.m. - 09:00 p.m.;Friday 08:00 a.m. - 09:00 p.m.;Saturday 10:00 a.m. - 07:00 p.m.,,0
Times Square,1614,1459 Broadway,,NEW YORK,NY,10036,US,(212) 704-4195,40.7557915,-73.9869218,Sunday 10:00 a.m. - 10:00 p.m.;Monday 08:00 a.m. - 10:00 p.m.;Tuesday 08:00 a.m. - 10:00 p.m.;Wednesday 08:00 a.m. - 10:00 p.m.;Thursday 08:00 a.m. - 10:00 p.m.;Friday 08:00 a.m. - 10:00 p.m.;Saturday 09:00 a.m. - 10:00 p.m.,,0
Avenue of the Americas,1775,1230 Ave of the Americas,,New York,NY,10020,US,(212)757-4408,40.7588411,-73.9808028,Sunday 10:00 a.m. - 08:00 p.m.;Monday 08:00 a.m. - 09:00 p.m.;Tuesday 08:00 a.m. - 09:00 p.m.;Wednesday 08:00 a.m. - 09:00 p.m.;Thursday 08:00 a.m. - 09:00 p.m.;Friday 08:00 a.m. - 09:00 p.m.;Saturday 09:00 a.m. - 09:00 p.m.,,0
Upper West Side,1747,2015-17 Broadway,,New York,NY,10023,US,(212) 873-7344,40.7762651,-73.9825559,Sunday 11:00 a.m. - 07:00 p.m.;Monday 10:00 a.m. - 08:00 p.m.;Tuesday 10:00 a.m. - 08:00 p.m.;Wednesday 10:00 a.m. - 08:00 p.m.;Thursday 10:00 a.m. - 08:00 p.m.;Friday 10:00 a.m. - 08:00 p.m.;Saturday 10:00 a.m. - 08:00 p.m.,,0
84th & 3rd,812,1492 Third Avenue,,New York,NY,10028,US,(212) 472-7281,40.777616,-73.9548575,Sunday 11:00 a.m. - 07:00 p.m.;Monday 10:00 a.m. - 09:00 p.m.;Tuesday 10:00 a.m. - 09:00 p.m.;Wednesday 10:00 a.m. - 09:00 p.m.;Thursday 10:00 a.m. - 09:00 p.m.;Friday 10:00 a.m. - 09:00 p.m.;Saturday 10:00 a.m. - 09:00 p.m.,,0
Columbus Avenue,1892,795 Columbus Avenue,,New York,NY,10025,US,(212)678-4913,40.7943209,-73.965964,Sunday 11:00 a.m. - 06:00 p.m.;Monday 10:00 a.m. - 09:00 p.m.;Tuesday 10:00 a.m. - 09:00 p.m.;Wednesday 10:00 a.m. - 09:00 p.m.;Thursday 10:00 a.m. - 09:00 p.m.;Friday 10:00 a.m. - 09:00 p.m.;Saturday 10:00 a.m. - 09:00 p.m.,,0
Cityplace at Promenade,1304,31 City Place,,Edgewater,NJ,07020,US,(201) 941-9592,40.8061621,-73.989462,Sunday CLOSED;Monday 10:00 a.m. - 09:00 p.m.;Tuesday 10:00 a.m. - 09:00 p.m.;Wednesday 10:00 a.m. - 09:00 p.m.;Thursday 10:00 a.m. - 09:00 p.m.;Friday 10:00 a.m. - 09:00 p.m.;Saturday 10:00 a.m. - 09:00 p.m.,,0
Queens,866,70-31 Austin Street,,Forest Hills,NY,11375,US,(718) 275-6873,40.7207672,-73.8459831,Sunday 11:00 a.m. - 07:00 p.m.;Monday 10:00 a.m. - 08:00 p.m.;Tuesday 10:00 a.m. - 08:00 p.m.;Wednesday 10:00 a.m. - 08:00 p.m.;Thursday 10:00 a.m. - 08:00 p.m.;Friday 10:00 a.m. - 08:00 p.m.;Saturday 10:00 a.m. - 08:00 p.m.,,0
Staten Island Mall,1425,2655 Richmond Ave,,Staten Island,NY,10314,US,(718) 477-0798,40.582418,-74.1659155,Sunday 11:00 a.m. - 06:00 p.m.;Monday 10:00 a.m. - 09:00 p.m.;Tuesday 10:00 a.m. - 09:00 p.m.;Wednesday 10:00 a.m. - 09:00 p.m.;Thursday 10:00 a.m. - 09:00 p.m.;Friday 10:00 a.m. - 09:00 p.m.;Saturday 10:00 a.m. - 09:00 p.m.,,0
Bay Terrace,756,2344 Bell Boulevard,,Bayside,NY,11360,US,(718) 423-2755,40.7806419,-73.7757069,Sunday 11:00 a.m. - 06:00 p.m.;Monday 10:00 a.m. - 08:00 p.m.;Tuesday 10:00 a.m. - 08:00 p.m.;Wednesday 10:00 a.m. - 08:00 p.m.;Thursday 10:00 a.m. - 08:00 p.m.;Friday 10:00 a.m. - 08:00 p.m.;Saturday 10:00 a.m. - 08:00 p.m.,,0
LOFT 1915 Garden State Plaza T,1915,1 Garden State Plaza,,Paramus,NJ,07652,US,201-845-8810,40.914763,-74.075323,Sunday CLOSED;Monday 10:00 a.m. - 09:30 p.m.;Tuesday 10:00 a.m. - 09:30 p.m.;Wednesday 10:00 a.m. - 09:30 p.m.;Thursday 10:00 a.m. - 09:30 p.m.;Friday 10:00 a.m. - 09:30 p.m.;Saturday 10:00 a.m. - 09:30 p.m.,,0
Paramus Park Mall,804,700 Paramus Park,,Paramus,NJ,07652,US,(201) 225-1004,40.9566399,-74.0688694,Sunday CLOSED;Monday 10:00 a.m. - 09:30 p.m.;Tuesday 10:00 a.m. - 09:30 p.m.;Wednesday 10:00 a.m. - 09:30 p.m.;Thursday 10:00 a.m. - 09:30 p.m.;Friday 10:00 a.m. - 09:30 p.m.;Saturday 10:00 a.m. - 09:30 p.m.,,0
LOFT 1913 Willowbrook Mall,1913,1400 Willowbrook Mall,,Wayne,NJ,07470,US,973-812-0823,40.8900807,-74.2615039,Sunday 11:00 a.m. - 07:00 p.m.;Monday 10:00 a.m. - 09:00 p.m.;Tuesday 10:00 a.m. - 09:00 p.m.;Wednesday 10:00 a.m. - 09:00 p.m.;Thursday 10:00 a.m. - 09:00 p.m.;Friday 10:00 a.m. - 09:00 p.m.;Saturday 10:00 a.m. - 09:00 p.m.,,0
The Mall at Shorthills,1794,1200 Morris Turnpike,,Short Hills,NJ,07078,US,(973)218-1203,40.739962,-74.3634129,Sunday 10:00 a.m. - 06:00 p.m.;Monday 10:00 a.m. - 09:00 p.m.;Tuesday 10:00 a.m. - 09:00 p.m.;Wednesday 10:00 a.m. - 09:00 p.m.;Thursday 10:00 a.m. - 09:00 p.m.;Friday 10:00 a.m. - 09:00 p.m.;Saturday 10:00 a.m. - 08:00 p.m.,,0
Woodbridge Center,754,250 Woodbridge Center Dr,,Woodbridge,NJ,07095,US,(732) 634-5455,40.5562081,-74.2997508,Sunday 11:00 a.m. - 07:00 p.m.;Monday 10:00 a.m. - 09:30 p.m.;Tuesday 10:00 a.m. - 09:30 p.m.;Wednesday 10:00 a.m. - 09:30 p.m.;Thursday 10:00 a.m. - 09:30 p.m.;Friday 10:00 a.m. - 09:30 p.m.;Saturday 10:00 a.m. - 09:30 p.m.,,0
LOFT 1907 Ridge Hill,1907,194 Market Street,,Yonkers,NY,10710,US,(914) 968-7646,40.9631135,-73.8557303,Sunday 11:00 a.m. - 08:30 p.m.;Monday 10:00 a.m. - 09:30 p.m.;Tuesday 10:00 a.m. - 09:30 p.m.;Wednesday 10:00 a.m. - 09:30 p.m.;Thursday 10:00 a.m. - 09:30 p.m.;Friday 10:00 a.m. - 09:30 p.m.;Saturday 10:00 a.m. - 09:30 p.m.,,0
The Sands Shopping Center,960,3563 Long Beach Rd,,Oceanside,NY,11572,US,(516) 766-6086,40.6235143,-73.6380754,Sunday 11:00 a.m. - 06:00 p.m.;Monday 10:00 a.m. - 08:00 p.m.;Tuesday 10:00 a.m. - 08:00 p.m.;Wednesday 10:00 a.m. - 08:00 p.m.;Thursday 10:00 a.m. - 08:00 p.m.;Friday 10:00 a.m. - 08:00 p.m.;Saturday 10:00 a.m. - 08:00 p.m.,,0
Roosevelt Field Mall,1780,630 Old Country Road,,Garden City,NY,11530,US,(516)741-0749,40.7399709,-73.6135758,Sunday 11:00 a.m. - 07:00 p.m.;Monday 10:00 a.m. - 09:30 p.m.;Tuesday 10:00 a.m. - 09:30 p.m.;Wednesday 10:00 a.m. - 09:30 p.m.;Thursday 10:00 a.m. - 09:30 p.m.;Friday 10:00 a.m. - 09:30 p.m.;Saturday 10:00 a.m. - 09:30 p.m.,,0
Eastchester Shopping Center,1472,703 White Plains Road,,Scarsdale,NY,10583,US,(914) 472-0361,40.9708279,-73.8068744,Sunday 11:00 a.m. - 06:00 p.m.;Monday 10:00 a.m. - 07:00 p.m.;Tuesday 10:00 a.m. - 07:00 p.m.;Wednesday 10:00 a.m. - 07:00 p.m.;Thursday 10:00 a.m. - 08:00 p.m.;Friday 10:00 a.m. - 07:00 p.m.;Saturday 10:00 a.m. - 07:00 p.m.,,0
The Westchester,1771,125 Westchester Ave,,White Plains,NY,10601,US,(914) 949-3675,41.0315151,-73.7585505,Sunday 11:00 a.m. - 06:00 p.m.;Monday 10:00 a.m. - 09:00 p.m.;Tuesday 10:00 a.m. - 09:00 p.m.;Wednesday 10:00 a.m. - 09:00 p.m.;Thursday 10:00 a.m. - 09:00 p.m.;Friday 10:00 a.m. - 09:00 p.m.;Saturday 10:00 a.m. - 09:00 p.m.,,0
The Grove West,1709,540A Broad Street,,Shrewsbury,NJ,07702,US,(732) 933-8723,40.3332723,-74.0639062,Sunday 11:00 a.m. - 05:00 p.m.;Monday 10:00 a.m. - 08:00 p.m.;Tuesday 10:00 a.m. - 08:00 p.m.;Wednesday 10:00 a.m. - 08:00 p.m.;Thursday 10:00 a.m. - 08:00 p.m.;Friday 10:00 a.m. - 08:00 p.m.;Saturday 10:00 a.m. - 06:00 p.m.,,0
Shops at Nanuet,1813,1501 Fashion Avenue,,Nanuet,NY,10954,US,(845)624-0980,41.0953055,-74.0159912,Sunday 11:00 a.m. - 07:00 p.m.;Monday 10:00 a.m. - 09:00 p.m.;Tuesday 10:00 a.m. - 09:00 p.m.;Wednesday 10:00 a.m. - 09:00 p.m.;Thursday 10:00 a.m. - 09:00 p.m.;Friday 10:00 a.m. - 09:00 p.m.;Saturday 10:00 a.m. - 09:00 p.m.,,0
Woodbury Plaza,1340,417A South Oyster Bay Road,,Plainview,NY,11803,US,(516) 942-0187,40.7824185,-73.5015899,Sunday 11:00 a.m. - 06:00 p.m.;Monday 10:00 a.m. - 08:00 p.m.;Tuesday 10:00 a.m. - 08:00 p.m.;Wednesday 10:00 a.m. - 08:00 p.m.;Thursday 10:00 a.m. - 08:00 p.m.;Friday 10:00 a.m. - 08:00 p.m.;Saturday 10:00 a.m. - 08:00 p.m.,,0
The Shoppes at Union Hill,1301,3056 New Jersey 10,,DENVILLE,NJ,07834,US,(973) 537-9021,40.8657179,-74.505415,Sunday 11:00 a.m. - 06:00 p.m.;Monday 10:00 a.m. - 09:00 p.m.;Tuesday 10:00 a.m. - 09:00 p.m.;Wednesday 10:00 a.m. - 09:00 p.m.;Thursday 10:00 a.m. - 09:00 p.m.;Friday 10:00 a.m. - 09:00 p.m.;Saturday 10:00 a.m. - 09:00 p.m.,,0
The Shoppes at Old Bridge,1569,601 Texas Rd,,Old Bridge,NJ,08857,US,(732) 972-0464,40.3662368,-74.3026182,Sunday 11:00 a.m. - 06:00 p.m.;Monday 10:00 a.m. - 08:00 p.m.;Tuesday 10:00 a.m. - 08:00 p.m.;Wednesday 10:00 a.m. - 08:00 p.m.;Thursday 10:00 a.m. - 08:00 p.m.;Friday 10:00 a.m. - 08:00 p.m.;Saturday 10:00 a.m. - 07:00 p.m.,,0
The Shoppes at N Brunswick,1634,519 Shoppes Blvd,,North Brunswick,NJ,08902,US,(732) 227-1750,40.4607331,-74.4584059,Sunday 11:00 a.m. - 06:00 p.m.;Monday 10:00 a.m. - 09:00 p.m.;Tuesday 10:00 a.m. - 09:00 p.m.;Wednesday 10:00 a.m. - 09:00 p.m.;Thursday 10:00 a.m. - 09:00 p.m.;Friday 10:00 a.m. - 09:00 p.m.;Saturday 10:00 a.m. - 09:00 p.m.,,0
Walt Whitman Mall,1741,260-1 Route 110,,HUNTINGTON STATION,NY,11746,US,(631) 423-4443,40.8308342,-73.4108882,Sunday 11:00 a.m. - 07:00 p.m.;Monday 10:00 a.m. - 09:00 p.m.;Tuesday 10:00 a.m. - 09:00 p.m.;Wednesday 10:00 a.m. - 09:00 p.m.;Thursday 10:00 a.m. - 09:00 p.m.;Friday 10:00 a.m. - 09:30 p.m.;Saturday 10:00 a.m. - 09:30 p.m.,,0
Main Street,1310,263-265 Main Street,,Huntington,NY,11743,US,(631) 367-0125,40.871407,-73.426627,Sunday 11:00 a.m. - 06:00 p.m.;Monday 10:00 a.m. - 07:00 p.m.;Tuesday 10:00 a.m. - 07:00 p.m.;Wednesday 10:00 a.m. - 07:00 p.m.;Thursday 10:00 a.m. - 07:00 p.m.;Friday 10:00 a.m. - 07:00 p.m.;Saturday 10:00 a.m. - 07:00 p.m.,,0
LOFT 1920 Bridgewater Commons,1920,620 Commons Way,,Bridgewater,NJ,08807,US,908-722-1098,40.5826132,-74.6149453,Sunday 11:00 a.m. - 06:00 p.m.;Monday 10:00 a.m. - 09:00 p.m.;Tuesday 10:00 a.m. - 09:00 p.m.;Wednesday 10:00 a.m. - 09:00 p.m.;Thursday 10:00 a.m. - 09:00 p.m.;Friday 10:00 a.m. - 09:00 p.m.;Saturday 10:00 a.m. - 09:00 p.m.,,0
Stamford Town Center,1540,100 Greyrock Place,,Stamford,CT,06901,US,(203) 406-9544,41.0530773,-73.5371438,Sunday 11:00 a.m. - 06:00 p.m.;Monday 10:00 a.m. - 09:00 p.m.;Tuesday 10:00 a.m. - 09:00 p.m.;Wednesday 10:00 a.m. - 09:00 p.m.;Thursday 10:00 a.m. - 09:00 p.m.;Friday 10:00 a.m. - 09:00 p.m.;Saturday 10:00 a.m. - 09:00 p.m.,,0
Great South Bay,747,855 West Montauk Highway,,West Babylon,NY,11704,US,(631) 422-6020,40.6849048,-73.3493843,Sunday 11:00 a.m. - 06:00 p.m.;Monday 10:00 a.m. - 08:00 p.m.;Tuesday 10:00 a.m. - 08:00 p.m.;Wednesday 10:00 a.m. - 08:00 p.m.;Thursday 10:00 a.m. - 08:00 p.m.;Friday 10:00 a.m. - 08:00 p.m.;Saturday 10:00 a.m. - 08:00 p.m.,,0
Mayfair Shopping Center,879,170B East Jericho Turnpike,,COMMACK,NY,11725,US,(631) 864-3400,40.8434348,-73.2728151,Sunday 11:00 a.m. - 06:00 p.m.;Monday 10:00 a.m. - 08:00 p.m.;Tuesday 10:00 a.m. - 08:00 p.m.;Wednesday 10:00 a.m. - 08:00 p.m.;Thursday 10:00 a.m. - 08:00 p.m.;Friday 10:00 a.m. - 08:00 p.m.;Saturday 10:00 a.m. - 07:00 p.m.,,0
Sea Girt,1428,2157 Highway 35,,Sea Girt,NJ,08750,US,(732) 974-7983,40.138544,-74.063082,Sunday 11:00 a.m. - 05:00 p.m.;Monday 10:00 a.m. - 08:00 p.m.;Tuesday 10:00 a.m. - 08:00 p.m.;Wednesday 10:00 a.m. - 08:00 p.m.;Thursday 10:00 a.m. - 08:00 p.m.;Friday 10:00 a.m. - 08:00 p.m.;Saturday 10:00 a.m. - 06:00 p.m.,,0
Jefferson Valley Mall,1370,650 Lee Blvd,,Yorktown Heights,NY,10598,US,(914) 245-8701,41.3285755,-73.807682,Sunday 11:00 a.m. - 06:00 p.m.;Monday 10:00 a.m. - 09:30 p.m.;Tuesday 10:00 a.m. - 09:30 p.m.;Wednesday 10:00 a.m. - 09:30 p.m.;Thursday 10:00 a.m. - 09:30 p.m.;Friday 10:00 a.m. - 09:30 p.m.;Saturday 10:00 a.m. - 09:30 p.m.,,0
Westport,1477,17 Main Street,,Westport,CT,06880,US,(203) 227-0323,41.1416156,-73.3616614,Sunday 11:00 a.m. - 05:00 p.m.;Monday 10:00 a.m. - 06:00 p.m.;Tuesday 10:00 a.m. - 06:00 p.m.;Wednesday 10:00 a.m. - 06:00 p.m.;Thursday 10:00 a.m. - 07:00 p.m.;Friday 10:00 a.m. - 06:00 p.m.;Saturday 10:00 a.m. - 06:00 p.m.,,0
The Shoppes at Flemington,1692,100 Reaville Avenue,,Flemington,NJ,08822,US,(908) 284-1249,40.5001092,-74.8516106,Sunday 11:00 a.m. - 05:00 p.m.;Monday 10:00 a.m. - 08:00 p.m.;Tuesday 10:00 a.m. - 08:00 p.m.;Wednesday 10:00 a.m. - 08:00 p.m.;Thursday 10:00 a.m. - 08:00 p.m.;Friday 10:00 a.m. - 08:00 p.m.;Saturday 10:00 a.m. - 08:00 p.m.,,0
Smith Haven Mall,1603,644 Smith Haven Mall,,Lake Grove,NY,11755,US,(631) 863-1349,40.8643874,-73.1332695,Sunday 11:00 a.m. - 07:00 p.m.;Monday 10:00 a.m. - 09:30 p.m.;Tuesday 10:00 a.m. - 09:30 p.m.;Wednesday 10:00 a.m. - 09:30 p.m.;Thursday 10:00 a.m. - 09:30 p.m.;Friday 10:00 a.m. - 09:30 p.m.;Saturday 10:00 a.m. - 09:30 p.m.,,0
Stony Brook Village,1452,79 & 81 Main Street,,Stony Brook,NY,11790,US,(631) 689-8030,40.91635,-73.146304,Sunday 11:00 a.m. - 05:00 p.m.;Monday 10:00 a.m. - 06:00 p.m.;Tuesday 10:00 a.m. - 06:00 p.m.;Wednesday 10:00 a.m. - 06:00 p.m.;Thursday 10:00 a.m. - 06:00 p.m.;Friday 10:00 a.m. - 06:00 p.m.;Saturday 10:00 a.m. - 06:00 p.m.,,0
Quaker Bridge Mall,1809,3320 US Highway 1,,Lawrenceville,NJ,08648,US,(609)716-8394,40.2691129,-74.7137058,Sunday 10:00 a.m. - 08:00 p.m.;Monday 09:30 a.m. - 10:00 p.m.;Tuesday 09:30 a.m. - 10:00 p.m.;Wednesday 09:30 a.m. - 10:00 p.m.;Thursday 09:30 a.m. - 10:00 p.m.;Friday 09:30 a.m. - 10:00 p.m.;Saturday 09:00 a.m. - 11:00 p.m.,,0
Fairfield Centre,847,1499 Post Road,,Fairfield,CT,06824,US,(203) 319-0238,41.1407598,-73.2581507,Sunday 11:00 a.m. - 06:00 p.m.;Monday 10:00 a.m. - 07:00 p.m.;Tuesday 10:00 a.m. - 07:00 p.m.;Wednesday 10:00 a.m. - 07:00 p.m.;Thursday 10:00 a.m. - 08:00 p.m.;Friday 10:00 a.m. - 07:00 p.m.;Saturday 10:00 a.m. - 07:00 p.m.,,0
The Shoppes at Hamilton,1600,549 Route 130,,TRENTON,NJ,08691,US,(609) 585-3082,40.1856351,-74.6551612,Sunday 11:00 a.m. - 06:00 p.m.;Monday 10:00 a.m. - 08:00 p.m.;Tuesday 10:00 a.m. - 08:00 p.m.;Wednesday 10:00 a.m. - 08:00 p.m.;Thursday 10:00 a.m. - 08:00 p.m.;Friday 10:00 a.m. - 08:00 p.m.;Saturday 10:00 a.m. - 07:00 p.m.,,0
Danbury Fair Mall,1604,7 Backus Avenue,,Danbury,CT,06810,US,(203) 791-1022,41.3800517,-73.4817327,Sunday 11:00 a.m. - 06:00 p.m.;Monday 10:00 a.m. - 09:00 p.m.;Tuesday 10:00 a.m. - 09:00 p.m.;Wednesday 10:00 a.m. - 09:00 p.m.;Thursday 10:00 a.m. - 09:00 p.m.;Friday 10:00 a.m. - 09:00 p.m.;Saturday 10:00 a.m. - 09:00 p.m.,,0
LOFT 1906 Galleria Crystal Run,1906,1 N GALLERIA DR,,Middletown,NY,10941,US,845-692-8943,41.4532801,-74.3692367,Sunday 11:00 a.m. - 06:00 p.m.;Monday 10:00 a.m. - 09:30 p.m.;Tuesday 10:00 a.m. - 09:30 p.m.;Wednesday 10:00 a.m. - 09:30 p.m.;Thursday 10:00 a.m. - 09:30 p.m.;Friday 10:00 a.m. - 09:30 p.m.;Saturday 10:00 a.m. - 09:30 p.m.,,0
Oxford Valley Mall,1498,2300 East Lincoln Highway,,Langhorne,PA,19047,US,(215) 702-1395,40.1827095,-74.8818898,Sunday 11:00 a.m. - 06:00 p.m.;Monday 10:00 a.m. - 09:00 p.m.;Tuesday 10:00 a.m. - 09:00 p.m.;Wednesday 10:00 a.m. - 09:00 p.m.;Thursday 10:00 a.m. - 09:00 p.m.;Friday 10:00 a.m. - 09:00 p.m.;Saturday 10:00 a.m. - 09:00 p.m.,,0
Milford Marketplace,1618,1664 Boston Post Road,,Milford,CT,06460,US,(203) 783-1979,41.2479423,-73.0247655,Sunday 11:00 a.m. - 05:00 p.m.;Monday 10:00 a.m. - 08:00 p.m.;Tuesday 10:00 a.m. - 08:00 p.m.;Wednesday 10:00 a.m. - 08:00 p.m.;Thursday 10:00 a.m. - 08:00 p.m.;Friday 10:00 a.m. - 08:00 p.m.;Saturday 10:00 a.m. - 08:00 p.m.,,0
Glendale Galleria,1582,100 W. Broadway,,Glendale,CA,91210,US,(818) 546-1565,34.1460878,-118.2561731,Sunday 11:00 a.m. - 07:00 p.m.;Monday 10:00 a.m. - 09:00 p.m.;Tuesday 10:00 a.m. - 09:00 p.m.;Wednesday 10:00 a.m. - 09:00 p.m.;Thursday 10:00 a.m. - 09:00 p.m.;Friday 10:00 a.m. - 09:00 p.m.;Saturday 10:00 a.m. - 09:00 p.m.,,0
Waterside At MDR,1777,4730 Admiralty Way,,Marina Del Rey,CA,90292,US,310-827-0607,33.9784605,-118.4372954,Sunday 11:00 a.m. - 06:00 p.m.;Monday 10:00 a.m. - 08:00 p.m.;Tuesday 10:00 a.m. - 08:00 p.m.;Wednesday 10:00 a.m. - 08:00 p.m.;Thursday 10:00 a.m. - 08:00 p.m.;Friday 10:00 a.m. - 08:00 p.m.;Saturday 10:00 a.m. - 08:00 p.m.,,0
Santa Anita,1749,400 South Baldwin Ave,,Arcadia,CA,91007,US,(626) 821-4425,34.1349204,-118.0509968,Sunday 11:00 a.m. - 07:00 p.m.;Monday 10:00 a.m. - 09:00 p.m.;Tuesday 10:00 a.m. - 09:00 p.m.;Wednesday 10:00 a.m. - 09:00 p.m.;Thursday 10:00 a.m. - 09:00 p.m.;Friday 10:00 a.m. - 09:00 p.m.;Saturday 10:00 a.m. - 09:00 p.m.,,0
Manhattan Village,695,3200 Sepulveda Blvd,,Manhattan Beach,CA,90266,US,(310) 939-0122,33.8952639,-118.3942198,Sunday 11:00 a.m. - 06:00 p.m.;Monday 10:00 a.m. - 09:00 p.m.;Tuesday 10:00 a.m. - 09:00 p.m.;Wednesday 10:00 a.m. - 09:00 p.m.;Thursday 10:00 a.m. - 09:00 p.m.;Friday 10:00 a.m. - 09:00 p.m.;Saturday 10:00 a.m. - 08:00 p.m.,,0
Los Cerritos,1816,239 Los Cerritos Center,,Cerritos,CA,90703,US,(562) 924 2792,33.8629026,-118.0948085,Sunday 11:00 a.m. - 07:00 p.m.;Monday 10:00 a.m. - 09:00 p.m.;Tuesday 10:00 a.m. - 09:00 p.m.;Wednesday 10:00 a.m. - 09:00 p.m.;Thursday 10:00 a.m. - 09:00 p.m.;Friday 10:00 a.m. - 09:00 p.m.;Saturday 10:00 a.m. - 08:00 p.m.,,0
Promenade Peninsula,1610,550 Deep Valley Drive,,Rolling Hills Estate,CA,90274,US,(310) 377-4523,33.7721263,-118.3733576,Sunday 11:00 a.m. - 06:00 p.m.;Monday 10:00 a.m. - 07:00 p.m.;Tuesday 10:00 a.m. - 07:00 p.m.;Wednesday 10:00 a.m. - 07:00 p.m.;Thursday 10:00 a.m. - 07:00 p.m.;Friday 10:00 a.m. - 07:00 p.m.;Saturday 10:00 a.m. - 07:00 p.m.,,0
Shops at Rossmoor,1698,12211 Seal Beach Blvd,,Seal Beach,CA,90740,US,(562) 598-4513,33.7851784,-118.0733617,Sunday 12:00 p.m. - 06:00 p.m.;Monday 10:00 a.m. - 08:00 p.m.;Tuesday 10:00 a.m. - 08:00 p.m.;Wednesday 10:00 a.m. - 08:00 p.m.;Thursday 10:00 a.m. - 08:00 p.m.;Friday 10:00 a.m. - 08:00 p.m.;Saturday 10:00 a.m. - 07:00 p.m.,,0
Downtown,746,210 West Birch Street,,Brea,CA,92821,US,(714) 672-0231,33.918593,-117.9008,Sunday 05:00 a.m. - 06:00 p.m.;Monday 08:00 a.m. - 08:00 p.m.;Tuesday 10:00 a.m. - 08:00 p.m.;Wednesday 10:00 a.m. - 08:00 p.m.;Thursday 10:00 a.m. - 08:00 p.m.;Friday 10:00 a.m. - 08:00 p.m.;Saturday 10:00 a.m. - 08:00 p.m.,,0
Northridge Fashion Center,777,9301 Tampa Avenue,,Northridge,CA,91324,US,(818) 341-1970,34.2385732,-118.5562362,Sunday 11:00 a.m. - 07:00 p.m.;Monday 10:00 a.m. - 09:00 p.m.;Tuesday 10:00 a.m. - 09:00 p.m.;Wednesday 10:00 a.m. - 09:00 p.m.;Thursday 10:00 a.m. - 09:00 p.m.;Friday 10:00 a.m. - 09:00 p.m.;Saturday 10:00 a.m. - 09:00 p.m.,,0
Five Points Plaza,1554,18577 Main Street,,Huntington Beach,CA,92648,US,(714) 847-9828,33.6935003,-117.9917881,Sunday 11:00 a.m. - 06:00 p.m.;Monday 10:00 a.m. - 08:00 p.m.;Tuesday 10:00 a.m. - 08:00 p.m.;Wednesday 10:00 a.m. - 08:00 p.m.;Thursday 10:00 a.m. - 08:00 p.m.;Friday 10:00 a.m. - 08:00 p.m.;Saturday 10:00 a.m. - 07:00 p.m.,,0
Shoppes at Chino Hills,1666,13850 City Center Drive,,Chino Hills,CA,91709,US,(909) 591-6043,34.0016017,-117.7307086,Sunday 11:00 a.m. - 07:00 p.m.;Monday 10:00 a.m. - 08:00 p.m.;Tuesday 10:00 a.m. - 08:00 p.m.;Wednesday 10:00 a.m. - 08:00 p.m.;Thursday 10:00 a.m. - 08:00 p.m.;Friday 10:00 a.m. - 09:00 p.m.;Saturday 10:00 a.m. - 09:00 p.m.,,0
Valencia Town Center,1421,24201 Valencia Boulevard,,Valencia,CA,91355,US,(661) 288-0363,34.4156215,-118.5572612,Sunday 11:00 a.m. - 06:00 p.m.;Monday 10:00 a.m. - 09:00 p.m.;Tuesday 10:00 a.m. - 09:00 p.m.;Wednesday 10:00 a.m. - 09:00 p.m.;Thursday 10:00 a.m. - 09:00 p.m.;Friday 10:00 a.m. - 09:00 p.m.;Saturday 10:00 a.m. - 09:00 p.m.,,0
Tustin,771,3005 El Camino Real,,Tustin,CA,92782,US,(714) 368-0771,33.7240204,-117.7925275,Sunday 11:00 a.m. - 06:00 p.m.;Monday 10:00 a.m. - 09:00 p.m.;Tuesday 10:00 a.m. - 09:00 p.m.;Wednesday 10:00 a.m. - 09:00 p.m.;Thursday 10:00 a.m. - 09:00 p.m.;Friday 10:00 a.m. - 09:00 p.m.;Saturday 10:00 a.m. - 07:00 p.m.,,0
Fashion Island,1826,401 Newport Center Drive,,Newport Beach,CA,92660,US,(949) 640-9500,33.6147201,-117.874682,Sunday 11:00 a.m. - 06:00 p.m.;Monday 10:00 a.m. - 09:00 p.m.;Tuesday 10:00 a.m. - 09:00 p.m.;Wednesday 10:00 a.m. - 09:00 p.m.;Thursday 10:00 a.m. - 09:00 p.m.;Friday 10:00 a.m. - 09:00 p.m.;Saturday 10:00 a.m. - 07:00 p.m.,,0
The Oaks,1806,350 West Hillcrest Drive,,Thousand Oaks,CA,91360,US,(805)379-1878,34.1818406,-118.8856931,Sunday 11:00 a.m. - 07:00 p.m.;Monday 10:00 a.m. - 09:00 p.m.;Tuesday 10:00 a.m. - 09:00 p.m.;Wednesday 10:00 a.m. - 09:00 p.m.;Thursday 10:00 a.m. - 09:00 p.m.;Friday 10:00 a.m. - 09:00 p.m.;Saturday 10:00 a.m. - 09:00 p.m.,,0
Irvine Spectrum Center,1501,93 Fortune Drive,,Irvine,CA,92618,US,(949) 788-0847,33.649203,-117.74231,Sunday 11:00 a.m. - 08:00 p.m.;Monday 10:00 a.m. - 09:00 p.m.;Tuesday 10:00 a.m. - 09:00 p.m.;Wednesday 10:00 a.m. - 09:00 p.m.;Thursday 10:00 a.m. - 09:00 p.m.;Friday 10:00 a.m. - 09:30 p.m.;Saturday 10:00 a.m. - 09:30 p.m.,,0
LOFT 1922 Victoria Gardens,1922,12384 South Main Street,,Rancho Cucamonga,CA,91739,US,909-899-1114,34.1111125,-117.5351381,Sunday 11:00 a.m. - 07:00 p.m.;Monday 10:00 a.m. - 09:00 p.m.;Tuesday 10:00 a.m. - 09:00 p.m.;Wednesday 10:00 a.m. - 09:00 p.m.;Thursday 10:00 a.m. - 09:00 p.m.;Friday 10:00 a.m. - 10:00 p.m.;Saturday 10:00 a.m. - 10:00 p.m.,,0
The Shops at Dos Lagos,1492,2795 Cabot Drive,,Corona,CA,92883,US,(951) 277-3224,33.8131194,-117.5072711,Sunday 11:00 a.m. - 06:00 p.m.;Monday 10:00 a.m. - 08:00 p.m.;Tuesday 10:00 a.m. - 08:00 p.m.;Wednesday 10:00 a.m. - 08:00 p.m.;Thursday 10:00 a.m. - 08:00 p.m.;Friday 10:00 a.m. - 09:00 p.m.;Saturday 10:00 a.m. - 09:00 p.m.,,0
Galleria at Tyler,824,1299 Tyler Street,,Riverside,CA,92503,US,(951) 689-0984,33.9081813,-117.4565437,Sunday 11:00 a.m. - 07:00 p.m.;Monday 10:00 a.m. - 09:00 p.m.;Tuesday 10:00 a.m. - 09:00 p.m.;Wednesday 10:00 a.m. - 09:00 p.m.;Thursday 10:00 a.m. - 09:00 p.m.;Friday 10:00 a.m. - 09:00 p.m.;Saturday 10:00 a.m. - 09:00 p.m.,,0
The Shops at Mission Viejo,1763,555 Shops at Mission Viejo,,Mission Viejo,CA,92691,US,(949) 364-1898,33.5588349,-117.6684315,Sunday 11:00 a.m. - 06:00 p.m.;Monday 10:00 a.m. - 09:00 p.m.;Tuesday 10:00 a.m. - 09:00 p.m.;Wednesday 10:00 a.m. - 09:00 p.m.;Thursday 10:00 a.m. - 09:00 p.m.;Friday 10:00 a.m. - 09:00 p.m.;Saturday 10:00 a.m. - 08:00 p.m.,,0
LOFT 1898 Collection at River,1898,600 Town Center Drive,,OXNARD,CA,93036,US,(805)485-3052,34.2397554,-119.1780528,Sunday 11:00 a.m. - 06:00 p.m.;Monday 10:00 a.m. - 09:00 p.m.;Tuesday 10:00 a.m. - 09:00 p.m.;Wednesday 10:00 a.m. - 09:00 p.m.;Thursday 10:00 a.m. - 09:00 p.m.;Friday 10:00 a.m. - 09:00 p.m.;Saturday 10:00 a.m. - 09:00 p.m.,,0
The Promenade Mall,690,40820 Winchester Road,,Temecula,CA,92591,US,(951) 719-2982,33.5248311,-117.1541815,Sunday 11:00 a.m. - 07:00 p.m.;Monday 10:00 a.m. - 09:00 p.m.;Tuesday 10:00 a.m. - 09:00 p.m.;Wednesday 10:00 a.m. - 09:00 p.m.;Thursday 10:00 a.m. - 09:00 p.m.;Friday 10:00 a.m. - 09:00 p.m.;Saturday 10:00 a.m. - 09:00 p.m.,,0
Forum at Carlsbad,1432,1923 Calle Barcelona Bldg 3,,Carlsbad,CA,92009,US,(760) 633-2201,33.0718691,-117.2652454,Sunday 11:00 a.m. - 06:00 p.m.;Monday 10:00 a.m. - 09:00 p.m.;Tuesday 10:00 a.m. - 09:00 p.m.;Wednesday 10:00 a.m. - 09:00 p.m.;Thursday 10:00 a.m. - 09:00 p.m.;Friday 10:00 a.m. - 09:00 p.m.;Saturday 10:00 a.m. - 09:00 p.m.,,0
North County,1583,200 East Via Rancho Parkway,,Escondido,CA,92025,US,(760) 738-3789,33.070471,-117.0649122,Sunday 11:00 a.m. - 07:00 p.m.;Monday 10:00 a.m. - 09:00 p.m.;Tuesday 10:00 a.m. - 09:00 p.m.;Wednesday 10:00 a.m. - 09:00 p.m.;Thursday 10:00 a.m. - 09:00 p.m.;Friday 10:00 a.m. - 09:00 p.m.;Saturday 10:00 a.m. - 09:00 p.m.,,0
Fashion Valley,1798,7007 Friar's Road,,San Diego,CA,92108,US,(619) 293-3001,32.7681421,-117.1698284,Sunday 11:00 a.m. - 07:00 p.m.;Monday 10:00 a.m. - 09:00 p.m.;Tuesday 10:00 a.m. - 09:00 p.m.;Wednesday 10:00 a.m. - 09:00 p.m.;Thursday 10:00 a.m. - 09:00 p.m.;Friday 10:00 a.m. - 09:00 p.m.;Saturday 10:00 a.m. - 09:00 p.m.,,0
Gardens on El Paseo,1433,73-585 El Paseo,,Palm Desert,CA,92260,US,(760) 773-4848,33.7194781,-116.3810524,Sunday 10:00 a.m. - 05:00 p.m.;Monday 10:00 a.m. - 06:00 p.m.;Tuesday 10:00 a.m. - 06:00 p.m.;Wednesday 10:00 a.m. - 06:00 p.m.;Thursday 10:00 a.m. - 06:00 p.m.;Friday 10:00 a.m. - 06:00 p.m.;Saturday 10:00 a.m. - 06:00 p.m.,,0
Horton Plaza,1665,120 Horton Plaza,,San Diego,CA,92101,US,(619) 696-9204,32.7137321,-117.1628013,Sunday 11:00 a.m. - 06:00 p.m.;Monday 10:00 a.m. - 08:00 p.m.;Tuesday 10:00 a.m. - 08:00 p.m.;Wednesday 10:00 a.m. - 08:00 p.m.;Thursday 10:00 a.m. - 08:00 p.m.;Friday 10:00 a.m. - 08:00 p.m.;Saturday 10:00 a.m. - 08:00 p.m.,,0
Otay Ranch Town Center,1587,2015 Birch Road,,Chula Vista,CA,91915,US,(619) 656-5761,32.623489,-116.9654569,Sunday 11:00 a.m. - 06:00 p.m.;Monday 10:00 a.m. - 09:00 p.m.;Tuesday 10:00 a.m. - 09:00 p.m.;Wednesday 10:00 a.m. - 09:00 p.m.;Thursday 10:00 a.m. - 09:00 p.m.;Friday 10:00 a.m. - 09:00 p.m.;Saturday 10:00 a.m. - 09:00 p.m.,,0
The Shops at River Park,1685,7705 Via del Rio,,Fresno,CA,93720,US,(559) 436-1226,36.8500261,-119.7890383,Sunday 11:00 a.m. - 06:00 p.m.;Monday 10:00 a.m. - 09:00 p.m.;Tuesday 10:00 a.m. - 09:00 p.m.;Wednesday 10:00 a.m. - 09:00 p.m.;Thursday 10:00 a.m. - 09:00 p.m.;Friday 10:00 a.m. - 09:00 p.m.;Saturday 10:00 a.m. - 09:00 p.m.,,0
LOFT 1871 Downtown Summerlin,1871,2010 Festival Plaza Drive,,LAS VEGAS,NV,89135,US,(702) 243-1839,36.149159,-115.333188,Sunday 11:00 a.m. - 07:00 p.m.;Monday 10:00 a.m. - 09:00 p.m.;Tuesday 10:00 a.m. - 09:00 p.m.;Wednesday 10:00 a.m. - 09:00 p.m.;Thursday 10:00 a.m. - 09:00 p.m.;Friday 10:00 a.m. - 09:00 p.m.;Saturday 10:00 a.m. - 09:00 p.m.,,0
Miracle Mile Shops,814,3663 Las Vegas Blvd South,,Las Vegas,NV,89109,US,(702) 732-3348,36.1107901,-115.1714113,Sunday 10:00 a.m. - 11:00 p.m.;Monday 10:00 a.m. - 11:00 p.m.;Tuesday 10:00 a.m. - 11:00 p.m.;Wednesday 10:00 a.m. - 11:00 p.m.;Thursday 10:00 a.m. - 11:00 p.m.;Friday 10:00 a.m. - 00:00 a.m.;Saturday 10:00 a.m. - 00:00 a.m.,,0
Green Valley Ranch,1394,2235 Village Walk Drive,,Henderson,NV,89052,US,(702) 207-6718,36.0211746,-115.0860689,Sunday 11:00 a.m. - 06:00 p.m.;Monday 10:00 a.m. - 09:00 p.m.;Tuesday 10:00 a.m. - 09:00 p.m.;Wednesday 10:00 a.m. - 09:00 p.m.;Thursday 10:00 a.m. - 09:00 p.m.;Friday 10:00 a.m. - 09:00 p.m.;Saturday 10:00 a.m. - 09:00 p.m.,,0
Oakridge Mall,874,925 Blossom Hill Road,,San Jose,CA,95123,US,(408) 227-0628,37.2515431,-121.8624492,Sunday 11:00 a.m. - 07:30 p.m.;Monday 10:00 a.m. - 09:00 p.m.;Tuesday 10:00 a.m. - 09:00 p.m.;Wednesday 10:00 a.m. - 09:00 p.m.;Thursday 10:00 a.m. - 09:00 p.m.;Friday 10:00 a.m. - 10:00 p.m.;Saturday 10:00 a.m. - 10:00 p.m.,,0
Santana Row,1365,377 Santana Row,,San Jose,CA,95128,US,(408) 246-2684,37.3199011,-121.9483389,Sunday 11:00 a.m. - 06:00 p.m.;Monday 10:00 a.m. - 09:00 p.m.;Tuesday 10:00 a.m. - 09:00 p.m.;Wednesday 10:00 a.m. - 09:00 p.m.;Thursday 10:00 a.m. - 09:00 p.m.;Friday 10:00 a.m. - 09:00 p.m.;Saturday 10:00 a.m. - 09:00 p.m.,,0
Stone Creek Village,1667,5757 Pacific Avenue,,Stockton,CA,95207,US,(209) 952-0262,38.0016048,-121.3189986,Sunday 11:00 a.m. - 06:00 p.m.;Monday 10:00 a.m. - 08:00 p.m.;Tuesday 10:00 a.m. - 08:00 p.m.;Wednesday 10:00 a.m. - 08:00 p.m.;Thursday 10:00 a.m. - 08:00 p.m.;Friday 10:00 a.m. - 08:00 p.m.;Saturday 10:00 a.m. - 08:00 p.m.,,0
Stoneridge Mall,1834,2433 Stoneridge Mall Road,,Pleasanton,CA,94588,US,(925)467-1470,37.695705,-121.9293737,Sunday 11:00 a.m. - 07:00 p.m.;Monday 10:00 a.m. - 09:00 p.m.;Tuesday 10:00 a.m. - 09:00 p.m.;Wednesday 10:00 a.m. - 09:00 p.m.;Thursday 10:00 a.m. - 09:00 p.m.;Friday 10:00 a.m. - 09:00 p.m.;Saturday 10:00 a.m. - 09:00 p.m.,,0
Plaza Escuela,674,1251 South Main Street,,Walnut Creek,CA,94596,US,(925) 934-9923,37.8954838,-122.0602336,Sunday 11:00 a.m. - 06:00 p.m.;Monday 10:00 a.m. - 09:00 p.m.;Tuesday 10:00 a.m. - 09:00 p.m.;Wednesday 10:00 a.m. - 09:00 p.m.;Thursday 10:00 a.m. - 09:00 p.m.;Friday 10:00 a.m. - 09:00 p.m.;Saturday 10:00 a.m. - 07:00 p.m.,,0
Arrowhead Towne Center,813,7700 W Arrowhead Towne Ctr,,Glendale,AZ,85308,US,(623) 776-2110,33.6420894,-112.2254067,Sunday 11:00 a.m. - 06:00 p.m.;Monday 10:00 a.m. - 09:00 p.m.;Tuesday 10:00 a.m. - 09:00 p.m.;Wednesday 10:00 a.m. - 09:00 p.m.;Thursday 10:00 a.m. - 09:00 p.m.;Friday 10:00 a.m. - 09:00 p.m.;Saturday 10:00 a.m. - 09:00 p.m.,,0
Embarcadero Center,1789,4 Embarcadero Center,,San Francisco,CA,94111,US,(415)956-9895,37.7953898,-122.3961067,Sunday 12:00 p.m. - 06:00 p.m.;Monday 08:00 a.m. - 07:00 p.m.;Tuesday 08:00 a.m. - 07:00 p.m.;Wednesday 08:00 a.m. - 07:00 p.m.;Thursday 08:00 a.m. - 07:00 p.m.;Friday 08:00 a.m. - 07:00 p.m.;Saturday 10:00 a.m. - 06:00 p.m.,,0
Arden Fair,1584,1689 Arden Way,,Sacramento,CA,95815,US,(916) 646-3166,38.601511,-121.4278631,Sunday 11:00 a.m. - 07:00 p.m.;Monday 10:00 a.m. - 09:00 p.m.;Tuesday 10:00 a.m. - 09:00 p.m.;Wednesday 10:00 a.m. - 09:00 p.m.;Thursday 10:00 a.m. - 09:00 p.m.;Friday 10:00 a.m. - 09:00 p.m.;Saturday 10:00 a.m. - 09:00 p.m.,,0
Kierland Commons,862,15211 North Kierland Blvd,,Scottsdale,AZ,85254,US,(480) 556-0776,33.6245594,-111.9298364,Sunday 12:00 p.m. - 06:00 p.m.;Monday 10:00 a.m. - 08:00 p.m.;Tuesday 10:00 a.m. - 08:00 p.m.;Wednesday 10:00 a.m. - 08:00 p.m.;Thursday 10:00 a.m. - 08:00 p.m.;Friday 10:00 a.m. - 09:00 p.m.;Saturday 10:00 a.m. - 09:00 p.m.,,0
Scottsdale Fashion Square,1889,7014 East Camelback Road,,Scottsdale,AZ,85251,US,480-425-5898,33.5028371,-111.9294198,Sunday 11:00 a.m. - 06:00 p.m.;Monday 10:00 a.m. - 09:00 p.m.;Tuesday 10:00 a.m. - 09:00 p.m.;Wednesday 10:00 a.m. - 09:00 p.m.;Thursday 10:00 a.m. - 09:00 p.m.;Friday 10:00 a.m. - 09:00 p.m.;Saturday 10:00 a.m. - 09:00 p.m.,,0
Creekside Town Center,984,1208 Galleria Blvd,,Roseville,CA,95678,US,(916) 786-6670,38.7730091,-121.2630227,Sunday 11:00 a.m. - 06:00 p.m.;Monday 10:00 a.m. - 09:00 p.m.;Tuesday 10:00 a.m. - 09:00 p.m.;Wednesday 10:00 a.m. - 09:00 p.m.;Thursday 10:00 a.m. - 09:00 p.m.;Friday 10:00 a.m. - 09:00 p.m.;Saturday 10:00 a.m. - 08:00 p.m.,,0
Vintage Oaks at Novato,794,208 Vintage Way,,Novato,CA,94945,US,(415) 892-7597,38.088562,-122.552413,Sunday 11:00 a.m. - 06:00 p.m.;Monday 10:00 a.m. - 09:00 p.m.;Tuesday 10:00 a.m. - 09:00 p.m.;Wednesday 10:00 a.m. - 09:00 p.m.;Thursday 10:00 a.m. - 09:00 p.m.;Friday 10:00 a.m. - 09:00 p.m.;Saturday 10:00 a.m. - 07:00 p.m.,,0
Chandler Fashion Center,986,3111 West Chandler Blvd,,Chandler,AZ,85226,US,(480) 899-3414,33.3056732,-111.8977556,Sunday 11:00 a.m. - 06:00 p.m.;Monday 10:00 a.m. - 09:00 p.m.;Tuesday 10:00 a.m. - 09:00 p.m.;Wednesday 10:00 a.m. - 09:00 p.m.;Thursday 10:00 a.m. - 09:00 p.m.;Friday 10:00 a.m. - 09:00 p.m.;Saturday 10:00 a.m. - 09:00 p.m.,,0
Dana Park Village Square,1313,1854 South Val Vista Drive,,Mesa,AZ,85204,US,(480) 892-9001,33.3814634,-111.7569218,Sunday 10:00 a.m. - 06:00 p.m.;Monday 10:00 a.m. - 08:00 p.m.;Tuesday 10:00 a.m. - 08:00 p.m.;Wednesday 10:00 a.m. - 08:00 p.m.;Thursday 10:00 a.m. - 08:00 p.m.;Friday 10:00 a.m. - 08:00 p.m.;Saturday 10:00 a.m. - 08:00 p.m.,,0
San Tan Village,1635,2174 E. Williams Field Road,,Gilbert,AZ,85295,US,(480) 855-1512,33.3068213,-111.7526397,Sunday 11:00 a.m. - 06:00 p.m.;Monday 10:00 a.m. - 09:00 p.m.;Tuesday 10:00 a.m. - 09:00 p.m.;Wednesday 10:00 a.m. - 09:00 p.m.;Thursday 10:00 a.m. - 09:00 p.m.;Friday 10:00 a.m. - 09:00 p.m.;Saturday 10:00 a.m. - 09:00 p.m.,,0
SUMMIT SIERRA,1880,13925 South Virginia Street,,Reno,NV,89511,US,(775) 851-9518,39.4065597,-119.7511759,Sunday 11:00 a.m. - 06:00 p.m.;Monday 10:00 a.m. - 09:00 p.m.;Tuesday 10:00 a.m. - 09:00 p.m.;Wednesday 10:00 a.m. - 09:00 p.m.;Thursday 10:00 a.m. - 09:00 p.m.;Friday 10:00 a.m. - 09:00 p.m.;Saturday 10:00 a.m. - 09:00 p.m.,,0
La Encantada,1883,2905 Skyline Drive,,Tucson,AZ,85718,US,(520)529-5599,32.3247418,-110.9301132,Sunday 11:00 a.m. - 06:00 p.m.;Monday 10:00 a.m. - 07:00 p.m.;Tuesday 10:00 a.m. - 07:00 p.m.;Wednesday 10:00 a.m. - 07:00 p.m.;Thursday 10:00 a.m. - 08:00 p.m.;Friday 10:00 a.m. - 08:00 p.m.;Saturday 10:00 a.m. - 08:00 p.m.,,0
Fashion Place,1782,6191 South State Street,,Murray,UT,84107,US,(801)261-9550,40.6359827,-111.8863128,Sunday 12:00 p.m. - 06:00 p.m.;Monday 10:00 a.m. - 09:00 p.m.;Tuesday 10:00 a.m. - 09:00 p.m.;Wednesday 10:00 a.m. - 09:00 p.m.;Thursday 10:00 a.m. - 09:00 p.m.;Friday 10:00 a.m. - 09:00 p.m.;Saturday 10:00 a.m. - 09:00 p.m.,,0
