store_name,store_number,address,address2,city,state,zip_code,country,phone_number,latitude,longitude,store_hours,other_fields,coming_soon
11985 Collier Boulevard,8153,11985 Collier Boulevard,,Naples,FL,34116,US,239-300-4566,26.1885998,-81.6873063,Fri - Sat:11:00am - 11:30pm;Mon - Thur:11:00am - 10:30pm;Sun:12:00pm - 10:00pm;,,Open
1392 W.O. Ezell Boulevard,3634,1392 W.O. Ezell Boulevard,,Spartanburg,SC,29301,US,864-576-4666,34.9384427,-81.9764593,Fri - Sat:11:00am - 12:00am;Mon - Thur:11:00am - 11:00pm;Sun:11:00am - 11:00pm;,,Open
7794 E. Brainerd Rd,8435,7794 E. Brainerd Rd,,Chattanooga,TN,37421,US,423-803-5800,35.007737,-85.1533373,Fri - Sat:11:00am - 12:00am;Mon - Thur:11:00am - 11:00pm;Sun:11:00am - 11:00pm;,,Open
112 W Maple Ave,3657,112 W Maple Ave,,Beaver Dam,WI,53916,US,920-319-8101,43.4580865,-88.838116,Fri - Sat:11:00am - 12:00am;Mon - Thur:11:00am - 11:00pm;Sun:11:00am - 11:00am;,,Open
25523 Eaton Way,1254,25523 Eaton Way,,Bay Village,OH,44140,US,440-316-8000,41.477518,-81.902358,Fri - Sat:11:00am - 12:00am;Mon - Thur:11:00am - 11:00pm;Sun:11:00am - 11:00pm;,,Coming Soon
201 West Walnut St,3663,201 West Walnut St,,Frankfort,IN,46041,US,,40.2793765,-86.5136853,Fri - Sat:11:00am - 12:00am;Mon - Thur:11:00am - 11:00pm;Sun:11:00am - 11:00pm;,,Open
2485 US HWY 431 N,8082,2485 US HWY 431 N,,Anniston,AL,36206,US,256-848-3131,33.7155455,-85.856669,Fri - Sat:11:00am - 12:00am;Mon - Thur:11:00am - 11:00pm;Sun:11:00am - 11:00pm;,,Open
1095 Hwy 165 Drop Zone Lane,8109,1095 Hwy 165 Drop Zone Lane,,Fort Mitchell,AL,36856,US,334-855-9900,32.27472,-85.00206,Sun:11:00am - 10:00pm;Mon - Sat:11:00am - 11:00pm;,,Open
160 Cotton Creek Dr,8151,160 Cotton Creek Dr,,Gulf Shores,AL,36542,US,251-975-1200,30.29773,-87.68176,Fri - Sat:11:00am - 11:00pm;Mon - Thur:11:00am - 10:00pm;Sun:11:00am - 9:00pm;,,Open
1401 Doug Baker Blvd,8083,1401 Doug Baker Blvd,,Hoover,AL,35242,US,205-991-1900,33.4118982,-86.6762186,Fri - Sat:11:00am - 12:00am;Mon - Thur:11:00am - 10:00pm;Sun:11:00am - 10:00pm;,,Open
11310 South Memorial Parkway,8040,11310 South Memorial Parkway,,Huntsville,AL,35803,US,256-270-9600,34.6332373,-86.567053,Fri - Sat:10:30am - 11:00pm;Mon - Thur:10:30am - 10:00pm;Sun:10:30am - 10:00pm;,,Open
2315 Bob Wallace,8087,2315 Bob Wallace,,Huntsville,AL,35805,US,256-489-5059,34.710402,-86.595044,Fri - Sat:10:30am - 11:00pm;Mon - Thur:10:30am - 10:00pm;Sun:10:30am - 10:00pm;,,Open
7559 Hwy 72 West,8010,7559 Hwy 72 West,,Madison,AL,35758,US,256-864-2019,34.7558532,-86.7302387,Fri - Sat:11:00am - 11:00pm;Mon - Thur:11:00am - 10:00pm;Sun:11:00am - 10:00pm;,,Open
1623 Perry Hill Rd,8095,1623 Perry Hill Rd,,Montgomery,AL,36106,US,334-356-8680,32.3560922,-86.243656,Fri - Sat:11:00am - 11:00pm;Mon - Thur:11:00am - 10:00pm;Sun:12:00pm - 9:00pm;,,Open
7327 Clinton Hwy,8431,7327 Clinton Hwy,,Powell,TN,37849,US,865-223-6438,36.015777,-84.047623,Fri - Sat:11:00am - 12:00am;Mon - Thur:11:00am - 11:00pm;Sun:11:00am - 11:00pm;,,Coming Soon
5408 Summerville Rd,8021,5408 Summerville Rd,,Phenix City,AL,36867,US,334-297-7997,32.5195631,-85.0281676,Sun:12:00pm - 9:00pm;Mon - Sat:11:00am - 11:00pm;,,Open
676 McQueen Smith Road North,8037,676 McQueen Smith Road North,,Prattville,AL,36066,US,334-491-7777,32.4818711,-86.4201766,Fri - Sat:11:00am - 11:00pm;Mon - Thur:11:00am - 10:00pm;Sun:12:00pm - 9:00pm;,,Open
10550 North La Canada Drive,7004,10550 North La Canada Drive,,Oro Valley,AZ,85737,US,520-297-6500,32.3971304,-110.9957861,Fri - Sat:11:00am - 11:00pm;Mon - Thur:11:00am - 10:00pm;Sun:11:00am - 10:00pm;,,Open
2502 SW 14th St,5051,2502 SW 14th St,,Bentonville,AR,72712,US,479-268-5422,36.358061,-94.240744,Fri - Sat:11:00am - 11:00pm;Mon - Thur:11:00am - 10:00pm;Sun:11:00am - 10:00pm;,,Open
2501 Dave Ward Dr,5031,2501 Dave Ward Dr,,Conway,AR,72034,US,501-327-7070,35.0702997,-92.4642454,Fri - Sat:11:00am - 11:00pm;Mon - Thur:11:00am - 10:00pm;Sun:11:00am - 10:00pm;,,Open
11601 N Rodney Parham Rd,5037,11601 N Rodney Parham Rd,,Little Rock,AR,72212,US,501-978-0022,34.77172,-92.40253,Fri - Sat:11:00am - 11:00pm;Mon - Thur:11:00am - 10:00pm;Sun:11:00am - 10:00pm;,,Open
5007 JFK Blvd,5030,5007 JFK Blvd,,North Little Rock,AR,72116,US,501-753-8100,34.8013911,-92.2547837,Fri - Sat:11:00am - 11:00pm;Mon - Thur:11:00am - 10:00pm;Sun:11:00am - 10:00pm;,,Open
1221 W Beebe Capps Expy,5060,1221 W Beebe Capps Expy,,Searcy,AR,72143,US,501-279-7777,35.244094,-91.750133,,,Open
26150 Iris Avenue,7013,26150 Iris Avenue,,Moreno Valley,CA,92555,US,951-924-7400,33.8928566,-117.2057484,Fri - Sat:11:00am - 12:00am;Mon - Thur:11:00am - 11:00pm;Sun:11:00am - 11:00pm;,,Open
8560 Five Parks Dr.,6003,8560 Five Parks Dr.,,Arvada,CO,80005,US,303-424-0441,39.849687,-105.155333,Fri - Sat:10:30am - 12:00am;Mon - Thur:10:30am - 11:00pm;Sun:10:30am - 11:00pm;,,Open
6785 120th Street,6001,6785 120th Street,,Broomfield,CO,80021,US,303-465-6447,39.915521,-105.071305,Fri - Sat:10:30am - 12:00am;Mon - Thur:10:30am - 11:00pm;Sun:10:30am - 11:00pm;,,Open
9420 Briar Village Point,6009,9420 Briar Village Point,,Colorado Springs,CO,80920,US,719-434-3773,38.967368,-104.7833,Sun:11:00am - 9:00pm;Fri:6:30am - 11:00pm;Thur:6:30am - 10:00pm;Mon - Wed:6:30am - 9:00pm;Sat:7:30am - 11:00pm;,,Open
4492 Austin Bluffs Pkwy.,6010,4492 Austin Bluffs Pkwy.,,Colorado Springs,CO,80918,US,719-203-3599,38.896958,-104.747959,Fri - Sat:11:00am - 11:00pm;Mon - Thur:11:00am - 10:00pm;Sun:11:00am - 10:00pm;,,Open
12 S. Tejon Street,6012,12 S. Tejon Street,,Colorado Springs,CO,80903,US,719-368-7677,38.8333763,-104.8237303,Fri - Sat:11:00am - 12:00am;Mon - Thur:11:00am - 10:00pm;Sun:12:00pm - 10:00pm;,,Open
8286 Northfield Blvd.,6006,8286 Northfield Blvd.,,Denver,CO,80238,US,303-996-2929,39.7846268,-104.8800761,Fri - Sat:10:30am - 12:00am;Mon - Thur:10:30am - 11:00pm;Sun:10:30am - 11:00pm;,,Open
459 South McCaslin Blvd.,6005,459 South McCaslin Blvd.,,Louisville,CO,80027,US,303-339-3010,39.964622,-105.164266,Fri - Sat:10:30am - 12:00am;Mon - Thur:10:30am - 11:00pm;Sun:10:30am - 11:00pm;,,Open
14663 Orchard Parkway,6004,14663 Orchard Parkway,,Westminster,CO,80023,US,303-953-7881,39.9615183,-104.9936526,Fri - Sat:10:30am - 12:00am;Mon - Thur:10:30am - 11:00pm;Sun:10:30am - 11:00pm;,,Open
1020 Gateway Boulevard #103,8154,1020 Gateway Boulevard #103,,Boynton Beach,FL,33426,US,561-742-4000,26.5495057,-80.0794245,Fri - Sat:11:00am - 11:00pm;Mon - Thur:11:00am - 10:00pm;Sun:11:00am - 10:00pm;,,Open
811 East Brandon Blvd.,8022,811 East Brandon Blvd.,,Brandon,FL,33511,US,813-643-9988,27.9376015,-82.273015,Fri - Sat:11:00am - 11:00pm;Mon - Thur:11:00am - 10:00pm;Sun:11:00am - 10:00pm;,,Open
2508 McMullen Booth Rd,8028,2508 McMullen Booth Rd,,Clearwater,FL,33761,US,727-796-0123,28.0124237,-82.7089941,,,Open
810 South Missouri Avenue,8141,810 South Missouri Avenue,,Clearwater,FL,33756,US,727-443-7333,27.955898,-82.7877897,Fri - Sat:11:00am - 12:00am;Mon - Thur:11:00am - 10:00pm;Sun:11:00am - 10:00pm;,,Open
701 West Hallandale Beach Blvd Suite 101,8166,701 West Hallandale Beach Blvd Suite 101,,Hallandale Beach,FL,33009,US,954-417-3335,25.9850369,-80.156561,Fri - Sat:11:00am - 12:00am;Mon - Thur:11:00am - 11:00pm;Sun:11:00am - 11:00pm;,,Coming Soon
"Lucayan Shopping Center, Sea Horse Drive",9004,"Lucayan Shopping Center, Sea Horse Drive",,"Freeport, Grand Bahama",-,,BS,242-373-7000,26.512834,-78.64225,Sun:11:00am - 11:00pm;Mon - Sat:11:00am - 12:00am;,,Open
4803 South Military Trail,8015,4803 South Military Trail,,Greenacres,FL,33463,US,561-969-2929,26.6065581,-80.1141074,Fri - Sat:11:00am - 11:00pm;Mon - Thur:11:00am - 10:00pm;Sun:11:00am - 10:00pm;,,Open
8415 Cheswick Oak Ave,8127,8415 Cheswick Oak Ave,,Jacksonville,FL,32244,US,904-771-1313,30.1934752,-81.7977851,Fri - Sat:11:00am - 12:00am;Mon - Thur:11:00am - 10:00pm;Sun:11:00am - 10:00pm;,,Open
5324 11 Blanding Blvd,8169,5324 11 Blanding Blvd,,Jacksonville,FL,32210,US,904-777-3449,30.2480537,-81.7725663,Fri - Sat:11:00am - 12:00am;Mon - Thur:11:00am - 10:00pm;Sun:11:00am - 10:00pm;,,Open
4780 South Florida Ave,8090,4780 South Florida Ave,,Lakeland,FL,33813,US,863-647-2900,27.97645,-81.956,Fri - Sat:11:00am - 12:00am;Mon - Thur:11:00am - 10:00pm;Sun:11:00am - 10:00pm;,,Open
456 E Lincoln Highway,4015,456 E Lincoln Highway,,Dekalb,IL,60115,US,815-981-8888,41.9291997,-88.7489269,Fri - Sat:11:00am - 12:00am;Mon - Thur:11:00am - 11:00pm;Sun:11:00am - 11:00pm;,,Coming Soon
1408 North Dale Mabry,8117,1408 North Dale Mabry,,Lutz,FL,33548,US,813-949-1099,28.1746357,-82.4723768,Fri - Sat:11:00am - 12:00am;Mon - Thur:11:00am - 10:00pm;Sun:11:00am - 10:00pm;,,Open
3600 North Wickham Road,8140,3600 North Wickham Road,,Melbourne,FL,32935,US,321-259-8999,28.1636679,-80.6724329,Fri - Sat:11:00am - 11:00pm;Mon - Thur:11:00am - 10:00pm;Sun:11:00am - 10:00pm;,,Open
14615-17 SW 56th Street,8105,14615-17 SW 56th Street,,Miami,FL,33175,US,305-222-9191,25.7139665,-80.4294609,Fri - Sat:11:00am - 12:00am;Mon - Thur:11:00am - 11:00pm;Sun:11:00am - 11:00pm;,,Open
Solomon Springs Plaza Prince Charles Dr,9001,Solomon Springs Plaza Prince Charles Dr,,Nassau,-,,BS,242-364-2220,25.037277,-77.287964,Sun:11:00am - 11:00pm;Mon - Sat:11:00am - 12:00am;,,Open
Village Road Shopping Centre,9002,Village Road Shopping Centre,,Nassau,-,,BS,242-393-2200,25.057992,-77.315177,Sun:11:00am - 11:00pm;Mon - Sat:11:00am - 12:00am;,,Open
14830 Tamiami Trail,8011,14830 Tamiami Trail,,North Port,FL,34288,US,941-423-2929,27.0384644,-82.2203061,Fri - Sat:11:00am - 11:00pm;Mon - Thur:11:00am - 10:00pm;Sun:11:00am - 10:00pm;,,Open
1758 E. Silver Star Rd,8074,1758 E. Silver Star Rd,,Ocoee,FL,34761,US,407-521-1515,28.5738293,-81.5157609,Fri - Sat:11:00am - 11:00pm;Mon - Thur:11:00am - 10:00pm;Sun:11:00am - 10:00pm;,,Open
2097 Town Center  Blvd,8065,2097 Town Center  Blvd,,Orlando,FL,32837,US,407-888-3288,28.368689,-81.407458,Fri - Sat:11:00am - 12:00am;Mon - Thur:11:00am - 11:00pm;Sun:11:00am - 11:00pm;,,Open
2457 S Hiawassee Road,8103,2457 S Hiawassee Road,,Orlando (Metro West),FL,32835,US,407-294-5522,28.5158104,-81.4849865,Fri - Sat:11:00am - 11:00pm;Mon - Thur:11:00am - 10:00pm;Sun:11:00am - 10:00pm;,,Open
1977 Alafaya Trail,8032,1977 Alafaya Trail,,Oviedo,FL,32765,US,407-977-1777,28.6424982,-81.2081311,Fri - Sat:11:00am - 11:00pm;Mon - Thur:11:00am - 10:00pm;Sun:11:00am - 10:00pm;,,Open
2657 East Lake Road,8199,2657 East Lake Road,,Palm Harbor,FL,34684,US,727-223-4932,28.093299,-82.695917,Fri - Sat:11:00am - 12:00am;Mon - Thur:11:00am - 10:00pm;Sun:11:00am - 10:00pm;,,Open
16818 Front Beach Road,8168,16818 Front Beach Road,,Panama City Beach,FL,32413,US,850-249-9888,30.220929,-85.886377,Fri - Sat:11:00am - 11:00pm;Mon - Thur:11:00am - 10:00pm;Sun:11:00am - 10:00pm;,,Open
15973 Pines Blvd.,8122,15973 Pines Blvd.,,Pembroke Pines,FL,33027,US,954-271-2700,26.0077715,-80.3590723,Fri - Sat:11:00am - 12:00am;Mon - Thur:11:00am - 10:00pm;Sun:11:00am - 10:00pm;,,Open
2909 James L. Redman Pkwy,8031,2909 James L. Redman Pkwy,,Plant City,FL,33566,US,813-759-6400,27.9830409,-82.1216275,,,Open
19451 Cochran Road,8163,19451 Cochran Road,,Port Charlotte,FL,33948,US,941-629-2929,27.0099246,-82.1327777,Fri - Sat:11:00am - 12:00am;Mon - Thur:11:00am - 10:00pm;Sun:11:00am - 10:00pm;,,Open
916 SW Gatlin Blvd,8119,916 SW Gatlin Blvd,,Port Saint Lucie,FL,34953,US,772-446-4959,27.2586036,-80.3762087,Fri - Sat:11:00am - 12:00am;Mon - Thur:11:00am - 10:00pm;Sun:11:00am - 10:00pm;,,Open
157 South State Rd 7 (441),8144,157 South State Rd 7 (441),,Royal Palm Beach,FL,33411,US,561-740-3300,26.66874,-80.20344,Fri - Sat:11:00am - 11:00pm;Mon - Thur:11:00am - 10:00pm;Sun:11:00am - 10:00pm;,,Open
14319 Spring Hill Drive,8001,14319 Spring Hill Drive,,Spring Hill,FL,34609,US,352-684-1101,28.47766,-82.48885,Fri - Sat:11:00am - 11:00pm;Mon - Thur:11:00am - 10:00pm;Sun:11:00am - 10:00pm;,,Open
6668-11 Thomasville Road,8034,6668-11 Thomasville Road,,Tallahassee,FL,32312,US,850-422-3200,30.5603458,-84.2184212,Fri - Sat:11:00am - 12:00am;Mon - Thur:11:00am - 10:00pm;Sun:11:00am - 10:00pm;,,Open
20305 Bruce B Downs Blvd,8003,20305 Bruce B Downs Blvd,,Tampa,FL,33647,US,813-907-6400,28.1623911,-82.3534037,,,Open
"4711 West Gandy Blvd, Suite 1",8012,"4711 West Gandy Blvd, Suite 1",,Tampa,FL,33611,US,813-839-1234,27.8933699,-82.5251759,Fri - Sat:11:00am - 11:00pm;Mon - Thur:11:00am - 10:00pm;Sun:11:00am - 10:00pm;,,Open
8106 Condor Street,8055,8106 Condor Street,,Tampa,FL,33621,US,813-840-0123,27.8492069,-82.4916772,Sun:12:00pm - 9:00pm;Sat:11:00am - 10:00pm;Mon - Fri:10:00am - 10:00pm;,,Open
9872 West Linebaugh Ave,8116,9872 West Linebaugh Ave,,Tampa,FL,33626,US,813-920-5300,28.04452,-82.59627,Fri - Sat:11:00am - 12:00am;Mon - Thur:11:00am - 10:00pm;Sun:11:00am - 10:00pm;,,Open
27616 Wesley Chapel Blvd,8091,27616 Wesley Chapel Blvd,,Wesley Chapel,FL,33544,US,813-528-8910,28.237114,-82.359931,Fri - Sat:11:00am - 12:00am;Mon - Thur:11:00am - 10:00pm;Sun:11:00am - 10:00pm;,,Open
7414 University Blvd.,8089,7414 University Blvd.,,Winter Park,FL,32792,US,407-677-7007,28.597428,-81.288743,Fri - Sat:11:00am - 12:00am;Mon - Thur:11:00am - 11:00pm;Sun:11:00am - 11:00pm;,,Open
32797 Eiland Blvd,8049,32797 Eiland Blvd,,Zephyrhills,FL,33541,US,813-395-5900,28.221592,-82.246267,Fri - Sat:11:00am - 12:00am;Mon - Thur:11:00am - 10:00pm;Sun:11:00am - 10:00pm;,,Open
5075 Abbotts Bridge Rd,8112,5075 Abbotts Bridge Rd,,Alpharetta,GA,30005,US,770-777-2112,34.0628369,-84.2114868,Fri - Sat:11:00am - 11:00pm;Mon - Thur:11:00am - 10:00pm;Sun:11:00am - 10:00pm;,,Open
13800 Georgia Highway 9N,8162,13800 Georgia Highway 9N,,Alpharetta (Milton),GA,30004,US,678-393-9000,34.1162204,-84.2696148,Fri - Sat:11:00am - 11:00pm;Mon - Thur:11:00am - 10:00pm;Sun:11:00am - 10:00pm;,,Open
2558 Shallowford Rd NE,8115,2558 Shallowford Rd NE,,Atlanta,GA,30345,US,404-554-2000,33.8618107,-84.286746,Fri - Sat:11:00am - 12:00am;Mon - Thur:11:00am - 11:00pm;Sun:11:00am - 11:00pm;,,Open
229 Furys Ferry Rd,8085,229 Furys Ferry Rd,,Augusta,GA,30907,US,706-945-0191,33.517785,-82.059325,Fri - Sat:11:00am - 12:00am;Mon - Thur:11:00am - 10:00pm;Sun:11:00am - 10:00pm;,,Open
1102 W. Main Street,3662,1102 W. Main Street,,Troy,OH,45373,US,937-524-0108,40.045641,-84.2182051,Fri - Sat:11:00am - 12:00am;Mon - Thur:11:00am - 10:00pm;Sun:11:00am - 10:00pm;,,Open
3280 Hamilton Mill Rd,8190,3280 Hamilton Mill Rd,,Buford,GA,30519,US,678-688-9944,34.094103,-83.9349357,Fri - Sat:11:00am - 11:00pm;Mon - Thur:11:00am - 10:00pm;Sun:11:00am - 10:00pm;,,Open
1290 Double Churches Road,8008,1290 Double Churches Road,,Columbus,GA,31904,US,706-507-3333,32.5564349,-84.9747097,Sun:3:00pm - 9:00pm;Mon - Sat:11:00am - 11:00pm;,,Open
5120 Warm Springs Road,8029,5120 Warm Springs Road,,Columbus,GA,31909,US,706-507-7070,32.5343055,-84.9068296,Wed - Sat:11:00am - 11:00pm;Sun:3:00pm - 9:00pm;Mon - Tue:11:00am - 10:00pm;,,Open
2133 Georgia 20,8170,2133 Georgia 20,,Conyers,GA,30013,US,770-761-5661,33.6315567,-84.0144876,,,Open
13015 Brown Bridge Road,8201,13015 Brown Bridge Road,,Covington,GA,30016,US,770-788-8803,33.577048,-83.96485,Fri - Sat:11:00am - 11:00pm;Mon - Thur:11:00am - 10:00pm;Sun:11:00am - 10:00pm;,,Open
3112 Bright Star Road,8132,3112 Bright Star Road,,Douglasville,GA,30135,US,770-693-5133,33.721729,-84.7765273,Fri - Sat:10:30am - 11:00pm;Mon - Thur:10:30am - 10:30pm;Sun:10:30am - 10:30pm;,,Open
4511 Chamblee Dunwoody Rd,8051,4511 Chamblee Dunwoody Rd,,Dunwoody,GA,30338,US,678-879-1888,33.922558,-84.313761,Fri - Sat:10:00am - 12:00am;Mon - Thur:10:00am - 11:00pm;Sun:10:00am - 11:00pm;,,Open
4029 Winder Highway,8099,4029 Winder Highway,,Flowery Branch,GA,30542,US,678-616-1200,34.1935219,-83.8583223,Fri - Sat:11:00am - 11:00pm;Mon - Thur:11:00am - 10:00pm;Sun:11:00am - 10:00pm;,,Open
112 Vilseck Rd,8064,112 Vilseck Rd,,Fort Stewart,GA,31314,US,912-368-3302,31.8713482,-81.6007655,Fri - Sat:10:00am - 11:00pm;Mon - Thur:10:00am - 10:00pm;Sun:10:00am - 10:00pm;,,Open
5159 Columbia Rd,8100,5159 Columbia Rd,,Grovetown,GA,30813,US,706-945-1517,33.5077416,-82.2004951,Fri - Sat:11:00am - 12:00am;Mon - Thur:11:00am - 10:00pm;Sun:11:00am - 10:00pm;,,Open
3375 Sugarloaf Pkwy,8161,3375 Sugarloaf Pkwy,,Lawrenceville,GA,30044,US,678-407-0007,33.9226292,-84.017096,Fri - Sat:11:00am - 11:00pm;Mon - Thur:11:00am - 10:00pm;Sun:11:00am - 10:00pm;,,Open
1880 Braselton Highway,8203,1880 Braselton Highway,,Lawrenceville,GA,30043,US,678-552-1133,34.0354116,-83.9563141,Fri - Sat:11:00am - 12:00am;Mon - Thur:11:00am - 11:00pm;Sun:11:00am - 11:00pm;,,Open
4045 Five Forks Trickum Road,8177,4045 Five Forks Trickum Road,,Lilburn,GA,30047,US,678-999-7878,33.870405,-84.092765,Fri - Sat:11:00am - 11:00pm;Mon - Thur:11:00am - 10:00pm;Sun:11:00am - 10:00pm;,,Open
375 Rockbridge Road NW (HWY 29),8180,375 Rockbridge Road NW (HWY 29),,Lilburn,GA,30047,US,678-712-3333,33.883218,-84.163858,Fri - Sat:11:00am - 11:00pm;Mon - Thur:11:00am - 10:00pm;Sun:11:00am - 10:00pm;,,Open
4743 Atlanta Highway,8157,4743 Atlanta Highway,,Loganville,GA,30052,US,770-554-8555,33.83275,-83.8831,Fri - Sat:11:00am - 11:00pm;Mon - Thur:11:00am - 10:00pm;Sun:12:00pm - 10:00pm;,,Open
5270 Peachtree Parkway,8171,5270 Peachtree Parkway,,Peachtree Corners,GA,30092,US,770-840-9991,33.97675,-84.21608,Fri - Sat:11:00am - 11:00pm;Mon - Thur:11:00am - 10:00pm;Sun:11:00am - 10:00pm;,,Open
147 Highway 74 S,8113,147 Highway 74 S,,Peachtree City,GA,30269,US,770-486-9900,33.394504,-84.588584,Fri - Sat:11:00am - 12:00am;Mon - Thur:11:00am - 11:00pm;Sun:11:00am - 11:00pm;,,Open
1590 Holcomb Bridge Rd,8052,1590 Holcomb Bridge Rd,,Roswell,GA,30076,US,678-381-2888,34.015575,-84.308887,Fri - Sat:11:00am - 11:00pm;Mon - Thur:11:00am - 10:00pm;Sun:11:00am - 10:00pm;,,Open
4521 Habersham Street,8048,4521 Habersham Street,,Savannah,GA,31405,US,912-349-6960,32.0357,-81.1035,Fri - Sat:11:00am - 11:00pm;Mon - Thur:11:00am - 10:00pm;Sun:11:00am - 10:00pm;,,Open
50 Berwick Blvd,8101,50 Berwick Blvd,,Savannah,GA,31419,US,912-234-6996,32.029068,-81.2284542,Fri - Sat:11:00am - 11:00pm;Mon - Thur:11:00am - 10:00pm;Sun:11:00am - 10:00pm;,,Open
3300 Centerville Highway,8186,3300 Centerville Highway,,Snellville,GA,30039,US,678-383-1222,33.8118645,-84.041698,Fri - Sat:11:00am - 11:00pm;Mon - Thur:11:00am - 10:00pm;Sun:11:00am - 10:00pm;,,Open
5965 Cumming Hwy,8114,5965 Cumming Hwy,,Sugar Hill,GA,30518,US,678-889-4440,34.1214017,-84.079357,Fri - Sat:11:00am - 12:00am;Mon - Thur:11:00am - 11:00pm;Sun:11:00am - 11:00pm;,,Open
291 Old Peachtree RD NE,8047,291 Old Peachtree RD NE,,Suwanee,GA,30024,US,678-541-6888,34.035235,-84.024038,Fri - Sat:11:00am - 12:00am;Mon - Thur:11:00am - 11:00pm;Sun:11:00am - 11:00pm;,,Open
425 Buford Highway NW,8106,425 Buford Highway NW,,Suwanee,GA,30024,US,678-541-2777,34.0543171,-84.0679755,Fri - Sat:11:00am - 12:00am;Mon - Thur:11:00am - 11:00pm;Sun:11:00am - 11:00pm;,,Open
4993 Russell Parkway,8057,4993 Russell Parkway,,Warner Robins,GA,31088,US,478-971-4444,32.578658,-83.719039,Fri - Sat:11:00am - 12:00am;Mon - Thur:11:00am - 11:00pm;Sun:11:00am - 11:00pm;,,Open
604 East Locust Street,3522,604 East Locust Street,,Bloomington,IL,61701,US,309-820-6600,40.4849777,-88.9842686,Fri - Sat:11:00am - 12:00am;Mon - Thur:11:00am - 11:00pm;Sun:11:00am - 11:00pm;,,Open
420 E. Noleman Street,3605,420 E. Noleman Street,,Centralia,IL,62801,US,618-545-3595,38.5285287,-89.1296937,Fri - Sat:11:00am - 12:00am;Mon - Thur:11:00am - 10:00pm;Sun:11:00am - 10:00pm;,,Open
1712 Broadway Street,3565,1712 Broadway Street,,Pekin,IL,61554,US,309-620-9292,40.5678064,-89.6264192,Fri - Sat:11:00am - 12:00am;Mon - Thur:11:00am - 10:00pm;Sun:11:00am - 10:00pm;,,Open
708 West Glen Avenue,3526,708 West Glen Avenue,,Peoria,IL,61614,US,309-689-6633,40.7465938,-89.6038099,Fri - Sat:11:00am - 12:00am;Mon - Thur:11:00am - 11:00pm;Sun:11:00am - 11:00pm;,,Open
3201 West Iles,3506,3201 West Iles,,Springfield,IL,62711,US,217-546-2266,39.7709676,-89.7155074,Fri - Sat:11:00am - 12:00am;Mon - Thur:11:00am - 10:00pm;Sun:11:00am - 10:00pm;,,Open
741 Glen Flora Avenue,3529,741 Glen Flora Avenue,,Waukegan,IL,60085,US,847-360-0333,42.37716,-87.840108,Fri - Sat:11:00am - 12:00am;Mon - Thur:11:00am - 11:00pm;Sun:11:00am - 11:00pm;,,Open
293 North Duesenberg,1227,293 North Duesenberg,,Auburn,IN,46706,US,260-333-0994,41.2326798,-85.1597083,Fri - Sat:11:00am - 11:00pm;Mon - Thur:11:00am - 10:00pm;Sun:12:00pm - 10:00pm;,,Open
1521 North Green Street,1200,1521 North Green Street,,Brownsburg,IN,46112,US,317-852-9995,39.8666077,-86.391592,Fri - Sat:11:00am - 11:30pm;Mon - Thur:11:00am - 10:00pm;Sun:11:00am - 10:00pm;,,Open
3532 West Two Mile House Rd,1191,3532 West Two Mile House Rd,,Columbus,IN,47201,US,812-342-6000,39.1994278,-85.9634488,Fri - Sat:10:00am - 12:00am;Mon - Thur:10:00am - 11:00pm;Sun:10:00am - 11:00pm;,,Open
396 W. Market Street,3562,396 W. Market Street,,Crawfordsville,IN,47933,US,765-362-2212,40.0428474,-86.9057767,Fri - Sat:11:00am - 12:00am;Mon - Thur:11:00am - 11:00pm;Sun:11:00am - 11:00pm;,,Open
8235 East 116 Street,1183,8235 East 116 Street,,Fishers,IN,46038,US,317-849-5500,39.9567069,-86.0225496,Fri - Sat:11:00am - 11:00pm;Mon - Thur:11:00am - 10:00pm;Sun:12:00pm - 10:00pm;,,Open
1612 St. Joe Center Rd.,1055,1612 St. Joe Center Rd.,,Fort Wayne,IN,46825,US,260-471-7700,41.133123,-85.120227,Fri - Sat:11:00am - 1:00am;Mon - Thur:11:00am - 12:00am;Sun:12:00pm - 11:00pm;,,Open
297 South Wisconsin Street,3553,297 South Wisconsin Street,,Hobart,IN,46342,US,219-945-0055,41.5327427,-87.2692729,Fri - Sat:11:00am - 12:00am;Mon - Thur:11:00am - 11:00pm;Sun:11:00am - 11:00pm;,,Open
10820 Pendleton Pike,1203,10820 Pendleton Pike,,Indianapolis,IN,46236,US,317-826-4000,39.8614252,-85.9752746,Fri - Sat:11:00am - 12:30am;Mon - Thur:11:00am - 11:30pm;Sun:11:00am - 11:00pm;,,Open
6280 North College Avenue,1206,6280 North College Avenue,,Indianapolis,IN,46220,US,317-214-4100,39.8707881,-86.142447,Fri - Sat:11:00am - 2:30am;Mon - Thur:11:00am - 11:30pm;Sun:12:00pm - 11:00pm;,,Open
7002 Lake Plaza Drive,1151,7002 Lake Plaza Drive,,Indianapolis,IN,46220,US,317-849-7300,39.881639,-86.067453,Fri - Sat:11:00am - 12:00am;Mon - Thur:11:00am - 11:00pm;Sun:12:00pm - 10:00pm;,,Open
7125 Georgetown rd,1184,7125 Georgetown rd,,Indianapolis,IN,46268,US,317-295-0875,39.882427,-86.243679,Fri - Sat:11:00am - 12:30am;Mon - Thur:11:00am - 11:30pm;Sun:11:00am - 11:00pm;,,Open
7930 South Emerson Avenue,1192,7930 South Emerson Avenue,,Indianapolis,IN,46237,US,317-215-4359,39.6515,-86.0826893,Fri - Sat:11:00am - 12:00am;Mon - Thur:11:00am - 11:00pm;Sun:12:00pm - 10:00pm;,,Open
2132 W Southport Rd,1195,2132 W Southport Rd,,Indianapolis,IN,46217,US,317-882-8888,39.6636235,-86.1966766,Fri - Sat:11:00am - 11:30pm;Mon - Thur:11:00am - 10:00pm;Sun:11:00am - 10:00pm;,,Open
7301 West 10th Street,1225,7301 West 10th Street,,Indianapolis (West side),IN,46214,US,317-209-9158,39.778827,-86.289661,Fri - Sat:11:00am - 12:30am;Mon - Thur:11:00am - 11:30pm;Sun:11:00am - 11:00pm;,,Open
508 E Southway Blvd,1230,508 E Southway Blvd,,Kokomo,IN,46902,US,765-450-7745,40.4445095,-86.1246287,Fri - Sat:10:00am - 12:00am;Mon - Thur:10:00am - 11:00pm;Sun:11:00am - 11:00pm;,,Open
15007 State Road Suite 1,1057,15007 State Road Suite 1,,Leo,IN,46765,US,260-627-2227,41.223701,-85.010829,Fri - Sat:11:00am - 11:00pm;Mon - Thur:11:00am - 10:00pm;Sun:12:00pm - 10:00pm;,,Open
4011 State Route 261,3543,4011 State Route 261,,Newburgh,IN,47630,US,812-858-9877,37.9766358,-87.3913922,Fri - Sat:11:00am - 12:00am;Mon - Thur:11:00am - 10:00pm;Sun:11:00am - 10:00pm;,,Open
7238 University Ave,4021,7238 University Ave,,Windsor Heights,IA,50324,US,515-274-9166,41.6003906,-93.7169393,Fri - Sat:11:00am - 12:00am;Mon - Thur:11:00am - 11:00pm;Sun:11:00am - 11:00pm;,,Open
1101 South 25th Street,3566,1101 South 25th Street,,Terre Haute,IN,47803,US,812-233-8989,39.4556519,-87.3788324,Fri - Sat:11:00am - 12:00am;Mon - Thur:11:00am - 11:00pm;Sun:11:00am - 11:00pm;,,Open
14641 North Gray Road,1221,14641 North Gray Road,,Westfield,IN,46033,US,317-581-1200,40.0014796,-86.0897489,Fri - Sat:11:00am - 11:30pm;Mon - Thur:11:00am - 10:00pm;Sun:11:00am - 10:00pm;,,Open
1922 Valley Park Drive,3552,1922 Valley Park Drive,,Cedar Falls,IA,50613,US,319-266-6650,42.520613,-92.436328,Fri - Sat:11:00am - 12:00am;Mon - Thur:11:00am - 11:00pm;Sun:11:00am - 11:00pm;,,Open
6905 C Avenue North East,3572,6905 C Avenue North East,,Cedar Rapids,IA,52402,US,319-294-8899,42.047121,-91.639292,Fri - Sat:11:00am - 12:00am;Mon - Thur:11:00am - 11:00pm;Sun:11:00am - 11:00pm;,,Open
3833 Division Street,3530,3833 Division Street,,Davenport,IA,52806,US,563-386-2233,41.5585517,-90.6003364,Fri - Sat:11:00am - 12:00am;Mon - Thur:11:00am - 11:00pm;Sun:11:00am - 11:00pm;,,Open
1511 2nd Avenue N,3502,1511 2nd Avenue N,,Fort Dodge,IA,50501,US,515-955-6656,42.50822,-94.17659,Fri - Sat:11:00am - 11:00pm;Mon - Thur:11:00am - 10:00pm;Sun:11:00am - 10:00pm;,,Open
3032 Ansborough Avenue,3546,3032 Ansborough Avenue,,Waterloo,IA,50701,US,319-234-1366,42.4708473,-92.3766179,Fri - Sat:11:00am - 12:00am;Mon - Thur:11:00am - 11:00pm;Sun:11:00am - 11:00pm;,,Open
4554 N. Woodlawn Avenue,3581,4554 N. Woodlawn Avenue,,Bel Aire,KS,67226,US,316-744-0156,37.7653373,-97.2624511,Fri - Sat:11:00am - 11:00pm;Mon - Thur:11:00am - 10:00pm;Sun:11:00am - 10:00pm;,,Open
521 W. Grand Avenue,3596,521 W. Grand Avenue,,Haysville,KS,67060,US,316-529-8840,37.563925,-97.359191,Fri - Sat:11:00am - 11:00pm;Mon - Thur:11:00am - 10:00pm;Sun:11:00am - 10:00pm;,,Open
1401 SW Gage Blvd,3524,1401 SW Gage Blvd,,Topeka,KS,66606,US,785-272-6666,39.0417611,-95.7259098,Fri - Sat:11:00am - 12:00am;Mon - Thur:11:00am - 11:00pm;Sun:11:00am - 11:00pm;,,Open
3305 West Central Avenue,3514,3305 West Central Avenue,,Wichita,KS,67203,US,316-946-5646,37.694419,-97.381032,Fri - Sat:11:00am - 12:00am;Mon - Thur:11:00am - 11:00pm;Sun:11:00am - 11:00pm;,,Open
1080 Sandy Lake Rd,5052,1080 Sandy Lake Rd,,Coppell,TX,75019,US,469-702-6566,32.969986,-96.958926,Fri - Sat:11:00am - 11:00pm;Mon - Thur:11:00am - 10:00pm;Sun:11:00am - 10:00pm;,,Open
598 Clock Tower Way,1224,598 Clock Tower Way,,Crescent Springs,KY,41017,US,859-341-4300,39.0522784,-84.5751085,Fri - Sat:11:00am - 12:00am;Mon - Thur:11:00am - 10:00pm;Sun:11:00am - 10:00pm;,,Open
115 North Locust Hill Dr Suite 117,1172,115 North Locust Hill Dr Suite 117,,Lexington,KY,40509,US,859-269-9999,38.005106,-84.444372,Fri - Sat:11:00am - 12:00am;Mon - Thur:11:00am - 11:00pm;Sun:11:00am - 11:00pm;,,Open
2348 Nicholasville Road,1226,2348 Nicholasville Road,,Lexington (Malibu Heights),KY,40503,US,859-276-3333,38.0044599,-84.5187429,Fri - Sat:11:00am - 12:00am;Mon - Thur:11:00am - 11:00pm;Sun:11:00am - 11:00pm;,,Open
17 East Arch Street,3585,17 East Arch Street,,Madisonville,KY,42431,US,270-825-0501,37.3299322,-87.4982318,Fri - Sat:11:00am - 12:00am;Mon - Thur:11:00am - 11:00pm;Sun:11:00am - 11:00pm;,,Open
5044 Old Taylor Mill Rd,1186,5044 Old Taylor Mill Rd,,Taylor Mill,KY,41015,US,859-291-7777,39.0168114,-84.5086626,Fri - Sat:11:00am - 12:00am;Mon - Thur:11:00am - 11:00pm;Sun:11:00am - 10:00pm;,,Open
2201 Barataria Blvd,5025,2201 Barataria Blvd,,Marrero,LA,70072,US,504-340-3444,29.8690129,-90.0975107,Fri - Sat:10:00am - 12:00am;Mon - Thur:10:00am - 11:00pm;Sun:10:00am - 11:00pm;,,Open
2349 Gause Boulevard E.,5011,2349 Gause Boulevard E.,,Slidell,LA,70461,US,985-646-2790,30.29089451141095,-89.72037434577942,Fri - Sat:10:00am - 12:00am;Mon - Thur:10:00am - 11:00pm;Sun:10:00am - 11:00pm;,,Open
534 Gause Boulevard West,5014,534 Gause Boulevard West,,Slidell,LA,70458,US,985-646-2680,30.28490046241447,-89.77556884288788,Fri - Sat:11:00am - 12:00am;Mon - Thur:11:00am - 11:00pm;Sun:11:00am - 11:00pm;,,Open
923 South Main St,1039,923 South Main St,,Adrian,MI,49286,US,517-265-3333,41.9065279,-84.0318912,Fri - Sat:11:00am - 12:00am;Mon - Thur:11:00am - 10:30pm;Sun:12:00pm - 10:30pm;,,Open
4068 Packard Rd.,1052,4068 Packard Rd.,,Ann Arbor,MI,48108,US,734-973-1750,42.2454826,-83.6790048,Fri - Sat:11:00am - 1:30am;Mon - Thur:11:00am - 11:30pm;Sun:12:00pm - 11:30pm;,,Open
1752 Plymouth Rd.,1056,1752 Plymouth Rd.,,Ann Arbor,MI,48105,US,734-998-2600,42.2979662,-83.7214667,Fri - Sat:11:00am - 12:00am;Mon - Thur:11:00am - 11:00pm;Sun:11:00am - 11:00pm;,,Open
6065 Rawsonville Road,1132,6065 Rawsonville Road,,Belleville,MI,48112,US,734-480-2900,42.2026242,-83.5431131,Fri - Sat:11:00am - 1:00am;Mon - Thur:11:00am - 12:00am;Sun:11:00am - 12:00am;,,Open
885 S. Old US 23,1114,885 S. Old US 23,,Brighton,MI,48114,US,810-229-4400,42.591037,-83.7540049,,,Open
145 Wamplers Lake Rd.,1076,145 Wamplers Lake Rd.,,Brooklyn,MI,49230,US,517-592-4444,42.0992767,-84.2475868,Fri - Sat:11:00am - 12:00am;Mon - Thur:11:00am - 10:00pm;Sun:11:30pm - 10:00pm;,,Open
4019 Pelham Rd.,1061,4019 Pelham Rd.,,Dearborn Heights,MI,48125,US,313-278-3400,42.2806328,-83.2315461,Wed - Thur:11:00am - 11:00pm;Fri - Sat:11:00am - 12:00am;Mon - Tue:3:00pm - 11:00pm;Sun:12:00pm - 11:00pm;,,Open
3498 Lake Lansing Road,1144,3498 Lake Lansing Road,,East Lansing,MI,48823,US,517-336-0400,42.7588572,-84.4800779,Fri - Sat:10:00am - 1:30am;Mon - Thur:10:00am - 12:00am;Sun:11:30am - 12:00am;,,Open
237 East Michigan Ave,1137,237 East Michigan Ave,,Grass Lake,MI,49240,US,517-522-6200,42.2514694,-84.2117817,Fri - Sat:11:00am - 11:00pm;Mon - Thur:11:00am - 10:00pm;Sun:12:00pm - 10:00pm;,,Open
1621 Independence BLVD,2023,1621 Independence BLVD,,Virginia Beach,VA,23455,US,747-464-1111,36.8930473,-76.1410868,,,Coming Soon
"2003 Horton Rd., Suite B",1116,"2003 Horton Rd., Suite B",,Jackson,MI,49203,US,517-780-0100,42.2009326,-84.4379285,Fri - Sat:11:00am - 11:00pm;Mon - Thur:11:00am - 10:00pm;Sun:12:00pm - 10:00pm;,,Open
2732 Port Sheldon Street,1142,2732 Port Sheldon Street,,Jenison,MI,49428,US,616-669-4477,42.8876427,-85.8507539,Sun:12:00pm - 10:00pm;Fri:10:30am - 11:00pm;Mon - Thur:10:30am - 10:00pm;Sat:11:00am - 11:00pm;,,Open
820 Jordan Lake Ave,1141,820 Jordan Lake Ave,,Lake Odessa,MI,48849,US,616-374-7900,42.7802382,-85.133245,Fri - Sat:11:00am - 12:00am;Thur:11:00am - 11:00pm;Mon - Wed:3:00pm - 11:00pm;Sun:12:00pm - 11:00pm;,,Open
7473 Secor Road,1033,7473 Secor Road,,Lambertville,MI,48144,US,734-856-8888,41.750752,-83.626447,Fri - Sat:11:00am - 12:30am;Mon - Thur:11:00am - 11:00pm;Sun:11:00am - 11:00pm;,,Open
4320 S. Cedar St.,1117,4320 S. Cedar St.,,Lansing,MI,48910,US,517-394-4444,42.6900442,-84.5480307,Fri - Sat:11:00am - 12:30am;Mon - Thur:11:00am - 11:30pm;Sun:11:00am - 11:00pm;,,Open
4000 Page Ave.,1113,4000 Page Ave.,,Michigan Center,MI,49254,US,517-764-1155,42.2369747,-84.341152,Fri - Sat:11:00am - 12:00am;Mon - Thur:11:00am - 11:00pm;Sun:12:00pm - 11:00pm;,,Open
1154 Dexter St.,1043,1154 Dexter St.,,Milan,MI,48160,US,734-439-3938,42.0956,-83.67643,Fri - Sat:11:00am - 1:00am;Mon - Thur:11:00am - 11:00pm;Sun:11:00am - 11:00pm;,,Open
15258 S. Dixie Hwy.,1048,15258 S. Dixie Hwy.,,Monroe,MI,48161,US,734-242-7000,41.8944936,-83.416304,Fri - Sat:11:00am - 12:30am;Mon - Thur:11:00am - 11:00pm;Sun:11:00am - 11:00pm;,,Open
510C W. Savidge St.,1126,510C W. Savidge St.,,Spring Lake,MI,49456,US,616-847-6000,43.0766983,-86.2033479,Fri - Sat:11:00am - 11:00pm;Mon - Thur:11:00am - 10:00pm;Sun:12:00pm - 10:00pm;,,Open
5570 Cooley Lake Rd,1160,5570 Cooley Lake Rd,,Waterford,MI,48327,US,248-682-9700,42.6280721,-83.3946558,Sun:11:00am - 11:00pm;Thur - Sat:11:00am - 12:00am;Mon - Wed:11:00am - 11:00pm;,,Open
2355 Health Dr. SW,1179,2355 Health Dr. SW,,Wyoming,MI,49519,US,616-538-9300,42.860544,-85.722359,Fri - Sat:11:00am - 11:00pm;Mon - Thur:11:00am - 10:00pm;Sun:12:00pm - 10:00pm;,,Open
1260 4th Avenue East,3536,1260 4th Avenue East,,Shakopee,MN,55379,US,952-445-8660,44.796918,-93.508523,Fri - Sat:11:00am - 12:00am;Mon - Thur:11:00am - 11:00pm;Sun:11:00am - 11:00pm;,,Open
1139 Old Fannin Road,8160,1139 Old Fannin Road,,Brandon,MS,39047,US,601-398-9100,32.3688906,-90.0539498,Fri - Sat:11:00am - 11:00pm;Mon:3:00pm - 10:00pm;Tue - Thur:11:00am - 10:00pm;Sun:11:00am - 10:00pm;,,Open
1330 Broadway Street,3556,1330 Broadway Street,,Cape Girardeau,MO,63701,US,573-335-1810,37.310289,-89.534922,Fri - Sat:11:00am - 12:00am;Mon - Thur:11:00am - 11:00pm;Sun:11:00am - 11:00pm;,,Open
3520 Patterson Road,3555,3520 Patterson Road,,Florissant,MO,63031,US,314-830-0303,38.8252561,-90.3127493,Fri - Sat:11:00am - 12:00am;Mon - Thur:11:00am - 11:00pm;Sun:11:00am - 11:00pm;,,Open
1918 NE 72nd St,3503,1918 NE 72nd St,,Gladstone,MO,64118,US,816-420-0046,39.2247,-94.5565,Fri - Sat:11:00am - 11:00pm;Mon - Thur:11:00am - 10:00pm;Sun:11:00am - 10:00pm;,,Open
303 NE Todd George Parkway,3608,303 NE Todd George Parkway,,Lee's Summit,MO,64086,US,816-554-0406,38.9132434,-94.339239,Fri - Sat:11:00am - 11:00pm;Mon - Thur:11:00am - 10:00pm;Sun:11:00am - 10:00pm;,,Open
3517 South Big Bend Road,3525,3517 South Big Bend Road,,Maplewood,MO,63143,US,314-645-2233,38.602494,-90.3261519,Mon - Sun:11:00am - 11:00pm;,,Open
1904 North 168th Street,3527,1904 North 168th Street,,Omaha,NE,68118,US,402-289-9922,41.2688239,-96.177154,Fri - Sat:11:00am - 11:00pm;Mon - Thur:11:00am - 10:00pm;Sun:11:00am - 10:00pm;,,Open
90 Stephanie St Suite 100,7401,90 Stephanie St Suite 100,,Henderson,NV,89012,US,702-566-6111,36.0256302,-115.0471854,Mon - Sun:10:00am - 11:00pm;,,Open
8795 West Warm Springs,7404,8795 West Warm Springs,,Las Vegas,NV,89148,US,702-736-2138,36.055494,-115.2837433,Fri - Sat:10:00am - 12:00am;Mon - Thur:10:00am - 11:00pm;Sun:10:00am - 11:00pm;,,Open
5061 East Sahara Suite 1H,7403,5061 East Sahara Suite 1H,,Las Vegas,NV,89142,US,702-207-0066,36.1442917,-115.0640838,Fri - Sat:10:00am - 12:00am;Mon - Thur:10:00am - 11:00pm;Sun:10:00am - 11:00pm;,,Open
"4770 West Ann Road, Suite 7",7406,"4770 West Ann Road, Suite 7",,North Las Vegas,NV,89031,US,702-655-2828,36.2616831,-115.206533,Fri - Sat:10:00am - 12:00am;Mon - Thur:10:00am - 11:00pm;Sun:10:00am - 11:00pm;,,Open
11438 US Highway 301 S,8369,11438 US Highway 301 S,,Riverview,FL,33569,US,813-559-9696,27.8340613,-82.3286871,Fri - Sat:11:00am - 12:00am;Mon - Thur:11:00am - 11:00pm;Sun:11:00am - 11:00pm;,,Coming Soon
246 Jonestown Road,8327,246 Jonestown Road,,Winston Salem,NC,27104,US,336-930-5252,36.07664,-80.3361333,Fri - Sat:11:00am - 12:00am;Mon - Thur:11:00am - 11:00pm;Sun:11:00am - 11:00pm;,,Coming Soon
350 George W Liles Parkway,8195,350 George W Liles Parkway,,Concord,NC,28027,US,980-781-4484,35.4110709,-80.6640819,Fri - Sat:10:00am - 12:00am;Thur:10:00am - 11:00pm;Mon - Wed:10:00am - 10:00pm;Sun:11:00am - 10:00pm;,,Open
308 McPherson Church Road,8009,308 McPherson Church Road,,Fayetteville,NC,28303,US,910-860-4242,35.07261,-78.951991,,,Open
7830 Good Middling Drive,8020,7830 Good Middling Drive,,Fayetteville,NC,28314,US,910-860-7373,35.029546,-79.058683,Fri - Sat:11:00am - 12:00am;Mon - Thur:11:00am - 11:00pm;Sun:11:00am - 11:00pm;,,Open
"5540 Camden Road, Suite 108",8004,"5540 Camden Road, Suite 108",,Hope Mills,NC,28348,US,910-485-4300,34.980131,-78.977755,,,Open
13024 Eastfield Road,8148,13024 Eastfield Road,,Huntersville,NC,28078,US,704-274-9219,35.383842,-80.78614,Fri - Sat:10:00am - 12:00am;Mon - Thur:10:00am - 10:00pm;Sun:11:00am - 10:00pm;,,Open
2906 Hillsborough Street,8007,2906 Hillsborough Street,,Raleigh,NC,27607,US,919-832-8889,35.7893932,-78.6755567,Sun:11:00am - 1:00am;Thur - Sat:11:00am - 3:00am;Mon - Wed:11:00am - 1:00am;,,Open
1141 Falls River Ave,8072,1141 Falls River Ave,,Raleigh,NC,27614,US,919-847-7775,35.9074576,-78.5890353,Fri - Sat:11:00am - 11:00pm;Mon - Thur:11:00am - 10:00pm;Sun:11:00am - 10:00pm;,,Open
9101 Leesville Rd,8093,9101 Leesville Rd,,Raleigh,NC,27613,US,919-870-4446,35.8975728,-78.7263553,Fri - Sat:11:00am - 12:00am;Mon - Thur:11:00am - 11:00pm;Sun:11:00am - 11:00pm;,,Open
"1214 N. Bragg Blvd, Suite 107",8006,"1214 N. Bragg Blvd, Suite 107",,Spring Lake,NC,28390,US,910-497-6700,35.1827028,-78.982097,,,Open
202 East Front Street,3512,202 East Front Street,,Statesville,NC,28677,US,704-878-8600,35.78341,-80.884665,Fri - Sat:11:00am - 12:00am;Mon - Thur:11:00am - 11:00pm;Sun:11:00am - 11:00pm;,,Open
3625 Rogers Road,8188,3625 Rogers Road,,Wake Forest,NC,27587,US,919-570-6006,35.945211,-78.503323,Fri - Sat:11:00am - 11:00pm;Mon - Thur:11:00am - 10:00pm;Sun:11:00am - 10:00pm;,,Open
2215 Old Salisbury Road,3542,2215 Old Salisbury Road,,Winston-Salem,NC,27127,US,336-771-9999,36.038596,-80.271862,Fri - Sat:11:00am - 12:00am;Mon - Thur:11:00am - 11:00pm;Sun:11:00am - 11:00pm;,,Open
675 13th Avenue East,4004,675 13th Avenue East,,West Fargo,ND,58078,US,701-277-5700,46.86177,-96.888175,Fri - Sat:11:00am - 12:00am;Mon - Thur:11:00am - 10:00pm;Sun:11:00am - 10:00pm;,,Open
9 North Hawkins,1135,9 North Hawkins,,Akron,OH,44320,US,330-864-5500,41.1102725,-81.5692058,Fri - Sat:11:00am - 12:30am;Mon - Thur:11:00am - 11:30pm;Sun:11:00am - 11:00pm;,,Open
1264 State Route 125,1185,1264 State Route 125,,Amelia,OH,45102,US,513-753-6700,39.045969,-84.243829,Fri - Sat:11:00am - 12:00am;Mon - Thur:11:00am - 10:00pm;Sun:11:00am - 10:00pm;,,Open
105 N. Leavitt Rd.,1123,105 N. Leavitt Rd.,,Amherst,OH,44001,US,440-984-3700,41.406793,-82.208576,Fri - Sat:11:00am - 12:30am;Mon - Thur:11:00am - 11:30pm;Sun:11:00am - 11:30pm;,,Open
7991 Beechmont Ave,1173,7991 Beechmont Ave,,Anderson,OH,45255,US,513-474-2400,39.072373,-84.334536,Fri - Sat:11:00am - 12:00am;Mon - Thur:11:00am - 11:00pm;Sun:11:00am - 10:00pm;,,Open
32730 Walker Road,1178,32730 Walker Road,,Avon Lake,OH,44012,US,440-930-7200,41.4931564,-82.0194473,Fri - Sat:11:00am - 12:00am;Mon - Thur:11:00am - 11:00pm;Sun:11:00am - 11:00pm;,,Open
978 Old State Route 74,1158,978 Old State Route 74,,Batavia (Eastgate),OH,45103,US,513-947-9777,39.0999059,-84.2608568,Fri - Sat:11:00am - 12:00am;Mon - Thur:11:00am - 11:00pm;Sun:11:00am - 10:00pm;,,Open
24335 Chagrin Blvd,1093,24335 Chagrin Blvd,,Beachwood,OH,44122,US,216-831-4000,41.4644874,-81.5017401,Fri - Sat:11:00am - 12:30am;Mon - Thur:11:00am - 11:30pm;Sun:11:00am - 11:00pm;,,Open
24 Center Rd.,1086,24 Center Rd.,,Bedford,OH,44146,US,440-439-5255,41.39368,-81.53702,Fri - Sat:11:00am - 12:30am;Mon - Thur:11:00am - 11:30pm;Sun:11:00am - 11:00pm;,,Open
219-A W. Main St.,1074,219-A W. Main St.,,Bellevue,OH,44811,US,419-483-4830,41.2745181,-82.8438622,Fri - Sat:10:30am - 12:30am;Mon - Thur:10:30am - 10:30pm;Sun:10:30am - 10:30pm;,,Open
435 W. Bagley Rd.,1094,435 W. Bagley Rd.,,Berea,OH,44017,US,440-891-4444,41.3722172,-81.8693416,Fri - Sat:11:00am - 12:30am;Mon - Thur:11:00am - 11:30pm;Sun:11:00am - 11:00pm;,,Open
5003 Cornell Road,1212,5003 Cornell Road,,Blue Ash,OH,45242,US,513-469-1999,39.26971,-84.37131,Fri - Sat:10:30am - 11:00pm;Mon - Thur:10:30am - 10:00pm;Sun:10:30am - 10:00pm;,,Open
1045 N. Main St.,1036,1045 N. Main St.,,Bowling Green,OH,43402,US,419-353-0044,41.388695,-83.650516,Fri - Sat:11:00am - 2:00am;Mon - Thur:11:00am - 12:00am;Sun:11:00am - 12:00am;,,Open
705 Ridge Street,3013,705 Ridge Street,,Bowling Green,OH,43403,US,419-372-5555,41.3782347,-83.6365165,,,Open
7411 Memphis Ave.,1120,7411 Memphis Ave.,,Brooklyn,OH,44144,US,216-661-1100,41.4399842,-81.7360704,Fri - Sat:11:00am - 12:30am;Mon - Thur:11:00am - 11:30pm;Sun:11:00am - 11:00pm;,,Open
1142 Pearl Rd.,1079,1142 Pearl Rd.,,Brunswick,OH,44212,US,330-220-7550,41.2445525,-81.84126,Fri - Sat:11:00am - 12:30am;Mon - Thur:11:00am - 11:30pm;Sun:11:00am - 11:00pm;,,Open
1012 Western Avenue,3571,1012 Western Avenue,,Chillicothe,OH,45601,US,740-772-5999,39.3329422,-83.0122762,Fri - Sat:11:00am - 12:00am;Mon - Thur:11:00am - 11:00pm;Sun:11:00am - 11:00pm;,,Open
4004 Edwards Rd,1199,4004 Edwards Rd,,Cincinnati,OH,45209,US,513-531-1234,39.152461,-84.44167,Fri - Sat:11:00am - 12:00am;Mon - Thur:11:00am - 11:00pm;Sun:11:00am - 10:00pm;,,Open
3612 Blue Rock Rd,1161,3612 Blue Rock Rd,,Cincinnati (White Oak),OH,45247,US,513-245-2111,39.2135618,-84.5998604,Fri - Sat:11:00am - 12:00am;Mon - Thur:11:00am - 10:00pm;Sun:11:00am - 10:00pm;,,Open
14121 Lorain Ave.,1072,14121 Lorain Ave.,,Cleveland,OH,44111,US,216-252-8100,41.4546631,-81.7922926,Fri - Sat:11:00am - 12:30am;Mon - Thur:11:00am - 11:30pm;Sun:11:00am - 11:00pm;,,Open
2550 Racetrack Road Suite C,8350,2550 Racetrack Road Suite C,,Fruit Cove,FL,32259,US,904-615-9400,30.1154855,-81.5957869,Fri - Sat:11:00am - 12:00am;Mon - Thur:11:00am - 11:00pm;Sun:11:00am - 11:00pm;,,Coming Soon
2760 E Dublin Granville Road,3519,2760 E Dublin Granville Road,,Columbus,OH,43231,US,614-901-2233,40.0838804,-82.9447957,Fri - Sat:11:00am - 1:00am;Mon - Thur:11:00am - 12:00am;Sun:11:00am - 12:00am;,,Open
430 Portage Trail,1109,430 Portage Trail,,Cuyahoga Falls,OH,44221,US,330-928-8888,41.1372811,-81.4881296,Fri - Sat:11:00am - 12:30am;Mon - Thur:11:00am - 11:00pm;Sun:12:00pm - 11:00pm;,,Open
4079 E. Galbraith Rd,1167,4079 E. Galbraith Rd,,Deer Park,OH,45236,US,513-793-7800,39.2085117,-84.4000655,Fri - Sat:11:00am - 12:00am;Mon - Thur:11:00am - 11:00pm;Sun:11:00am - 11:00pm;,,Open
900 N. Clinton St.,1038,900 N. Clinton St.,,Defiance,OH,43512,US,419-784-1555,41.2868145,-84.3624277,Wed - Thur:11:30am - 12:00am;Fri - Sat:11:30am - 1:00am;Mon - Tue:11:00am - 12:00am;Sun:11:30am - 11:00pm;,,Open
219 South Sandusky St.,1010,219 South Sandusky St.,,Delaware,OH,43015,US,740-368-9000,40.291789,-83.067906,Fri - Sat:11:00am - 12:00am;Mon - Thur:11:00am - 11:00pm;Sun:12:00pm - 11:00pm;,,Open
6701 Ruwes Oak,1152,6701 Ruwes Oak,,Dent,OH,45248,US,513-574-5550,39.1947253,-84.6669388,Fri - Sat:11:00am - 12:00am;Mon - Thur:11:00am - 10:00pm;Sun:12:00pm - 10:00pm;,,Open
8653 W. Ridge Rd.,1125,8653 W. Ridge Rd.,,Elyria,OH,44035,US,440-322-0777,41.3655853,-82.1594431,Fri - Sat:11:00am - 1:00am;Mon - Thur:11:00am - 11:30pm;Sun:12:00pm - 11:00pm;,,Open
5332 Detroit Rd.,1064,5332 Detroit Rd.,,Elyria,OH,44035,US,440-934-3400,41.426265,-82.075478,,,Open
22800 Lake Shore Blvd.,1091,22800 Lake Shore Blvd.,,Euclid,OH,44132,US,216-289-5455,41.611507,-81.522168,Fri - Sat:11:00am - 12:30am;Mon - Thur:11:00am - 11:30pm;Sun:11:00am - 11:00pm;,,Open
6330 Pleasant Ave,1162,6330 Pleasant Ave,,Fairfield,OH,45014,US,513-858-3500,39.3100328,-84.5621862,Fri - Sat:10:30am - 12:00am;Mon - Thur:10:30am - 11:00pm;Sun:11:00am - 11:00pm;,,Open
301 N. Main St.,1034,301 N. Main St.,,Fostoria,OH,44830,US,419-435-1500,41.159751,-83.4141166,Sun:11:00am - 11:00pm;Fri - Sat:11:00am - 12:30am;Mon - Tue:11:00am - 11:00pm;Thur:11:00am - 11:00pm;Wed:2:30pm - 11:00pm;,,Open
1839 W. State St.,1040,1839 W. State St.,,Fremont,OH,43420,US,419-332-1313,41.3560639,-83.1347668,Fri - Sat:11:00am - 12:30am;Mon - Thur:11:00am - 11:00pm;Sun:11:00am - 11:00pm;,,Open
4791 Turney Rd.,1078,4791 Turney Rd.,,Garfield Heights,OH,44125,US,216-641-8555,41.4300495,-81.6156257,Fri - Sat:11:00am - 12:30am;Mon - Thur:11:00am - 11:30pm;Sun:11:00am - 11:00pm;,,Open
22061 State Route 51,1032,22061 State Route 51,,Genoa,OH,43430,US,419-855-8355,41.5316417,-83.3595921,Fri - Sat:10:30am - 12:30am;Mon - Thur:10:30am - 10:30pm;Sun:10:30am - 10:30pm;,,Open
537 Main St,1102,537 Main St,,Grafton,OH,44044,US,440-926-0600,41.2812172,-82.0635341,,,Open
1386 Main Street,1215,1386 Main Street,,Hamilton,OH,45013,US,513-868-2600,39.4226066,-84.5925205,Fri - Sat:11:00am - 12:00am;Mon - Thur:11:00am - 11:00pm;Sun:11:00am - 11:00pm;,,Open
6825 Spring Valley,1012,6825 Spring Valley,,Holland,OH,43528,US,419-866-1611,41.6130189,-83.7039236,Fri - Sat:11:00am - 12:30am;Mon - Thur:11:00am - 11:30pm;Sun:11:00am - 11:00pm;,,Open
124 West Liberty Street,3548,124 West Liberty Street,,Hubbard,OH,44425,US,330-534-4777,41.1564204,-80.571609,Fri - Sat:11:00am - 11:00pm;Mon - Thur:11:00am - 10:00pm;Sun:11:00am - 10:00pm;,,Open
3251 Montgomery Road (US 22),1189,3251 Montgomery Road (US 22),,Landen,OH,45140,US,513-677-1300,39.3051037,-84.281089,Fri - Sat:11:00am - 12:00am;Mon - Thur:11:00am - 10:00pm;Sun:11:00am - 10:00pm;,,Open
4885 Princeton Road,1150,4885 Princeton Road,,Liberty Township,OH,45011,US,513-737-7555,39.3883182,-84.4565088,Fri - Sat:11:00am - 11:00pm;Mon - Thur:11:00am - 10:00pm;Sun:11:00am - 10:00pm;,,Open
2130 Leavitt Rd.,1042,2130 Leavitt Rd.,,Lorain,OH,44052,US,440-282-3000,41.450218,-82.202657,Fri - Sat:11:00am - 12:30am;Mon - Thur:11:00am - 11:30pm;Sun:11:00am - 11:00pm;,,Open
1957 N Ridge Rd E,1069,1957 N Ridge Rd E,,Lorain,OH,44055,US,440-277-7777,41.4182002,-82.1291353,Fri - Sat:11:00am - 1:00am;Mon - Thur:11:00am - 11:30pm;Sun:11:00am - 11:00pm;,,Open
920 Loveland - Madeira Road,1170,920 Loveland - Madeira Road,,Loveland,OH,45140,US,513-683-4888,39.2591968,-84.274897,Fri - Sat:11:00am - 12:00am;Mon - Thur:11:00am - 10:00pm;Sun:11:00am - 10:00pm;,,Open
43 US 22-3,1111,43 US 22-3,,Maineville,OH,45039,US,513-774-7777,39.3397604,-84.2179755,Fri - Sat:11:00am - 11:00pm;Mon - Thur:11:00am - 10:00pm;Sun:11:00am - 10:00pm;,,Open
888 Ashland Rd.,1065,888 Ashland Rd.,,Mansfield,OH,44905,US,419-589-9500,40.77225,-82.48218,Sun:12:00pm - 10:45pm;Fri:10:00am - 12:15am;Mon - Thur:10:00am - 10:45pm;Sat:11:00am - 12:15am;,,Open
1305 Lexington Ave.,1085,1305 Lexington Ave.,,Mansfield,OH,44907,US,419-756-9500,40.722726,-82.541703,Fri - Sat:11:00am - 12:15am;Mon - Thur:11:00am - 10:45pm;Sun:12:00pm - 10:45pm;,,Open
7231 Wooster Pike,1222,7231 Wooster Pike,,Cincinnati,OH,45227,US,513-561-5000,39.1440012,-84.3658934,Fri - Sat:11:00am - 12:00am;Mon - Thur:11:00am - 11:00pm;Sun:11:00am - 10:00pm;,,Open
6360 Tylersville Road,1155,6360 Tylersville Road,,Mason,OH,45040,US,513-204-1555,39.3518536,-84.3366927,Fri - Sat:11:00am - 12:00am;Mon - Thur:11:00am - 11:00pm;Sun:11:00am - 11:00pm;,,Open
244 North Court Street,1194,244 North Court Street,,Medina,OH,44256,US,330-725-0101,41.1418589,-81.863752,Fri - Sat:11:00am - 12:00am;Mon - Thur:11:00am - 11:00pm;Sun:12:00pm - 11:00pm;,,Open
5981 Andrews Rd.,1098,5981 Andrews Rd.,,Mentor-on-the-Lake,OH,44060,US,440-209-7000,41.708132,-81.3613194,Fri - Sat:10:00am - 1:00am;Mon - Thur:10:00am - 12:00am;Sun:10:00am - 12:00am;,,Open
6608 Smith Rd.,1084,6608 Smith Rd.,,Middleburg Heights,OH,44130,US,216-267-6000,41.3879472,-81.8047991,Fri - Sat:11:00am - 12:30am;Mon - Thur:11:00am - 11:30pm;Sun:11:00am - 11:00pm;,,Open
1300 S. Breiel Blvd,1037,1300 S. Breiel Blvd,,Middletown,OH,45044,US,513-423-1111,39.5046071,-84.3551222,Fri - Sat:11:00am - 12:00am;Mon - Thur:11:00am - 11:00pm;Sun:11:00am - 10:00pm;,,Open
1064 State Route 28,1156,1064 State Route 28,,Milford,OH,45150,US,513-831-6100,39.190822,-84.2526029,Fri - Sat:11:00am - 12:00am;Mon - Thur:11:00am - 10:00pm;Sun:11:00am - 10:00pm;,,Open
326 North Main Street,1220,326 North Main Street,,Minster,OH,45865,US,419-628-1000,40.399546,-84.376776,Fri - Sat:10:30am - 12:30am;Mon - Thur:10:30am - 10:30pm;Sun:10:30am - 10:30pm;,,Open
1428 Whitaker Way,1234,1428 Whitaker Way,,Montpeiler,OH,43548,US,419-485-1444,41.586536,-84.5852821,Wed - Thur:11:00am - 11:00pm;Fri - Sat:11:00am - 1:00am;Mon - Tue:3:00pm - 11:00pm;Sun:11:00am - 10:30pm;,,Open
7783 Cleveland Ave,1063,7783 Cleveland Ave,,N Canton,OH,44720,US,330-499-6600,40.8989077,-81.4061716,Fri - Sat:11:00am - 12:00am;Mon - Thur:11:00am - 10:00pm;Sun:12:00pm - 10:00pm;,,Open
1402 N. Scott St,1026,1402 N. Scott St,,Napoleon,OH,43545,US,419-592-1777,41.3988441,-84.1320381,Wed - Thur:11:30am - 11:00pm;Sun:11:30am - 10:30pm;Fri:11:30am - 1:30am;Mon - Tue:3:30pm - 11:00pm;Sat:11:30am - 1:00am;,,Open
225 North 21st Street,3613,225 North 21st Street,,Newark,OH,43055,US,740-348-0019,40.05789,-82.4301993,Fri - Sat:11:00am - 12:00am;Mon - Thur:11:00am - 11:00pm;Sun:11:00am - 11:00pm;,,Open
23657 Lorain Rd.,1047,23657 Lorain Rd.,,North Olmsted,OH,44070,US,440-777-3430,41.4325929,-81.8834655,Fri - Sat:11:00am - 12:30am;Mon - Thur:11:00am - 11:30pm;Sun:11:00am - 11:00pm;,,Open
32521 Center Ridge Rd.,1053,32521 Center Ridge Rd.,,North Ridgeville,OH,44039,US,440-327-8008,41.4094425,-81.9769946,Fri - Sat:11:00am - 12:30am;Mon - Thur:11:00am - 11:30pm;Sun:11:00am - 11:00pm;,,Open
10981 State Rd.,1096,10981 State Rd.,,North Royalton,OH,44133,US,440-582-9300,41.3320622,-81.7246405,Fri - Sat:11:00am - 12:30am;Mon - Thur:11:00am - 11:30pm;Sun:11:00am - 11:00pm;,,Open
4624 Woodville Rd.,1008,4624 Woodville Rd.,,Northwood,OH,43619,US,419-693-0700,41.6013827,-83.4636375,Fri - Sat:11:00am - 12:00am;Mon - Thur:11:00am - 11:00pm;Sun:12:00pm - 11:00pm;,,Open
130 N. Locust St,1159,130 N. Locust St,,Oak Harbor,OH,43449,US,419-898-8981,41.5083402,-83.145022,Fri - Sat:11:00am - 12:30am;Mon - Thur:11:00am - 10:30pm;Sun:12:00pm - 10:30pm;,,Open
2036 Woodville Rd.,1031,2036 Woodville Rd.,,Oregon,OH,43616,US,419-697-1131,41.6259721,-83.5010394,Fri - Sat:11:00am - 12:00am;Mon - Thur:11:00am - 11:00pm;Sun:12:00pm - 11:00pm;,,Open
5877 Broadview Rd.,1105,5877 Broadview Rd.,,Parma,OH,44134,US,216-351-2222,41.3963638,-81.6876386,Fri - Sat:11:00am - 12:30am;Mon - Thur:11:00am - 11:30pm;Sun:11:00am - 11:00pm;,,Open
6287 Pearl Rd.,1088,6287 Pearl Rd.,,Parma Heights,OH,44130,US,440-884-4999,41.38954,-81.762284,Fri - Sat:11:00am - 12:30am;Mon - Thur:11:00am - 11:30pm;Sun:11:00am - 11:00pm;,,Open
843 N. Williams St.,1041,843 N. Williams St.,,Paulding,OH,45879,US,419-399-3999,41.1509615,-84.5808565,Wed - Thur:11:30am - 11:00pm;Fri - Sat:11:30am - 1:00am;Mon - Tue:3:30pm - 11:00pm;Sun:11:30am - 10:30pm;,,Open
629 W. South Boundary,1014,629 W. South Boundary,,Perrysburg,OH,43551,US,419-874-1968,41.5416446,-83.6310157,,,Open
128 E. Perry St.,1028,128 E. Perry St.,,Port Clinton,OH,43452,US,419-734-6531,41.5133103,-82.9405729,Fri - Sat:10:30am - 12:30am;Mon - Thur:10:30am - 10:30pm;Sun:10:30am - 10:30pm;,,Open
8072 E Broad Street,1223,8072 E Broad Street,,Reynoldsburg,OH,43068,US,614-367-9999,39.983444,-82.8071872,Fri - Sat:11:00am - 12:30am;Mon - Thur:11:00am - 11:30pm;Sun:11:00am - 11:00pm;,,Open
433 Superior St.,1003,433 Superior St.,,Rossford,OH,43460,US,419-666-0773,41.6117801,-83.5563148,Fri - Sat:11:00am - 12:30am;Mon - Thur:11:00am - 11:00pm;Sun:11:00pm - 11:00pm;,,Open
4163 Mayfield Rd.,1089,4163 Mayfield Rd.,,South Euclid,OH,44121,US,216-382-5111,41.521094,-81.530292,,,Open
279 W. Central Ave.,1083,279 W. Central Ave.,,Springboro,OH,45066,US,937-748-2500,39.5590556,-84.2410527,Fri - Sat:11:00am - 1:00am;Mon - Thur:11:00am - 10:00pm;Sun:12:00pm - 10:00pm;,,Open
11439 Princeton Pike,1198,11439 Princeton Pike,,Springdale,OH,45246,US,513-771-6777,39.28512,-84.46735,Fri - Sat:11:00am - 11:00pm;Mon - Thur:11:00am - 10:00pm;Sun:11:00am - 10:00pm;,,Open
3707 Darrow Road,1097,3707 Darrow Road,,Stow,OH,44224,US,330-686-6888,41.1656503,-81.4403791,Fri - Sat:11:00am - 12:30am;Mon - Thur:11:00am - 11:00pm;Sun:12:00pm - 11:00pm;,,Open
12513 Pearl Rd.,1080,12513 Pearl Rd.,,Strongsville,OH,44136,US,440-572-9900,41.3216502,-81.8362607,Fri - Sat:11:00am - 12:30am;Mon - Thur:11:00am - 11:30pm;Sun:11:00am - 11:00pm;,,Open
106 Airport Hwy.,1020,106 Airport Hwy.,,Swanton,OH,43558,US,419-825-1116,41.5807361,-83.8869653,Fri - Sat:11:00am - 12:00am;Mon - Thur:11:00am - 11:00pm;Sun:12:00pm - 11:00pm;,,Open
6461 Monroe St.,1011,6461 Monroe St.,,Sylvania,OH,43560,US,419-885-3200,41.7155779,-83.701904,Fri - Sat:11:00am - 1:00am;Mon - Thur:11:00am - 12:00am;Sun:11:00am - 12:00am;,,Open
3678 Rugby Drive,1005,3678 Rugby Drive,,Toledo,OH,43614,US,419-385-6641,41.5990437,-83.6104166,Fri - Sat:11:00am - 12:30am;Mon - Thur:11:00am - 11:00pm;Sun:1:00pm - 11:00pm;,,Open
1109 South Ave.,1004,1109 South Ave.,,Toledo,OH,43609,US,419-385-6463,41.630519,-83.5704587,Fri - Sat:11:00am - 1:00am;Mon - Thur:11:00am - 11:30pm;Sun:11:00am - 11:00pm;,,Open
2040 Ottawa River Rd.,1002,2040 Ottawa River Rd.,,Toledo,OH,43611,US,419-727-7777,41.708671,-83.496773,Fri - Sat:11:00am - 12:00am;Mon - Thur:11:00am - 11:00pm;Sun:12:00pm - 11:00pm;,,Open
3510 Dorr St.,1013,3510 Dorr St.,,Toledo,OH,43607,US,419-535-3001,41.652998,-83.626467,Fri - Sat:11:00am - 1:00am;Mon - Thur:11:00am - 11:30pm;Sun:12:00pm - 11:00pm;,,Open
149 Main St.,1016,149 Main St.,,Toledo,OH,43605,US,419-698-1511,41.6474745,-83.5223473,Fri - Sat:11:00am - 1:00am;Mon - Thur:10:30am - 11:30pm;Sun:12:00pm - 11:00pm;,,Open
3423 Lagrange St.,1017,3423 Lagrange St.,,Toledo,OH,43608,US,419-255-1313,41.685533,-83.543585,Fri - Sat:11:00am - 1:00am;Mon - Thur:11:00am - 12:00am;Sun:11:00am - 11:00pm;,,Open
5248 Monroe St.,1019,5248 Monroe St.,,Toledo,OH,43623,US,419-882-3300,41.702137,-83.652855,Fri - Sat:11:00am - 12:00am;Mon - Thur:11:00am - 11:00pm;Sun:12:00pm - 11:00pm;,,Open
6801 W. Central Ave.,1023,6801 W. Central Ave.,,Toledo,OH,43617,US,419-841-7756,41.6748476,-83.7056596,Fri - Sat:11:00am - 12:00am;Mon - Thur:11:00am - 11:00pm;Sun:12:00pm - 11:00pm;,,Open
5055 Glendale Ave.,1030,5055 Glendale Ave.,,Toledo,OH,43614,US,419-385-3030,41.604357,-83.661265,Fri - Sat:11:00am - 12:00am;Mon - Thur:11:00am - 11:00pm;Sun:12:00pm - 11:00pm;,,Open
9981 Vail Court,1134,9981 Vail Court,,Twinsburg,OH,44087,US,330-405-0303,41.339903,-81.436098,Fri - Sat:11:00am - 12:30am;Mon - Thur:11:00am - 11:30pm;Sun:11:00am - 11:00pm;,,Open
563 N. Shoop Ave.,1027,563 N. Shoop Ave.,,Wauseon,OH,43567,US,419-335-1555,41.5535043,-84.1343556,Wed - Thur:11:30am - 11:00pm;Fri - Sat:11:30am - 1:00am;Mon - Tue:3:30pm - 11:00pm;Sun:1:30pm - 10:30pm;,,Open
2076 S. Alex Rd.,1068,2076 S. Alex Rd.,,West Carrollton,OH,45449,US,937-865-5200,39.6433997,-84.2432837,Fri - Sat:11:00am - 12:00am;Mon - Thur:11:00am - 11:00pm;Sun:11:00am - 11:00pm;,,Open
36200 Euclid Ave.,1140,36200 Euclid Ave.,,Willoughby,OH,44094,US,440-975-8888,41.626119,-81.429983,Fri - Sat:10:00am - 12:30am;Mon - Thur:10:00am - 11:30pm;Sun:10:00am - 11:30pm;,,Open
210 W. Main St.,1077,210 W. Main St.,,Woodville,OH,43469,US,419-849-2200,41.4509586,-83.3643992,Fri - Sat:10:30am - 12:30am;Mon - Thur:10:30am - 10:30pm;Sun:10:30am - 10:30pm;,,Open
1361 Worthington Centre,1147,1361 Worthington Centre,,Worthington,OH,43085,US,614-846-0400,40.1238203,-82.9803539,Fri - Sat:11:00am - 12:00am;Mon - Thur:11:00am - 10:00pm;Sun:3:00pm - 10:00pm;,,Open
2072 East Midlothian Blvd,3510,2072 East Midlothian Blvd,,Youngstown,OH,44502,US,330-782-2288,41.060911,-80.616324,Fri - Sat:11:00am - 12:00am;Mon - Thur:11:00am - 11:00pm;Sun:11:00am - 11:00pm;,,Open
2832 W. University Blvd,5018,2832 W. University Blvd,,Durant,OK,74701,US,580-924-1020,34.0049345,-96.4050073,Fri - Sat:11:00am - 11:00pm;Mon - Thur:11:00am - 10:00pm;Sun:11:00am - 10:00pm;,,Open
17900 N. Western Avenue,5005,17900 N. Western Avenue,,Edmond (West),OK,73012,US,405-513-5355,35.6542762,-97.5316647,Fri - Sat:11:00am - 11:00pm;Mon - Thur:11:00am - 10:00pm;Sun:11:00am - 10:00pm;,,Open
2321 West Willow Rd,5064,2321 West Willow Rd,,Enid,OK,73703,US,580-701-6765,36.4198783,-97.8453905,Fri - Sat:11:00am - 11:00pm;Mon - Thur:11:00am - 10:00pm;Sun:11:00am - 10:00pm;,,Open
7615 NW Cache Road,5007,7615 NW Cache Road,,Lawton,OK,73505,US,580-536-5800,34.6234546,-98.4846599,Fri - Sat:11:00am - 11:00pm;Mon - Thur:11:00am - 10:00pm;Sun:11:00am - 10:00pm;,,Open
2306 East Gore Blvd,5042,2306 East Gore Blvd,,Lawton,OK,73501,US,580-699-3993,34.6092475,-98.359729,Fri - Sat:11:00am - 11:00pm;Mon - Thur:11:00am - 10:00pm;Sun:11:00am - 10:00pm;,,Open
10001 SE 15th,5057,10001 SE 15th,,Midwest City,OK,73130,US,405-610-3000,35.45041,-97.35275,Fri - Sat:11:00am - 11:00pm;Mon - Thur:11:00am - 10:00pm;Sun:11:00am - 10:00pm;,,Open
12201 S. Pennsylvania Ave,5015,12201 S. Pennsylvania Ave,,Oklahoma City,OK,73170,US,405-735-8990,35.3480738,-97.5476584,Fri - Sat:11:00am - 11:00pm;Mon - Thur:11:00am - 10:00pm;Sun:11:00am - 10:00pm;,,Open
6900 NW 122nd Street,5055,6900 NW 122nd Street,,Oklahoma City,OK,73142,US,405-470-8500,35.59391,-97.63632,Fri - Sat:11:00am - 11:00pm;Mon - Thur:11:00am - 10:00pm;Sun:11:00am - 10:00pm;,,Open
9401 N. May Avenue,5049,9401 N. May Avenue,,The Village,OK,73120,US,405-607-1222,35.56764,-97.56684,Fri - Sat:11:00am - 11:00pm;Mon - Thur:11:00am - 10:00pm;Sun:11:00am - 10:00pm;,,Open
12913 E 31st St. S,3507,12913 E 31st St. S,,Tulsa,OK,74134,US,918-660-8255,36.11928,-95.83254,Fri - Sat:11:00am - 12:00am;Mon - Thur:11:00am - 11:00pm;Sun:11:00am - 11:00pm;,,Open
509 West Vandament Ave,5066,509 West Vandament Ave,,Yukon,OK,73099,US,405-494-7788,35.4933957,-97.7504408,Fri - Sat:11:00am - 11:00pm;Mon - Thur:11:00am - 10:00pm;Sun:11:00am - 10:00pm;,,Open
243 Broad St,2008,243 Broad St,,Montoursville,PA,17754,US,570-505-3699,41.2499134,-76.9284684,Fri - Sat:10:30am - 11:00pm;Mon - Thur:10:30am - 10:00pm;Sun:10:30am - 10:00pm;,,Open
303 5th Street,3521,303 5th Street,,New Brighton,PA,15066,US,724-846-1330,40.7381123,-80.3172117,Fri - Sat:11:00am - 12:00am;Mon - Thur:11:00am - 11:00pm;Sun:11:00am - 11:00pm;,,Open
335 Plummer Avenue,2006,335 Plummer Avenue,,Pittsburgh,PA,15202,US,,40.4743587,-79.9595625,,,Coming Soon
1815 East Greenville Street,8172,1815 East Greenville Street,,Anderson,SC,29621,US,864-622-0880,34.5392163,-82.6302103,Fri - Sat:10:00am - 12:00am;Mon - Thur:10:00am - 11:00pm;Sun:10:00am - 11:00pm;,,Open
514 Knox Abbott Drive,8173,514 Knox Abbott Drive,,Cayce,SC,29033,US,803-834-7033,33.9849737,-81.056512,Fri - Sat:10:00am - 12:00am;Mon - Thur:10:00am - 11:00pm;Sun:11:00am - 10:00pm;,,Open
3515 Mary Ader Avenue,8165,3515 Mary Ader Avenue,,Charleston,SC,29414,US,843-818-4700,32.819788,-80.066456,Fri - Sat:11:00am - 12:00am;Mon - Thur:11:00am - 11:00pm;Sun:11:30am - 10:30pm;,,Open
4561 Hard Scrabble Rd,8080,4561 Hard Scrabble Rd,,Columbia,SC,29229,US,803-419-3700,34.149759,-80.9122,Fri - Sat:10:00am - 12:00am;Mon - Thur:10:00am - 11:00pm;Sun:11:00am - 10:00pm;,,Open
10254 Two Notch Rd Suite C,8198,10254 Two Notch Rd Suite C,,Columbia,SC,29229,US,803-764-7227,34.1227409,-80.8749012,Fri - Sat:10:00am - 12:00am;Mon - Thur:10:00am - 11:00pm;Sun:11:00am - 10:00pm;,,Open
2607 Hwy 17 Business,8244,2607 Hwy 17 Business,,Garden City,SC,29576,US,843-299-1416,33.589606,-79.0069525,Fri - Sat:10:00am - 12:00am;Mon - Thur:10:00am - 11:00pm;Sun:11:00am - 10:00pm;,,Open
802 South Batesville Road,8149,802 South Batesville Road,,Greer,SC,29650,US,864-848-7797,34.8727788,-82.255445,Fri - Sat:10:00am - 11:00pm;Mon - Thur:10:00am - 10:00pm;Sun:11:00am - 10:00pm;,,Open
11218 Providence Rd W,8124,11218 Providence Rd W,,Charlotte,NC,28277,US,704-644-5550,35.01228,-80.85099,Fri - Sat:11:00am - 12:00am;Mon - Thur:11:00am - 11:00pm;Sun:11:00am - 11:00pm;,,Open
937 Lake Murray Blvd,8185,937 Lake Murray Blvd,,Irmo,SC,29063,US,803-764-1696,34.09057,-81.17272,Fri - Sat:10:00am - 12:00am;Mon - Thur:10:00am - 11:00pm;Sun:11:00am - 10:00pm;,,Open
650 College Park Road,8128,650 College Park Road,,Ladson,SC,29456,US,843-569-6101,33.0126941,-80.0870705,Fri - Sat:11:00am - 12:00am;Mon - Thur:11:00am - 11:00pm;Sun:11:00am - 10:00pm;,,Open
9500 Dorchester Rd,8179,9500 Dorchester Rd,,North Charleston,SC,29485,US,843-821-4000,32.9358807,-80.1402766,Fri - Sat:11:00am - 12:00am;Mon - Thur:11:00am - 11:00pm;Sun:11:00am - 10:00pm;,,Open
1735 Heckle Blvd,8196,1735 Heckle Blvd,,Rock Hill,SC,29732,US,803-324-3000,34.9538423,-81.065375,Fri - Sat:10:00am - 12:00am;Mon - Thur:10:00am - 10:00pm;Sun:11:00am - 10:00pm;,,Open
4040 East Cheyenne Blvd,4010,4040 East Cheyenne Blvd,,Rapid City,SD,57703,US,605-791-4744,44.097003,-103.148605,Fri - Sat:10:30am - 12:00am;Mon - Thur:10:30am - 11:00pm;Sun:10:30am - 11:00pm;,,Open
143 Stuart Road NE,8018,143 Stuart Road NE,,Cleveland,TN,37312,US,423-476-5551,35.1992011,-84.8436617,Sun:11:00am - 10:00pm;Thur - Sat:11:00am - 11:00pm;Mon - Wed:11:00am - 10:00pm;,,Open
12552 Kingston Pike,8097,12552 Kingston Pike,,Knoxville,TN,37934,US,865-773-0321,35.8672967,-84.202087,Fri - Sat:11:00am - 11:00pm;Mon - Thur:11:00am - 10:00pm;Sun:11:00am - 10:00pm;,,Open
3018 Tazewell Pike,8086,3018 Tazewell Pike,,Knoxville,TN,37918,US,865-688-5888,36.026594,-83.922332,Fri - Sat:11:00am - 11:00pm;Mon - Thur:11:00am - 10:00pm;Sun:11:00am - 10:00pm;,,Open
"612 Lyle Street, Suite 110",8017,"612 Lyle Street, Suite 110",,Johnson City,TN,37601,US,423-928-5888,36.3020516,-82.3781028,Fri - Sat:11:00am - 12:00am;Mon - Thur:11:00am - 11:00pm;Sun:11:00am - 11:00pm;,,Open
1762 West Broadway,8205,1762 West Broadway,,Maryville,TN,37801,US,865-233-7228,35.7314158,-83.9960595,Fri - Sat:11:00am - 11:00pm;Mon - Thur:11:00am - 10:00pm;Sun:11:00am - 10:00pm;,,Open
1208 E Northfield Blvd,8041,1208 E Northfield Blvd,,Murfreesboro,TN,37130,US,615-895-9755,35.8728137,-86.3693825,Fri - Sat:11:00am - 12:00am;Mon - Thur:11:00am - 11:00pm;Sun:11:00am - 10:00pm;,,Open
8667 Middlebrook Pike,8053,8667 Middlebrook Pike,,Knoxville,TN,37923,US,865-357-7780,35.9443858,-84.0722949,Fri - Sat:11:00am - 11:00pm;Mon - Thur:11:00am - 10:00pm;Sun:11:00am - 10:00pm;,,Open
1600 Bedford Road Suite 300,3508,1600 Bedford Road Suite 300,,Bedford,TX,76021,US,817-354-2233,32.84438,-97.14203,Fri - Sat:11:00am - 12:00am;Mon - Thur:11:00am - 11:00pm;Sun:11:00am - 11:00pm;,,Open
2011 Little Elm Trail,5004,2011 Little Elm Trail,,Cedar Park,TX,78613,US,512-250-3400,30.480097,-97.828403,Fri - Sat:11:00am - 11:00pm;Mon - Thur:11:00am - 10:00pm;Sun:11:00am - 10:00pm;,,Open
5250 N Tarrant Pkwy,5012,5250 N Tarrant Pkwy,,Ft Worth,TX,76244,US,817-427-2300,32.8941905,-97.271572,Fri - Sat:11:00am - 11:00pm;Mon - Thur:11:00am - 10:00pm;Sun:11:00am - 10:00pm;,,Open
12650 N. Beach St. (North of Timberland),5032,12650 N. Beach St. (North of Timberland),,Ft Worth,TX,76244,US,817-741-4005,32.956993,-97.281497,Fri - Sat:11:00am - 11:00pm;Mon - Thur:11:00am - 10:00pm;Sun:11:00am - 10:00pm;,,Open
3020 Marina Bay Drive,5017,3020 Marina Bay Drive,,League City,TX,77573,US,832-864-3600,29.541917,-95.062619,Fri - Sat:11:00am - 12:00am;Mon - Thur:11:00am - 11:00pm;Sun:11:00am - 11:00pm;,,Open
2800 S. Bagdad Rd,5006,2800 S. Bagdad Rd,,Leander,TX,78641,US,512-260-8866,30.540614,-97.848845,Fri - Sat:11:00am - 12:30am;Mon - Thur:11:00am - 11:00pm;Sun:11:00am - 11:00pm;,,Open
1079 West Round Grove,5065,1079 West Round Grove,,Lewisville,TX,75067,US,972-221-5200,33.0061476,-97.0192486,Fri - Sat:11:00am - 11:00pm;Mon - Thur:11:00am - 10:00pm;Sun:11:00am - 10:00pm;,,Open
"6245 Highway 6, Ste 300 Missouri City TX 77459",5063,"6245 Highway 6, Ste 300 Missouri City TX 77459",,Missouri City,TX,77459,US,832-539-6900,29.540334,-95.536725,Fri - Sat:11:00am - 11:00pm;Mon - Thur:11:00am - 10:00pm;Sun:11:00am - 10:00pm;,,Open
703 East FM 544 Suite 110,5046,703 East FM 544 Suite 110,,Murphy,TX,75094,US,972-442-4900,33.011772,-96.596668,Fri - Sat:11:00am - 10:00pm;Mon - Thur:11:00am - 9:00pm;Sun:11:00am - 9:00pm;,,Open
7505 North Davis Boulevard,3541,7505 North Davis Boulevard,,North Richland Hills,TX,76180,US,817-281-2233,32.884319,-97.204011,Fri - Sat:11:00am - 12:00am;Mon - Thur:11:00am - 10:00pm;Sun:11:00am - 10:00pm;,,Open
16949 North Eldridge Parkway,5028,16949 North Eldridge Parkway,,Tomball,TX,77377,US,281-251-3334,30.011927,-95.608953,Fri - Sat:10:00am - 12:00am;Mon - Thur:11:00am - 11:00pm;Sun:11:00am - 11:00pm;,,Open
5401 Central Fwy,5019,5401 Central Fwy,,Wichita Falls,TX,76306,US,940-851-8000,33.982219,-98.5365829,Fri - Sat:11:00am - 11:00pm;Mon - Thur:11:00am - 10:00pm;Sun:11:00am - 10:00pm;,,Open
100 B Midway Center,5058,100 B Midway Center,,Woodway,TX,76712,US,254-218-1111,31.4985894,-97.2198991,Fri - Sat:10:30am - 12:00am;Mon - Thur:10:30am - 11:00pm;Sun:10:30am - 11:00pm;,,Open
3355J Commander Shepard Blvd,2003,3355J Commander Shepard Blvd,,Hampton,VA,23666,US,757-766-2726,37.08011,-76.385049,Fri - Sat:11:00am - 12:00am;Mon - Thur:11:00am - 11:00pm;Sun:12:00pm - 11:00pm;,,Open
5222 US Rt 60 East,2015,5222 US Rt 60 East,,Huntington,WV,25705,US,304-733-5757,38.4119895,-82.3404469,Fri - Sat:10:30am - 12:00am;Mon - Thur:10:30am - 10:00pm;Sun:10:30am - 10:00pm;,,Open
1008 W College Avenue,3568,1008 W College Avenue,,Appleton,WI,54914,US,920-739-4242,44.2619071,-88.4215886,Fri - Sat:11:00am - 12:00am;Mon - Thur:11:00am - 11:00pm;Sun:11:00am - 11:00pm;,,Open
30 East Johnson Street,3573,30 East Johnson Street,,Fond Du Lac,WI,54935,US,920-922-2727,43.783231,-88.445663,Fri - Sat:11:00am - 11:00pm;Mon - Thur:11:00am - 10:00pm;Sun:11:00am - 10:00pm;,,Open
3514 Mormon Coulee Road,3523,3514 Mormon Coulee Road,,LaCrosse,WI,54601,US,608-796-1006,43.780005,-91.225845,Fri - Sat:11:00am - 12:00am;Mon - Thur:11:00am - 11:00pm;Sun:11:00am - 11:00pm;,,Open
1130 South Commercial Street,3607,1130 South Commercial Street,,Neenah,WI,54956,US,920-969-9400,44.1690705,-88.4649189,Fri - Sat:11:00am - 11:00pm;Mon - Thur:11:00am - 10:00pm;Sun:11:00am - 10:00pm;,,Open
330 Ohio Street,3567,330 Ohio Street,,Oshkosh,WI,54901,US,920-232-1422,44.0156911,-88.552473,Fri - Sat:11:00am - 12:00am;Mon - Thur:11:00am - 11:00pm;Sun:11:00am - 11:00pm;,,Open
782 Belle Terre Pkwy.,8382,782 Belle Terre Pkwy.,,Palm Coast,FL,,US,386-263-8102,29.487304,-81.221166,Fri - Sat:11:00am - 12:00am;Mon - Thur:11:00am - 11:00pm;Sun:11:00am - 11:00pm;,,Coming Soon
139 East Broadway Street,3517,139 East Broadway Street,,Waukesha,WI,53186,US,262-896-0055,43.008586,-88.225671,Fri - Sat:11:00am - 12:00am;Mon - Thur:11:00am - 11:00pm;Sun:11:00am - 11:00pm;,,Open
1723 South 76th Street,3516,1723 South 76th Street,,West Allis,WI,53214,US,414-258-8400,43.011457,-88.0073123,Fri - Sat:11:00am - 12:00am;Mon - Thur:11:00am - 11:00pm;Sun:11:00am - 11:00pm;,,Open
1310 West Washington Street,3535,1310 West Washington Street,,West Bend,WI,53095,US,262-365-0011,43.4269981,-88.1942892,Fri - Sat:11:00am - 12:00am;Mon - Thur:11:00am - 11:00pm;Sun:11:00am - 11:00pm;,,Open
4996 Cosgray Rd.,1256,4996 Cosgray Rd.,,Dublin,OH,43016,US,614-698-1020,40.0616314,-83.1823526,Fri - Sat:11:00am - 12:00am;Mon - Thur:11:00am - 11:00pm;Sun:11:00am - 11:00pm;,,Open
2018 South Ninth Street,3651,2018 South Ninth Street,,Salina,KS,67401,US,785-376-0433,38.8081017,-97.61339,Fri - Sat:11:00am - 12:00am;Mon - Thur:11:00am - 11:00pm;Sun:11:00am - 11:00pm;,,Coming Soon
1703 Ohio Ave.,8338,1703 Ohio Ave.,,Lynn Haven,FL,32444,US,850-248-1111,30.2327451,-85.6485426,Fri - Sat:11:00am - 12:00am;Mon - Thur:11:00am - 11:00pm;Sun:11:00am - 11:00pm;,,Open
2410 Essington Road,3666,2410 Essington Road,,Joliet,IL,60434,US,815-676-4994,41.56599,-88.16133,Fri - Sat:11:00am - 12:00am;Mon - Thur:11:00am - 11:00pm;Sun:11:00am - 11:00pm;,,Coming Soon
401 Randolph Street,3564,401 Randolph Street,,Thomasville,NC,27360,US,336-476-8888,35.876447,-80.077454,Fri - Sat:11:00am - 11:00pm;Mon - Thur:11:00am - 10:00pm;Sun:11:00am - 10:00pm;,,Open
2474 Manchester Rd,1232,2474 Manchester Rd,,Akron,OH,44314,US,330-753-2300,41.031778,-81.546458,Fri - Sat:11:00am - 12:30am;Mon - Thur:11:00am - 11:00pm;Sun:12:00pm - 11:00pm;,,Open
1025 Veterans Memorial Hwy SE,8460,1025 Veterans Memorial Hwy SE,,Mableton,GA,30126,US,770-999-1921,33.8057949,-84.5259302,Fri - Sat:11:00am - 12:00am;Mon - Thur:11:00am - 11:00pm;Sun:11:00am - 11:00pm;,,Coming Soon
930 Olympia Drive,2063,930 Olympia Drive,,Charlottesville,VA,22911,US,434-465-6800,38.033533,-78.448724,Fri - Sat:11:00am - 12:00am;Mon - Thur:11:00am - 11:00pm;Sun:11:00am - 11:00pm;,,Coming Soon
901 E Prima Vista Blvd,8371,901 E Prima Vista Blvd,,Port St. Lucie,FL,34952,US,772-877-0700,27.3267851,-80.3214814,Fri - Sat:11:00am - 12:00am;Mon - Thur:11:00am - 10:00pm;Sun:11:00am - 10:00pm;,,Coming Soon
2598 Glendale Ave,3600,2598 Glendale Ave,,Howard,WI,54313,US,920-434-3333,44.565722,-88.084107,Fri - Sat:11:00am - 12:00am;Mon - Thur:11:00am - 10:00pm;Sun:11:00am - 10:00pm;,,Open
3601 Maplewood Avenue,5044,3601 Maplewood Avenue,,Wichita Falls,TX,76308,US,940-228-7600,33.8753625,-98.530473,Fri - Sat:11:00am - 11:00pm;Mon - Thur:11:00am - 10:00pm;Sun:11:00am - 10:00pm;,,Open
1909 N Hwy 17,8209,1909 N Hwy 17,,Mt Pleasant,SC,29464,US,843-388-4262,32.8328953,-79.826952,Fri - Sat:11:00am - 12:00am;Mon - Thur:11:00am - 11:00pm;Sun:11:00am - 10:00pm;,,Open
1120 N Pleasantburg Dr,8241,1120 N Pleasantburg Dr,,Greenville,SC,29607,US,864-603-1333,34.870267,-82.357713,Fri - Sat:10:00am - 12:00am;Mon - Thur:10:00am - 10:00pm;Sun:11:00am - 10:00pm;,,Open
2715 Charles St,3650,2715 Charles St,,Rockford,IL,61108,US,779-513-8068,42.2585179,-89.0524808,Fri - Sat:11:00am - 12:00am;Mon - Thur:11:00am - 11:00pm;Sun:11:00am - 11:00pm;,,Open
109 East Winona Ave,3660,109 East Winona Ave,,Warsaw,IN,46580,US,574-306-0132,41.2355461,-85.8557117,Fri - Sat:11:00am - 12:00am;Mon - Thur:11:00am - 11:00pm;Sun:11:00am - 11:00pm;,,Open
617 Happy Valley RD,3655,617 Happy Valley RD,,Glasgow,KY,42141,US,,37.0076218,-85.9181065,Fri - Sat:11:00am - 12:00am;Mon - Thur:11:00am - 11:00pm;Sun:11:00am - 11:00pm;,,Open
1901 S. Philo Road,3656,1901 S. Philo Road,,Urbana,IL,61802,US,217-305-4060,40.0944108,-88.1913764,Fri - Sat:11:00am - 12:00am;Mon - Thur:11:00am - 11:00pm;Sun:11:00am - 11:00pm;,,Open
5801 NW 50th St,5067,5801 NW 50th St,,Warr Acres,OK,73122,US,405-603-4330,35.522605,-97.614882,Fri - Sat:11:00am - 11:00pm;Mon - Thur:11:00am - 10:00pm;Sun:11:00am - 10:00pm;,,Open
3154 Maple Grove Drive,3611,3154 Maple Grove Drive,,Madison,WI,53719,US,608-845-5400,43.016168,-89.499355,Fri - Sat:11:00am - 12:00am;Mon - Thur:11:00am - 11:00pm;Sun:11:00am - 11:00pm;,,Coming Soon
3088 Griffin Road,8289,3088 Griffin Road,,Dania Beach,FL,33312,US,954-639-4441,26.0619805,-80.1840377,Fri - Sat:11:00am - 12:00am;Mon - Thur:11:00am - 11:00pm;Sun:11:00am - 11:00pm;,,Open
1820 LAKE ST. LOUIS BLVD,3592,1820 LAKE ST. LOUIS BLVD,,Lake St. Louis,MO,63367,US,636-625-3377,38.801869,-90.759375,Fri - Sat:11:00am - 12:00am;Mon - Thur:11:00am - 11:00pm;Sun:11:00am - 11:00pm;,,Coming Soon
22099 Hwy 72 E Suite H,8441,22099 Hwy 72 E Suite H,,Athens,AL,35613,US,256-800-1010,34.7811862,-86.9286673,Fri - Sat:11:00am - 12:00am;Mon - Thur:11:00am - 11:00pm;Sun:11:00am - 11:00pm;,,Open
7119 FM 1464 Suite 310,5084,7119 FM 1464 Suite 310,,Richmond,TX,77407,US,832-944-6864,29.701461,-95.687105,Fri - Sat:11:00am - 12:00am;Mon - Thur:11:00am - 11:00pm;Sun:11:00am - 11:00pm;,,Open
7380 Spout Springs Road,8229,7380 Spout Springs Road,,Flowery Branch,GA,30542,US,678-960-4315,34.107631,-83.875204,,,Open
14106 Mueschke Rd,5117,14106 Mueschke Rd,,Cypress,TX,77433,US,281-256-1200,29.9798995,-95.7166461,Fri - Sat:11:00am - 12:00am;Mon - Thur:11:00am - 11:00pm;Sun:11:00am - 11:00pm;,,Open
24300 E Smoky Hill Road,6014,24300 E Smoky Hill Road,,Aurora,CO,80016,US,303-953-7880,39.59524,-104.7049397,Fri - Sat:10:30am - 11:00pm;Mon - Thur:10:30am - 10:00pm;Sun:10:30am - 10:00pm;,,Open
4155 Mountain Rd,2062,4155 Mountain Rd,,Pasadena,MD,21122,US,410-360-5858,39.12072,-76.515328,Fri - Sat:11:00am - 12:00am;Mon - Thur:11:00am - 11:00pm;Sun:11:00am - 11:00pm;,,Open
Plaza San Cristobal #106,9012,Plaza San Cristobal #106,,Coto Laurel,-,00780,US,,18.0408822,-66.5481067,Fri - Sat:10:30am - 11:00pm;Mon - Thur:10:30am - 10:00pm;Sun:11:00am - 9:00pm;,,Open
6108 N Second St,3629,6108 N Second St,,Loves Park,IL,61111,US,779-513-8067,42.318117,-89.0586139,Fri - Sat:11:00am - 12:00am;Mon - Thur:11:00am - 11:00pm;Sun:11:00am - 11:00pm;,,Open
120 N Lincoln Ave,3619,120 N Lincoln Ave,,Salem,OH,44460,US,330-332-3003,40.9011273,-80.8515501,Fri - Sat:11:00am - 12:00am;Mon - Thur:11:00am - 10:00pm;Sun:11:00am - 10:00pm;,,Open
1937 W State St,3627,1937 W State St,,Alliance,OH,44601,US,330-823-8899,40.902242,-81.135154,Fri - Sat:11:00am - 12:00am;Mon - Thur:11:00am - 10:00pm;Sun:11:00am - 10:00pm;,,Open
2130 Eastwood Ave,3633,2130 Eastwood Ave,,Akron,OH,44305,US,330-794-6800,41.0840004,-81.4412161,Fri - Sat:11:00am - 12:00am;Mon - Thur:11:00am - 11:00pm;Sun:11:00am - 11:00pm;,,Open
1766 Canton Rd,3630,1766 Canton Rd,,Lakemore,OH,44312,US,330-752-7639,41.019743,-81.416967,Fri - Sat:11:00am - 12:00am;Mon - Thur:11:00am - 11:00pm;Sun:11:00am - 11:00pm;,,Open
1423 W Garrison Blvd,3632,1423 W Garrison Blvd,,Gastonia,NC,28052,US,704-861-8484,35.25725,-81.207239,Fri - Sat:11:00am - 12:00am;Mon - Thur:11:00am - 11:00pm;Sun:11:00am - 11:00pm;,,Open
3045 N 70th St,3625,3045 N 70th St,,Lincoln,NE,68507,US,,40.8431641,-96.6252372,Fri - Sat:11:00am - 12:00am;Mon - Thur:11:00am - 11:00pm;Sun:11:00am - 11:00pm;,,Coming Soon
123 North Broadway St,3621,123 North Broadway St,,Peru,IN,46970,US,765-472-7576,40.747966,-86.061613,Fri - Sat:11:00am - 12:00am;Mon - Thur:11:00am - 11:00pm;Sun:11:00am - 11:00pm;,,Open
16955 Forest Rd.,2053,16955 Forest Rd.,,Lynchburg,VA,24551,US,434-455-0010,37.3667082,-79.2598398,Fri - Sat:11:00am - 12:00am;Mon - Thur:11:00am - 11:00pm;Sun:11:00am - 11:00pm;,,Open
405 N Line St,3622,405 N Line St,,Columbia City,IN,46725,US,260-244-2834,41.1638704,-85.4914536,Fri - Sat:11:00am - 12:00am;Mon - Thur:11:00am - 10:00pm;Sun:11:00am - 10:00pm;,,Open
615 S Scatterfield Rd,3616,615 S Scatterfield Rd,,Anderson,IN,46012,US,765-643-5900,40.1093474,-85.6528154,Fri - Sat:11:00am - 12:00am;Mon - Thur:11:00am - 11:00pm;Sun:11:00am - 11:00pm;,,Open
103 East Kent St,3631,103 East Kent St,,Streator,IL,61364,US,815-673-7758,41.1240788,-88.8355341,Fri - Sat:11:00am - 12:00am;Mon - Thur:11:00am - 11:00pm;Sun:11:00am - 11:00pm;,,Open
6780 Wales Avenue Northwest,3609,6780 Wales Avenue Northwest,,North Canton,OH,44720,US,330-966-5399,40.879257,-81.479154,Fri - Sat:11:00am - 12:00am;Mon - Thur:11:00am - 10:00pm;Sun:11:00am - 10:00pm;,,Open
571 FM 548,5081,571 FM 548,,Forney,TX,75126,US,972-552-1199,32.7288502,-96.4604882,Fri - Sat:11:00am - 11:00pm;Mon - Thur:11:00am - 10:00pm;Sun:11:00am - 10:00pm;,,Open
900 W Parker Road Suite 100C,5115,900 W Parker Road Suite 100C,,Plano,TX,75075,US,469-666-9333,33.040912,-96.7148614,Fri - Sat:11:00am - 12:00am;Mon - Thur:11:00am - 11:00pm;Sun:11:00am - 11:00pm;,,Coming Soon
9158 Hwy 278 East,8252,9158 Hwy 278 East,,Covington,GA,30014,US,770-728-1900,33.5992466,-83.8334383,Fri - Sat:11:00am - 11:00pm;Mon - Thur:11:00am - 10:00pm;Sun:11:00am - 10:00pm;,,Open
3900 E. Frank Phillips Blvd,5077,3900 E. Frank Phillips Blvd,,Bartlesville,OK,74006,US,918-771-0771,36.754064,-95.936655,Fri - Sat:11:00am - 11:00pm;Mon - Thur:11:00am - 10:00pm;Sun:11:00am - 10:00pm;,,Open
3130 Mathis Airport Parkway,8059,3130 Mathis Airport Parkway,,Suwanee,GA,30024,US,678-600-8888,34.110305,-84.153845,Fri - Sat:11:00am - 11:00pm;Mon - Thur:11:00am - 10:00pm;Sun:11:00am - 10:00pm;,,Open
39500 Murrieta Hot Springs Rd.,7034,39500 Murrieta Hot Springs Rd.,,Murrieta,CA,92563,US,951-900-6069,33.556362,-117.159534,Fri - Sat:11:00am - 12:00am;Mon - Thur:11:00am - 11:00pm;Sun:11:00am - 11:00pm;,,Open
279 N Lee St.,8317,279 N Lee St.,,Forsyth,GA,31029,US,478-974-5500,33.0407027,-83.9364279,Fri - Sat:11:00am - 12:00am;Mon - Thur:11:00am - 11:00pm;Sun:11:00am - 11:00pm;,,Open
100 Patrick Street Plaza,2060,100 Patrick Street Plaza,,Charleston,WV,25312,US,304-769-9999,38.36852,-81.6676452,Fri - Sat:10:30am - 12:00am;Mon - Thur:10:30am - 11:00pm;Sun:10:30am - 11:00pm;,,Open
817 9th Ave SE,4022,817 9th Ave SE,,Watertown,SD,57201,US,605-878-2727,44.8903419,-97.1041394,Fri - Sat:10:30am - 12:00am;Mon - Thur:10:30am - 11:00pm;Sun:10:30am - 11:00pm;,,Open
4606 SW College Road,8383,4606 SW College Road,,Ocala,FL,34474,US,352-512-9600,29.137969,-82.1973757,Fri - Sat:11:00am - 12:00am;Mon - Thur:11:00am - 11:00pm;Sun:11:00am - 11:00pm;,,Open
1207 Claremont Ave,1260,1207 Claremont Ave,,Ashland,OH,44805,US,419-281-5050,40.8577455,-82.3297287,Fri - Sat:11:00am - 12:00am;Mon - Thur:11:00am - 11:00pm;Sun:11:00am - 11:00pm;,,Open
273 Perry Parkway,8295,273 Perry Parkway,,Perry,GA,31069,US,478-224-8080,32.4728728,-83.7060418,Fri - Sat:11:00am - 12:00am;Mon - Thur:11:00am - 11:00pm;Sun:11:00am - 11:00pm;,,Open
820 8th Street S.,3658,820 8th Street S.,,Wisconsin Rapids,WI,54494,US,715-423-0060,44.3835237,-89.8178643,Fri - Sat:11:00am - 12:00am;Mon - Thur:11:00am - 11:00pm;Sun:11:00am - 11:00pm;,,Open
3905 Lebanon Pike,8379,3905 Lebanon Pike,,Hermitage,TN,37076,US,615-461-0009,36.1943727,-86.622534,Fri - Sat:11:00am - 12:00am;Mon - Thur:11:00am - 11:00pm;Sun:11:00am - 11:00pm;,,Open
315 GA 49,8293,315 GA 49,,Byron,GA,31008,US,478-654-6577,32.6630071,-83.7404384,Fri - Sat:11:00am - 12:00am;Mon - Thur:11:00am - 11:00pm;Sun:11:00am - 11:00pm;,,Open
711 N. Central Avenue,3664,711 N. Central Avenue,,Marshfield,WI,54449,US,715-502-2040,44.6737118,-90.1688364,Fri - Sat:11:00am - 12:00am;Mon - Thur:11:00am - 11:00pm;Sun:11:00am - 11:00pm;,,Coming Soon
14871 Detroit Ave,1228,14871 Detroit Ave,,Lakewood,OH,44107,US,216-228-2200,41.484496,-81.801103,Fri - Sat:11:00am - 12:30am;Mon - Thur:11:00am - 11:00pm;Sun:12:00pm - 11:00pm;,,Open
"South West Plaza, Carmichael Rd",9003,"South West Plaza, Carmichael Rd",,Nassau,-,,BS,242-361-6900,25.03385,-77.353774,Sun:11:00am - 11:00pm;Mon - Sat:11:00am - 12:00am;,,Open
Shoppes of Cable Beach,9006,Shoppes of Cable Beach,,Nassau,-,,BS,242-327-6900,25.075527,-77.421399,Sun:11:00am - 11:00pm;Mon - Sat:11:00am - 12:00am;,,Open
1208 W Fletcher Avenue,8259,1208 W Fletcher Avenue,,Tampa,FL,33612,US,813-999-4949,28.068323,-82.470601,Fri - Sat:11:00am - 12:00am;Mon - Thur:11:00am - 10:00pm;Sun:11:00am - 10:00pm;,,Open
16744 Champion Forest Drive,5062,16744 Champion Forest Drive,,Spring,TX,77379,US,832-953-2912,30.0123821,-95.5381341,Fri - Sat:11:00am - 12:00am;Mon - Thur:11:00am - 11:00pm;Sun:11:00am - 11:00pm;,,Open
12820 S Tryon St  Suite120,8284,12820 S Tryon St  Suite120,,Charlotte,NC,28273,US,704-587-3888,35.1045286,-80.9885516,Fri - Sat:10:00am - 12:00am;Mon - Thur:10:00am - 10:00pm;Sun:11:00am - 10:00pm;,,Open
540 Hidden Valley Pkwy Suite 103,7020,540 Hidden Valley Pkwy Suite 103,,Corona,CA,92879,US,951-520-8500,33.8983475,-117.5558339,Fri - Sat:11:00am - 12:00am;Mon - Thur:11:00am - 11:00pm;Sun:11:00am - 11:00pm;,,Open
2840 Keith Bridge Road Suite 102,8228,2840 Keith Bridge Road Suite 102,,Cumming,GA,30041,US,678-608-4848,34.252852,-84.087121,Fri - Sat:11:00am - 11:00pm;Mon - Thur:11:00am - 10:00pm;Sun:11:00am - 10:00pm;,,Open
3419 Colonnade Parkway Suite 400,8290,3419 Colonnade Parkway Suite 400,,Birmingham,AL,35243,US,205-968-1223,33.4385912,-86.728372,Fri - Sat:11:00am - 11:00pm;Mon - Thur:11:00am - 10:00pm;Sun:11:00am - 9:00pm;,,Open
520 Folly Road Suite 80,8176,520 Folly Road Suite 80,,Charleston,SC,29412,US,843-779-9100,32.7536628,-79.9709412,Fri - Sat:11:00am - 1:00am;Mon - Thur:11:00am - 11:00pm;Sun:11:00am - 11:00pm;,,Open
6910 S Redwood Road Suite E,6016,6910 S Redwood Road Suite E,,West Jordan,UT,84084,US,801-569-3333,40.625753,-111.939376,Fri - Sat:10:00am - 1:00am;Mon - Thur:10:00am - 12:00am;Sun:10:00am - 8:00pm;,,Open
1135 N. Church Street,3638,1135 N. Church Street,,Burlington,NC,27217,US,336-221-0021,36.0980138,-79.419775,Fri - Sat:11:00am - 12:00am;Mon - Thur:11:00am - 11:00pm;Sun:11:00am - 11:00pm;,,Open
12708 S. Black Bob Road,3599,12708 S. Black Bob Road,,Olathe,KS,66062,US,913-764-0332,38.8975662,-94.7618139,Fri - Sat:11:00am - 12:00am;Mon - Thur:11:00am - 10:00pm;Sun:11:00am - 10:00pm;,,Open
4336 Ridge Road Suite 111,8104,4336 Ridge Road Suite 111,,Paulding,GA,30134,US,678-838-4888,33.813894,-84.819131,Fri - Sat:11:00am - 12:00am;Mon - Thur:11:00am - 11:00pm;Sun:11:00am - 11:00pm;,,Open
3656 Highway 138 SE,8256,3656 Highway 138 SE,,Stockbridge,GA,30281,US,678-289-6924,33.5515287,-84.2721072,Fri - Sat:11:00am - 12:00am;Mon - Thur:11:00am - 11:00pm;Sun:11:00am - 11:00pm;,,Open
5000 Bill Gardner Pkwy,8302,5000 Bill Gardner Pkwy,,Locust Grove,GA,30248,US,678-782-7833,33.3534788,-84.1162598,Fri - Sat:11:00am - 12:00am;Mon - Thur:11:00am - 11:00pm;Sun:11:00am - 11:00pm;,,Open
3058 S. Horner Blvd,8449,3058 S. Horner Blvd,,Sanford,NC,27332,US,919-777-0350,35.4513188,-79.1350698,Fri - Sat:11:00am - 12:00am;Mon - Thur:11:00am - 11:00pm;Sun:11:00am - 11:00pm;,,Open
10050 NW 7th. Street,8200,10050 NW 7th. Street,,Pembroke Pines,FL,33024,US,954-613-6003,26.0141677,-80.2755418,Fri - Sat:11:00am - 12:00am;Mon - Thur:11:00am - 10:00pm;Sun:11:00am - 10:00pm;,,Open
2107 Augusta St Suite C,8283,2107 Augusta St Suite C,,Greenville,SC,29605,US,864-631-1900,34.82464,-82.393726,Fri - Sat:10:00am - 12:00am;Mon - Thur:10:00am - 10:00pm;Sun:10:00am - 10:00pm;,,Open
2910 Riverside Drive,8303,2910 Riverside Drive,,Macon,GA,31204,US,478-257-7277,32.8808997,-83.669639,Fri - Sat:10:00am - 1:00am;Mon - Thur:10:00am - 12:00am;Sun:10:00am - 12:00am;,,Open
7284 Caldwell Rd,8422,7284 Caldwell Rd,,Harrisburg,NC,28075,US,980-734-3350,35.315487,-80.674119,Fri - Sat:10:00am - 12:00am;Mon - Thur:10:00am - 11:00pm;Sun:11:00am - 11:00pm;,,Open
10919 Culebra Road  Suite 158,5082,10919 Culebra Road  Suite 158,,San Antonio,TX,78234,US,210-688-9977,29.4969647,-98.707876,Fri - Sat:11:00am - 12:00am;Mon - Thur:11:00am - 11:00pm;Sun:11:00am - 11:00pm;,,Open
149 Orville Rd,2019,149 Orville Rd,,Essex,MD,21221,US,443-579-0229,39.325258,-76.449589,Fri - Sat:11:00am - 12:00am;Mon - Thur:11:00am - 11:00pm;Sun:11:00am - 11:00pm;,,Coming Soon
205 OAK AVE. NORTH,3635,205 OAK AVE. NORTH,,Owatonna,MN,55060,US,507-451-3303,44.0858528,-93.2284976,Fri - Sat:11:00am - 12:00am;Mon - Thur:11:00am - 11:00pm;Sun:11:00am - 11:00pm;,,Coming Soon
101 4TH ST SW,3640,101 4TH ST SW,,Austin,MN,55912,US,,43.6665762,-92.9796552,Fri - Sat:11:00am - 12:00am;Mon - Thur:11:00am - 11:00pm;Sun:11:00am - 11:00pm;,,Coming Soon
3610 LINCOLN WAY E,3636,3610 LINCOLN WAY E,,Massillon,OH,44646,US,,41.7065708,-88.0952042,Sun:11:00am - 11:00pm;Fri:10:00am - 12:00am;Mon - Thur:11:00am - 11:00pm;Sat:11:00am - 12:00am;,,Coming Soon
11689 US 70 BUS HWY W,8220,11689 US 70 BUS HWY W,,Clayton,NC,27520,US,919-243-1573,35.654786,-78.47486,Fri - Sat:10:00am - 12:00am;Mon - Thur:10:00am - 10:00pm;Sun:10:00am - 10:00pm;,,Open
1775 N. Broadway,8452,1775 N. Broadway,,Bartow,FL,33830,US,863-457-4900,27.9118256,-81.8437958,Fri - Sat:10:00am - 1:00am;Mon - Thur:10:00am - 12:00am;Sun:10:00am - 12:00am;,,Coming Soon
2111 Cortez Road W,8183,2111 Cortez Road W,,Bradenton,FL,34207,US,941-567-6230,27.461801,-82.583263,Fri - Sat:11:00am - 12:00am;Mon - Thur:11:00am - 10:00pm;Sun:11:00am - 10:00pm;,,Open
5449 Sunset Blvd Suite D,8260,5449 Sunset Blvd Suite D,,Lexington,SC,29072,US,803-490-0123,33.998433,-81.216589,Fri - Sat:10:00am - 12:00am;Mon - Thur:10:00am - 11:00pm;Sun:11:00am - 10:00pm;,,Open
816 E Main St,1242,816 E Main St,,Delta,OH,43515,US,419-822-0122,41.5735896,-83.9948432,Fri - Sat:11:00am - 1:00am;Mon - Thur:11:00am - 11:00pm;Sun:11:00am - 10:30pm;,,Open
7101 W Grand Parkway South,5073,7101 W Grand Parkway South,,Richmond,TX,77407,US,281-239-2200,29.6732113,-95.7522837,Fri - Sat:11:00am - 11:00pm;Mon - Thur:11:00am - 10:00pm;Sun:11:00am - 10:00pm;,,Open
1624 New Salem Highway Suite D,8094,1624 New Salem Highway Suite D,,Murfreesboro,TN,37128,US,615-907-9998,35.823814,-86.417227,Fri - Sat:11:00am - 12:00am;Mon - Thur:11:00am - 10:00pm;Sun:11:00am - 10:00pm;,,Open
1134 30th. Street NW,1233,1134 30th. Street NW,,Canton,OH,44709,US,330-492-3000,40.8314724,-81.3834713,Fri - Sat:11:00am - 12:30am;Mon - Thur:11:00am - 11:00pm;Sun:12:00pm - 11:00pm;,,Open
4083 Cleveland Massillon Road,1231,4083 Cleveland Massillon Road,,Norton,OH,44203,US,330-825-5500,41.0272386,-81.6381844,Fri - Sat:11:00am - 12:30am;Mon - Thur:11:00am - 11:00pm;Sun:12:00pm - 11:00pm;,,Open
6096 Mayfield Road,1243,6096 Mayfield Road,,Mayfield Heights,OH,44124,US,440-442-3900,41.5196749,-81.4598183,Fri - Sat:11:00am - 12:30am;Mon - Thur:11:00am - 11:00pm;Sun:12:00pm - 11:00pm;,,Open
1498 Roosevelt Avenue (Plaza Caparra Shopping Center),9007,1498 Roosevelt Avenue (Plaza Caparra Shopping Center),,Guaynabo,-,00968,PR,787-705-6340,18.410933,-66.1003422,Fri - Sat:10:30am - 11:00pm;Mon - Thur:10:30am - 10:00pm;Sun:11:00am - 9:00pm;,,Open
1473 S Mason Rd,5131,1473 S Mason Rd,,Katy,TX,77450,US,281-492-8800,29.7608962,-95.7509241,Fri - Sat:10:30am - 12:00am;Mon - Thur:10:30am - 11:00pm;Sun:10:30am - 11:00pm;,,Coming Soon
4374 Atlanta Hwy Suite 139,8418,4374 Atlanta Hwy Suite 139,,Hiram,GA,30141,US,770-443-7200,33.903271,-84.7726498,Fri - Sat:11:00am - 12:00am;Mon - Thur:11:00am - 11:00pm;Sun:11:00am - 11:00pm;,,Open
"21699 E. Quincy Ave, Unit G",6022,"21699 E. Quincy Ave, Unit G",,Aurora,CO,80015,US,720-708-4922,39.639929,-104.736528,Fri - Sat:11:00am - 12:00am;Mon - Thur:11:00am - 11:00pm;Sun:11:00am - 11:00pm;,,Open
2305 Old Canoe Creek Rd,8381,2305 Old Canoe Creek Rd,,St. Cloud,FL,34772,US,407-593-6113,28.2343816,-81.3176696,Fri - Sat:11:00am - 12:00am;Mon - Thur:11:00am - 11:00pm;Sun:11:00am - 11:00pm;,,Coming Soon
1802 S Cannon Blvd,8298,1802 S Cannon Blvd,,Kannapolis,NC,28083,US,704-925-3344,35.4694133,-80.6106991,Fri - Sat:11:00am - 12:00am;Mon - Thur:11:00am - 11:00pm;Sun:11:00am - 11:00pm;,,Open
135 W. Highway 152,5099,135 W. Highway 152,,Mustang,OK,73064,US,405-673-6776,35.3921311,-97.7263864,Fri - Sat:11:00am - 12:00am;Mon - Thur:11:00am - 11:00pm;Sun:11:00am - 11:00pm;,,Open
2201 Mount Rushmore Rd,4023,2201 Mount Rushmore Rd,,Rapid City,SD,57701,US,605-791-2772,44.0641727,-103.232746,Fri - Sat:10:30am - 12:00am;Mon - Thur:10:30am - 11:00pm;Sun:10:30am - 11:00pm;,,Open
4320 S. Babcock Street,8238,4320 S. Babcock Street,,Melbourne,FL,32901,US,321-608-3100,28.0446792,-80.621876,Fri - Sat:11:00am - 12:00am;Mon - Thur:11:00am - 11:00pm;Sun:11:00am - 11:00pm;,,Open
509 N. Veterans BLVD  Suite A,8300,509 N. Veterans BLVD  Suite A,,Glennville,GA,30427,US,912-654-0199,31.9410097,-81.9285425,Fri - Sat:11:00am - 12:00am;Mon - Thur:11:00am - 11:00pm;Sun:11:00am - 11:00pm;,,Open
14815 Dessau Road  Suite #400,5092,14815 Dessau Road  Suite #400,,Pflugerville,TX,78660,US,512-670-3200,30.4203927,-97.6280985,Fri - Sat:11:00am - 12:00am;Mon - Thur:11:00am - 11:00pm;Sun:11:00am - 11:00pm;,,Open
1933 Hoffman Road Suite 1,8423,1933 Hoffman Road Suite 1,,Gastonia,NC,28054,US,704-230-0352,35.225671,-81.132871,Fri - Sat:11:00am - 12:00am;Mon - Thur:11:00am - 11:00pm;Sun:11:00am - 11:00pm;,,Open
5851 Buffington Rd.,8349,5851 Buffington Rd.,,Union City,GA,30349,US,470-336-5666,33.596886,-84.4987059,Fri - Sat:11:00am - 12:00am;Mon - Thur:11:00am - 11:00pm;Sun:11:00am - 11:00pm;,,Coming Soon
930 W Popular Ave Suite 1,8421,930 W Popular Ave Suite 1,,Collierville,TN,38017,US,901-221-8020,35.0474909,-89.6923095,Fri - Sat:10:30am - 11:00pm;Mon - Thur:10:30am - 10:00pm;Sun:11:00am - 10:00pm;,,Open
1021 Jamestown Blvd #203,8368,1021 Jamestown Blvd #203,,Watkinsville,GA,30677,US,706-765-2832,33.8655617,-83.4482997,Fri - Sat:11:00am - 12:00am;Mon - Thur:11:00am - 11:00pm;Sun:11:00am - 11:00pm;,,Open
4279 South US Highway 27,8386,4279 South US Highway 27,,Clermont,FL,34711,US,352-708-8179,28.5027069,-81.7197847,Fri - Sat:11:00am - 12:00am;Mon - Thur:11:00am - 11:00pm;Sun:11:00am - 11:00pm;,,Coming Soon
103 Market Centre Drive,8434,103 Market Centre Drive,,Cornelia,GA,30531,US,706-443-1002,34.535299,-83.536415,Fri - Sat:11:00am - 12:00am;Mon - Thur:11:00am - 11:00pm;Sun:11:00am - 11:00pm;,,Open
5142 Washington Road,8325,5142 Washington Road,,Evans,GA,30809,US,706-396-5800,33.5703729,-82.191805,Fri - Sat:11:00am - 12:00am;Mon - Thur:11:00am - 10:00pm;Sun:3:00pm - 10:00pm;,,Open
2000 35th. Avenue Suite A,6007,2000 35th. Avenue Suite A,,Greeley,CO,80634,US,970-506-1111,40.4059739,-104.7344905,Fri - Sat:10:30am - 12:00am;Mon - Thur:10:30am - 11:00pm;Sun:10:30am - 11:00pm;,,Open
6333 E. 120th Court Ste A,5121,6333 E. 120th Court Ste A,,Tulsa,OK,74137,US,918-921-9194,35.9886841,-95.9052039,Fri - Sat:11:00am - 12:00am;Mon - Thur:11:00am - 11:00pm;Sun:11:00am - 11:00pm;,,Open
3320 S Sycamore Ave,4016,3320 S Sycamore Ave,,Sioux Falls,SD,57110,US,605-275-9696,43.5164684,-96.6713482,Fri - Sat:10:30am - 12:00am;Mon - Thur:10:30am - 11:00pm;Sun:10:30am - 11:00pm;,,Open
1580 Space Center Dr.,6021,1580 Space Center Dr.,,Colorado Springs,CO,80915,US,719-573-8842,38.8556714,-104.723957,Fri - Sat:11:00am - 11:00pm;Mon - Thur:11:00am - 10:00pm;Sun:11:00am - 10:00pm;,,Open
141 Chatham Downs Suite 201,8401,141 Chatham Downs Suite 201,,Chapel Hill,NC,27517,US,919-391-4090,35.8320529,-79.0880757,Fri - Sat:11:00am - 12:00am;Mon - Thur:11:00am - 11:00pm;Sun:11:00am - 11:00pm;,,Coming Soon
5179 N. High St.,1245,5179 N. High St.,,Columbus,OH,43214,US,614-931-0931,40.068034,-83.0192102,Fri - Sat:10:30am - 12:00am;Mon - Thur:10:30am - 11:00pm;Sun:10:30am - 11:00pm;,,Open
281 E. MAIN ST,3639,281 E. MAIN ST,,Xenia,OH,45385,US,937-372-7006,39.6849892,-83.9241896,Fri - Sat:11:00am - 12:00am;Mon - Thur:11:00am - 11:00pm;Sun:11:00am - 11:00pm;,,Open
2620 East Highway 50,8385,2620 East Highway 50,,Clermont,FL,34711,US,407-614-0114,28.54799,-81.706432,Fri - Sat:11:00am - 12:00am;Mon - Thur:11:00am - 11:00pm;Sun:11:00am - 11:00pm;,,Coming Soon
1147 US 231 S Suite 12,8445,1147 US 231 S Suite 12,,Troy,AL,36081,US,334-231-8080,31.781114,-85.954091,Fri - Sat:11:00am - 12:00am;Mon - Thur:11:00am - 11:00pm;Sun:12:00pm - 9:00pm;,,Open
1248 Columbus Ave Suite 14,1246,1248 Columbus Ave Suite 14,,Lebanon,OH,45036,US,513-409-5522,39.4516202,-84.1813047,Fri - Sat:11:00am - 12:00am;Mon - Thur:11:00am - 11:00pm;Sun:11:00am - 11:00pm;,,Open
61 Bell Boulevard Unit 7,8344,61 Bell Boulevard Unit 7,,Lehigh Acres,FL,33936,US,239-491-9825,26.602607,-81.612515,Fri - Sat:11:00am - 12:00am;Mon - Thur:11:00am - 11:00pm;Sun:11:00am - 11:00pm;,,Coming Soon
9535 Westheimer Rd,5118,9535 Westheimer Rd,,Houston,TX,77063,US,713-266-6000,29.7368284,-95.5345932,Fri - Sat:11:00am - 12:00am;Mon - Thur:11:00am - 11:00pm;Sun:11:00am - 11:00pm;,,Open
4150 Macland Road,8312,4150 Macland Road,,Powder Springs,GA,30127,US,770-726-2250,33.9034459,-84.6746282,Fri - Sat:11:00am - 11:00pm;Mon - Thur:11:00am - 10:00pm;Sun:11:00am - 10:00pm;,,Open
707 W Fayette Avenue,3644,707 W Fayette Avenue,,Effingham,IL,62401,US,217-342-3424,39.1197627,-88.5509381,Fri - Sat:11:00am - 12:00am;Mon - Thur:11:00am - 10:00pm;Sun:11:00am - 10:00pm;,,Open
9210 West Commercial Blvd,8155,9210 West Commercial Blvd,,Sunrise,FL,33351,US,954-616-5118,26.1935522,-80.27534,Fri - Sat:11:00am - 12:00am;Mon - Thur:11:00am - 10:00pm;Sun:11:00am - 10:00pm;,,Open
9006 S. Fry Road,5107,9006 S. Fry Road,,Katy,TX,77494,US,832-999-4241,29.712161,-95.8055702,Fri - Sat:11:00am - 12:00am;Mon - Thur:11:00am - 11:00pm;Sun:11:00am - 11:00pm;,,Open
6236 Holly  Springs Pkwy,8416,6236 Holly  Springs Pkwy,,Woodstock,GA,30188,US,678-631-7242,34.1302027,-84.4995878,Fri - Sat:11:00am - 11:00pm;Mon - Thur:11:00am - 10:00pm;Sun:11:00am - 10:00pm;,,Open
11182 66th N,8282,11182 66th N,,Largo,FL,33773,US,727-914-0123,27.8737508,-82.7291599,Fri - Sat:11:00am - 12:00am;Mon - Thur:11:00am - 10:00pm;Sun:11:00am - 10:00pm;,,Open
3637 S. Old Missouri Road,5109,3637 S. Old Missouri Road,,Springdale,AR,72764,US,479-751-2085,36.1524562,-94.1186296,Fri - Sat:11:00am - 12:00am;Mon - Thur:11:00am - 11:00pm;Sun:11:00am - 11:00pm;,,Open
897 E. Edwardsville Road,3648,897 E. Edwardsville Road,,Wood River,IL,62095,US,618-216-5669,38.8652486,-90.082013,Fri - Sat:11:00am - 12:00am;Mon - Thur:11:00am - 11:00pm;Sun:11:00am - 11:00pm;,,Open
313 6th Avenue,2058,313 6th Avenue,,St. Albans,WV,25177,US,304-945-3111,38.3857024,-81.8341772,Fri - Sat:10:30am - 12:00am;Mon - Thur:10:30am - 11:00pm;Sun:10:30am - 11:00pm;,,Open
1870 Westen St.,3653,1870 Westen St.,,Bowling Green,KY,42104,US,270-936-7753,36.960565,-86.4507958,Fri - Sat:11:00am - 12:00am;Mon - Thur:11:00am - 11:00pm;Sun:11:00am - 11:00pm;,,Open
3500 N Decatur Rd,8363,3500 N Decatur Rd,,Scottdale,GA,30079,US,770-679-8293,33.789531,-84.25023,Fri - Sat:11:00am - 12:00am;Mon - Thur:11:00am - 11:00pm;Sun:11:00am - 11:00pm;,,Open
3303 Williams Dr. Suite 1030,5123,3303 Williams Dr. Suite 1030,,Georgetown,TX,78628,US,512-819-0001,30.6663173,-97.6939672,Fri - Sat:11:00am - 12:00am;Mon - Thur:11:00am - 11:00pm;Sun:11:00am - 11:00pm;,,Open
7553 Osceola Polk Line Rd,8384,7553 Osceola Polk Line Rd,,Davenport,FL,33896,US,321-401-4849,28.2598456,-81.5890517,Fri - Sat:11:00am - 12:00am;Mon - Thur:11:00am - 11:00pm;Sun:11:00am - 11:00pm;,,Coming Soon
298 W Orange Street,8359,298 W Orange Street,,Jesup,GA,31545,US,912-559-6988,31.6060396,-81.8887459,Fri - Sat:11:00am - 12:00am;Mon - Thur:11:00am - 11:00pm;Sun:11:00am - 11:00pm;,,Open
909 Lincoln Avenue,3652,909 Lincoln Avenue,,Charleston,IL,61920,US,217-345-8800,39.4848895,-88.1719751,Fri - Sat:11:00am - 1:00am;Mon - Thur:11:00am - 11:00pm;Sun:11:00am - 11:00pm;,,Open
7360 HWY 431,8360,7360 HWY 431,,Albertville,AL,35950,US,256-660-5666,34.2793422,-86.2067451,Fri - Sat:11:00am - 11:00pm;Mon - Thur:11:00am - 10:00pm;Sun:11:00am - 10:00pm;,,Open
2114 7th Ave S.,8354,2114 7th Ave S.,,Birmingham,AL,35233,US,205-777-5555,33.5069808,-86.797873,Fri - Sat:11:00am - 12:00am;Mon - Thur:11:00am - 11:00pm;Sun:11:00am - 11:00pm;,,Open
12899 Quebec,6023,12899 Quebec,,Thornton,CO,80602,US,720-749-3987,39.930154,-104.903767,Fri - Sat:10:30am - 12:00am;Mon - Thur:10:30am - 11:00pm;Sun:10:30am - 11:00pm;,,Open
201 Ave. (Plaza San Francisco),9009,201 Ave. (Plaza San Francisco),,San Juan,-,00927,PR,,18.3860081,-66.0819813,Fri - Sat:10:30am - 11:00pm;Mon - Thur:10:30am - 10:00pm;Sun:11:00am - 9:00pm;,,Open
7020 Atlanta Highway,8138,7020 Atlanta Highway,,Montgomery,AL,36117,US,334-356-4422,32.3824102,-86.1726503,Fri - Sat:11:00am - 11:00pm;Mon - Thur:11:00am - 10:00pm;Sun:12:00pm - 9:00pm;,,Open
2658 Central Ave.,1025,2658 Central Ave.,,Toledo,OH,43606,US,419-475-9555,41.677786,-83.607413,Fri - Sat:11:00am - 12:30am;Mon - Thur:11:00am - 11:30pm;Sun:12:00pm - 11:00pm;,,Open
5958 Snow Hill Rd,8358,5958 Snow Hill Rd,,Ooltewah,TN,37363,US,423-668-6008,35.0907077,-85.0643613,Fri - Sat:11:00am - 12:00am;Mon - Thur:11:00am - 11:00pm;Sun:11:00am - 11:00pm;,,Open
10700 Iron Bridge Road,2050,10700 Iron Bridge Road,,Chesterfield,VA,23831,US,804-748-7256,37.3689844,-77.5001982,Fri - Sat:11:00am - 12:00am;Mon - Thur:11:00am - 11:00pm;Sun:11:00am - 11:00pm;,,Open
7920 Senoia Rd (Hwy 74) Suite 200,8257,7920 Senoia Rd (Hwy 74) Suite 200,,Fairburn,GA,30213,US,770-306-0404,33.5387309,-84.5761905,Fri - Sat:11:00am - 12:00am;Mon - Thur:11:00am - 11:00pm;Sun:11:00am - 11:00pm;,,Open
374 N Rock Island Rd,8346,374 N Rock Island Rd,,Margate,FL,33063,US,954-951-8600,26.2344403,-80.2215857,Fri - Sat:11:00am - 12:00am;Mon - Thur:11:00am - 11:00pm;Sun:11:00am - 11:00pm;,,Open
10625 Harrison Ave,1250,10625 Harrison Ave,,Harrison,OH,45030,US,513-715-1400,39.2535052,-84.7964492,Fri - Sat:11:00am - 12:00am;Mon - Thur:11:00am - 11:00pm;Sun:11:00am - 11:00pm;,,Open
10359 Tara Blvd.,8348,10359 Tara Blvd.,,Jonesboro,GA,30236,US,770-626-3788,33.4744934,-84.3371888,Fri - Sat:11:00am - 12:00am;Mon - Thur:11:00am - 11:00pm;Sun:11:00am - 11:00pm;,,Open
Mahi Mahi Shopping Center,9016,Mahi Mahi Shopping Center,,Dorado,-,00646,PR,787-500-7774,18.463712,-66.2732068,Fri - Sat:10:30am - 12:00am;Mon - Thur:10:30am - 11:00pm;Sun:11:00am - 11:00pm;,,Open
109 S. Indiana Street,3603,109 S. Indiana Street,,Mooresville,IN,46158,US,317-483-4412,39.611377,-86.374681,Fri - Sat:11:00am - 12:00am;Mon - Thur:11:00am - 11:00pm;Sun:11:00am - 11:00pm;,,Open
"446 N. Higley Rd, Suite 105",7021,"446 N. Higley Rd, Suite 105",,Mesa,AZ,85205,US,480-396-4300,33.4239628,-111.7197505,Fri - Sat:10:30am - 12:00am;Mon - Thur:10:30am - 11:00pm;Sun:10:30am - 11:00pm;,,Open
900 E. Main St.,1127,900 E. Main St.,,Greenville,OH,45331,US,937-547-6300,40.1084001,-84.6243482,Fri - Sat:10:00am - 12:30am;Mon - Thur:10:00am - 11:30pm;Sun:10:00am - 11:00pm;,,Open
2656 Parkway Ste 1,8372,2656 Parkway Ste 1,,Pigeon Forge,TN,37863,US,865-277-6361,35.8031331,-83.5755372,Fri - Sat:11:00am - 11:00pm;Mon - Thur:11:00am - 10:00pm;Sun:11:00am - 10:00pm;,,Open
8107  U.S. 36,1261,8107  U.S. 36,,Avon,IN,46123,US,317-742-5476,39.7629652,-86.3795484,Fri - Sat:11:00am - 12:00am;Mon - Thur:11:00am - 11:00pm;Sun:11:00am - 10:00pm;,,Open
8348 Charlotte Hwy (In front of Publix),8425,8348 Charlotte Hwy (In front of Publix),,Indian Land,SC,29707,US,803-233-1717,34.9793044,-80.8559929,Fri - Sat:10:00am - 12:00am;Mon - Thur:10:00am - 11:00pm;Sun:11:00am - 11:00pm;,,Open
1006 E Algonquin Rd,3654,1006 E Algonquin Rd,,Algonquin,IL,60102,US,847-960-3695,42.162963,-88.2794401,Fri - Sat:11:00am - 12:00am;Mon - Thur:11:00am - 11:00pm;Sun:11:00am - 11:00pm;,,Open
231 N Dean Rd,8060,231 N Dean Rd,,Auburn,AL,36830,US,334-209-2200,32.609393,-85.464948,Fri - Sat:11:00am - 11:00pm;Mon - Thur:11:00am - 10:00pm;Sun:11:00am - 10:00pm;,,Open
2004  US Hwy 98,8075,2004  US Hwy 98,,Daphne,AL,36526,US,251-625-6550,30.60725,-87.8977,Fri - Sat:11:00am - 11:00pm;Mon - Thur:11:00am - 10:00pm;Sun:12:00pm - 10:00pm;,,Open
3119 Ross Clark Cr.,8146,3119 Ross Clark Cr.,,Dothan,AL,36303,US,334-699-6700,31.2307955,-85.4321337,Fri - Sat:11:00am - 11:00pm;Mon - Thur:11:00am - 10:00pm;Sun:12:00pm - 9:00pm;,,Open
2200 Ozark Highway,8147,2200 Ozark Highway,,Enterprise,AL,36330,US,334-347-5700,31.346857,-85.836396,Fri - Sat:11:00am - 11:00pm;Mon - Thur:11:00am - 10:00pm;Sun:12:00pm - 9:00pm;,,Open
1960 Braddock Drive,8137,1960 Braddock Drive,,Hoover,AL,35226,US,205-624-3333,33.403108,-86.808391,Fri - Sat:11:00am - 11:00pm;Mon - Thur:11:00am - 10:00pm;Sun:11:00am - 10:00pm;,,Open
2394 Dawes Road,8136,2394 Dawes Road,,Mobile,AL,36695,US,251-639-3535,30.6406378,-88.2477939,Fri - Sat:11:00am - 11:00pm;Mon - Thur:11:00am - 10:00pm;Sun:12:00pm - 10:00pm;,,Open
3171 Taylor Rd,8054,3171 Taylor Rd,,Montgomery,AL,36116,US,334-356-6000,32.3397829,-86.1791655,Fri - Sat:11:00am - 11:00pm;Mon - Thur:11:00am - 10:00pm;Sun:12:00pm - 9:00pm;,,Open
2080 W Main St,5050,2080 W Main St,,Cabot,AR,72023,US,501-286-7983,34.9815,-92.03894,Fri - Sat:11:00am - 11:00pm;Mon - Thur:11:00am - 10:00pm;Sun:11:00am - 10:00pm;,,Open
1733 W Kings Highway,5069,1733 W Kings Highway,,Paragould,AR,72450,US,870-240-0401,36.0542,-90.50859,Fri - Sat:11:00am - 11:00pm;Mon - Thur:11:00am - 10:00pm;Sun:11:00am - 10:00pm;,,Open
14718 Highway 107,5010,14718 Highway 107,,Sherwood,AR,72120,US,501-834-1133,34.8708977,-92.1968155,Fri - Sat:11:00am - 11:00pm;Mon - Thur:11:00am - 10:00pm;Sun:11:00am - 10:00pm;,,Open
121 West Foothill Blvd,7011,121 West Foothill Blvd,,Upland,CA,91786,US,909-608-7100,34.108199,-117.648873,Fri - Sat:10:30am - 11:00pm;Mon - Thur:10:30am - 10:00pm;Sun:10:30am - 10:00pm;,,Open
3005 Duff Road,8131,3005 Duff Road,,Lakeland,FL,33810,US,863-940-2001,28.1356349,-82.0072919,Fri - Sat:11:00am - 12:00am;Mon - Thur:11:00am - 10:00pm;Sun:11:00am - 10:00pm;,,Open
857 Woodbury Rd,8050,857 Woodbury Rd,,Orlando,FL,32828,US,407-277-7177,28.548469,-81.194177,Fri - Sat:11:00am - 11:00pm;Mon - Thur:11:00am - 10:00pm;Sun:11:00am - 10:00pm;,,Open
5918 Providence Rd.,8063,5918 Providence Rd.,,Riverview,FL,33578,US,813-685-4400,27.8943925,-82.3184816,Fri - Sat:11:00am - 12:00am;Mon - Thur:11:00am - 10:00pm;Sun:11:00am - 10:00pm;,,Open
3650 Murrell Road,8150,3650 Murrell Road,,Rockledge,FL,32955,US,321-504-2966,28.2982423,-80.722058,Fri - Sat:11:00am - 11:00pm;Mon - Thur:11:00am - 10:00pm;Sun:11:00am - 10:00pm;,,Open
1165 Rinehart Rd,8167,1165 Rinehart Rd,,Sanford,FL,32771,US,407-328-7676,28.79324,-81.3396632,Fri:11:00am - 11:00pm;Sat - Sun:11:00am - 10:00pm;Mon - Thur:11:00am - 10:00pm;,,Open
3599 Webber St,8204,3599 Webber St,,Sarasota,FL,34239,US,941-365-1155,27.3083172,-82.4976234,Fri - Sat:11:00am - 11:00pm;Mon - Thur:11:00am - 10:00pm;Sun:11:00am - 10:00pm;,,Open
209 N. Magnolia Dr.,8078,209 N. Magnolia Dr.,,Tallahassee,FL,32301,US,850-577-3200,30.4438562,-84.2614494,Fri - Sat:11:00am - 12:00am;Mon - Thur:11:00am - 10:00pm;Sun:11:00am - 10:00pm;,,Open
6102 Gunn Highway,8045,6102 Gunn Highway,,Tampa,FL,33625,US,813-963-0600,28.062992,-82.550179,Fri - Sat:11:00am - 12:00am;Mon - Thur:11:00am - 10:00pm;Sun:11:00am - 10:00pm;,,Open
6914 Hanley Road,8111,6914 Hanley Road,,Tampa,FL,33634,US,813-887-4500,28.0135031,-82.5630937,Fri - Sat:11:00am - 12:00am;Mon - Thur:11:00am - 10:00pm;Sun:11:00am - 10:00pm;,,Open
735 Shamrock Blvd,8139,735 Shamrock Blvd,,Venice,FL,34293,US,941-493-0123,27.074164,-82.4000213,Fri - Sat:11:00am - 11:00pm;Mon - Thur:11:00am - 10:00pm;Sun:11:00am - 10:00pm;,,Open
1820 58th Ave,8044,1820 58th Ave,,Vero Beach,FL,32966,US,772-978-9998,27.63552,-80.446583,Fri - Sat:11:00am - 11:00pm;Mon - Thur:11:00am - 10:00pm;Sun:11:00am - 10:00pm;,,Open
16220 Indian Trace,8133,16220 Indian Trace,,Weston,FL,33326,US,954-217-0800,26.1023218,-80.3646532,Fri - Sat:11:00am - 12:00am;Mon - Thur:11:00am - 10:00pm;Sun:11:00am - 10:00pm;,,Open
2818-9 Old Dawson Rd,8046,2818-9 Old Dawson Rd,,Albany,GA,31707,US,229-435-4800,31.613022,-84.220427,Fri - Sat:11:00am - 11:00pm;Mon - Thur:11:00am - 10:00pm;Sun:1:00pm - 9:00pm;,,Open
405 Highway 96,8066,405 Highway 96,,Bonaire,GA,31005,US,478-922-2252,32.555084,-83.6257,Fri - Sat:10:30am - 12:00am;Mon - Thur:10:30am - 10:00pm;Sun:10:30am - 10:00pm;,,Open
3725 Sixes Rd,8067,3725 Sixes Rd,,Canton,GA,30114,US,770-720-1234,34.176822,-84.5494,Fri - Sat:11:00am - 11:00pm;Mon - Thur:11:00am - 10:00pm;Sun:12:00pm - 9:00pm;,,Open
2901 University Ave.,8033,2901 University Ave.,,Columbus,GA,31907,US,706-507-9777,32.4906943,-84.9325045,Sun:12:00pm - 10:00pm;Mon - Sat:11:00am - 11:00pm;,,Open
785 Shugart Road,8135,785 Shugart Road,,Dalton,GA,30720,US,706-529-2500,34.785157,-84.997311,Fri - Sat:11:00am - 12:00am;Mon - Thur:11:00am - 11:00pm;Sun:11:00am - 10:00pm;,,Open
6575 Sugarloaf Pky,8118,6575 Sugarloaf Pky,,Duluth,GA,30097,US,770-813-8866,33.997461,-84.090531,Fri - Sat:11:00am - 11:00pm;Mon - Thur:11:00am - 10:00pm;Sun:11:00am - 10:00pm;,,Open
3099 Breckenridge Blvd,8174,3099 Breckenridge Blvd,,Duluth,GA,30096,US,678-701-5544,33.956861,-84.1130018,Fri - Sat:11:00am - 12:00am;Mon - Thur:11:00am - 11:00pm;Sun:11:00am - 11:00pm;,,Open
1911 Grayson Highway,8164,1911 Grayson Highway,,Grayson,GA,30017,US,770-339-2000,33.8974614,-83.9620439,Fri - Sat:11:00am - 11:00pm;Mon - Thur:11:00am - 10:00pm;Sun:11:00am - 10:00pm;,,Open
2327 Jonesboro rd,8084,2327 Jonesboro rd,,Hampton,GA,30228,US,678-814-4866,33.4644367,-84.2325282,Fri - Sat:11:00am - 11:00pm;Mon - Thur:11:00am - 10:00pm;Sun:11:00am - 10:00pm;,,Open
2424 Roswell Rd,8069,2424 Roswell Rd,,Marietta,GA,30068,US,770-694-6400,33.973567,-84.480915,Fri - Sat:11:00am - 11:30pm;Mon - Thur:11:00am - 10:30pm;Sun:11:00am - 10:30pm;,,Open
298 Racetrack Rd.,8030,298 Racetrack Rd.,,McDonough,GA,30252,US,770-692-5868,33.4307106,-84.1326201,Fri - Sat:11:00am - 12:00am;Mon - Thur:11:00am - 11:00pm;Sun:11:00am - 11:00pm;,,Open
1111 Bullsboro Dr.,8077,1111 Bullsboro Dr.,,Newnan,GA,30265,US,770-683-1234,33.395794,-84.741972,Fri - Sat:11:00am - 12:00am;Mon - Thur:11:00am - 11:00pm;Sun:11:00am - 10:00pm;,,Open
238 Pooler Parkway,8236,238 Pooler Parkway,,Pooler,GA,31322,US,912-988-5700,32.1411035,-81.2419518,Fri - Sat:11:00am - 11:00pm;Mon - Thur:11:00am - 10:00pm;Sun:11:00am - 10:00pm;,,Open
12030 Etris Road,8189,12030 Etris Road,,Roswell,GA,30075,US,678-502-7525,34.0734433,-84.3621026,Fri - Sat:11:00am - 11:00pm;Mon - Thur:11:00am - 10:00pm;Sun:11:00am - 10:00pm;,,Open
1401 Tift Avenue,8178,1401 Tift Avenue,,Tifton,GA,31794,US,229-382-4995,31.4662562,-83.5029092,Fri - Sat:11:00am - 12:00am;Mon - Thur:11:00am - 11:00pm;Sun:11:00am - 10:00pm;,,Open
"3210 Tucker-Norcross Road,",8230,"3210 Tucker-Norcross Road,",,Tucker,GA,30084,US,470-444-0060,33.8837597,-84.2208091,Fri - Sat:11:00am - 11:00pm;Mon - Thur:11:00am - 10:00pm;Sun:11:00am - 10:00pm;,,Open
4320 Kings Way,8081,4320 Kings Way,,Valdosta,GA,31602,US,229-245-9595,30.8989017,-83.328,Fri - Sat:11:00am - 12:00am;Mon - Thur:11:00am - 11:00pm;Sun:11:00am - 11:00pm;,,Open
2068 Eagle Drive,8210,2068 Eagle Drive,,Woodstock,GA,30189,US,678-213-2100,34.112713,-84.5632,Fri - Sat:11:00am - 11:00pm;Mon - Thur:11:00am - 10:00pm;Sun:11:00am - 10:00pm;,,Open
223 South Main Street,4011,223 South Main Street,,Bartlett,IL,60103,US,630-372-0400,41.9910061,-88.1845099,Fri - Sat:11:00am - 12:00am;Mon - Thur:11:00am - 10:00pm;Sun:11:00am - 10:00pm;,,Open
2010 183rd Street,3539,2010 183rd Street,,Homewood,IL,60430,US,708-647-1135,41.5575509,-87.665807,Fri - Sat:11:00am - 12:00am;Mon - Thur:11:00am - 11:00pm;Sun:11:00am - 11:00pm;,,Open
1990 S. Wolf Road,3501,1990 S. Wolf Road,,Wheeling,IL,60090,US,847-215-2233,42.09555,-87.90866,Fri - Sat:11:00am - 12:00am;Mon - Thur:11:00am - 10:00pm;Sun:11:00am - 10:00pm;,,Open
1301 16th Street,3557,1301 16th Street,,Bedford,IN,47421,US,812-275-4440,38.8610494,-86.4888255,Fri - Sat:11:00am - 12:00am;Mon - Thur:11:00am - 11:00pm;Sun:11:00am - 11:00pm;,,Open
2019 25th St.,1229,2019 25th St.,,Columbus,IN,47201,US,812-375-1500,39.222968,-85.9020461,Fri - Sat:10:00am - 1:00am;Mon - Thur:10:00am - 12:00am;Sun:10:00am - 12:00am;,,Open
1832 Cassopolis,1122,1832 Cassopolis,,Elkhart,IN,46514,US,574-206-8888,41.7086694,-85.9720706,Fri - Sat:11:00am - 12:00am;Mon - Thur:11:00am - 11:00pm;Sun:11:00pm - 11:00pm;,,Open
11689 Olio Rd,1171,11689 Olio Rd,,Fishers,IN,46037,US,317-578-7900,39.959266,-85.9186027,Fri - Sat:11:00am - 12:00am;Mon - Thur:11:00am - 10:00pm;Sun:11:00am - 10:00pm;,,Open
10349 Illinois Rd.,1121,10349 Illinois Rd.,,Fort Wayne,IN,46814,US,260-625-6800,41.0741827,-85.2773307,Fri - Sat:11:00am - 12:00am;Mon - Thur:11:00am - 10:30pm;Sun:12:00pm - 10:30pm;,,Open
2939 45th Street,3531,2939 45th Street,,Highland,IN,46322,US,219-922-1300,41.5375206,-87.456978,Fri - Sat:11:00am - 12:00am;Mon - Thur:11:00am - 11:00pm;Sun:11:00am - 11:00pm;,,Open
1321 Milburn Blvd,3509,1321 Milburn Blvd,,Mishawaka,IN,46544,US,574-255-2233,41.6553236,-86.197336,Fri - Sat:11:00am - 12:00am;Mon - Thur:11:00am - 11:00pm;Sun:11:00am - 11:00pm;,,Open
2011 Charlestown Road,3511,2011 Charlestown Road,,New Albany,IN,47150,US,812-941-1144,38.3046502,-85.8128548,Fri - Sat:11:00am - 12:00am;Mon - Thur:11:00am - 11:00pm;Sun:11:00am - 11:00pm;,,Open
52750 IN 933,1101,52750 IN 933,,South Bend,IN,46637,US,574-243-1122,41.7268336,-86.2505478,Fri - Sat:11:00am - 12:00am;Mon - Thur:11:00am - 11:00pm;Sun:12:00pm - 11:00pm;,,Open
415 Community Drive,3538,415 Community Drive,,North Liberty,IA,52317,US,319-665-2680,41.7509077,-91.6083062,Fri - Sat:11:00am - 12:00am;Mon - Thur:11:00am - 10:00pm;Sun:11:00am - 10:00pm;,,Open
6638 Nieman Road,3513,6638 Nieman Road,,Shawnee,KS,66203,US,913-268-3322,39.0085488,-94.7146923,Fri - Sat:11:00am - 12:00am;Mon - Thur:11:00am - 10:00pm;Sun:11:00am - 10:00pm;,,Open
414 Lone Oak Road,3532,414 Lone Oak Road,,Paducah,KY,42001,US,270-443-6600,37.0646676,-88.6371837,Fri - Sat:11:00am - 12:00am;Mon - Thur:11:00am - 11:00pm;Sun:11:00am - 11:00pm;,,Open
4638 Highway 22,5022,4638 Highway 22,,Mandeville,LA,70471,US,985-845-4141,30.4003,-90.10905,Fri - Sat:10:00am - 11:00pm;Mon - Thur:10:00am - 10:00pm;Sun:10:00am - 10:00pm;,,Open
5029 Veterans BLVD,5061,5029 Veterans BLVD,,Metairie,LA,70001,US,504-207-4992,30.0060397,-90.1954896,Fri - Sat:10:00am - 1:00am;Mon - Thur:10:00am - 12:00am;Sun:10:00am - 12:00am;,,Open
217 E. Grand River,1153,217 E. Grand River,,Howell,MI,48843,US,517-548-9900,42.6068288,-83.9287175,Fri - Sat:11:00am - 12:00am;Mon - Thur:11:00am - 11:00pm;Sun:12:00pm - 11:00pm;,,Open
100 N. Main Street,1049,100 N. Main Street,,Leslie,MI,49251,US,517-589-9000,42.451198,-84.43189,Fri - Sat:11:00am - 12:00am;Mon:3:00pm - 11:00pm;Tue - Thur:11:00am - 11:00pm;Sun:12:00pm - 11:00pm;,,Open
1222 East M-36,1118,1222 East M-36,,Pinckney,MI,48169,US,734-954-1111,42.4579191,-83.9318472,Fri - Sat:11:00am - 12:00am;Mon - Thur:11:00am - 11:00pm;Sun:12:00pm - 11:00pm;,,Open
17080 Fort St.,1181,17080 Fort St.,,Riverview,MI,48193,US,734-250-8605,42.1843376,-83.1897964,Fri - Sat:11:00am - 11:00pm;Mon - Thur:11:00am - 10:00pm;Sun:11:00am - 10:00pm;,,Open
32835 Fort St.,1099,32835 Fort St.,,Rockwood,MI,48173,US,734-379-8888,42.0688339,-83.2495392,Fri - Sat:11:00am - 12:00am;Mon - Thur:11:00am - 11:00pm;Sun:11:30am - 11:00pm;,,Open
7400 Lewis Ave.,1095,7400 Lewis Ave.,,Temperance,MI,48182,US,734-847-5555,41.750849,-83.566963,Fri - Sat:11:00am - 12:00am;Mon - Thur:11:00am - 11:00pm;Sun:1:00pm - 11:00pm;,,Open
148 Barker Rd.,1104,148 Barker Rd.,,Whitmore Lake,MI,48189,US,734-449-1111,42.422915,-83.76526,Fri - Sat:11:00am - 12:00am;Mon - Thur:11:00am - 11:00pm;Sun:12:00pm - 11:00pm;,,Open
2115 North Wixom Rd.,1154,2115 North Wixom Rd.,,Wixom,MI,48393,US,248-926-9090,42.5527577,-83.5378654,Sun:12:00pm - 10:00pm;Fri:10:00am - 11:00pm;Mon - Thur:10:00am - 10:00pm;Sat:11:00am - 11:00pm;,,Open
551 Belle Avenue,3537,551 Belle Avenue,,Mankato,MN,56002,US,507-388-8888,44.1653686,-93.9719048,Fri - Sat:11:00am - 12:00am;Mon - Thur:11:00am - 11:00pm;Sun:11:00am - 11:00pm;,,Open
7700 42nd Avenue,3528,7700 42nd Avenue,,New Hope,MN,55427,US,763-533-4866,45.0331789,-93.3782219,Fri - Sat:11:00am - 11:00pm;Mon - Thur:11:00am - 10:00pm;Sun:11:00am - 10:00pm;,,Open
6400 Gravois Avenue,3545,6400 Gravois Avenue,,St. Louis,MO,63116,US,314-352-1887,38.5732141,-90.2808086,Fri - Sat:11:00am - 12:00am;Mon - Thur:11:00am - 11:00pm;Sun:11:00am - 11:00pm;,,Open
709 South Galvin Road,3549,709 South Galvin Road,,Bellevue,NE,68005,US,402-292-2660,41.154108,-95.917893,Fri - Sat:11:00am - 11:00pm;Mon - Thur:11:00am - 10:00pm;Sun:11:00am - 10:00pm;,,Open
16722 Harrison St,3505,16722 Harrison St,,Omaha,NE,68136,US,402-895-1511,41.1906459,-96.1758938,Fri - Sat:11:00am - 11:00pm;Mon - Thur:11:00am - 10:00pm;Sun:11:00am - 10:00pm;,,Open
607 North Main,3540,607 North Main,,Jamestown,NY,14701,US,716-488-0022,42.0989913,-79.2420438,Fri - Sat:11:00am - 12:00am;Mon - Thur:11:00am - 11:00pm;Sun:11:00am - 11:00pm;,,Open
1015 Davis Drive,8073,1015 Davis Drive,,Apex,NC,27523,US,919-387-8820,35.7540666,-78.8473133,Fri - Sat:11:00am - 11:00pm;Mon - Thur:11:00am - 10:00pm;Sun:11:00am - 10:00pm;,,Open
615 South Main Street,3579,615 South Main Street,,Mount Holly,NC,28120,US,704-827-2003,35.2771088,-81.0268725,Fri - Sat:11:00am - 12:00am;Mon - Thur:11:00am - 11:00pm;Sun:11:00am - 11:00pm;,,Open
2305 S College Rd,8226,2305 S College Rd,,Wilmington,NC,28412,US,910-399-1878,34.200964,-77.887781,Fri - Sat:10:00am - 12:00am;Mon - Thur:10:00am - 11:00pm;Sun:11:00am - 10:00pm;,,Open
3901 S. Washington,4003,3901 S. Washington,,Grand Forks,ND,58201,US,701-772-4000,47.88232,-97.04449,Fri - Sat:11:00am - 11:00pm;Mon - Thur:11:00am - 10:00pm;Sun:11:00am - 10:00pm;,,Open
1923 S. Defiance,1045,1923 S. Defiance,,Archbold,OH,43502,US,419-445-1555,41.4967609,-84.3063179,Wed - Thur:11:30am - 11:00pm;Fri - Sat:11:30am - 1:00am;Mon - Tue:3:30pm - 11:00pm;Sun:11:30am - 10:30pm;,,Open
1228 S. Main,1059,1228 S. Main,,Bryan,OH,43506,US,419-636-7171,41.4611875,-84.5508764,Wed - Thur:11:30am - 11:00pm;Fri - Sat:11:30am - 1:00am;Mon - Tue:3:30pm - 11:00pm;Sun:11:30am - 10:30pm;,,Open
136 E. McPherson,1024,136 E. McPherson,,Clyde,OH,43410,US,419-547-0563,41.3097208,-82.974197,Fri - Sat:10:30am - 12:30am;Mon - Thur:10:30am - 10:30pm;Sun:10:30am - 10:30pm;,,Open
2400 S. Smithville Rd,1128,2400 S. Smithville Rd,,Dayton,OH,45420,US,937-258-9000,39.7316338,-84.1409596,Fri - Sat:11:00am - 12:00am;Mon - Thur:11:00am - 11:00pm;Sun:11:00am - 11:00pm;,,Open
649 S. Abbe Rd.,1044,649 S. Abbe Rd.,,Elyria,OH,44035,US,440-365-2212,41.3627592,-82.0779837,Fri - Sat:11:00am - 12:00am;Mon - Thur:11:00am - 11:30pm;Sun:12:00pm - 11:00pm;,,Open
360 S. Blanchard,1021,360 S. Blanchard,,Findlay,OH,45840,US,419-422-2992,41.0382492,-83.6412714,Wed - Thur:11:30am - 12:00am;Sun:12:00pm - 11:30pm;Fri:11:30am - 1:30am;Mon - Tue:3:30pm - 12:00am;Sat:11:30am - 1:00am;,,Open
803 State Street,3570,803 State Street,,Girard,OH,44420,US,330-545-6633,41.1621593,-80.703797,Fri - Sat:11:00am - 12:00am;Mon - Thur:11:00am - 11:00pm;Sun:11:00am - 11:00pm;,,Open
5860 Bigger Road,1130,5860 Bigger Road,,Kettering,OH,45440,US,937-438-1600,39.6595035,-84.1268484,Fri - Sat:11:00am - 12:00am;Mon - Thur:11:00am - 10:00pm;Sun:11:00am - 10:00pm;,,Open
2311 Colorado,1058,2311 Colorado,,Lorain,OH,44052,US,440-288-3000,41.465616,-82.146082,Fri - Sat:11:00am - 12:30am;Mon - Thur:11:00am - 11:30pm;Sun:11:00am - 11:00pm;,,Open
201 Golden Gate,1015,201 Golden Gate,,Maumee,OH,43537,US,419-893-5111,41.5659086,-83.6550652,Fri - Sat:11:00am - 12:00am;Mon - Thur:11:00am - 11:00pm;Sun:12:00pm - 11:00pm;,,Open
2741 W. Alex-Bell,1082,2741 W. Alex-Bell,,Moraine,OH,45439,US,937-298-4800,39.6727404,-84.2174765,Fri - Sat:11:00am - 1:00am;Mon - Thur:11:00am - 12:00am;Sun:12:00pm - 12:00am;,,Open
2607 Starr Ave.,1001,2607 Starr Ave.,,Oregon,OH,43616,US,419-693-9383,41.6439638,-83.4865853,Fri - Sat:11:00am - 12:00am;Mon - Thur:11:00am - 11:00pm;Sun:12:00pm - 11:00pm;,,Open
625 E. Perkins,1035,625 E. Perkins,,Sandusky,OH,44870,US,419-626-5177,41.4327079,-82.6898914,Sun:11:00am - 11:00am;Mon - Sat:11:00am - 12:00am;,,Open
1276 Wapakoneta,1075,1276 Wapakoneta,,Sidney,OH,45365,US,937-498-0333,40.3017281,-84.1587987,Fri - Sat:10:30am - 12:30am;Mon - Thur:10:30am - 10:30pm;Sun:10:30am - 10:30pm;,,Open
75 Melmore St.,1029,75 Melmore St.,,Tiffin,OH,44883,US,419-448-4900,41.1056423,-83.1717194,Fri - Sat:11:00am - 1:00am;Mon - Thur:11:00am - 12:00am;Sun:12:00pm - 12:00am;,,Open
2525 Laskey Rd.,1006,2525 Laskey Rd.,,Toledo,OH,43613,US,419-474-4554,41.706323,-83.605078,Fri - Sat:11:00am - 12:00am;Mon - Thur:11:00am - 11:00pm;Sun:12:00pm - 11:00pm;,,Open
1234 Sylvania Ave.,1007,1234 Sylvania Ave.,,Toledo,OH,43612,US,419-476-8881,41.6924852,-83.5708049,Fri - Sat:11:00am - 12:00am;Mon - Thur:11:00am - 11:00pm;Sun:12:00pm - 11:00pm;,,Open
309 W. Alexis Rd.,1018,309 W. Alexis Rd.,,Toledo,OH,43612,US,419-478-1990,41.7218054,-83.5537389,Fri - Sat:11:00am - 12:00am;Mon - Thur:11:00am - 11:00pm;Sun:12:00pm - 11:00pm;,,Open
4425 Liberty Ave.,1073,4425 Liberty Ave.,,Vermilion,OH,44089,US,440-967-7555,41.424958,-82.3426343,Fri - Sat:11:00am - 12:00am;Mon - Thur:11:00am - 11:00pm;Sun:11:00am - 11:00pm;,,Open
1316 Michigan,1022,1316 Michigan,,Waterville,OH,43566,US,419-878-8185,41.5033932,-83.7360793,Fri - Sat:11:00am - 12:00am;Mon - Thur:11:00am - 11:00pm;Sun:12:00pm - 11:00pm;,,Open
4381 Kirk Road,3533,4381 Kirk Road,,Youngstown,OH,44511,US,330-797-3377,41.0687532,-80.7317761,Fri - Sat:11:00am - 12:00am;Mon - Thur:11:00am - 11:00pm;Sun:11:00am - 11:00pm;,,Open
4650 W. Houston,5001,4650 W. Houston,,Broken Arrow,OK,74012,US,918-615-3500,36.046339,-95.8477514,Fri - Sat:11:00am - 11:00pm;Mon - Thur:11:00am - 10:00pm;Sun:11:00am - 10:00pm;,,Open
3210 S. Boulevard,5029,3210 S. Boulevard,,Edmond (East),OK,73013,US,405-657-1999,35.6235,-97.4774,Fri - Sat:11:00am - 11:00pm;Mon - Thur:11:00am - 10:00pm;Sun:11:00am - 10:00pm;,,Open
1919 S Eastern,5039,1919 S Eastern,,Moore,OK,73160,US,405-759-2525,35.3208934,-97.4767455,Fri - Sat:11:00am - 11:00pm;Mon - Thur:11:00am - 10:00pm;Sun:11:00am - 10:00pm;,,Open
1004 24th Avenue NW,5045,1004 24th Avenue NW,,Norman,OK,73069,US,405-310-4747,35.230827,-97.480878,Fri - Sat:11:00am - 11:00pm;Mon - Thur:11:00am - 10:00pm;Sun:11:00am - 10:00pm;,,Open
14499 E. 86 Street N.,3518,14499 E. 86 Street N.,,Owasso,OK,74055,US,918-272-9922,36.277735,-95.822216,Fri - Sat:11:00am - 11:00pm;Mon - Thur:11:00am - 10:00pm;Sun:11:00am - 10:00pm;,,Open
3801 Rosewood Dr,8098,3801 Rosewood Dr,,Columbia,SC,29205,US,803-255-0990,33.988136,-80.988453,Fri - Sat:10:00am - 12:00am;Mon - Thur:10:00am - 11:00pm;Sun:11:00am - 10:00pm;,,Open
2501 South Cashua Dr.  Suite O,8152,2501 South Cashua Dr.  Suite O,,Florence,SC,29501,US,843-407-1582,34.1710393,-79.8184374,Fri - Sat:10:00am - 12:00am;Mon - Thur:10:00am - 11:00pm;Sun:11:00am - 10:00pm;,,Open
851 Highway 378,8129,851 Highway 378,,Lexington,SC,29702,US,803-808-4048,33.9926,-81.3065,Fri - Sat:10:00am - 12:00am;Mon - Thur:10:00am - 10:00pm;Sun:11:00am - 10:00pm;,,Open
401 West Martintown Road,8192,401 West Martintown Road,,North Augusta,SC,29841,US,803-202-1700,33.5018026,-81.9651152,Fri - Sat:11:00am - 12:00am;Mon - Thur:11:00am - 10:00pm;Sun:11:00am - 10:00pm;,,Open
447 S Jefferson,8159,447 S Jefferson,,Cookeville,TN,38501,US,931-372-1200,36.1532605,-85.5006227,Fri - Sat:11:00am - 11:00pm;Mon - Thur:11:00am - 10:00pm;Sun:11:00am - 10:00pm;,,Open
4115 Mallory Lane,8079,4115 Mallory Lane,,Franklin,TN,37067,US,615-790-2244,35.92996,-86.824675,Fri - Sat:11:00am - 11:00pm;Mon - Thur:11:00am - 10:00pm;Sun:11:00am - 10:00pm;,,Open
10910 Spring Bluff Way,8187,10910 Spring Bluff Way,,Knoxville,TN,37932,US,865-247-7611,35.9425885,-84.1656929,Fri - Sat:11:00am - 11:00pm;Mon - Thur:11:00am - 10:00pm;Sun:11:00am - 10:00pm;,,Open
11011 Research Blvd.,5041,11011 Research Blvd.,,Austin,TX,78759,US,512-502-5600,30.40365,-97.74474,Fri - Sat:10:30am - 11:00pm;Mon - Thur:10:30am - 10:30pm;Sun:11:00am - 10:00pm;,,Open
6211 Oakmont,5026,6211 Oakmont,,Ft Worth,TX,76132,US,817-346-1333,32.6627856,-97.4031607,Fri - Sat:11:00am - 11:00pm;Mon - Thur:11:00am - 10:00pm;Sun:11:00am - 10:00pm;,,Open
1315 S. Dairy Ashford,5020,1315 S. Dairy Ashford,,Houston,TX,77077,US,281-496-4441,29.7562356,-95.6060537,Fri - Sat:11:00am - 12:00am;Mon - Thur:11:00am - 11:00pm;Sun:11:00am - 11:00pm;,,Open
12020 FM 1960 Road W.,5040,12020 FM 1960 Road W.,,Houston,TX,77065,US,281-970-9211,29.924738,-95.599656,Fri - Sat:11:00am - 11:00pm;Mon - Thur:11:00am - 10:00pm;Sun:11:00am - 10:00pm;,,Open
536 East Tidwell,5072,536 East Tidwell,,Houston,TX,77022,US,832-857-0888,29.8451976,-95.3912058,Fri - Sat:11:00am - 12:00am;Mon - Thur:11:00am - 11:00pm;Sun:11:00am - 11:00pm;,,Open
23730 Westheimer Parkway,5043,23730 Westheimer Parkway,,Katy,TX,77494,US,281-395-2900,29.736338,-95.77721,Fri - Sat:11:00am - 11:00pm;Mon - Thur:11:00am - 10:00pm;Sun:11:00am - 10:00pm;,,Open
7902 Broadway Street,5035,7902 Broadway Street,,Pearland,TX,77581,US,281-412-2200,29.558736,-95.341706,Fri - Sat:10:15am - 11:00pm;Mon - Thur:10:15am - 10:00pm;Sun:10:15am - 10:00pm;,,Open
5440 Babcock Rd,5027,5440 Babcock Rd,,San Antonio,TX,78240,US,210-561-2444,29.516031,-98.594129,Fri - Sat:11:00am - 12:00am;Mon - Thur:11:00am - 11:00pm;Sun:11:00am - 11:00pm;,,Open
1107 Ferris Avenue,3551,1107 Ferris Avenue,,Waxahachie,TX,75165,US,972-937-2771,32.3876499,-96.85006,Fri - Sat:11:00am - 12:00am;Mon - Thur:11:00am - 10:00pm;Sun:11:00am - 10:00pm;,,Open
110 5th Avenue,2007,110 5th Avenue,,Huntington,WV,25701,US,304-523-5757,38.4171753,-82.4570341,Fri - Sat:10:30am - 12:00am;Mon - Thur:10:30am - 10:00pm;Sun:10:30am - 10:00pm;,,Open
2931 75th Street,3504,2931 75th Street,,Kenosha,WI,53143,US,262-697-2233,42.56553,-87.84469,Fri - Sat:11:00am - 11:00pm;Mon - Thur:11:00am - 10:00pm;Sun:11:00am - 10:00pm;,,Open
1710 Washington Street,3575,1710 Washington Street,,Manitowoc,WI,54220,US,920-683-2233,44.0890748,-87.6708947,Fri - Sat:11:00am - 12:00am;Mon - Thur:11:00am - 11:00pm;Sun:11:00am - 11:00pm;,,Open
988 12th Avenue S.,3515,988 12th Avenue S.,,Onalaska,WI,54650,US,608-783-0338,43.8719802,-91.2191597,Fri - Sat:11:00am - 11:00pm;Mon - Thur:11:00am - 10:00pm;Sun:11:00am - 10:00pm;,,Open
2061 Lathrop Avenue,3520,2061 Lathrop Avenue,,Racine,WI,53405,US,262-634-8988,42.7045702,-87.8257725,Fri - Sat:11:00am - 12:00am;Mon - Thur:11:00am - 11:00pm;Sun:11:00am - 11:00pm;,,Open
5007 S. Louise Ave,4012,5007 S. Louise Ave,,Sioux Falls,SD,57108,US,605-275-4949,43.5000114,-96.7711247,Fri - Sat:10:30am - 12:00am;Mon - Thur:10:30am - 11:00pm;Sun:10:30am - 11:00pm;,,Open
4719 Reed Rd,1240,4719 Reed Rd,,Upper Arlington,OH,43220,US,614-326-1111,40.0534084,-83.0669452,Fri - Sat:10:30am - 12:30am;Mon - Thur:10:30am - 11:00pm;Sun:10:30am - 11:00pm;,,Open
3030 Virginia Beach Blvd,2020,3030 Virginia Beach Blvd,,Virginia Beach,VA,23452,US,757-321-0202,36.843667,-76.077971,Fri - Sat:11:00am - 12:00am;Mon - Thur:11:00am - 11:00pm;Sun:11:00am - 11:00pm;,,Open
2572 West 12600 South,6013,2572 West 12600 South,,Riverton,UT,84065,US,801-676-9090,40.5228612,-111.9546026,Fri - Sat:11:00am - 11:00pm;Mon - Thur:11:00am - 10:00pm;Sun:3:00pm - 10:00pm;,,Open
8701 Liberty Grove Rd,5070,8701 Liberty Grove Rd,,Rowlett,TX,75089,US,972-463-4141,32.9370205,-96.53566,Fri - Sat:11:00am - 11:00pm;Mon - Thur:11:00am - 10:00pm;Sun:11:00am - 10:00pm;,,Open
16427 W Little York Rd,5053,16427 W Little York Rd,,Houston,TX,77084,US,281-345-2100,29.8659303,-95.6575238,Fri - Sat:11:00am - 11:00pm;Mon - Thur:11:00am - 10:00pm;Sun:11:00am - 10:00pm;,,Open
2502 S University Dr,4014,2502 S University Dr,,Fargo,ND,58103,US,701-232-3499,46.8424832,-96.7985876,Fri - Sat:11:00am - 11:00pm;Mon - Thur:11:00am - 10:00pm;Sun:11:00am - 10:00pm;,,Open
6999 Old US Hwy 52,8224,6999 Old US Hwy 52,,Welcome,NC,27295,US,336-731-3300,35.9200503,-80.2506754,Fri - Sat:11:00am - 12:00am;Mon - Thur:11:00am - 11:00pm;Sun:11:00am - 11:00pm;,,Open
227 Sandy Springs Pl,8211,227 Sandy Springs Pl,,Sandy Springs,GA,30328,US,404-500-0191,33.920974,-84.381657,Fri - Sat:11:00am - 11:00pm;Mon - Thur:11:00am - 10:00pm;Sun:11:00am - 10:00pm;,,Open
1432 Highway 16 West,8242,1432 Highway 16 West,,Griffin,GA,30223,US,770-412-4240,33.2473884,-84.2850941,Fri - Sat:11:00am - 11:00pm;Mon - Thur:11:00am - 10:00pm;Sun:11:00am - 10:00pm;,,Open
2605 Pleasant Hill Road,8247,2605 Pleasant Hill Road,,Duluth,GA,30096,US,470-539-8585,33.9696776,-84.1472575,Fri - Sat:11:00am - 12:00am;Mon - Thur:11:00am - 11:00pm;Sun:11:00am - 11:00pm;,,Open
2166 Briar Cliff Rd,8194,2166 Briar Cliff Rd,,Atlanta,GA,30329,US,678-701-8966,33.816827,-84.335629,Fri - Sat:10:30am - 11:00pm;Mon - Thur:10:30am - 10:00pm;Sun:11:00am - 10:00pm;,,Open
1554 John Sims Parkway,8213,1554 John Sims Parkway,,Niceville,FL,32578,US,850-279-4800,30.5136006,-86.4551722,Fri - Sat:11:00am - 11:00pm;Mon - Thur:11:00am - 10:00pm;Sun:11:00am - 10:00pm;,,Open
1970 S McCall Rd,8158,1970 S McCall Rd,,Englewood,FL,34223,US,941-475-8800,26.937303,-82.333415,Fri - Sat:11:00am - 11:00pm;Mon - Thur:11:00am - 10:00pm;Sun:11:00am - 10:00pm;,,Open
3013 West Florida Ave,7018,3013 West Florida Ave,,Hemet,CA,92545,US,951-929-5300,33.746861,-117.003454,Fri - Sat:11:00am - 12:00am;Mon - Thur:11:00am - 11:00pm;Sun:11:00am - 11:00pm;,,Open
2950 S. John Redditt Dr,5075,2950 S. John Redditt Dr,,Lufkin,TX,75904,US,936-634-1111,31.3067384,-94.7303117,Mon - Thur:11:00am - 10:00pm;Fri - Sun:11:00am - 11:00pm;,,Open
4280 Hickory Flat Hwy,8212,4280 Hickory Flat Hwy,,Canton,GA,30115,US,678-487-8338,34.1932932,-84.4440838,Fri - Sat:11:00am - 11:00pm;Mon - Thur:11:00am - 10:00pm;Sun:11:00am - 10:00pm;,,Open
"1125 W. NC Highway 54, Suite 406",8240,"1125 W. NC Highway 54, Suite 406",,Durham,NC,27707,US,919-401-9101,35.9174972,-78.9583786,Fri - Sat:11:00am - 12:00am;Mon - Thur:11:00am - 10:00pm;Sun:11:00am - 10:00pm;,,Open
2071A S Hairston Rd,8251,2071A S Hairston Rd,,Decatur,GA,30035,US,678-418-0102,33.7298724,-84.1961855,Fri - Sat:11:00am - 11:00pm;Mon - Thur:11:00am - 10:00pm;Sun:11:00am - 10:00pm;,,Open
8021 Matlock Rd,3618,8021 Matlock Rd,,Arlington,TX,76002,US,817-468-3444,32.614976,-97.115951,Fri - Sat:11:00am - 12:00am;Mon - Thur:11:00am - 11:00pm;Sun:11:00am - 11:00pm;,,Open
225 N. Washington St,3617,225 N. Washington St,,Kimberly,WI,54136,US,920-687-8988,44.274504,-88.322997,Fri - Sat:11:00am - 11:00pm;Mon - Thur:11:00am - 10:00pm;Sun:11:00am - 10:00pm;,,Open
2925 18th St,3615,2925 18th St,,Bettendorf,IA,52722,US,563-332-9616,41.552017,-90.499833,Fri - Sat:11:00am - 12:00am;Mon - Thur:11:00am - 10:00pm;Sun:11:00am - 10:00pm;,,Open
453 S Ridge Rd,3628,453 S Ridge Rd,,Minooka,IL,60447,US,815-467-9330,41.4386761,-88.2707942,Fri - Sat:11:00am - 12:00am;Mon - Thur:11:00am - 10:00pm;Sun:11:00am - 10:00pm;,,Open
3106 Three Oaks Rd,3620,3106 Three Oaks Rd,,Cary,IL,60013,US,847-462-1770,42.2197026,-88.2580023,Fri - Sat:11:00am - 11:00pm;Mon - Thur:11:00am - 10:00pm;Sun:11:00am - 10:00pm;,,Open
7131 Peachtree Industrial Blvd,8279,7131 Peachtree Industrial Blvd,,Norcross,GA,30092,US,678-648-7879,33.9319537,-84.2644235,Fri - Sat:11:00am - 11:00pm;Mon - Thur:11:00am - 10:00pm;Sun:11:00am - 10:00pm;,,Open
105 Country Club Pkwy,5068,105 Country Club Pkwy,,Maumelle,AR,72113,US,501-851-2222,34.8407566,-92.403042,Fri - Sat:11:00am - 11:00pm;Mon - Thur:11:00am - 10:00pm;Sun:11:00am - 10:00pm;,,Open
290 Nicholas Parkway NW,8243,290 Nicholas Parkway NW,,Cape Coral,FL,33991,US,239-458-4000,26.648404,-81.9879969,Fri - Sat:11:00am - 12:00am;Mon - Thur:11:00am - 10:00pm;Sun:11:00am - 10:00pm;,,Open
2910 Heritage Place,8296,2910 Heritage Place,,Milledgeville,GA,31061,US,478-295-3570,33.118249,-83.260263,Fri - Sat:10:00am - 1:00am;Mon - Thur:10:00am - 12:00am;Sun:10:00am - 12:00am;,,Open
1842 Graham Road,5080,1842 Graham Road,,College Station,TX,77845,US,979-690-7770,30.579749,-96.283471,Fri - Sat:11:00am - 12:00am;Mon - Thur:11:00am - 11:00pm;Sun:11:00am - 10:00pm;,,Open
1761 Tiny Town Rd,1237,1761 Tiny Town Rd,,Clarksville,TN,37042,US,931-919-5110,36.6256868,-87.3194628,Fri - Sat:11:00am - 12:00am;Mon - Thur:11:00am - 11:00pm;Sun:12:00pm - 11:00pm;,,Open
3606 N Elm Street,8262,3606 N Elm Street,,Greensboro,NC,27455,US,336-285-6633,36.1331319,-79.797132,Fri - Sat:11:00am - 12:00am;Mon - Thur:11:00am - 10:00pm;Sun:11:00am - 11:00pm;,,Open
2555 Delk Road SE,8237,2555 Delk Road SE,,Marietta,GA,30067,US,678-862-0600,33.923141,-84.478026,Fri - Sat:11:00am - 12:00am;Mon - Thur:11:00am - 11:00pm;Sun:11:00am - 11:00pm;,,Open
1294 Thompson Bridge Road,8126,1294 Thompson Bridge Road,,Gainesville,GA,30501,US,678-866-1113,34.319356,-83.831371,Fri - Sat:11:00am - 11:00pm;Mon - Thur:11:00am - 10:00pm;Sun:11:00am - 10:00pm;,,Open
11156 County Line Road,8215,11156 County Line Road,,Madison,AL,35756,US,256-325-1054,34.7005578,-86.7865754,Fri - Sat:10:30am - 12:00am;Mon - Thur:10:30am - 11:00pm;Sun:10:30am - 11:00pm;,,Open
1601 Ebenezer Rd,8254,1601 Ebenezer Rd,,Knoxville,TN,37922,US,865-801-9800,35.876017,-84.065082,Fri - Sat:11:00am - 11:00pm;Mon - Thur:11:00am - 10:00pm;Sun:11:00am - 10:00pm;,,Open
7685 Farmington BLVD,8181,7685 Farmington BLVD,,Germantown,TN,38138,US,901-309-5150,35.095512,-89.807535,Fri - Sat:10:30am - 11:00pm;Mon - Thur:10:30am - 10:00pm;Sun:11:00am - 10:00pm;,,Open
1632 S. Friendswood Dr,5074,1632 S. Friendswood Dr,,Friendswood,TX,77546,US,281-992-2426,29.5080358,-95.1875463,Fri - Sat:11:00am - 12:00am;Mon - Thur:11:00am - 11:00pm;Sun:11:00am - 11:00pm;,,Open
798 North Highland Avenue  Suite B,8221,798 North Highland Avenue  Suite B,,Atlanta,GA,30306,US,404-998-8488,33.776278,-84.352863,Fri - Sat:11:00am - 11:00pm;Mon - Thur:11:00am - 10:00pm;Sun:11:00am - 10:00pm;,,Open
1694 Eatonton Rd,8225,1694 Eatonton Rd,,Madison,GA,30650,US,706-342-7646,33.5671462,-83.4780152,Fri - Sat:11:00am - 11:00pm;Mon - Thur:11:00am - 10:00pm;Sun:11:00am - 10:00pm;,,Open
2501 Tillotson Ave,3637,2501 Tillotson Ave,,Muncie,IN,47304,US,765-284-3909,40.2139186,-85.4205386,Fri - Sat:11:00am - 1:00am;Mon - Thur:11:00am - 12:00am;Sun:11:00am - 12:00am;,,Open
1091 Hwy 31 NW,8107,1091 Hwy 31 NW,,Hartselle,AL,35640,US,256-773-0500,34.441558,-86.979591,Fri - Sat:10:30am - 11:00pm;Mon - Thur:10:30am - 10:00pm;Sun:10:30am - 10:00pm;,,Open
227 N. McDonough Street,8246,227 N. McDonough Street,,Decatur,GA,30030,US,404-377-1070,33.771607,-84.296315,Fri - Sat:11:00am - 11:00pm;Mon - Thur:11:00am - 10:00pm;Sun:11:00am - 10:00pm;,,Open
4935 Centennial Blvd. Suite D,6020,4935 Centennial Blvd. Suite D,,Colorado Springs,CO,80919,US,719-598-0464,38.9038387,-104.8569741,Fri - Sat:11:00am - 11:00pm;Mon - Thur:11:00am - 10:00pm;Sun:11:00am - 10:00pm;,,Open
6816 Matthews-Mint Hill Road,8292,6816 Matthews-Mint Hill Road,,Mint Hill,NC,28227,US,980-500-9900,35.1723431,-80.6605629,Fri - Sat:10:00am - 12:00am;Mon - Thur:10:00am - 11:00pm;Sun:11:00am - 11:00pm;,,Open
631 Brawley School Rd #400,8249,631 Brawley School Rd #400,,Mooresville,NC,28117,US,704-235-4778,35.5817265,-80.8750505,Fri - Sat:10:00am - 12:00am;Mon - Thur:10:00am - 11:00pm;Sun:11:00am - 11:00pm;,,Open
5001 Brandt Pike,1218,5001 Brandt Pike,,Huber Heights,OH,45424,US,937-236-1400,39.82581,-84.122729,Fri - Sat:11:00am - 1:00am;Mon - Thur:11:00am - 12:00am;Sun:12:00pm - 12:00am;,,Open
1945 Rockbridge Road (HWY 78),8320,1945 Rockbridge Road (HWY 78),,Stone Mountain,GA,30087,US,678-888-5799,33.8230803,-84.1182875,Fri - Sat:11:00am - 12:00am;Mon - Thur:11:00am - 11:00pm;Sun:11:00am - 11:00pm;,,Open
4855 Floyd Rd SW  Suite 108,8314,4855 Floyd Rd SW  Suite 108,,Mableton,GA,30126,US,678-842-8109,33.8329983,-84.5762226,Fri - Sat:11:00am - 11:00pm;Mon - Thur:11:00am - 10:00pm;Sun:11:00am - 10:00pm;,,Open
3921 Bienville Blvd Suite A,8316,3921 Bienville Blvd Suite A,,Ocean Springs,MS,39566,US,228-872-4772,30.409982,-88.7588992,Fri - Sat:11:00am - 12:00am;Mon - Thur:11:00am - 11:00pm;Sun:11:00am - 9:00pm;,,Open
112 East Holly Blvd Suite C,4017,112 East Holly Blvd Suite C,,Brandon,SD,57005,US,605-582-7878,43.594668,-96.5916592,Fri - Sat:10:30am - 12:00am;Mon - Thur:10:30am - 11:00pm;Sun:10:30am - 11:00pm;,,Open
3075 Goodman Road East Suite 20,8322,3075 Goodman Road East Suite 20,,Southaven,MS,38672,US,662-349-3230,34.961007,-89.9360279,Fri - Sat:10:30am - 12:00am;Mon - Thur:10:30am - 11:00pm;Sun:10:30am - 11:00pm;,,Open
674 SW Wilshire Blvd. Suite 200,5071,674 SW Wilshire Blvd. Suite 200,,Burleson,TX,76028,US,817-420-9060,32.5358169,-97.3370257,Fri - Sat:11:00am - 11:00pm;Mon - Thur:11:00am - 10:00pm;Sun:11:00am - 10:00pm;,,Open
1130 Freeway Drive Suite D,8347,1130 Freeway Drive Suite D,,Reidsville,NC,27320,US,336-394-4714,36.325736,-79.684806,Fri - Sat:11:00am - 12:00am;Mon - Thur:11:00am - 11:00pm;Sun:11:00am - 11:00pm;,,Open
4250 Wade Green Rd,8232,4250 Wade Green Rd,,Kennesaw,GA,30144,US,678-626-6668,34.058385,-84.5927043,Fri - Sat:11:00am - 11:00pm;Mon - Thur:11:00am - 10:00pm;Sun:11:00am - 10:00pm;,,Open
84 Carothers Road,1263,84 Carothers Road,,Newport,KY,41071,US,859-261-7770,39.0852795,-84.4765179,Fri - Sat:11:00am - 12:00am;Mon - Thur:11:00am - 11:00pm;Sun:11:00am - 11:00pm;,,Open
24851 S. Tamiami Trail,8343,24851 S. Tamiami Trail,,Bonita Springs,FL,34134,US,239-992-6600,26.3789494,-81.8071453,Sun:11:00am - 10:00pm;Mon - Sat:11:00am - 10:30pm;,,Open
1490 Valley Ridge Blvd,5093,1490 Valley Ridge Blvd,,Lewisville (Highland Village),TX,75077,US,972-353-4400,33.0629647,-97.0346292,Fri - Sat:11:00am - 11:00pm;Mon - Thur:11:00am - 10:00pm;Sun:11:00am - 10:00pm;,,Open
800 Windsor Street,3582,800 Windsor Street,,Sun Prairie,WI,53590,US,608-834-1414,43.1874783,-89.2261674,Fri - Sat:11:00am - 12:00am;Mon - Thur:11:00am - 10:00pm;Sun:11:00am - 10:00pm;,,Open
506 East River Road,3577,506 East River Road,,Anoka,MN,55303,US,763-422-5099,45.1906185,-93.3837169,Fri - Sat:11:00am - 12:00am;Mon - Thur:11:00am - 10:00pm;Sun:11:00am - 10:00pm;,,Open
27701 Scott Rd,7017,27701 Scott Rd,,Menifee,CA,92584,US,951-566-5500,33.6414782,-117.1740454,Fri - Sat:11:00am - 12:00am;Mon - Thur:11:00am - 11:00pm;Sun:11:00am - 11:00pm;,,Open
1560 IL Rte. 59,3587,1560 IL Rte. 59,,Joliet,IL,60431,US,815-254-1212,41.5119669,-88.1827931,Fri - Sat:11:00am - 12:00am;Mon - Thur:11:00am - 10:00pm;Sun:11:00am - 10:00pm;,,Open
1838 Central Plaza Drive,3560,1838 Central Plaza Drive,,Belleville,IL,62221,US,618-235-5522,38.537184,-89.959727,Fri - Sat:11:00am - 12:00am;Mon - Thur:11:00am - 11:00pm;Sun:11:00am - 11:00pm;,,Open
108 ST. LOUIS RD.,3594,108 ST. LOUIS RD.,,Collinsville,IL,62234,US,618-344-9445,38.66645,-89.9951705,Fri - Sat:11:00am - 12:00am;Mon - Thur:11:00am - 10:00pm;Sun:11:00am - 10:00pm;,,Open
3120 Glenview Road,3589,3120 Glenview Road,,Glenview,IL,60025,US,847-657-8877,42.0734848,-87.8374443,Fri - Sat:11:00am - 11:00pm;Mon - Thur:11:00am - 10:00pm;Sun:11:00am - 10:00pm;,,Open
709 W. Main Street,3606,709 W. Main Street,,Marion,IL,62959,US,618-993-0200,37.7306426,-88.9320165,Fri - Sat:11:00am - 12:00am;Mon - Thur:11:00am - 11:00pm;Sun:11:00am - 11:00pm;,,Open
14220 S. RTE. 30,3584,14220 S. RTE. 30,,Plainfield,IL,60544,US,815-254-5700,41.6255802,-88.2238197,Fri - Sat:11:00am - 11:00pm;Mon - Thur:11:00am - 10:00pm;Sun:11:00am - 10:00pm;,,Open
4733 Bluestem Road,3586,4733 Bluestem Road,,Roscoe,IL,61073,US,815-623-2444,42.434004,-89.025092,Fri - Sat:11:00am - 11:00pm;Mon - Thur:11:00am - 10:00pm;Sun:11:00am - 10:00pm;,,Open
3100 First Avenue,3591,3100 First Avenue,,Evansville,IN,47710,US,812-425-3333,38.0069354,-87.5743378,Fri - Sat:11:00am - 12:00am;Mon - Thur:11:00am - 11:00pm;Sun:11:00am - 11:00pm;,,Open
115 N Broadway Street,3595,115 N Broadway Street,,Seymour,IN,47274,US,812-522-5588,38.958064,-85.885158,Fri - Sat:11:00am - 12:00am;Mon - Thur:11:00am - 10:00pm;Sun:11:00am - 10:00pm;,,Open
211 W. 6th Street,3578,211 W. 6th Street,,Junction City,KS,66441,US,785-210-1010,39.0282344,-96.8317838,Fri - Sat:11:00am - 12:00am;Mon - Thur:11:00am - 11:00pm;Sun:11:00am - 11:00pm;,,Open
5310 N. Hamilton Road,3544,5310 N. Hamilton Road,,Columbus,OH,43230,US,614-855-2133,40.0650381,-82.8629871,Fri - Sat:11:00am - 12:00am;Mon - Thur:11:00am - 10:00pm;Sun:11:00am - 10:00pm;,,Open
201 Fresh Drive,8197,201 Fresh Drive,,Myrtle Beach,SC,29579,US,843-796-9830,33.758257,-78.856672,Fri - Sat:10:00am - 12:00am;Mon - Thur:10:00am - 11:00pm;Sun:11:00am - 10:00pm;,,Open
3625 Jackson Blvd,3019,3625 Jackson Blvd,,Rapid City,SD,57702,US,605-791-4949,44.0631956,-103.2796574,Mon - Thur:10:30am - 11:00pm;Fri - Sun:10:30am - 12:00am;,,Open
7121 Maynardville Pike,8223,7121 Maynardville Pike,,Knoxville,TN,37918,US,865-377-4403,36.079803,-83.928152,Fri - Sat:11:00am - 11:00pm;Mon - Thur:11:00am - 10:00pm;Sun:11:00am - 10:00pm;,,Open
1545 East Main Street,3576,1545 East Main Street,,Allen,TX,75002,US,214-383-6755,33.100989,-96.6294421,Fri - Sat:11:00am - 11:00pm;Mon - Thur:11:00am - 10:00pm;Sun:11:00am - 10:00pm;,,Open
2741 Virginia Parkway,5056,2741 Virginia Parkway,,McKinney,TX,75071,US,214-592-0772,33.198415,-96.651577,Fri - Sat:11:00am - 11:00pm;Mon - Thur:11:00am - 10:00pm;Sun:11:00am - 10:00pm;,,Open
2271 True Lane,3534,2271 True Lane,,Ashwaubenon,WI,54304,US,920-497-1990,44.4928553,-88.0733915,Fri - Sat:11:00am - 12:00am;Mon - Thur:11:00am - 10:00pm;Sun:11:00am - 10:00pm;,,Open
1950 Center Avenue,3580,1950 Center Avenue,,Janesville,WI,53546,US,608-754-2447,42.6506338,-89.0312276,Fri - Sat:11:00am - 12:00am;Mon - Thur:11:00am - 11:00pm;Sun:11:00am - 11:00pm;,,Open
813 E. Main St.,3574,813 E. Main St.,,Watertown,WI,53094,US,920-206-2666,43.193011,-88.716505,Mon - Sun:11:00am - 11:00pm;,,Open
443 Silver Bluff Road,8291,443 Silver Bluff Road,,Aiken,SC,29803,US,803-306-7600,33.519482,-81.726481,Fri - Sat:11:00am - 12:00am;Mon - Thur:11:00am - 10:00pm;Sun:11:00am - 10:00pm;,,Open
105 Whittlesey Ave.,1054,105 Whittlesey Ave.,,Norwalk,OH,44857,US,419-663-5555,41.2466817,-82.6187978,Fri - Sat:11:00am - 1:00am;Mon - Thur:11:00am - 12:00am;Sun:11:00am - 11:00pm;,,Open
832 Virginia Avenue,8306,832 Virginia Avenue,,Hapeville,GA,30354,US,678-974-5594,33.6590739,-84.4161258,Fri - Sat:10:30am - 11:00pm;Mon - Thur:10:30am - 10:00pm;Sun:11:00am - 10:00pm;,,Open
5414 W Daybreak Parkway Suite C1,6019,5414 W Daybreak Parkway Suite C1,,South Jordan,UT,84009,US,801-282-3400,40.537753,-112.020401,Fri - Sat:10:00am - 1:00am;Mon - Thur:10:00am - 12:00am;Sun:10:00am - 8:00pm;,,Open
14318 Ventura Blvd.,7019,14318 Ventura Blvd.,,Sherman Oaks,CA,91423,US,818-788-1001,34.1500427,-118.4449704,Fri - Sat:11:00am - 12:00am;Mon - Thur:11:00am - 11:00pm;Sun:11:00am - 11:00pm;,,Open
1766 S Lake Drive Suite C,8319,1766 S Lake Drive Suite C,,Lexington,SC,29073,US,803-520-8932,33.9138225,-81.2274677,Fri - Sat:11:00am - 12:00am;Mon - Thur:11:00am - 11:00pm;Sun:11:00am - 11:00pm;,,Open
133 Grand Hill Place,8285,133 Grand Hill Place,,Holly Springs,NC,27540,US,919-346-1227,35.6613961,-78.8492485,Fri - Sat:11:00am - 11:00pm;Mon - Thur:11:00am - 10:00pm;Sun:11:00am - 10:00pm;,,Open
870 Gold Hill Road,8304,870 Gold Hill Road,,Fort Mill,SC,29708,US,803-548-1616,35.0612345,-80.961523,Fri - Sat:10:00am - 12:00am;Mon - Thur:10:00am - 11:00pm;Sun:11:00am - 11:00pm;,,Open
3399 Black Forest Drive Suite 1,5116,3399 Black Forest Drive Suite 1,,Fayetteville,AR,72701,US,479-521-5553,36.076978,-94.209127,Fri - Sat:11:00am - 12:00am;Mon - Thur:11:00am - 11:00pm;Sun:11:00am - 11:00pm;,,Open
16311 East 23rd St S,3626,16311 East 23rd St S,,Independence,MO,64055,US,816-254-4310,39.077624,-94.383654,Fri - Sat:11:00am - 12:00am;Mon - Thur:11:00am - 11:00pm;Sun:11:00am - 11:00pm;,,Open
5510 South 900 East,6015,5510 South 900 East,,Murray,UT,84117,US,801-264-1111,40.651813,-111.8659409,Fri - Sat:10:00am - 1:00am;Mon - Thur:10:00am - 12:00am;Sun:10:00am - 8:00pm;,,Open
8520 S 1300 E,6018,8520 S 1300 E,,Sandy,UT,84094,US,801-568-6666,40.5964255,-111.8534753,Fri - Sat:10:00am - 1:00am;Mon - Thur:10:00am - 12:00am;Sun:10:00am - 8:00pm;,,Open
6300 Mechanicsville Turnpike Ste. B,2055,6300 Mechanicsville Turnpike Ste. B,,Mechanicsville,VA,23111,US,804-244-5144,37.6176566,-77.3207594,Fri - Sat:11:00am - 12:00am;Mon - Thur:11:00am - 11:00pm;Sun:11:00am - 11:00pm;,,Open
5730 Stage Road,8307,5730 Stage Road,,Bartlett,TN,38134,US,901-266-4676,35.2047643,-89.8723272,Fri - Sat:10:30am - 12:00am;Mon - Thur:10:30am - 11:00pm;Sun:11:00am - 11:00pm;,,Open
3400 S. Hualapai Way,7407,3400 S. Hualapai Way,,Las Vegas,NV,89117,US,702-291-3511,36.1297635,-115.3150736,Fri - Sat:10:00am - 12:00am;Mon - Thur:10:00am - 11:00pm;Sun:10:00am - 11:00pm;,,Open
2335 East First Street,8315,2335 East First Street,,Vidalia,GA,30474,US,912-403-3344,32.2078219,-82.3808553,Fri - Sat:10:00am - 12:00am;Mon - Thur:10:00am - 11:00pm;Sun:10:00am - 11:00pm;,,Open
6712 East Fowler Ave,8076,6712 East Fowler Ave,,Temple Terrace,FL,33617,US,813-559-1717,28.0545033,-82.3784127,Fri - Sat:11:00am - 12:00am;Mon - Thur:11:00am - 10:00pm;Sun:11:00am - 10:00pm;,,Open
3049 Panola Rd,8184,3049 Panola Rd,,Lithonia,GA,30038,US,770-687-2684,33.6981008,-84.1730652,Fri - Sat:11:00am - 11:00pm;Mon - Thur:11:00am - 10:00pm;Sun:11:00am - 10:00pm;,,Open
33321 Temecula Parkway,7015,33321 Temecula Parkway,,Temecula,CA,92592,US,951-302-3649,33.4861231,-117.0774128,Mon - Sun:11:00am - 10:00pm;,,Open
3550 Teays Valley Road,2012,3550 Teays Valley Road,,Hurricane,WV,25526,US,304-562-7267,38.44255,-81.983011,Fri - Sat:10:30am - 12:00am;Mon - Thur:10:30am - 10:00pm;Sun:10:30am - 10:00pm;,,Open
4860 Fairmont Parkway,5036,4860 Fairmont Parkway,,Pasadena,TX,77505,US,281-991-8800,29.6492776,-95.1698464,Fri - Sat:11:00am - 12:00am;Mon - Thur:11:00am - 11:00pm;Sun:11:00am - 11:00pm;,,Open
5723 Hixson Pike,8231,5723 Hixson Pike,,Hixson,TN,37343,US,423-362-8300,35.152031,-85.218088,Fri - Sat:11:00am - 12:00am;Mon - Thur:11:00am - 11:00pm;Sun:11:00am - 10:00pm;,,Open
3759 West 12th Street,3597,3759 West 12th Street,,Millcreek Township,PA,16505,US,814-836-2922,42.0922756,-80.1658762,Fri - Sat:11:00am - 12:00am;Mon - Thur:11:00am - 10:00pm;Sun:11:00am - 10:00pm;,,Open
340 Depot Street,3598,340 Depot Street,,Latrobe,PA,15650,US,724-539-5554,40.3177862,-79.3840576,Fri - Sat:11:00am - 12:00am;Mon - Thur:11:00am - 11:00pm;Sun:11:00am - 11:00pm;,,Open
1509 E. 38th Street,3602,1509 E. 38th Street,,Erie,PA,16510,US,814-824-4445,42.1141359,-80.0344073,Fri - Sat:11:00am - 12:00am;Mon - Thur:11:00am - 11:00pm;Sun:11:00am - 11:00pm;,,Open
10324-A China Spring Hwy,5095,10324-A China Spring Hwy,,Waco,TX,76708,US,254-836-4800,31.6296574,-97.2455132,Fri - Sat:10:30am - 12:00am;Mon - Thur:10:30am - 11:00pm;Sun:10:30am - 11:00pm;,,Open
8201 MEXICO RD,3590,8201 MEXICO RD,,O'Fallon,MO,63376,US,636-272-5833,38.7882768,-90.6769535,Fri - Sat:11:00am - 12:00am;Mon - Thur:11:00am - 10:00pm;Sun:11:00am - 10:00pm;,,Open
175 N Morton Street,3604,175 N Morton Street,,Franklin,IN,46131,US,317-346-6233,39.4819559,-86.06332,Fri - Sat:11:00am - 12:00am;Mon - Thur:11:00am - 11:00pm;Sun:11:00am - 11:00pm;,,Open
475 Dacula Rd,8142,475 Dacula Rd,,Dacula,GA,30019,US,678-377-7800,33.9986058,-83.9051379,Fri - Sat:11:00am - 11:00pm;Mon - Thur:11:00am - 10:00pm;Sun:11:00am - 10:00pm;,,Open
2360 Bethelview Rd,8216,2360 Bethelview Rd,,Cumming,GA,30040,US,678-718-6444,34.2377139,-84.195356,Fri - Sat:11:00am - 11:00pm;Mon - Thur:11:00am - 10:00pm;Sun:11:00am - 10:00pm;,,Open
11403 Barker Cypress Rd (HWY 290),5106,11403 Barker Cypress Rd (HWY 290),,Cypress,TX,77433,US,832-653-3113,29.940172,-95.6797423,Fri - Sat:11:00am - 11:00pm;Mon - Thur:11:00am - 10:00pm;Sun:11:00am - 10:00pm;,,Open
19 Poinciana Blvd,8217,19 Poinciana Blvd,,Miramar Beach,FL,32550,US,850-460-2999,30.3773174,-86.353505,Mon - Sun:10:00am - 10:00pm;,,Open
655 Exchange Circle,8239,655 Exchange Circle,,Bethlehem,GA,30620,US,678-425-1259,33.9471782,-83.7531044,Fri - Sat:11:00am - 11:00pm;Mon - Thur:11:00am - 10:00pm;Sun:11:00am - 10:00pm;,,Open
1871 W. Grand River Rd,1235,1871 W. Grand River Rd,,Okemos,MI,48864,US,517-574-5254,42.718958,-84.417104,Fri - Sat:10:00am - 1:00am;Mon - Thur:10:00am - 11:00pm;Sun:11:00am - 11:00pm;,,Open
1855 E Main St,8145,1855 E Main St,,Spartanburg,SC,29307,US,864-707-2080,34.968522,-81.889567,Fri - Sat:11:00am - 12:30am;Mon - Thur:11:00am - 11:30pm;Sun:11:00am - 11:00pm;,,Open
9906 Chapel Hill Rd,8400,9906 Chapel Hill Rd,,Morrisville,NC,27560,US,919-380-0044,35.814136,-78.819998,Fri - Sat:11:00am - 12:00am;Mon - Thur:11:00am - 10:00pm;Sun:11:00am - 10:00pm;,,Open
5350 West Bell Road Suite 136,7031,5350 West Bell Road Suite 136,,Glendale,AZ,85308,US,602-375-3000,33.639548,-112.1742608,Fri - Sat:10:30am - 12:00am;Mon - Thur:10:30am - 11:00pm;Sun:10:30am - 11:00pm;,,Open
1533 N BELL ST,3610,1533 N BELL ST,,Fremont,NE,68025,US,402-721-9397,41.4435266,-96.4834995,Fri - Sat:11:00am - 11:00pm;Mon - Thur:11:00am - 10:00pm;Sun:11:00am - 10:00pm;,,Open
3989 Colonel Glen Hwy,1211,3989 Colonel Glen Hwy,,Beavercreek,OH,45324,US,937-956-0001,39.774192,-84.079458,Fri - Sat:11:00am - 12:00am;Mon - Thur:11:00am - 11:00pm;Sun:11:00am - 11:00pm;,,Open
2917 S. Sixth St,3563,2917 S. Sixth St,,Springfield,IL,62703,US,217-522-0202,39.7633033,-89.6483936,Fri - Sat:11:00am - 12:00am;Mon - Thur:11:00am - 10:00pm;Sun:11:00am - 10:00pm;,,Open
7203 Atascocita Road,5079,7203 Atascocita Road,,Humble,TX,77346,US,281-852-0200,29.9972687,-95.1680501,Fri - Sat:11:00am - 11:00pm;Mon - Thur:11:00am - 10:00pm;Sun:11:00am - 10:00pm;,,Open
17 S American Way,1214,17 S American Way,,Monroe,OH,45050,US,513-539-1400,39.4408915,-84.3446721,Fri - Sat:11:00am - 11:00pm;Mon - Thur:11:00am - 10:00pm;Sun:11:00am - 10:00pm;,,Open
48700 Gratiot,1238,48700 Gratiot,,Chesterfield,MI,48051,US,586-949-4956,42.657628,-82.845536,Fri - Sat:11:00am - 12:00am;Mon - Thur:11:00am - 11:00pm;Sun:11:00am - 11:00pm;,,Open
1140 E. State Street,3547,1140 E. State Street,,Sharon,PA,16146,US,724-981-2826,41.2330555,-80.4880697,Fri - Sat:11:00am - 12:00am;Mon - Thur:11:00am - 11:00pm;Sun:11:00am - 11:00pm;,,Open
2332 Atlanta Highway,8218,2332 Atlanta Highway,,Cumming,GA,30040,US,678-679-3050,34.1605953,-84.1747,Mon - Thur:11:00am - 10:00pm;Fri - Sun:11:00am - 11:00pm;,,Open
2485 Fort Campbell Blvd.,8318,2485 Fort Campbell Blvd.,,Clarksville,TN,37042,US,931-919-4955,36.6139126,-87.4295865,Fri - Sat:11:00am - 12:00am;Mon - Thur:11:00am - 11:00pm;Sun:11:00am - 11:00pm;,,Open
408 Coshocton Avenue,3643,408 Coshocton Avenue,,Mt. Vernon,OH,43050,US,740-392-9098,40.3958126,-82.4720614,Fri - Sat:11:00am - 12:00am;Mon - Thur:11:00am - 11:00pm;Sun:11:00am - 11:00pm;,,Open
4909 Highway 90,8323,4909 Highway 90,,Pace,FL,32571,US,850-783-0001,30.6033083,-87.1191367,Fri - Sat:11:00am - 12:00am;Mon - Thur:11:00am - 11:00pm;Sun:11:00am - 9:00pm;,,Open
11631 Duenda Road,7016,11631 Duenda Road,,San Diego,CA,92127,US,858-705-6432,33.0331074,-117.0790313,Fri - Sat:11:00am - 11:00pm;Mon - Thur:11:00am - 10:00pm;Sun:11:00am - 10:00pm;,,Open
3440 Ella Blvd.,5034,3440 Ella Blvd.,,Houston,TX,77018,US,281-888-5495,29.8186623,-95.429383,Fri - Sat:11:00am - 12:00am;Mon - Thur:11:00am - 11:00pm;Sun:11:00am - 11:00pm;,,Open
2231 N Mt. Juliet,8340,2231 N Mt. Juliet,,Mt. Juliet,TN,37122,US,615-754-3200,36.2007291,-86.5187338,Fri - Sat:11:00am - 11:00pm;Mon - Thur:11:00am - 10:00pm;Sun:11:00am - 10:00pm;,,Open
5055 B Cottage Hill Road,8311,5055 B Cottage Hill Road,,Mobile,AL,36609,US,251-308-4888,30.6483825,-88.1613624,Fri - Sat:11:00am - 11:00pm;Mon - Thur:11:00am - 10:00pm;Sun:12:00pm - 10:00pm;,,Open
5801 S.Sooner Road,5097,5801 S.Sooner Road,,Oklahoma City,OK,73135,US,405-602-0333,35.4078083,-97.423609,Fri - Sat:11:00am - 11:00pm;Mon - Thur:11:00am - 10:00pm;Sun:11:00am - 10:00pm;,,Open
8220 Wiles Road,8193,8220 Wiles Road,,Coral Springs,FL,33067,US,754-702-2750,26.2866717,-80.2351831,Fri - Sat:11:00am - 12:00am;Mon - Thur:11:00am - 11:00pm;Sun:11:00am - 11:00pm;,,Open
320 S Cable Road,1248,320 S Cable Road,,Lima,OH,45805,US,419-222-3300,40.736269,-84.14722,Fri - Sat:11:00am - 11:00pm;Mon - Thur:11:00am - 10:00pm;Sun:11:00am - 10:00pm;,,Open
13911 Midlothian Turnpike,2014,13911 Midlothian Turnpike,,Midlothian,VA,23113,US,804-378-7878,37.5056541,-77.6606106,Fri - Sat:10:00am - 12:00am;Mon - Thur:10:00am - 11:00pm;Sun:11:00am - 11:00pm;,,Open
5150 Commercial Way,8234,5150 Commercial Way,,Spring Hill,FL,34606,US,352-515-0412,28.5052879,-82.5859661,Fri - Sat:11:00am - 12:00am;Mon - Thur:11:00am - 10:00pm;Sun:11:00am - 10:00pm;,,Open
1585 Central Ave  Unit C-8,8309,1585 Central Ave  Unit C-8,,Summerville,SC,29483,US,843-970-2898,33.0116841,-80.2350195,Fri - Sat:11:00am - 12:00am;Mon - Thur:11:00am - 11:00pm;Sun:11:00am - 11:00pm;,,Open
525 South 3rd. Street,1249,525 South 3rd. Street,,Ironton,OH,45638,US,740-302-8888,38.5318175,-82.6828222,Fri - Sat:10:30am - 12:00am;Mon - Thur:10:30am - 11:00pm;Sun:10:30am - 11:00pm;,,Open
111 South Harbour Drive,1247,111 South Harbour Drive,,Noblesville,IN,46062,US,317-773-8115,40.0610903,-86.0497763,Fri - Sat:11:00am - 12:00am;Mon - Thur:11:00am - 11:00pm;Sun:11:00am - 11:00pm;,,Open
9600 Conners Road,8321,9600 Conners Road,,Villa Rica,GA,30180,US,770-456-4752,33.732312,-84.898907,Fri - Sat:11:00am - 12:00am;Mon - Thur:11:00am - 11:00pm;Sun:11:00am - 11:00pm;,,Open
479 Bypass 72 NW,8245,479 Bypass 72 NW,,Greenwood,SC,29649,US,864-889-8669,34.2075677,-82.1870398,Fri - Sat:10:00am - 12:00am;Mon - Thur:10:00am - 11:00pm;Sun:11:00am - 10:00pm;,,Open
1940 W. League City Pkwy. Suite 150,5104,1940 W. League City Pkwy. Suite 150,,League City,TX,77573,US,281-724-1119,29.4865257,-95.115399,Fri - Sat:11:00am - 12:00am;Mon - Thur:11:00am - 11:00pm;Sun:11:00am - 11:00pm;,,Open
300 Main St.,8370,300 Main St.,,Trussville,AL,35173,US,205-661-5555,33.6190928,-86.6110652,Fri - Sat:11:00am - 11:00pm;Mon - Thur:11:00am - 10:00pm;Sun:3:00pm - 10:00pm;,,Open
9708 Business Pkwy,5083,9708 Business Pkwy,,Helotes,TX,78023,US,210-695-6008,29.5578932,-98.6782984,Fri - Sat:11:00am - 12:00am;Mon - Thur:11:00am - 11:00pm;Sun:11:00am - 11:00pm;,,Open
805 S Glynn St,8255,805 S Glynn St,,Fayetteville,GA,30214,US,770-719-8989,33.4328989,-84.4587801,Fri - Sat:11:00am - 12:00am;Mon - Thur:11:00am - 11:00pm;Sun:11:00am - 11:00pm;,,Open
6394 Zebulon Road,8294,6394 Zebulon Road,,Macon,GA,31220,US,478-621-7582,32.879516,-83.772631,Fri - Sat:11:00am - 12:00am;Mon - Thur:11:00am - 11:00pm;Sun:11:00am - 11:00pm;,,Open
1116 Highway 2,4019,1116 Highway 2,,Devils Lake,ND,58301,US,701-662-5200,48.0999848,-98.8503641,Fri - Sat:11:00am - 12:00am;Mon - Thur:11:00am - 11:00pm;Sun:11:00am - 11:00pm;,,Open
4969 Highway 17,8324,4969 Highway 17,,Helena,AL,35080,US,205-358-9900,33.2764089,-86.8525342,Fri - Sat:11:00am - 11:00pm;Mon - Thur:11:00am - 10:00pm;Sun:3:00pm - 10:00pm;,,Open
1403 E. Hartford Ave,5078,1403 E. Hartford Ave,,Ponca City,OK,74601,US,580-749-9098,36.7240967,-97.0670893,Fri - Sat:11:00am - 11:00pm;Mon - Thur:11:00am - 10:00pm;Sun:11:00am - 10:00pm;,,Open
4300 Chapel Hill Road,8345,4300 Chapel Hill Road,,Douglasville,GA,30135,US,770-577-6999,33.6884166,-84.7148314,Fri - Sat:11:00am - 12:00am;Mon - Thur:11:00am - 11:00pm;Sun:11:00am - 11:00pm;,,Open
24557 John T. Reid Pkwy,8305,24557 John T. Reid Pkwy,,Scottsboro,AL,35768,US,256-999-0300,34.667379,-86.0111443,Fri - Sat:11:00am - 11:00pm;Mon - Thur:11:00am - 10:00pm;Sun:11:00am - 10:00pm;,,Open
1102 Broad ST,8227,1102 Broad ST,,Sumter,SC,29150,US,803-607-9330,33.951895,-80.377904,Fri - Sat:10:00am - 12:00am;Mon - Thur:10:00am - 11:00pm;Sun:10:00am - 11:00pm;,,Open
14751 SR 52,8206,14751 SR 52,,Hudson,FL,34669,US,727-378-8500,28.330793,-82.571496,Fri - Sat:11:00am - 12:00am;Mon - Thur:11:00am - 10:00pm;Sun:11:00am - 10:00pm;,,Open
581 University Blvd. Suite 200,5009,581 University Blvd. Suite 200,,Round Rock,TX,78665,US,512-599-5799,30.5619342,-97.6774683,Fri - Sat:10:30am - 11:00pm;Mon - Thur:10:30am - 10:00pm;Sun:11:00am - 10:00pm;,,Open
3939 N Fry Road,5076,3939 N Fry Road,,Katy,TX,77449,US,281-492-9911,29.8300856,-95.7200518,Fri - Sat:11:00am - 12:00am;Mon - Thur:11:00am - 11:00pm;Sun:11:00am - 11:00pm;,,Open
6224 North Ninth Avenue Suite 3,8125,6224 North Ninth Avenue Suite 3,,Pensacola,FL,32504,US,850-435-4400,30.4875566,-87.1972559,Fri - Sat:11:00am - 12:00am;Mon - Thur:11:00am - 11:00pm;Sun:11:00am - 11:00pm;,,Open
2020 Fieldstone Parkway Suite 600 (Publix Shopping Center),8443,2020 Fieldstone Parkway Suite 600 (Publix Shopping Center),,Franklin,TN,37069,US,615-790-8080,35.9645727,-86.8832193,Fri - Sat:11:00am - 12:00am;Mon - Thur:11:00am - 11:00pm;Sun:11:00am - 11:00pm;,,Open
2629 Broadway Street,3645,2629 Broadway Street,,Mt. Vernon,IL,62864,US,618-242-9050,38.3149743,-88.9239838,Fri - Sat:11:00am - 12:00am;Mon - Thur:11:00am - 11:00pm;Sun:11:00am - 11:00pm;,,Open
1505 Lincolnway,3569,1505 Lincolnway,,La Porte,IN,46350,US,219-326-1010,41.607938,-86.72866,Fri - Sat:11:00am - 12:00am;Mon - Thur:11:00am - 11:00pm;Sun:11:00am - 11:00pm;,,Open
1026 Bypass 123 Suite E,8299,1026 Bypass 123 Suite E,,Seneca,SC,29678,US,864-873-9077,34.6936417,-82.9774382,Fri - Sat:10:00am - 12:00am;Mon - Thur:10:00am - 11:00pm;Sun:11:00am - 10:00pm;,,Open
10470 Dumfries Road,2017,10470 Dumfries Road,,Manassas,VA,20110,US,703-479-2519,38.729277,-77.474277,Fri - Sat:11:00am - 12:00am;Mon - Thur:11:00am - 11:00pm;Sun:11:00am - 11:00pm;,,Open
1459 Fox Run Parkway,8248,1459 Fox Run Parkway,,Opelika,AL,36801,US,334-749-3334,32.6646638,-85.3655559,Fri - Sat:11:00am - 11:00pm;Mon - Thur:11:00am - 10:00pm;Sun:11:00am - 10:00pm;,,Open
2331 Bolton Road Suite A,8339,2331 Bolton Road Suite A,,Atlanta,GA,30318,US,404-500-1249,33.8192809,-84.4619063,Fri - Sat:11:00am - 12:00am;Mon - Thur:11:00am - 11:00pm;Sun:11:00am - 11:00pm;,,Open
3330 Piedmont Road,8235,3330 Piedmont Road,,Atlanta,GA,30305,US,470-891-4500,33.8462442,-84.3730818,Fri - Sat:11:00am - 11:00pm;Mon - Thur:11:00am - 10:00pm;Sun:11:00am - 10:00pm;,,Open
1320 Kempsville Road,2021,1320 Kempsville Road,,Chesapeake,VA,23320,US,757-410-8885,36.7617504,-76.2030027,Fri - Sat:11:00am - 12:00am;Mon - Thur:11:00am - 11:00pm;Sun:11:00am - 11:00pm;,,Open
7924 S Broadway Ave.,5101,7924 S Broadway Ave.,,Tyler,TX,75703,US,903-561-5550,32.2599404,-95.3071423,Mon - Thur:11:00am - 10:00pm;Fri - Sun:11:00am - 11:00pm;,,Open
3968 Carrollton Villa Rica Highway,8446,3968 Carrollton Villa Rica Highway,,Carrollton,GA,30116,US,678-321-1620,33.6441361,-84.9712826,Fri - Sat:11:00am - 12:00am;Mon - Thur:11:00am - 11:00pm;Sun:11:00am - 11:00pm;,,Open
523 W. 6th Ave,5088,523 W. 6th Ave,,Stillwater,OK,74074,US,405-385-9690,36.115327,-97.0649424,Fri - Sat:11:00am - 11:00pm;Mon - Thur:11:00am - 10:00pm;Sun:11:00am - 10:00pm;,,Open
7525 Alexander Road Suite 100,8419,7525 Alexander Road Suite 100,,Olive Branch,MS,38654,US,662-336-1600,34.970099,-89.813515,Fri - Sat:10:30am - 12:00am;Mon - Thur:10:30am - 11:00pm;Sun:10:30am - 11:00pm;,,Open
3623 South Main Street Suite 113,5108,3623 South Main Street Suite 113,,Stafford,TX,77477,US,832-987-1455,29.6206108,-95.5682127,Fri - Sat:11:00am - 12:00am;Mon - Thur:11:00am - 11:00pm;Sun:11:00am - 11:00pm;,,Open
513 Cibolo Valley Drive,5094,513 Cibolo Valley Drive,,Cibolo,TX,78108,US,210-960-1200,29.5718291,-98.239774,Fri - Sat:11:00am - 12:00am;Mon - Thur:11:00am - 11:00pm;Sun:11:00am - 11:00pm;,,Open
1100 Hillcrest Pkwy,8310,1100 Hillcrest Pkwy,,Dublin,GA,31021,US,478-353-1511,32.5449266,-82.9385864,Fri - Sat:10:00am - 12:00am;Mon - Thur:10:00am - 11:00pm;Sun:10:00am - 11:00pm;,,Open
5896 Kyle Parkway Suite # 100,5122,5896 Kyle Parkway Suite # 100,,Kyle,TX,78640,US,512-262-7545,30.0076947,-97.8552566,Fri - Sat:11:00am - 12:00am;Mon - Thur:11:00am - 11:00pm;Sun:11:00am - 11:00pm;,,Open
14510 NW Military Dr Suite 101,5098,14510 NW Military Dr Suite 101,,San Antonio,TX,78231,US,210-740-0613,29.5753227,-98.5447645,Fri - Sat:11:00am - 12:00am;Mon - Thur:11:00am - 11:00pm;Sun:11:00am - 11:00pm;,,Open
154 W. Morton Ave,3614,154 W. Morton Ave,,Jacksonville,IL,62650,US,217-408-2186,39.7232315,-90.2300026,Fri - Sat:11:00am - 12:00am;Mon - Thur:11:00am - 11:00pm;Sun:11:00am - 11:00pm;,,Open
3015 Belshire Villiage Drive Suite 116,8351,3015 Belshire Villiage Drive Suite 116,,Spring Hill,TN,37174,US,615-302-2626,35.7695867,-86.9201769,Fri - Sat:11:00am - 12:00am;Mon - Thur:11:00am - 11:00pm;Sun:11:00am - 11:00pm;,,Open
1745 Hill Rd. N,1219,1745 Hill Rd. N,,Pickerington,OH,43147,US,614-861-1111,39.9277639,-82.789633,Fri - Sat:10:00am - 12:30am;Mon - Thur:10:00am - 11:30pm;Sun:11:00am - 11:00pm;,,Open
2 SOUTH STATE STREET,3612,2 SOUTH STATE STREET,,North Vernon,IN,47265,US,812-346-0300,39.0031526,-85.6260662,Fri - Sat:11:00am - 12:00am;Mon - Thur:11:00am - 11:00pm;Sun:11:00am - 11:00pm;,,Open
413 East Innes Street,8353,413 East Innes Street,,Salisbury,NC,28144,US,980-330-6500,35.6640953,-80.4665274,Fri - Sat:11:00am - 12:00am;Mon - Thur:11:00am - 11:00pm;Sun:11:00am - 11:00pm;,,Open
7808 Land O' Lakes Blvd,8134,7808 Land O' Lakes Blvd,,Land O' Lakes,FL,34638,US,813-803-3600,28.2721283,-82.4793904,Fri - Sat:11:30am - 12:00am;Mon - Thur:11:00am - 10:00pm;Sun:11:00am - 10:00pm;,,Open
2041 N. Hwy 78,5105,2041 N. Hwy 78,,Wylie,TX,75098,US,469-562-4711,33.0215627,-96.5118841,Fri - Sat:11:00am - 11:00pm;Mon - Thur:11:00am - 10:00pm;Sun:11:00am - 10:00pm;,,Open
6035 Bakers Ferry Rd SW,8287,6035 Bakers Ferry Rd SW,,Atlanta,GA,30336,US,404-748-1892,33.7289215,-84.5732567,Fri - Sat:10:30am - 11:00pm;Mon - Thur:10:30am - 10:00pm;Sun:11:00am - 10:00pm;,,Open
4908 Reynolda Road,3647,4908 Reynolda Road,,Winston-Salem,NC,27106,US,336-923-0021,36.1659637,-80.3346064,Fri - Sat:11:00am - 12:00am;Mon - Thur:11:00am - 11:00pm;Sun:11:00am - 11:00pm;,,Open
605 S Sanborn Blvd,4018,605 S Sanborn Blvd,,Mitchell,SD,57301,US,605-292-7272,43.7045226,-98.0296084,Fri - Sat:10:30am - 12:00am;Mon - Thur:10:30am - 11:00pm;Sun:10:30am - 11:00pm;,,Open
3057 Turnberry Ct.,1251,3057 Turnberry Ct.,,Grove City,OH,43123,US,614-871-8555,39.9014103,-83.0763154,Fri - Sat:11:00am - 12:30am;Mon - Thur:11:00am - 11:30pm;Sun:11:00am - 11:00pm;,,Open
6330 East Golf Links Road Suite 142,7005,6330 East Golf Links Road Suite 142,,Tucson,AZ,85730,US,520-747-3898,32.189909,-110.85689,,,Open
703 North Combee Road,8191,703 North Combee Road,,Lakeland,FL,33801,US,863-940-9998,28.0514553,-81.9079718,Fri - Sat:11:00am - 12:00am;Mon - Thur:11:00am - 10:00pm;Sun:11:00am - 10:00pm;,,Open
312 East Nine Mile Road,8121,312 East Nine Mile Road,,Pensacola,FL,32514,US,850-361-4888,30.533955,-87.260251,Fri - Sat:11:00am - 11:00pm;Mon - Thur:11:00am - 10:00pm;Sun:11:00am - 10:00pm;,,Open
2152 Corporate Center Drive,8202,2152 Corporate Center Drive,,Trinity,FL,34655,US,727-807-9900,28.1900044,-82.6269819,Fri - Sat:11:00am - 12:00am;Mon - Thur:11:00am - 10:00pm;Sun:11:00am - 10:00pm;,,Open
463 E. Chestnut Street,3561,463 E. Chestnut Street,,Canton,IL,61520,US,309-649-6955,40.5571338,-90.0278797,Fri - Sat:11:00am - 12:00am;Mon - Thur:11:00am - 10:00pm;Sun:11:00am - 10:00pm;,,Open
1095 E. Main Street,3554,1095 E. Main Street,,Galesburg,IL,61401,US,309-343-2552,40.947724,-90.3546946,Fri - Sat:11:00am - 11:00pm;Mon - Thur:11:00am - 10:00pm;Sun:11:00am - 10:00pm;,,Open
2336 E. Highland,1108,2336 E. Highland,,Highland,MI,48356,US,248-887-7900,42.6535733,-83.5821846,Fri - Sat:11:00am - 11:00pm;Mon - Thur:11:00am - 10:00pm;Sun:12:00pm - 10:00pm;,,Open
202 E. Chicago,1046,202 E. Chicago,,Tecumseh,MI,49286,US,517-423-7111,42.004071,-83.9436701,Fri - Sat:11:00am - 12:00am;Mon - Thur:11:00am - 10:30pm;Sun:12:00pm - 10:30pm;,,Open
8529 Niagara Falls Boulevard,3558,8529 Niagara Falls Boulevard,,Niagara Falls,NY,14304,US,716-297-1116,43.090098,-78.966606,Fri - Sat:11:00am - 12:00am;Mon - Thur:11:00am - 11:00pm;Sun:11:00am - 11:00pm;,,Open
510 North James Street,3559,510 North James Street,,Rome,NY,13440,US,315-336-0001,43.2160794,-75.4525098,Fri - Sat:11:00am - 12:00am;Mon - Thur:11:00am - 11:00pm;Sun:11:00am - 11:00pm;,,Open
2820 Stelzer,1174,2820 Stelzer,,Columbus,OH,43219,US,614-471-1441,40.0328424,-82.9099494,Fri - Sat:11:00am - 12:00am;Mon - Thur:11:00am - 11:00pm;Sun:12:00pm - 11:00pm;,,Open
1146 Vann Dr,8088,1146 Vann Dr,,Jackson,TN,38305,US,731-300-0400,35.665973,-88.858292,Fri - Sat:10:30am - 11:00pm;Mon - Thur:10:30am - 10:00pm;Sun:11:00am - 10:00pm;,,Open
1840 E. US HWY 36,1252,1840 E. US HWY 36,,Urbana,OH,43078,US,937-484-3000,40.1085248,-83.7159583,Fri - Sat:8:30am - 12:30am;Mon - Thur:8:30am - 11:30pm;Sun:8:30am - 11:00pm;,,Open
9014 Highway 64 suite 106,8357,9014 Highway 64 suite 106,,Lakeland,TN,38002,US,901-381-9171,35.2045062,-89.7621909,Fri - Sat:11:00am - 12:00am;Mon - Thur:11:00am - 11:00pm;Sun:11:00am - 11:00pm;,,Open
15 N. Belvedere Blvd,8355,15 N. Belvedere Blvd,,Memphis,TN,38104,US,901-276-9626,35.1383583,-90.0049841,Fri - Sat:10:00am - 12:00am;Mon - Thur:10:00am - 11:00pm;Sun:10:00am - 11:00pm;,,Open
12810 W Broadway St,5103,12810 W Broadway St,,Pearland,TX,77584,US,713-436-2000,29.5545763,-95.4189316,Fri - Sat:11:00am - 12:00am;Mon - Thur:11:00am - 11:00pm;Sun:11:00am - 11:00pm;,,Open
13918 Hull Street Road,2061,13918 Hull Street Road,,Midlothian,VA,23112,US,804-893-8989,37.4053793,-77.6618898,Fri - Sat:10:00am - 12:00am;Mon - Thur:10:00am - 11:00pm;Sun:11:00am - 11:00pm;,,Open
1420 Airport Rd,3646,1420 Airport Rd,,Bloomington,IL,61701,US,309-807-0546,40.5021384,-88.9247333,Fri - Sat:11:00am - 12:00am;Mon - Thur:11:00am - 11:00pm;Sun:11:00am - 11:00pm;,,Open
984 S. Main Street,3641,984 S. Main Street,,Lexington,NC,27292,US,336-242-1354,35.8147725,-80.2646792,Fri - Sat:11:00am - 12:00am;Mon - Thur:11:00am - 11:00pm;Sun:11:00am - 11:00pm;,,Open
3102 Nameoki Road,3649,3102 Nameoki Road,,Granite City,IL,62040,US,618-219-8262,38.7169629,-90.1223707,Fri - Sat:11:00am - 12:00am;Mon - Thur:11:00am - 11:00pm;Sun:11:00am - 11:00pm;,,Open
1021 McFarland Blvd.,8362,1021 McFarland Blvd.,,Northport,AL,35476,US,205-330-4555,33.236733,-87.569219,Fri - Sat:11:00am - 11:00pm;Mon - Thur:11:00am - 10:00pm;Sun:3:00pm - 10:00pm;,,Open
260 Harbor Village LN,8214,260 Harbor Village LN,,Apollo Beach,FL,33572,US,813-812-7979,27.7509624,-82.4128918,Fri - Sat:11:00am - 12:00am;Mon - Thur:11:00am - 10:00pm;Sun:11:00am - 10:00pm;,,Open
1027 Sawdust Road #350,5113,1027 Sawdust Road #350,,Spring,TX,77380,US,832-299-6365,30.1257675,-95.4581461,Fri - Sat:11:00am - 12:00am;Mon - Thur:11:00am - 11:00pm;Sun:11:00am - 11:00pm;,,Open
"3288 Main St., Suite 108",5100,"3288 Main St., Suite 108",,Frisco,TX,75033,US,469-362-6467,33.153233,-96.862263,Fri - Sat:11:00am - 11:00pm;Mon - Thur:11:00am - 10:00pm;Sun:11:00am - 10:00pm;,,Open
