store_name,store_number,address,address2,city,state,zip_code,country,phone_number,latitude,longitude,store_hours,other_fields,coming_soon
Robinson Towne Centre,,1770 Park Manor Blvd.,,Pittsburgh,PA,15205,US,(412) 788-2538,40.454887,-80.166831,,,
Quaker Square,,2789 E. State St.,,Salem,OH,44460,US,(330) 337-8766,40.9009,-80.8220,,,
Southern Park Mall,,7401 Market Street,,Youngstown,OH,44512,US,(330) 965-6862,41.021010,-80.657970,,,
Kohls Plaza,,2029 W. State Street,,Alliance,OH,44601,US,(330) 821-4977,40.902910,-81.138410,,,
New Towne Mall,,400 Mill Ave Se,,New Philadelphia,OH,44663,US,(330) 339-3030,40.4805,-81.4440,,,
Butler Commons,,310 Butler Commons,,Butler,PA,16001,US,(724) 285-1332,40.875875,-79.944451,,,
Massillon Marketplace,,15 Massillon Mrktplce Dr. Sw,,Massillon,OH,44646,US,(330) 830-1316,40.764730,-81.520530,,,
Shenango Valley Mall,,3295 E. State Street,,Hermitage,PA,16148,US,(724) 981-4983,41.2335,-80.449460,,,
Westmoreland Mall,,5256 Route 30,,Greensburg,PA,15601,US,(724) 837-1656,40.30,-79.5070,,,
Cambridge Crossing S. C.,,61235 Southgate Parkway,,Cambridge,OH,43725,US,(740) 439-3755,39.990220,-81.575980,,,
Stow Community Center,,4256 Kent Road,,Stow,OH,44224,US,(330) 686-7905,41.1568,-81.407230,,,
University Town Centre,,4171 University Town Centre,,Morgantown,WV,26501,US,(304) 598-2244,39.655010,-80.010510,,,
Summit Mall,,3265 W. Market Street,,Fairlawn,OH,44333,US,(330) 864-8317,41.134110,-81.617970,,,
Marketplace At Four Corners,,7045 Marketplace Drive,,Aurora,OH,44202,US,(330) 995-1451,41.3415,-81.3490,,,
Indiana Mall,,2334 Oakland Avenue,,Indiana,PA,15701,US,(724) 357-8310,40.6033,-79.1867,,,
Macedonia Commons,,8210 Macedonia Commons Blvd.,,Macedonia,OH,44056,US,(330) 468-0014,41.31152,-81.51815,,,
Cranberry Mall,,U. S. Rt. 322 & 257,,Cranberry,PA,16319,US,(814) 676-2561,41.35,-79.7133,,,
Wayne Towne Plaza,,4003 Burbank Road,,Wooster,OH,44691,US,(330) 345-6602,40.8229,-81.9903,,,
Clarion Mall,,22631 Route 68,,Clarion,PA,16214,US,(814) 226-5984,41.1854,-79.3943,,,
Ohio Station Outlets,,9911 Avon Lake Rd.,,Burbank,OH,44214,US,(330) 948-1409,41.0064,-81.996050,,,
North Pointe Ctr.,,3885 Gorsky Dr.,,Zanesville,OH,43701,US,(740) 452-8265,39.993360,-82.030770,,,
The Galleria,,500 Galleria Drive,,Johnstown,PA,15904,US,(814) 266-2971,40.299320,-78.833190,,,
Westgate Mall,,3167 Westgate Drive,,Fairview Park,OH,44126,US,(440) 356-2977,41.460920,-81.849780,,,
Grand Central Mall  Box 6029,,348 Grand Central Mall,,Vienna,WV,26105,US,(304) 428-1241,39.2639,-81.5479,,,
Mt. Vernon Commons,,913 Coshocton Avenue,,Mount Vernon,OH,43050,US,(740) 392-5709,40.400729,-82.4567,,,
Indian Mound Mall,,771 S. 30th St.,,Heath,OH,43056,US,(740) 522-1528,40.030710,-82.443340,,,
Ontario Towne Center,,2279 Walker Lake Road,,Mansfield,OH,44906,US,(419) 747-2102,40.785820,-82.594590,,,
Du Bois Mall,,5522 Shaffer Road,,Dubois,PA,15801,US,(814) 375-7422,41.1225,-78.7293,,,
Country Club Mall,,1262 Vocke Road,,Lavale,MD,21502,US,(301) 729-0539,39.626850,-78.834180,,,
Market On State,,1002 E. State St.,,Athens,OH,45701,US,(740) 594-0371,39.3374,-82.0816,,,
Millcreek Mall,,5800 Peach Street,,Erie,PA,16565,US,(814) 868-8420,42.069160,-80.098820,,,
Logan Valley Mall,,5580 Goods Lane,,Altoona,PA,16602,US,(814) 941-3774,40.469050,-78.411630,,,
River Valley Mall,,1635 River Valley Circle S.,,Lancaster,OH,43130,US,(740) 653-0709,39.7350,-82.6150,,,
Shoppes At East Broad,,8157 Broad Street,,Reynoldsburg,OH,43068,US,(614) 856-1549,39.98439,-82.78677,,,
Tanger Outlets Columbus,,400 S. Wilson Road Ste. 236,,Sunbury,OH,43074,US,(740) 965-1055,40.25986,-82.92591,,,
Waterloo Crossings,,6627 Winchester Blvd.,,Canal Winchester,OH,43110,US,(614) 834-5567,39.874010,-82.824380,,,
Warren Commons,,2769 Market St.,,Warren,PA,16365,US,(814) 723-4145,41.893010,-79.1475,,,
Crossings Of Sandusky,,778 Crossings Rd.,,Sandusky,OH,44870,US,(419) 624-0512,41.4020,-82.663840,,,
Polaris Towne Center,,1195 Polaris Parkway,,Columbus,OH,43240,US,(614) 846-2089,40.140270,-82.986530,,,
Glenwood Commons,,870 Sunbury Road,,Delaware,OH,43015,US,(740) 369-1305,40.291950,-83.028150,,,
Legacy Crossing,,340 Mcmahan Blvd.,,Marion,OH,43302,US,(740) 389-6246,40.5811,-83.0870,,,
Chautauqua Mall,,318 E. Fairmount Avenue,,Lakewood,NY,14750,US,(716) 763-0056,42.0983,-79.2999,,,
Parkway Centre S.,,1731 Stringtown Rd,,Grove City,OH,43123,US,(614) 539-4585,39.878510,-83.049890,,,
Circleville Plaza,,1468 Circleville Plaza Dr.,,Circleville,OH,43113,US,(740) 474-3060,39.5852,-82.952770,,,
Tiffin Mall,,870 W. Market Street,,Tiffin,OH,44883,US,(419) 447-0740,41.1483,-83.2048,,,
Coleman'S Crossing,,481 Coleman'S Crossing Blvd.,,Marysville,OH,43040,US,(937) 642-3484,40.23205,-83.3478,,,
Chillicothe Mall,,1075 North Bridge Street,,Chillicothe,OH,45601,US,(740) 775-7455,39.3127,-82.9738,,,
Nittany Mall,,2901 E. College Ave.,,State College,PA,16801,US,(814) 238-3715,40.830370,-77.8026,,,
Leamington Power Centre,,288 Erie Street South,,Leamington,ON,N8H3C5,CA,(519) 325-0713,42.0358,-82.599140,,,
D & F Plaza,,1170 Central Ave.,,Dunkirk,NY,14048,US,(716) 366-2043,42.4589,-79.3339,,,
Rutherford Crossings,,159 Market Street,,Winchester,VA,22603,US,(540) 542-0259,39.217360,-78.138070,,,
Wal-Mart Plaza,,1853 Plaza Drive,,Olean,NY,14760,US,(716) 372-4500,42.076930,-78.469670,,,
Apple Blossom Mall,,1850 Apple Blossom Drive,,Winchester,VA,22601,US,(540) 665-1740,39.160210,-78.164550,,,
Kenton Ridge,,1239 E. Columbus Street,,Kenton,OH,43326,US,(419) 674-4487,40.650610,-83.594190,,,
Franklin Center,,1320 Lincoln Way E. Unit 15,,Chambersburg,PA,17202,US,(717) 264-6525,39.92529,-77.62955,,,
Findlay Mall,,1800 Tiffin Avenue,,Findlay,OH,45840,US,(419) 424-3303,41.0527,-83.6160,,,
Highpoint Village,,2107 S. Main Street,,Bellefontaine,OH,43311,US,(937) 599-2727,40.3374,-83.7618,,,
Hungtington Mall,,500 Mall Road,,Barboursville,WV,25504,US,(304) 733-0942,38.42223,-82.26643,,,
Tanger Outlets,,8515 Factory Shops Blvd.,,Jeffersonville,OH,43128,US,(740) 948-2361,39.615240,-83.598660,,,
Shoppes On South Main,,1111 South Main,,Bowling Green,OH,43402,US,(419) 352-1814,41.355950,-83.650240,,,
New Boston Shopping Center,,4609 Gallia Street,,New Boston,OH,45662,US,(740) 456-6641,38.7551,-82.928520,,,
Fayette Town Center,,104 Fayette Town Ctr,,Fayetteville,WV,25840,US,(304) 574-3664,38.011120,-81.125290,,,
Springville Vllg. Ctr.,,231 S. Cascade Dr.,,Springville,NY,14141,US,(716) 592-4243,42.502780,-78.689580,,,
White Oaks Mall,,1105 Wellington Road,,London,ON,N6E1V4,CA,(519) 680-7400,42.931710,-81.224630,,,
Windsor Crossing Premium Outlt,,1555 Talbot Rd Ste. 810,,Windsor,ON,N9H2N2,CA,(519) 969-7200,42.238673,-83.012984,,,
Ashland Town Center,,500 Winchester Avenue,,Ashland,KY,41101,US,(606) 325-4234,38.4829,-82.6504,,,
Telegraph Plaza,,2101 Mall Road,,Monroe,MI,48162,US,(734) 243-2650,41.955330,-83.397880,,,
Woodhaven Commons,,19187 West Road,,Woodhaven,MI,48183,US,(734) 675-0283,42.137980,-83.224190,,,
Staunton Mall,,90  Lee Jackson Hwy.,,Staunton,VA,24401,US,(540) 886-8764,38.1182,-79.0794,,,
Wilmington Square,,2833 Progress Way,,Wilmington,OH,45177,US,(937) 382-8572,39.452080,-83.779520,,,
Maurices,,1863 Gettysburg Village Dr.,,Gettysburg,PA,17325,US,(717) 338-1230,39.7944,-77.201450,,,
Quaker Crossing,,3495 Amelia Drive,,Orchard Park,NY,14127,US,(716) 822-0712,42.790650,-78.781310,,,
Cranberry Creek Plaza,,1248 N. Eisenhower Dr.,,Beckley,WV,25801,US,(304) 252-4181,37.798030,-81.176990,,,
Lima Mall,,2400 Elida Road,,Lima,OH,45805,US,(419) 221-0696,40.765480,-84.150870,,,
Lynden Park Mall,,84 Lynden Road,,Brantford,ON,N3R6B8,CA,(519) 770-0700,43.1742,-80.2401,,,
Fairfield Mall,,2727 Fairfield Commons,,Beavercreek,OH,45431,US,(937) 431-1550,39.7675,-84.056060,,,
Seaway Mall,,800 Niagara Street,,Welland,ON,L3C5Z4,CA,(905) 734-3173,43.015530,-79.247150,,,
Miami Valley Centre,,987 E Ash Street,,Piqua,OH,45356,US,(937) 778-8670,40.1497,-84.2283,,,
Lakeside Mall,,14600 Lakeside Circle,,Sterling Heights,MI,48313,US,(586) 566-4795,42.622370,-82.986070,,,
Culpeper Marketplace,,783 Nalles Mill Road,,Culpeper,VA,22701,US,(540) 827-1055,38.4849,-77.970110,,,
Lambton Mall,,1380 London Road,,Sarnia,ON,N7S1P8,CA,(519) 542-7200,42.982580,-82.3528,,,
Susquehanna Valley Mall,,1 Susquehanna Valley Mall Dr.,,Selinsgrove,PA,17870,US,(570) 374-7329,40.81,-76.8567,,,
Dayton Mall,,2700 Miamisburg-Centerville Rd,,Dayton,OH,45459,US,(937) 439-1223,39.6340,-84.22,,,
Hornell Plaza,,1000 Sr 36,,Hornell,NY,14843,US,(607) 324-2057,42.3221,-77.6454,,,
St. Marys Square S.C.,,1174 Indiana Avenue,,Saint Marys,OH,45885,US,(419) 394-6425,40.5516,-84.4058,,,
Lasalle Center,,1520 Military Rd,,Niagara Falls,NY,14304,US,(716) 297-3920,43.093290,-78.974750,,,
Wegman'S Plaza  Bldg 1,,3135 Niagara Falls Blvd.,,Amherst,NY,14228,US,(716) 691-3721,43.040180,-78.824010,,,
Charlottesville F.S.,,1600 E. Rio Road,,Charlottesville,VA,22901,US,(434) 975-0147,38.077570,-78.474720,,,
Festival Marketplace,,1067 Ontario Street,,Stratford,ON,N5A6W6,CA,(519) 271-0000,43.369280,-80.945810,,,
Shops At Lebanon,,1525 Genntown Dr.,,Lebanon,OH,45036,US,(513) 932-0946,39.45635,-84.17545,,,
Birchwood Mall,,4350 24th Avenue,,Fort Gratiot,MI,48059,US,(810) 385-4555,43.0372,-82.4558,,,
Arborland Center Suite 104b,,3533 Washtenaw Avenue,,Ann Arbor,MI,48104,US,(734) 975-8975,42.257350,-83.686980,,,
,,1651 Us 223 Ste. E,,Adrian,MI,49221,US,(517) 263-4631,41.873810,-84.031430,,,
Novi Town Center,,43205 Crescent Blvd.,,Novi,MI,48375,US,(248) 344-4766,42.483110,-83.472250,,,
Cambridge Smart Ctr,,60 Pinebush Road,,Cambridge,ON,N1R8K5,CA,(519) 621-5200,43.409350,-80.3191,,,
Lycoming Mall,,300 Lycoming Mall Circle,,Pennsdale,PA,17756,US,(570) 546-0381,41.240110,-76.826750,,,
Northtowne Mall,,1500 N. Clinton Street,,Defiance,OH,43512,US,(419) 782-8145,41.3081,-84.3607,,,
Tops Plaza,,5789 Transit Road,,Lockport,NY,14094,US,(716) 433-2462,43.145650,-78.696780,,,
York Galleria Mall,,2899 Whiteford Road Sp. 148,,York,PA,17402,US,(717) 757-6988,39.9868,-76.6675,,,
Van Wert Town Center,,325 Town Center Blvd.,,Van Wert,OH,45891,US,(419) 238-6443,40.885950,-84.5858,,,
White Lake Marketplace,,9056 Highland Road,,White Lake Township,MI,48386,US,(248) 698-3152,42.660110,-83.466160,,,
Voice Of America,,7578 Voice Of America Ctr. Dr.,,West Chester,OH,45069,US,(513) 779-2555,39.3379,-84.3623,,,
Tops Plaza,,8351 Lewiston Road,,Batavia,NY,14020,US,(585) 343-0741,43.005020,-78.202930,,,
Green Oak Village Place,,9680 Village Place Boulevard,,Brighton,MI,48116,US,(810) 229-6570,42.50822,-83.75415,,,
Shoppes At Geneseo,,4271 Veterans Drive,,Geneseo,NY,14454,US,(585) 243-4103,42.796880,-77.796620,,,
371 Mayo Plaza,,North Mayo Trail,,Paintsville,KY,41240,US,(606) 789-4668,37.808420,-82.800880,,,
Lebanon Valley Mall,,2251 Lebanon Valley Mall,,Lebanon,PA,17042,US,(717) 270-9840,40.339920,-76.453340,,,
Buckhorn Plaza,,76 Lunger Drive,,Bloomsburg,PA,17815,US,(570) 387-6842,41.015890,-76.486560,,,
Mercer Mall,,261 Mercer Mall Road,,Bluefield,WV,24701,US,(304) 327-7581,37.2908,-81.16,,,
Georgetown Mrkt. Plc.,,280 Guelph Street,,Georgetown,ON,L7G4B1,CA,(905) 873-8429,43.648770,-79.898250,,,
Big Flats Commons,,950 Co. Rd. 64,,Elmira,NY,14903,US,(607) 796-2809,42.160330,-76.878220,,,
,,875 South Main,,Lapeer,MI,48446,US,(810) 664-6455,43.0507,-83.3189,,,
Fenton Commons,,3259 Owen Road,,Fenton,MI,48430,US,(810) 714-5477,42.78694,-83.73882,,,
New River Valley,,782 New River Rd.,,Christiansburg,VA,24073,US,(540) 382-5803,37.1650,-80.4250,,,
Richmond Square Mall,,3801 East Main Street,,Richmond,IN,47374,US,(765) 935-1554,39.83,-84.8483,,,
Wards Crossing West,,475-C Simons Run,,Lynchburg,VA,24502,US,(434) 239-5949,37.342750,-79.189760,,,
Village Green Shopping Center,,1017 S. 13th Street,,Decatur,IN,46733,US,(260) 728-4214,40.820270,-84.938520,,,
Pikeville Commons,,120 Justice Way,,Pikeville,KY,41501,US,(606) 437-9199,37.504140,-82.536830,,,
Tanger Outlet Ctr.,,1475 N Burkhart Rd.,,Howell,MI,48855,US,(517) 540-9644,42.621270,-83.993430,,,
Sweden Shopping Center,,1651 Nathaniel Pool Trl,,Brockport,NY,14420,US,(585) 637-4370,43.193530,-77.9440,,,
Harford Mall,,696 Baltimore Pike,,Bel Air,MD,21014,US,(410) 638-2457,39.525610,-76.357430,,,
Westwood Mall,,Westwood Mall,,Jackson,MI,49202,US,(517) 784-6900,42.2473,-84.4334,,,
Rockvale Square,,35 S. Willowdale Dr.,,Lancaster,PA,17602,US,(717) 390-8728,40.020810,-76.197820,,,
Westgate Plaza,,2012 Chili Avenue,,Gates,NY,14624,US,(585) 247-9017,43.133240,-77.687910,,,
Florence Mall,,2028 Florence Mall,,Florence,KY,41042,US,(859) 282-0302,38.996610,-84.650730,,,
Genesee Valley Mall,,3341 S. Linden Road,,Flint,MI,48507,US,(810) 720-2013,42.9804,-83.7696,,,
Roseland Commons,,3225 State Route 364,,Canandaigua,NY,14424,US,(585) 905-3200,42.873940,-77.249140,,,
Blockbuster Plaza,,1980 N. Main St.,,Bluffton,IN,46714,US,(260) 827-0457,40.7577,-85.165780,,,
Glenbrook Square,,4201 Coldwater Rd.,,Fort Wayne,IN,46805,US,(260) 471-8946,41.1167,-85.1350,,,
205 Laurel Mall,,Rt. 93 & Airport Rd.,,Hazle Township,PA,18202,US,(570) 454-3980,40.98,-76.0233,,,
Tri-State Commons,,3308 N. Wayne Street,,Angola,IN,46703,US,(260) 665-8676,41.6502,-84.9995,,,
Orchard Crossing,,1034 Thomas Road,,Fort Wayne,IN,46804,US,(260) 432-6721,41.074470,-85.201370,,,
Otlt Shoppes @Fremont,,6245 N. Old 27,,Fremont,IN,46737,US,(260) 833-0230,41.730690,-85.002010,,,
Macedon Market Place,,515 Sampson Drive,,Macedon,NY,14502,US,(315) 986-2140,43.064430,-77.350990,,,
River Creek Village,,934 Green Blvd.,,Aurora,IN,47001,US,(812) 926-1215,39.076050,-84.894160,,,
Maurices,,726 East Chicago Street,,Coldwater,MI,49036,US,(517) 278-4116,41.9330,-84.9670,,,
Meridian Mall,,1982 Grand River Avenue,,Okemos,MI,48864,US,(517) 347-6790,42.72,-84.4199,,,
Muncie Plaza,,1120 E. Princeton Road,,Muncie,IN,47303,US,(765) 287-1040,40.218830,-85.374330,,,
Wal-Mart Outlet Plaza,,1581 East M21,,Owosso,MI,48867,US,(989) 723-2272,42.9975,-84.1576,,,
Wyoming Valley Mall,,36 Wyoming Valley Mall,,Wilkes-Barre,PA,18702,US,(570) 825-2191,41.246490,-75.844150,,,
New Castle Plaza,,443 S. Memorial Dr.,,New Castle,IN,47362,US,(765) 521-0640,39.924650,-85.382210,,,
Westchester Commons,,325 Perimeter Drive,,Midlothian,VA,23113,US,(804) 794-1246,37.514340,-77.689510,,,
Cross County Plaza,,214 Cross County Plaza,,Batesville,IN,47006,US,(812) 934-5892,39.309850,-85.215160,,,
Huntington Plaza,,2006 N. Jefferson St.,,Huntington,IN,46750,US,(260) 358-0332,40.891380,-85.5041,,,
Magnolia Center,,105 Magnolia Dr.,,Georgetown,KY,40324,US,(502) 863-4230,38.226890,-84.533560,,,
Black Gold Plaza,,270 Black Gold Blvd.,,Hazard,KY,41701,US,(606) 439-0042,37.2553,-83.2012,,,
Marketplace At Delta Township,,341-A North Marketplace Blvd.,,Lansing,MI,48917,US,(517) 622-1508,42.737860,-84.673730,,,
Liberty Fair Mall,,240 Commonwealth Blvd.,,Martinsville,VA,24112,US,(276) 666-0579,36.6950,-79.8733,,,
Hamburg Pavilion,,2300 Sir Barton Way,,Lexington,KY,40509,US,(859) 263-0440,38.02498,-84.41801,,,
Norton Commons,,742 Commonwealth Dr.,,Norton,VA,24273,US,(276) 679-2600,36.942140,-82.601540,,,
University Mktpl Retail Bldg F,,4020 S. Western Ave,,Marion,IN,46953,US,(765) 664-3208,40.5697,-85.6753,,,
Mounds Mall,,2109 South Scatterfield Rd.,,Anderson,IN,46016,US,(765) 649-6432,40.0959,-85.6538,,,
Wal-Mart Plaza,,69821 S. Centerville Rd,,Sturgis,MI,49091,US,(269) 659-4811,41.7792,-85.4503,,,
Wal Mart Shadow Ctr,,818 Bennie Road,,Cortland,NY,13045,US,(607) 756-2019,42.568320,-76.2192,,,
Greensburg Crossing,,516 Greensburg Commons,,Greensburg,IN,47240,US,(812) 527-8974,39.359920,-85.4757,,,
Lakeview Square,,5775 Beckley Rd,,Battle Creek,MI,49015,US,(269) 979-8660,42.3170,-85.1798,,,
Fashion Square Mall,,4816 Fashion Square Mall,,Saginaw,MI,48604,US,(989) 799-6711,43.4802,-83.9752,,,
Mayberry Mall,,90 Us Highway 52 North,,Mt Airy,NC,27030,US,(336) 789-6210,36.4965,-80.5970,,,
Richmond Centre,,2091 Lantern Ridge Drive,,Richmond,KY,40475,US,(859) 623-8050,37.735560,-84.325040,,,
The Highlands,,16610 Highland Center Blvd,,Bristol,VA,24202,US,(276) 696-0064,36.651250,-82.083930,,,
Barrett Street Center,,2231 Barrett Drive,,Greenfield,IN,46140,US,(317) 467-1183,39.811710,-85.769850,,,
Warsaw Commons,,614 W. 300 North,,Warsaw,IN,46580,US,(574) 267-2102,41.2348,-85.8077,,,
Shelbyville S.C.,,134 Lee Blvd.,,Shelbyville,IN,46176,US,(317) 398-9630,39.525670,-85.737610,,,
River Point Plaza,,421 East Clifty Drive,,Madison,IN,47250,US,(812) 265-6966,38.7752,-85.3857,,,
The Pinnacle-Tower Shops,,532 Pinnacle Parkway Ste. 565,,Bristol,TN,37620,US,(423) 764-4223,36.59512,-82.25728,,,
Hamilton Town Center,,14002 Hoard Drive,,Noblesville,IN,46060,US,(317) 773-4882,39.993770,-85.931580,,,
Lindsay Square,,401 Kent Street West,,Lindsay,ON,K9V4Z1,CA,(705) 328-3564,44.348520,-78.7610,,,
Heritage Place,,1350 16th Street,,Owen Sound,ON,N4K6N7,CA,(519) 370-2069,44.575630,-80.915680,,,
Southland Mall,,6040 S Westnedge Ave,,Portage,MI,49002,US,(269) 323-3203,42.2290,-85.5890,,,
Midland Mall,,6800 Eastman Ave.,,Midland,MI,48642,US,(989) 835-5556,43.6552,-84.2466,,,
Kingsport Pavilion,,2626 East Stone Drive,,Kingsport,TN,37660,US,(423) 230-6479,36.548890,-82.496320,,,
Concord Mall,,3701 S. Main,,Elkhart,IN,46517,US,(574) 875-0999,41.642170,-85.932830,,,
Markland Mall,,1216 South 17th Street,,Kokomo,IN,46902,US,(765) 456-3348,40.475170,-86.109330,,,
Maple Hill Pavilion,,5222 West Main Street,,Kalamazoo,MI,49009,US,(269) 382-5704,42.297960,-85.651890,,,
Castleton Square Mall,,6020 East 82nd Street,,Indianapolis,IN,46250,US,(317) 913-9192,39.908780,-86.065060,,,
Shoppes On Six,,205 County Road 6 East,,Elkhart,IN,46514,US,(574) 206-1525,41.723790,-85.974820,,,
Clay Terrace,,14511 Clay Terrace Blvd.,,Carmel,IN,46032,US,(317) 844-9533,39.996220,-86.129050,,,
Orillia Square,,1029 Brodie Drive,,Orillia,ON,L3V6H4,CA,(705) 326-2882,44.631890,-79.435620,,,
Edinburgh Premium Outlets,,11761 N. Executive Drive,,Edinburgh,IN,46124,US,(812) 526-4811,39.309610,-85.961070,,,
,,437 State Route 104,,Oswego,NY,13126,US,(315) 342-2876,43.462040,-76.478020,,,
Mountainview Mall,,9226 Hwy. 93  Rr 2,,Midland,ON,L4R4K4,CA,(705) 527-1010,44.736580,-79.911630,,,
The Shoppes At County Line,,8811 Hardegan Street Ste. 270,,Indianapolis,IN,46227,US,(317) 881-7221,39.63809,-86.125073,,,
Olt Shoppes Of The Bluegrass,,1155 Buck Creek Pky Sp. 1016,,Simpsonville,KY,40067,US,(502) 722-5194,38.206840,-85.352650,,,
Jackson Park Shopping Center,,1214 E. Tipton,,Seymour,IN,47274,US,(812) 523-1047,38.957970,-85.871780,,,
Wilke'S Plaza Shopping Center,,1819 Us Hwy 421 N.,,Wilkesboro,NC,28697,US,(336) 667-8187,36.15,-81.1950,,,
Cass County Commons,,3900 Lexington Rd.,,Logansport,IN,46947,US,(574) 722-6952,40.762540,-86.316530,,,
Mall Johnson Cty Su,,2011 N. Roan St,,Johnson City,TN,37601,US,(423) 854-0020,36.3367,-82.3733,,,
Southside Square,,1022 D & E South Main St.,,Kernersville,NC,27284,US,(336) 996-4733,36.108680,-80.095950,,,
Greenville West S. C.,,300 S. Greenville W. Drive,,Greenville,MI,48838,US,(616) 754-5522,43.1770,-85.2335,,,
Mt. Pleasant Shopping Center,,2227 S. Mission,,Mt Pleasant,MI,48858,US,(989) 772-2718,43.5795,-84.7675,,,
Hanes Mall,,3320 Silas Creek Pkwy.,,Winston-Salem,NC,27103,US,(336) 774-3093,36.0783,-80.3010,,,
University Crossing,,311 E University Drive,,Granger,IN,46530,US,(574) 243-8242,41.723670,-86.188170,,,
Quinte Mall,,390 North Front Street,,Belleville,ON,K8P3E1,CA,(613) 962-4400,44.1882,-77.4013,,,
Pilgrim Place,,1464 Pilgrim Ln,,Plymouth,IN,46563,US,(574) 936-9696,41.3511,-86.3287,,,
Trademart S. C.,,14659 N. U. S. Highway 25 East,,Corbin,KY,40701,US,(606) 528-4876,36.9550,-84.08,,,
Gaines Marketplace Sp A-112,,1843 Marketplace Dr,,Caledonia,MI,49316,US,(616) 554-7204,42.8410,-85.624710,,,
Centerpointe Mall,,3551 28th Street,,Grand Rapids,MI,49512,US,(616) 285-3208,42.915060,-85.578610,,,
Tanger Center,,350 84th Street Sw,,Byron Center,MI,49315,US,(616) 583-0870,42.809460,-85.670750,,,
Brownsburg Station,,600 West Northfield Drive,,Brownsburg,IN,46112,US,(317) 858-7047,39.859730,-86.392490,,,
Plainfield Cms Ii,,2685 E Main Street,,Plainfield,IN,46168,US,(317) 838-8292,39.7162,-86.3612,,,
Village North Shopping Center,,2438 N. Lebanon St. Ste. 100,,Lebanon,IN,46052,US,(765) 482-3786,40.07105,-86.47604,,,
Green Tree Mall,,757 Lewis And Clark Prkwy E.,,Clarksville,IN,47129,US,(812) 284-4266,38.3159,-85.7640,,,
Bucktown,,3166 44th Street,,Grandville,MI,49418,US,(616) 530-3983,42.883370,-85.741750,,,
Grand Valley Center,,393 Grand Valley Blvd.,,Martinsville,IN,46151,US,(765) 342-8773,39.419380,-86.408910,,,
Green Ridge Square,,3330-A Alpine Avenue Nw,,Walker,MI,49544,US,(616) 647-2644,43.021650,-85.686450,,,
North Hills Plaza,,845 Blowing Rock Blvd.,,Lenoir,NC,28645,US,(828) 757-8833,35.9295,-81.5276,,,
Shops Of Bardstown,,106 West John Rowan Blvd.,,Bardstown,KY,40004,US,(502) 349-9582,37.7965,-85.4477,,,
Southside Mall,,5006 State Hwy 23,,Oneonta,NY,13820,US,(607) 432-0864,42.447940,-75.029190,,,
Greeneville Commons,,1359 Tusculum Blvd.,,Greeneville,TN,37745,US,(423) 638-6600,36.1712,-82.801350,,,
Somerset Mall,,4150 South Hwy. 27,,Somerset,KY,42501,US,(606) 679-8832,37.0344,-84.6272,,,
College Mall,,2894 E Third St.,,Bloomington,IN,47401,US,(812) 339-7335,39.164230,-86.495010,,,
Lexington Shopping Center,,206 Lowes Blvd,,Lexington,NC,27292,US,(336) 224-2324,35.760710,-80.234920,,,
Riley Center,,3530 W. Shore Drive,,Holland,MI,49424,US,(616) 394-1486,42.8120,-86.0881,,,
College Square,,2550 E. Morris Blvd.,,Morristown,TN,37813,US,(423) 587-9283,36.2221,-83.2632,,,
Tippecanoe Mall,,2415 S. Sagamore Parkway,,Lafayette,IN,47905,US,(765) 448-6564,40.3903,-86.8522,,,
Valley Hills Mall,,1960 Highway 70 Se,,Hickory,NC,28602,US,(828) 315-9580,35.700110,-81.2859,,,
Randolph Mall,,1437 E. Dixie Dr.,,Asheboro,NC,27203,US,(336) 626-2677,35.6933,-79.7850,,,
Morganton Heights,,F118 Morganton Heights Blvd.,,Morganton,NC,28655,US,(828) 433-9575,35.7285,-81.6999,,,
Williams Crossing Shopping Ctr,,3074 John William Blvd.,,Bedford,IN,47421,US,(812) 278-9591,38.867680,-86.518350,,,
Old Capital Ctr.,,2363 Hwy. 135 N. W.,,Corydon,IN,47112,US,(812) 738-2672,38.2117,-86.13,,,
Green River Plaza,,399 Campbellsville Bypass,,Campbellsville,KY,42718,US,(270) 465-7144,37.3688,-85.3776,,,
Marketplace At Crawfordsville,,1889 Us Hwy 231,,Crawfordsville,IN,47933,US,(765) 362-5233,40.023690,-86.930340,,,
Sattler Square,,722 Perry St.,,Big Rapids,MI,49307,US,(231) 796-1725,43.6875,-85.4918,,,
Lighthouse Plc Premium Outlets,,403 Lighthouse Place,,Michigan City,IN,46360,US,(219) 879-5561,41.715310,-86.904110,,,
Salmon Run Mall,,21181 Salmon Run Mall Loop W.,,Watertown,NY,13601,US,(315) 782-0592,43.984410,-75.949680,,,
Valparaiso Mrktplc.,,2410 Laporte Ave,,Valparaiso,IN,46383,US,(219) 462-0464,41.468120,-87.030780,,,
The Lakes Mall,,5600 Harvey Street,,Muskegon,MI,49444,US,(231) 799-9256,43.146030,-86.205510,,,
Huntsville Place Mall,,70 King William Street,,Huntsville,ON,P1H2A5,CA,(705) 789-4389,45.335120,-79.207150,,,
Carolina Mall,,1480 Concord Pkwy N.,,Concord,NC,28025,US,(704) 782-6522,35.4461,-80.6090,,,
Afton Ridge Shopping Center,,6250 Bayfield Pkwy.,,Concord,NC,28027,US,(704) 784-8188,35.418910,-80.672490,,,
The Crossroads Plaza,,3311 W. Washington Avenue,,Alpena,MI,49707,US,(989) 356-6637,45.0620,-83.47,,,
Tanner Place,,128 Tanner Place,,Clinton,TN,37716,US,(865) 457-1280,36.1670,-84.0860,,,
Concord Mills,,8111 Concord Mills Blvd.,,Concord,NC,28027,US,(704) 971-0760,35.3694,-80.7221,,,
Asheville Mall,,3 South Tunnel Road,,Asheville,NC,28805,US,(828) 298-2460,35.5807,-82.5260,,,
Riverbirch Corner,,1033 Spring Lane,,Sanford,NC,27330,US,(919) 774-1161,35.4831,-79.1204,,,
Albemarle Plaza,,814 U. S. 24/27 Bypass,,Albemarle,NC,28001,US,(704) 986-6431,35.346870,-80.167950,,,
Clayton Town Centre,,933 Town Centre Blvd.,,Clayton,NC,27520,US,(919) 553-1271,35.637820,-78.387610,,,
River Place,,617a Parkway,,Sevierville,TN,37862,US,(865) 774-7627,35.860440,-83.568540,,,
Southlake Mall,,2044 Southlake Mall,,Merrillville,IN,46410,US,(219) 795-1652,41.468350,-87.310740,,,
Asheville Outlets,,800 Brevard Road,,Asheville,NC,28806,US,(828) 665-8233,35.5292,-82.602750,,,
Abc Warehouse Shopping Center,,8803 East 34 Boon Road,,Cadillac,MI,49601,US,(231) 775-1460,44.283180,-85.405440,,,
Cleveland Mall,,2001 East Dixon Blvd.,,Shelby,NC,28152,US,(704) 481-0992,35.2667,-81.4783,,,
Sycamore Terrace,,2199 S. State Rd. 46,,Terre Haute,IN,47803,US,(812) 877-3138,39.430580,-87.333050,,,
Crossroads Shopping Ctr,,1525 Us Highway 41,,Schererville,IN,46375,US,(219) 322-1292,41.493810,-87.468420,,,
Germantown S.C.,,3795 Newton St,,Jasper,IN,47546,US,(812) 482-6657,38.422290,-86.938250,,,
Charlotte Prem Outlet,,5518 New Fashion Way,,Charlotte,NC,28278,US,(704) 583-8456,35.169970,-80.9705,,,
Honey Creek Mall,,3401 S. Us Hwy 41,,Terre Haute,IN,47802,US,(812) 232-0176,39.427170,-87.419650,,,
Turkey Creek,,11269 Parkside Drive,,Knoxville,TN,37934,US,(865) 671-3505,35.900830,-84.159720,,,
Village Mall,,2917 N. Vermillion St.,,Danville,IL,61832,US,(217) 443-4685,40.1749,-87.6303,,,
Tell City Shopping Center,,641 Highway 66 East,,Tell City,IN,47586,US,(812) 547-4891,37.927950,-86.755410,,,
Amsterdam Commons,,226 Amsterdam Commons,,Amsterdam,NY,12010,US,(518) 842-2504,42.971240,-74.187640,,,
Foothills Mall,,159 Foothills Mall Dr.,,Maryville,TN,37801,US,(865) 983-1562,35.7441,-83.9954,,,
Pine Ridge S. C.,,1427 W. Main Street,,Gaylord,MI,49735,US,(989) 732-0053,45.0004,-84.6603,,,
Berkley Commons,,1213-B N. Berkley Blvd.,,Goldsboro,NC,27534,US,(919) 778-9331,35.380530,-77.932820,,,
Ludington Marketplace Center,,3849 U. S. Hwy 10,,Ludington,MI,49431,US,(231) 843-0170,43.956140,-86.376340,,,
Mohawk Commons,,434 Balltown Rd  Rt.146 & Rt.5,,Schenectady,NY,12304,US,(518) 393-0048,42.783320,-73.892980,,,
Northfield Square Ctr.,,1600 State Route 50,,Bourbonnais,IL,60914,US,(815) 935-2809,41.1686,-87.8512,,,
Bradley Commons,,2022 N. State Rte. 50,,Bourbonnais,IL,60914,US,(815) 935-5854,41.191910,-87.851640,,,
Kimmel Crossing,,636a Kimmel Road,,Vincennes,IN,47591,US,(812) 882-0111,38.667930,-87.495850,,,
Clifton Park Center,,22 Clifton Park County Rd.,,Clifton Park,NY,12065,US,(518) 371-5984,42.858560,-73.7791,,,
Westgate Mall,,205 West Blackstock Road,,Spartanburg,SC,29301,US,(864) 574-6144,34.939920,-81.994090,,,
Grand Traverse Mall,,3200 Airport Road W.,,Traverse City,MI,49684,US,(231) 929-9806,44.7230,-85.6459,,,
Crossville Outlet Ctr,,361 Sweeney Dr.,,Crossville,TN,38555,US,(931) 456-1035,35.982440,-85.017910,,,
Walmart Shadow Center,,1302 E. Main Street,,Robinson,IL,62454,US,(618) 546-0142,39.0059,-87.7258,,,
Gateway Plaza,,981 Ford Street Extension,,Ogdensburg,NY,13669,US,(315) 393-1690,44.705210,-75.4605,,,
Woodgrove Fest. S.C.,,1001 West 75th Street,,Woodridge,IL,60517,US,(630) 910-4133,41.7490,-88.0140,,,
Wilton Mall,,3065 Route 50,,Saratoga Springs,NY,12866,US,(518) 226-0697,43.096830,-73.752330,,,
Greenwood Mall,,2625 Scottsville Rd.,,Bowling Green,KY,42104,US,(270) 846-4100,36.9460,-86.423170,,,
Randhurst Village,,4 Randhurst Village Drive,,Mt Prospect,IL,60056,US,(847) 632-0683,42.087180,-87.935960,,,
Town Square Mall #27,,5000 Frederica Street,,Owensboro,KY,42301,US,(270) 684-7737,37.7278,-87.1224,,,
West Jackson Mrkpl. Ste D,,410  W Jackson St.,,Cookeville,TN,38501,US,(931) 526-3361,36.1546,-85.514250,,,
Romeoville Town Center,,359 S. Weber Road,,Romeoville,IL,60446,US,(815) 838-9491,41.609760,-88.123260,,,
Town Fair Shopping Center,,2701 W Broadway St,,Princeton,IN,47670,US,(812) 385-2298,38.354250,-87.604490,,,
Danada Square West,,56 Danada Square West,,Wheaton,IL,60189,US,(630) 871-1756,41.829670,-88.105160,,,
Louis Joliet Mall,,3340 Mall Loop Drive,,Joliet,IL,60431,US,(815) 254-3173,41.575540,-88.165120,,,
Bear Creek Crossing,,2160 Anderson Rd.,,Petoskey,MI,49770,US,(231) 348-1975,45.346060,-84.970950,,,
Market Place S.C.,,1901 N Market Street,,Champaign,IL,61820,US,(217) 355-0944,40.134850,-88.243620,,,
Gurnee Mills,,6170 W. Grand Avenue,,Gurnee,IL,60031,US,(847) 855-5216,42.387110,-87.955670,,,
Kensington Center,,12736 S. Route 59,,Plainfield,IL,60544,US,(815) 609-7057,41.651540,-88.2034,,,
Village Center,,5630 Washington Avenue,,Racine,WI,53406,US,(262) 637-1990,42.7210,-87.8480,,,
,,2148 Woodfall Drive,,Charleston,IL,61920,US,(217) 345-1311,39.484160,-88.159470,,,
Shoppes At Prairie Ridge,,10347 77th Street,,Pleasant Prairie,WI,53158,US,(262) 697-4166,42.565160,-87.934460,,,
Fox Valley Mall,,1262 Fox Valley Center,,Aurora,IL,60504,US,(630) 585-8940,41.75832,-88.21279,,,
Aviation Mall,,578 Aviation Mall Rd,,Queensbury,NY,12804,US,(518) 798-1629,43.3295,-73.6831,,,
Eastland Mall,,800 N. Green River Road,,Evansville,IN,47715,US,(812) 474-9930,37.9783,-87.4983,,,
Tanger Outlets,,E600 Tuscola Blvd,,Tuscola,IL,61953,US,(217) 253-2374,39.791530,-88.274410,,,
Northgate Mall,,1500 Fisher Street,,North Bay,ON,P1B2H3,CA,(705) 474-7100,46.315560,-79.440420,,,
Poplar Creek Crossing,,2660b North Sutton,,Hoffman Estates,IL,60192,US,(847) 645-0062,42.0724,-88.192360,,,
Pembroke Mall,,1100 Pembroke Street East,,Pembroke,ON,K8A6Y7,CA,(613) 732-4511,45.821080,-77.084160,,,
Gerry Centennial Plaza,,1688 Douglas Road,,Oswego,IL,60543,US,(630) 554-6193,41.701450,-88.312660,,,
Biggs Park Mall,,2920 N. Elm Street,,Lumberton,NC,28358,US,(910) 739-0600,34.6368,-79.0080,,,
Heritage Plaza,,100 Gore Road,,Morris,IL,60450,US,(815) 942-1020,41.391650,-88.423080,,,
Red Bank Commons,,222 S. Red Bank Road,,Evansville,IN,47712,US,(812) 425-5416,37.9767,-87.6369,,,
North Aurora Town Center,,1720 Orchard Gateway Blvd.,,North Aurora,IL,60542,US,(630) 907-0492,41.795090,-88.375510,,,
Cross County Mall,,700 Broadway Ave E,,Mattoon,IL,61938,US,(217) 234-2313,39.4824,-88.3577,,,
Twin Rivers Mall,,3150 Ml King Blvd,,New Bern,NC,28562,US,(252) 634-9911,35.100890,-77.092930,,,
Bennington Square S.C.,,95 Bennington Square,,Bennington,VT,05201,CA,(802) 442-6828,42.892930,-73.1974,,,
Kendall Marketplace,,921 Erica Lane,,Yorkville,IL,60560,US,(630) 553-3732,41.660130,-88.459150,,,
Riocancenter,,110 Donna Drive,,Sudbury,ON,P3B4K6,CA,(705) 525-1242,46.50312,-80.94719,,,
Carlingwood S.C.,,2121 Carling Avenue,,Ottawa,ON,K2A1H2,CA,(613) 722-6600,45.3728,-75.769210,,,
The Shops At Fox River,,3258 Shoppers Drive,,Mchenry,IL,60051,US,(815) 759-3707,42.344590,-88.273390,,,
Algonquin Commons,,1936 S. Randall Road,,Algonquin,IL,60102,US,(847) 854-3277,42.1618,-88.338230,,,
Southridge Mall,,5300 South 76th Street,,Greendale,WI,53129,US,(414) 423-1065,42.9450,-88.0086,,,
St. Lawrence Centre,,6100 St. Lawrence Centre,,Massena,NY,13662,US,(315) 705-0106,44.9227,-74.9327,,,
Pontiac Center,,1710 W. Reynolds St.,,Pontiac,IL,61764,US,(815) 844-7405,40.873630,-88.641040,,,
The Mayfair Collection Ste 160,,11500 W. Burleigh Street,,Wauwatosa,WI,53222,US,(414) 443-1652,43.077210,-88.054930,,,
Schmits Pavilion,,1205 Port Washington Rd,,Grafton,WI,53024,US,(262) 377-0820,43.3202,-87.925310,,,
Brookfield Square,,95 North Moorland Rd.,,Brookfield,WI,53005,US,(262) 786-1550,43.0320,-88.11,,,
Lebanon Premium Outlets,,430 Outlet Village Blvd.,,Lebanon,TN,37090,US,(615) 443-1032,36.179690,-86.300340,,,
Parkway Plaza Mall,,Madison Square Avenue,,Madisonville,KY,42431,US,(270) 821-0821,37.3167,-87.4745,,,
Shoppes At Fox River,,1240 W Sunset Dr.,,Waukesha,WI,53189,US,(262) 549-9441,43.028770,-88.188660,,,
Lake Geneva Commons,,800 N Edwards Blvd,,Lake Geneva,WI,53147,US,(262) 248-2826,42.606060,-88.418660,,,
Place D'Orleans,,110 Place D'Orleans Drive,,Orleans,ON,K1C2L9,CA,(613) 830-6500,45.477710,-75.5170,,,
Deer Trace,,4139 State Hwy. 28,,Kohler,WI,53044,US,(920) 457-3271,43.7176,-87.7870,,,
Germantown Plaza Iii,,N96 W19120 County Line Road,,Germantown,WI,53022,US,(262) 253-1756,43.192940,-88.143820,,,
Wal Mart Shadow Center,,1605a Ford Avenue,,Effingham,IL,62401,US,(217) 342-4234,39.1036,-88.5426,,,
Glenbrook Centre Phase Ii,,1010 Andrew'S Run,,Hendersonville,TN,37075,US,(615) 822-3003,36.330410,-86.618790,,,
Cornwall Square,,1 Water St. East,,Cornwall,ON,K6H6M2,CA,(613) 938-2200,45.016560,-74.725960,,,
Ottawa Centre,,381 W. Stevenson Rd.,,Ottawa,IL,61350,US,(815) 434-4013,41.376250,-88.835940,,,
Oakland Place Shopping Center,,2451 Sycamore Road,,Dekalb,IL,60115,US,(815) 758-5688,41.9540,-88.7250,,,
Bradley Square Mall,,200 Paul Huff Parkway Nw,,Cleveland,TN,37312,US,(423) 614-0086,35.1567,-84.8867,,,
Greenfield Plaza,,233 Mohawk Trail,,Greenfield,MA,01301,CA,(413) 774-2915,42.587850,-72.629750,,,
Nagawaukee Center,,3141 Golf Road,,Delafield,WI,53018,US,(262) 646-8090,43.0495,-88.3713,,,
Eastland Mall,,1615 Empire Street,,Bloomington,IL,61701,US,(309) 661-0446,40.4894,-88.9531,,,
Fairfield Wal-Mart Retail Sc,,1013 Commerce Drive,,Fairfield,IL,62837,US,(618) 842-4067,38.378280,-88.389850,,,
Paradise Pavillion,,1624 S. Main Street,,West Bend,WI,53095,US,(262) 334-6180,43.4263,-88.1835,,,
Shopko Plaza,,3335 3337 Calumet Avenue,,Manitowoc,WI,54220,US,(920) 682-3101,44.0839,-87.6898,,,
Delavan Crossing,,2121 E. Geneva Street,,Delavan,WI,53115,US,(262) 728-2589,42.627770,-88.622160,,,
Opry Mills,,109 Opry Mills Drive,,Nashville,TN,37214,US,(615) 823-4927,36.2035,-86.692340,,,
Hickory Point Mall,,1035 Hickory Point Mall,,Forsyth,IL,62535,US,(217) 877-1940,39.917970,-88.960250,,,
Crystal Coast Plaza,,5136 Us Hwy 70 W,,Morehead City,NC,28557,US,(252) 247-7020,34.7358,-76.9501,,,
Oak Park Town Ctr.,,5760 Highway 153,,Hixson,TN,37343,US,(423) 877-4963,35.155310,-85.248670,,,
Diamond Run Mall #39,,Route 7,,Rutland,VT,05701,CA,(802) 747-0518,43.5865,-72.9680,,,
Shoppes At Hartford,,67 Liberty Avenue,,Hartford,WI,53027,US,(262) 670-6044,43.324180,-88.4029,,,
Marketplace At Smyrna,,805 Industrial Blvd,,Smyrna,TN,37167,US,(615) 459-0235,35.975440,-86.571850,,,
Cascade Crossings,,4398 I-75 Business Spur,,Sault St Marie,MI,49783,US,(906) 632-2800,46.3637,-84.3308,,,
The Avenues,,2615 Medical Center Parkway,,Murfreesboro,TN,37129,US,(615) 494-5590,35.8575,-86.444530,,,
Governor'S Square Mall,,2801 Wilma-Rudolph Blvd.,,Clarksville,TN,37040,US,(931) 542-9844,36.5870,-87.2870,,,
Peru Mall,,3940 Rte. 251,,Peru,IL,61354,US,(815) 223-1814,41.3434,-89.1362,,,
Hamilton Place,,2100 Hamilton Place,,Chattanooga,TN,37421,US,(423) 499-1937,35.0355,-85.1574,,,
Cherryvale Mall,,7200 Harrison Avenue,,Rockford,IL,61112,US,(815) 332-1518,42.245940,-88.975610,,,
,,1117 West Main,,Whitewater,WI,53190,US,(262) 473-3772,42.834820,-88.749860,,,
Forest Plaza,,6253 E. State St.,,Rockford,IL,61108,US,(815) 229-5226,42.266920,-88.995480,,,
Machesney Crossing,,1057 West Lane Road,,Machesney Park,IL,61115,US,(815) 633-7751,42.366150,-89.035190,,,
The Cntr @ Hobbs Brook,,110 Charlton Rd,,Sturbridge,MA,01566,CA,(508) 347-3296,42.113560,-72.068050,,,
Johnson Crk.Prem.Ot.,,595 W. Linmar Lane,,Johnson Creek,WI,53038,US,(920) 699-2826,43.0728,-88.7717,,,
,,1433 Egg Harbor Road,,Sturgeon Bay,WI,54235,US,(920) 743-5178,44.850190,-87.360930,,,
Station Mall,,293 Bay Street,,Sault Ste Marie,ON,P6A1X3,CA,(705) 949-7777,46.5131,-84.339470,,,
North Quabbin Regional Sc,,129 Tower Rd,,Athol,MA,01331,CA,(978) 249-3105,42.578640,-72.189240,,,
Walnut Square Mall,,816 Walnut Square Blvd,,Dalton,GA,30721,US,(706) 259-3213,34.761190,-84.941360,,,
West Street Shopping Center,,377 West Street,,Keene,NH,03431,CA,(603) 358-4044,42.933740,-72.300270,,,
Janesville Mall,,2500 Milton Ave.,,Janesville,WI,53545,US,(608) 754-6312,42.6680,-89.0350,,,
Forest Mall,,835 W. Johnson Street,,Fond Du Lac,WI,54935,US,(920) 921-3212,43.7839,-88.4769,,,
,,708 N. Webster,,Taylorville,IL,62568,US,(217) 824-8779,39.5527,-89.2970,,,
Champlain Centre,,60 Smithfield Blvd,,Plattsburgh,NY,12901,US,(518) 561-3183,44.6965,-73.492480,,,
Harrisburg Centre,,718 Rolle Moore Drive,,Harrisburg,IL,62946,US,(618) 252-8243,37.731150,-88.535490,,,
University Mall,,155 Dorset Street,,South Burlington,VT,05403,CA,(802) 859-9400,44.465670,-73.180660,,,
Times Square Mall,,42nd & Broadway,,Mt Vernon,IL,62864,US,(618) 244-4215,38.3131,-88.9519,,,
Frances Pointe S.C.,,106 Frances Lane,,Beaver Dam,WI,53916,US,(920) 356-0818,43.486960,-88.811890,,,
,,283 Bay Park Square,,Green Bay,WI,54304,US,(920) 499-7509,44.4825,-88.0692,,,
Presidential Parkway Plaza,,1610 Miller St.,,Dixon,IL,61021,US,(815) 288-7903,41.829170,-89.476310,,,
206 Northwoods,,2200 W  War Memorial Drive,,Peoria,IL,61613,US,(309) 685-5750,40.7325,-89.5942,,,
Horizon Plaza,,3825 E. Calumet St.,,Appleton,WI,54915,US,(920) 997-4719,44.242880,-88.352330,,,
The Crossings Of Spring Hill,,1016 Crossings Blvd,,Spring Hill,TN,37174,US,(931) 489-0037,35.741760,-86.937580,,,
Fairview Park Plaza,,1075 West Broadway,,Centralia,IL,62801,US,(618) 533-1623,38.53,-89.1467,,,
Tanger Outlets,,4633 Factory Stores Blvd.,,Myrtle Beach,SC,29579,US,(843) 236-4489,33.7205,-78.9299,,,
Ot Shoppes At Oshkosh,,3001 S. Washburn Street,,Oshkosh,WI,54904,US,(920) 233-1394,43.984630,-88.583260,,,
Urban Edge,,2352 Lineville Road,,Green Bay,WI,54313,US,(920) 434-3759,44.591580,-88.074710,,,
Coastal Grand,,2000 Coastal Grand Circle,,Myrtle Beach,SC,29577,US,(843) 443-6578,33.7021,-78.9241,,,
Kohls Shadow Center,,1135 Winneconne Avenue,,Neenah,WI,54956,US,(920) 729-4826,44.158350,-88.483970,,,
Calhoun Prem. Ot.,,455 Belwood Road,,Calhoun,GA,30701,US,(706) 625-2521,34.459530,-84.916630,,,
Upper Valley Shop Ctr,,250 Plainfield St.,,West Lebanon,NH,03784,CA,(603) 298-3391,43.626770,-72.298940,,,
,,2894 Roosevelt Road,,Marinette,WI,54143,US,(715) 732-0403,45.0705,-87.6823,,,
Mall At Whitney Field,,100 Commercial Road,,Leominster,MA,01453,CA,(978) 537-1526,42.529260,-71.742330,,,
Fox River Mall,,4301 W Wisconsin Ave.,,Appleton,WI,54913,US,(920) 731-7016,44.2731,-88.4698,,,
Northland S.C.,,2900 E. Lincoln Way,,Sterling,IL,61081,US,(815) 626-1146,41.8066,-89.6637,,,
Shoppes At Richland,,3553 Richland Ave W,,Aiken,SC,29801,US,(803) 642-2257,33.563790,-81.764710,,,
White Oaks Mall,,2501 Wabash Street,,Springfield,IL,62704,US,(217) 546-1580,39.7643,-89.7020,,,
Meadows S. C.,,1838 S. West Ave.,,Freeport,IL,61032,US,(815) 233-2056,42.2741,-89.6314,,,
East Towne Mall,,66 East Towne Mall,,Madison,WI,53704,US,(608) 242-7693,43.1274,-89.3087,,,
Berlin Mall,,282 Berlin Mall Rd,,Berlin,VT,05602,CA,(802) 223-1036,44.213760,-72.574240,,,
Lincoln Mall,,622 George Washington Highway,,Lincoln,RI,02865,CA,(401) 333-1471,41.938180,-71.477390,,,
Highland Commons,,28 Highland Commons East,,Hudson,MA,01749,CA,(978) 562-5895,42.392040,-71.594830,,,
Marion Shopping Center,,2406 Williamson County Pkwy.,,Marion,IL,62959,US,(618) 997-4619,37.743110,-88.970150,,,
Highgate Commons,,245 Swanton Road,,St Albans,VT,05478,CA,(802) 524-2042,44.840020,-73.080160,,,
Litchfield Plaza,,18b Litchfield Plaza,,Litchfield,IL,62056,US,(217) 324-3412,39.1798,-89.6626,,,
Delta Plaza,,301 N Lincoln Road,,Escanaba,MI,49829,US,(906) 786-2651,45.7488,-87.0794,,,
Midland Plaza,,149 West South Street,,Kewanee,IL,61443,US,(309) 853-5551,41.221080,-89.928390,,,
Marketplace  Monroe,,301 6th Ave. W.,,Monroe,WI,53566,US,(608) 325-3088,42.6050,-89.6690,,,
West Towne Mall,,75 West Towne Mall,,Madison,WI,53719,US,(608) 826-4664,43.0560,-89.5060,,,
Mount Berry Square,,913 Mount Berry Square Ne,,Rome,GA,30165,US,(706) 234-0939,34.3203,-85.1722,,,
Kentucky Oaks Mall,,5101 Hinkleville Road,,Paducah,KY,42001,US,(270) 442-8727,37.0781,-88.6809,,,
Shoppes Of Murray,,628 N. 12th St.,,Murray,KY,42071,US,(270) 767-0034,36.6202,-88.314720,,,
Greenway Station,,1621 Deming Way,,Middleton,WI,53562,US,(608) 824-9158,43.088980,-89.530670,,,
University Mall,,1237 E. Main Street,,Carbondale,IL,62901,US,(618) 351-0005,37.729840,-89.192310,,,
Mall Of New Hampshire Sp W119a,,1500 S. Willow Street,,Manchester,NH,03103,CA,(603) 622-3514,42.955060,-71.433480,,,
Shawano Mall,,170 Woodlawn Drive,,Shawano,WI,54166,US,(715) 526-2662,44.784040,-88.585080,,,
Steeplegate Mall,,270 Loudon Road,,Concord,NH,03301,CA,(603) 224-8876,43.2222,-71.4864,,,
Conyers Crossing,,1620 E. Dogwood Drive,,Conyers,GA,30013,US,(770) 929-8144,33.670460,-84.043920,,,
Clinton Square,,2712 S. 25th Street,,Clinton,IA,52732,US,(563) 242-6297,41.8814,-90.1903,,,
Edwardsville Marketplace,,2316 Troy Road,,Edwardsville,IL,62025,US,(618) 692-7131,38.7862,-89.951190,,,
Belknap Mall,,96 Daniel Webster Hwy.,,Belmont,NH,03220,CA,(603) 527-1800,43.502790,-71.505970,,,
Seminary Square Shopping Ctr,,2779 Volunteer Drive,,Galesburg,IL,61401,US,(309) 341-0323,40.983820,-90.363710,,,
Wal Mart Shadow Center,,1929 Morton Avenue,,Jacksonville,IL,62650,US,(217) 245-7912,39.7229,-90.2635,,,
Collinsville Plaza,,603 Beltline Road,,Collinsville,IL,62234,US,(618) 344-5303,38.6917,-89.978370,,,
Walmart Shadow Center,,930 Us Hwy. 12,,Baraboo,WI,53913,US,(608) 356-1110,43.458620,-89.7719,,,
Westgate Market Place,,400 Lowell Ave,,Haverhill,MA,01832,CA,(978) 556-1586,42.77435,-71.11447,,,
St Clair Square,,134 St Clair Square,,Fairview Heights,IL,62208,US,(618) 622-0282,38.5950,-89.9810,,,
Green Mountain Mall,,2002 Memorial Drive,,St Johnsbury,VT,05819,CA,(802) 751-8440,44.4595,-72.015270,,,
The Shoppes Of Madison,,8201 Hwy 72 West,,Madison,AL,35758,US,(256) 726-0091,34.75,-86.7565,,,
Alton Square Mall,,123 Alton Square Mall,,Alton,IL,62002,US,(618) 463-3768,38.924710,-90.176450,,,
Belleville Crossing,,5711 Belleville Crossing St.,,Belleville,IL,62220,US,(618) 222-9394,38.525780,-90.036060,,,
Outlets At The Dells,,210 Gasser Road,,Baraboo,WI,53913,US,(608) 254-4940,43.649790,-89.813280,,,
Southpark Mall,,4500 16th Street,,Moline,IL,61265,US,(309) 762-6201,41.4677,-90.5072,,,
Northpark Mall,,320 W. Kimberly Rd.,,Davenport,IA,52806,US,(563) 386-0503,41.5590,-90.5678,,,
Keelridge Plaza,,W8159 Us Hwy. 2,,Iron Mountain,MI,49801,US,(906) 774-1441,45.8050,-88.0180,,,
Big Springs Village,,11521 U. S. Hwy 431,,Guntersville,AL,35976,US,(256) 878-6025,34.304570,-86.286260,,,
Eastchase Village,,1690 East Jackson,,Macomb,IL,61455,US,(309) 837-2625,40.458690,-90.647890,,,
Shaw'S Plaza,,4340 Route 5,,Derby,VT,05829,CA,(802) 334-3430,44.949760,-72.154430,,,
Milledgeville Mall,,2400 N. Columbia,,Milledgeville,GA,31061,US,(478) 453-0336,33.1090,-83.2549,,,
Seabrook Commons,,700 Lafayette Road,,Seabrook,NH,03874,CA,(603) 474-0825,42.895580,-70.871080,,,
West Park Mall,,3049 William Street,,Cape Girardeau,MO,63703,US,(573) 335-0963,37.298380,-89.570170,,,
Waterloo Walmart Center,,941 North Illinois  Rte. 3,,Waterloo,IL,62298,US,(618) 939-9660,38.3588,-90.1576,,,
Rochester Shoppes,,160 Washington St.,,Rochester,NH,03839,CA,(603) 332-0530,43.295960,-70.993950,,,
Perryville Crossing,,2021 Jefferson St.,,Perryville,MO,63775,US,(573) 547-9901,37.7079,-89.8793,,,
,,1240 Commons Circle,,Plover,WI,54467,US,(715) 295-0417,44.458960,-89.5478,,,
,,1845 Progressive Prkwy. Ste. 1,,Platteville,WI,53818,US,(608) 348-5551,42.734120,-90.478320,,,
County Marketplace,,1700 West Reelfoot Avenue,,Union City,TN,38261,US,(731) 885-8836,36.4180,-89.0502,,,
South County Mall,,366 South County Centerway,,St Louis,MO,63129,US,(314) 845-0021,38.5059,-90.3256,,,
Fox Run Mall,,50 Fox Run Mall,,Newington,NH,03801,CA,(603) 431-3120,43.097540,-70.806220,,,
Gadsden Mall,,1001 Rainbow Drive,,Gadsden,AL,35901,US,(256) 547-5521,33.998730,-86.004550,,,
Colonial Mall,,1801 Beltline Road S. W.,,Decatur,AL,35601,US,(256) 309-5847,34.5606,-87.0044,,,
Beech Lake S. C.,,674 West Church Street,,Lexington,TN,38351,US,(731) 968-6234,35.6507,-88.3935,,,
West County Center,,12 West County Center,,Des Peres,MO,63131,US,(314) 966-9816,38.601060,-90.447070,,,
North Town Centre,,421 State Hwy 64,,Antigo,WI,54409,US,(715) 623-7393,45.1610,-89.1460,,,
Wal-Mart Center Strip,,4323 S. 8th St.,,Wisconsin Rapids,WI,54494,US,(715) 423-5090,44.356220,-89.816990,,,
Westwood Plaza,,3020 U. S. 41 W.,,Marquette,MI,49855,US,(906) 228-3808,46.5462,-87.4266,,,
Gravois Bluffs,,794 Gravois Bluffs Blvd.,,Fenton,MO,63026,US,(636) 326-5044,38.504170,-90.456750,,,
Asbury Plaza,,2545 N W Arterial,,Dubuque,IA,52002,US,(563) 556-1113,42.488480,-90.7390,,,
Marketplace At Milan,,15423 S. 1st St.,,Milan,TN,38358,US,(731) 686-7540,35.905560,-88.751850,,,
Mid Rivers Mall,,1600 Mid Rivers Mall,,St Peters,MO,63376,US,(636) 278-3370,38.796310,-90.616130,,,
,,135 Twin City Plaza,,Crystal City,MO,63019,US,(636) 931-3505,38.2199,-90.3846,,,
Prestige Ot Chesterfield Sp192,,17017 N Outer Forty Road,,Chesterfield,MO,63005,US,(636) 536-5390,38.671340,-90.590470,,,
Regency Square Mall,,301 Cox Creek Blvd.,,Florence,AL,35630,US,(256) 764-1405,34.838660,-87.691680,,,
Wausau Center,,B-228,,Wausau,WI,54403,US,(715) 842-4277,44.9589,-89.6394,,,
The Meadows,,20 Meadows Circle Dr.,,Lake St Louis,MO,63367,US,(636) 625-1550,38.7810,-90.7870,,,
Westland Mall,,550 S. Gear,,West Burlington,IA,52655,US,(319) 752-1512,40.8189,-91.1699,,,
Marketplatz Center,,1904 Marketplatz Center,,Cullman,AL,35055,US,(256) 737-9533,34.149940,-86.841620,,,
Timmins Square,,1500 Riverside Drive,,Timmins,ON,P4R1A1,CA,(705) 268-1222,48.474230,-81.382530,,,
1150 Columns,,1150 Vann Drive,,Jackson,TN,38305,US,(731) 660-3342,35.666410,-88.86087,,,
Maple Valley S. C.,,796 Market Street,,Farmington,MO,63640,US,(573) 756-9779,37.7969,-90.4439,,,
Statesboro Crossing,,307 Henry Blvd.,,Statesboro,GA,30458,US,(912) 489-1146,32.430310,-81.757060,,,
,,7 The Plaza Ste. D,,Troy,MO,63379,US,(636) 462-3348,38.9840,-90.9711,,,
,,228 West Mccoy Blvd.,,Tomah,WI,54660,US,(608) 374-3900,44.02,-90.5080,,,
Dublin Mall,,2005 Veterans Blvd.,,Dublin,GA,31021,US,(478) 275-3879,32.542240,-82.957210,,,
Dyersburg Mall Ste 47,,2700 Lake Road,,Dyersburg,TN,38024,US,(731) 285-7626,36.0340,-89.3830,,,
Mcmillan Acres,,1913 N. Central Avenue,,Marshfield,WI,54449,US,(715) 387-0146,44.686160,-90.156250,,,
Fort Howard Square,,410 South Columbia Ave,,Rincon,GA,31326,US,(912) 826-2875,32.277610,-81.230130,,,
Houston County Galleria,,2922 Watson Blvd.,,Centerville,GA,31028,US,(478) 953-9742,32.6282,-83.6933,,,
Nathan Plaza,,37885 Selch Road,,Prairie Du Chien,WI,53821,US,(608) 326-1557,43.0132,-91.084850,,,
Quincy Mall,,3267 Broadway Street,,Quincy,IL,62301,US,(217) 224-4323,39.9364,-91.3611,,,
Phoenix Center Ii,,1915 Vernaci Drive,,Washington,MO,63090,US,(636) 390-2633,38.537130,-90.981120,,,
Maurices,,1222 Lincoln Street,,Rhinelander,WI,54501,US,(715) 369-1413,45.632870,-89.3920,,,
Riverbend Plaza,,3650 Stardust Avenue,,Hannibal,MO,63401,US,(573) 221-1611,39.7242,-91.399750,,,
Outlet Mall Of Savannah,,200 Tanger Outlets Blvd,,Pooler,GA,31322,US,(912) 450-4005,32.134620,-81.243170,,,
Coral Ridge Mall,,1451 Coral Ridge Ave.,,Coralville,IA,52241,US,(319) 625-2388,41.6714,-91.5738,,,
Southgate S. C.,,720 Cass Street,,Corinth,MS,38834,US,(662) 287-6699,34.92,-88.5167,,,
Pinnacle Tutwiler,,5018 Pinnacle Square,,Birmingham,AL,35235,US,(205) 655-1260,33.6070,-86.6420,,,
Shops Of Grand River.Sp. 422,,6200 Grand River Blvd E.,,Leeds,AL,35094,US,(205) 699-8077,33.5340,-86.6030,,,
Lindale Mall,,4444 1st Avenue  N. E.,,Cedar Rapids,IA,52402,US,(319) 393-1011,42.0230,-91.6274,,,
Colonial Promenade,,3477 Lowery Parkway,,Fultondale,AL,35068,US,(205) 849-1010,33.609480,-86.808280,,,
Super Target Retail Center,,3620 Edgewood Rd. S. W.,,Cedar Rapids,IA,52404,US,(319) 390-3220,41.945640,-91.715920,,,
Auburn Mall,,550 Center Street,,Auburn,ME,04210,CA,(207) 689-2370,44.118880,-70.225360,,,
Mansion Mall Marketplace,,1399 N. Westwood Blvd.,,Poplar Bluff,MO,63901,US,(573) 785-2818,36.77,-90.4180,,,
,,1012 North 8th Street,,Medford,WI,54451,US,(715) 748-3732,45.1420,-90.3371,,,
Valley View Mall,,3800 U. S. Hwy. 16,,La Crosse,WI,54601,US,(608) 781-2350,43.8670,-91.2017,,,
Wal-Mart Center,,8764 Northridge Way,,Minocqua,WI,54548,US,(715) 358-7803,45.886360,-89.720550,,,
Columbus Prk Crossing,,5550 Whittlesey Blvd.,,Columbus,GA,31909,US,(706) 322-1826,32.5516,-84.9490,,,
Walmart S.C. @ Shdw Ctr,,1655 Hwy 51 S.,,Covington,TN,38019,US,(901) 475-4196,35.542130,-89.666040,,,
Tanger Outlet,,237 Tanger Dr,,Williamsburg,IA,52361,US,(319) 668-8526,41.6601,-92.0221,,,
,,17 North Frederick Street,,Oelwein,IA,50662,US,(319) 283-3966,42.6783,-91.9139,,,
Village Mall,,1627-62 Opelika Road,,Auburn,AL,36830,US,(334) 887-4485,32.626080,-85.446980,,,
Ridge Crest Plaza,,960 Razorback Drive,,Houghton,MI,49931,US,(906) 483-0850,47.109290,-88.585980,,,
Decorah Mini-Mall,,807 Short Street,,Decorah,IA,52101,US,(563) 382-2094,43.292150,-91.795880,,,
Col. Prom. Tannehill Ste  101,,4897 Promenade Pkwy,,Bessemer,AL,35022,US,(205) 426-8080,33.318630,-87.040030,,,
Oakland Commons,,200 Chickasaw Ridge Dr.,,Oakland,TN,38060,US,(901) 466-1933,35.2262,-89.576490,,,
Churchill Center,,1855 N. Bluff St.,,Fulton,MO,65251,US,(573) 642-6907,38.8775,-91.9391,,,
Marketplace At Augusta,,4 Stephen King Drive,,Augusta,ME,04330,CA,(207) 621-2951,44.344940,-69.787280,,,
Kings Crossing Shop Ctr,,893 Kings Crossing Drive,,Tupelo,MS,38804,US,(662) 680-9964,34.3276,-88.7059,,,
Winona Square,,850 Menards Rd.,,Winona,MN,55987,US,(507) 452-5232,44.035260,-91.619370,,,
Quincy Place Mall,,1110 Quincy Avenue,,Ottumwa,IA,52501,US,(641) 682-8830,41.0163,-92.4369,,,
Crossroads Center,,2060 Crossroad Blvd.,,Waterloo,IA,50702,US,(319) 233-1248,42.4640,-92.3210,,,
Oakwood Mall,,4800 Golf Road,,Eau Claire,WI,54701,US,(715) 834-9222,44.7674,-91.4218,,,
Elm Plaza,,30 Elm Plaza,,Waterville,ME,04901,CA,(207) 680-2155,44.5692,-69.6393,,,
East Viking Plaza,,306 Viking Plaza Drive,,Cedar Falls,IA,50613,US,(319) 266-1813,42.5148,-92.4335,,,
Mccormick Center,,1720 Crete Street,,Moberly,MO,65270,US,(660) 263-9200,39.441410,-92.432890,,,
,,2110 N. Baltimore,,Kirksville,MO,63501,US,(660) 665-1391,40.212550,-92.581380,,,
University Mall,,1701 Mcfarland Blvd.,,Tuscaloosa,AL,35404,US,(205) 633-4921,33.1967,-87.5259,,,
Penn Central Mall,,200 High Ave. W.,,Oskaloosa,IA,52577,US,(641) 672-2888,41.2963,-92.6447,,,
Ironwood Commons,,1448 E Cloverland Drive,,Ironwood,MI,49938,US,(906) 932-2770,46.4634,-90.1434,,,
Mall @ Turtle Creek,,3000 E. Highland Dr.,,Jonesboro,AR,72401,US,(870) 336-2555,35.821180,-90.667010,,,
Columbia Mall,,2300 Bernadette Drive,,Columbia,MO,65203,US,(573) 445-7335,38.9650,-92.3749,,,
Wildwoods Crossing,,3535 Missouri Blvd.,,Jefferson City,MO,65109,US,(573) 893-3114,38.582220,-92.251910,,,
Wal-Mart Shadow Center,,521 Industrial Avenue,,Grinnell,IA,50112,US,(641) 236-3020,41.696280,-92.7271,,,
Tanger Outlets Southaven,,5205 Airways Blvd Ste. 990,,Southaven,MS,38671,US,(662) 349-0169,34.936070,-89.991440,,,
Glynn Place,,319 Mall Boulevard,,Brunswick,GA,31525,US,(912) 265-4651,31.214570,-81.488740,,,
Tifton Mall,,458 Virginia Avenue N.,,Tifton,GA,31794,US,(229) 388-0076,31.4601,-83.5271,,,
St. Robert Centre,,215 St. Robert Blvd,,St Robert,MO,65584,US,(573) 336-4914,37.8208,-92.143950,,,
De Wnkln Hof Van Pella,,1570 Washington St.,,Pella,IA,50219,US,(641) 628-8355,41.411790,-92.949550,,,
Walmart Super Center,,50 Lafrentz Drive,,Marshalltown,IA,50158,US,(641) 753-7111,42.01,-92.91,,,
,,103 Oak Ave. Ste. 2,,Menomonie,WI,54751,US,(715) 235-3907,44.904177,-91.930669,,,
Shoppes On Maine,,4603 Maine Ave Se,,Rochester,MN,55904,US,(507) 282-2444,43.953030,-92.468640,,,
Apache  Mall,,1007 Apache Mall,,Rochester,MN,55902,US,(507) 289-7372,44.0347,-92.4808,,,
Prewitt'S Point Sp D,,3924 Jr. Prewitt Pkwy,,Osage Beach,MO,65065,US,(573) 348-3925,38.156740,-92.605190,,,
Southern Hills Mall,,1410 Preacher Roe Blvd.,,West Plains,MO,65775,US,(417) 256-8650,36.7172,-91.8730,,,
Rice Lake Retail Center,,2701 South West Avenue,,Rice Lake,WI,54868,US,(715) 234-3900,45.473240,-91.7591,,,
Walmart Shadow Center,,2418 Lake Shore Drive East,,Ashland,WI,54806,US,(715) 682-6885,46.603980,-90.8512,,,
Maurices Plaza,,15529 Railroad Street,,Hayward,WI,54843,US,(715) 634-2053,46.0180,-91.474690,,,
Red Wing Mall,,140 North Tyler Rd.,,Red Wing,MN,55066,US,(651) 388-2926,44.5679,-92.5848,,,
Wal-Mart S.C. Strip,,1906 8th Street Nw,,Austin,MN,55912,US,(507) 434-9523,43.684830,-92.986010,,,
Bangor Mall,,663 Stillwater Avenue,,Bangor,ME,04401,CA,(207) 990-0970,44.830770,-68.7495,,,
Willow Creek,,480 Indian Head Dr.,,Mason City,IA,50401,US,(641) 423-1562,43.148210,-93.174350,,,
Evergreen Plaza,,174 Evergreen Parkway,,Lebanon,MO,65536,US,(417) 532-3767,37.663410,-92.649450,,,
Pine Tree Plaza,,550 36th Avenue Sw,,Altoona,IA,50009,US,(515) 967-6133,41.646140,-93.507240,,,
Indianola Plaza,,1214 N Jefferson Way,,Indianola,IA,50125,US,(515) 961-1985,41.371620,-93.558430,,,
Delaware Center,,1802 Se Delaware Avenue,,Ankeny,IA,50021,US,(515) 964-5250,41.702880,-93.581220,,,
Eagle Mountain Center,,41 Eagle Mountain Boulevard,,Batesville,AR,72501,US,(870) 698-0660,35.7773,-91.6408,,,
Southridge,,1111 East Army Post Road,,Des Moines,IA,50315,US,(515) 285-3215,41.524110,-93.602490,,,
Shoppes @ Amelia Concrs. Ste 3,,463721 State Rd 200,,Yulee,FL,32097,US,(904) 225-0667,30.626160,-81.5473,,,
Valdosta Mall,,1700 Norman Drive,,Valdosta,GA,31601,US,(229) 247-3511,30.8438,-83.3229,,,
Maurices,,1495 Hamilton Avenue,,New Richmond,WI,54017,US,(715) 246-0323,45.1010,-92.5390,,,
North Grand Mall,,2801 Grand Avenue,,Ames,IA,50010,US,(515) 233-2606,42.0506,-93.6185,,,
Thompson Hill S. C.,,3103 W. Broadway,,Sedalia,MO,65301,US,(660) 827-5722,38.7088,-93.2660,,,
Valley West Mall,,1551 Valley West Drive,,West Des Moines,IA,50266,US,(515) 225-2211,41.5934,-93.6629,,,
South Town S. C.,,412 S Washington Street,,Chillicothe,MO,64601,US,(660) 646-7488,39.7822,-93.5526,,,
Merle Hay Mall,,3800 Merle Hay Rd.,,Des Moines,IA,50310,US,(515) 278-1231,41.6296,-93.6977,,,
Albert Lea Marketplace,,2335 Leland Drive,,Albert Lea,MN,56007,US,(507) 373-8497,43.665335,-93.327359,,,
Plaza 94,,1801 Ward Avenue,,Hudson,WI,54016,US,(715) 386-3431,44.9645,-92.7325,,,
Hastings Marketplace,,1785 Market Blvd.,,Hastings,MN,55033,US,(651) 437-2166,44.7371,-92.8899,,,
Wiregrass Commons,,900 Commons Drive,,Dothan,AL,36303,US,(334) 671-2019,31.2539,-85.424370,,,
Galleria North,,6305 Mills Civic Pkwy,,West Des Moines,IA,50266,US,(515) 440-0796,41.557160,-93.804480,,,
River City Mkt.Place,,13221 City Station Dr,,Jacksonville,FL,32218,US,(904) 714-0077,30.4815,-81.643840,,,
Intercity Mall,,1000 Fort William Road  Box 10,,Thunder Bay,ON,P7B6B9,CA,(807) 626-9888,48.4037,-89.2445,,,
Medford Outlet Center,,6750 West Frontage Rd.,,Medford,MN,55049,US,(507) 451-0316,44.166020,-93.2591,,,
Rick Hoover Shop Ctr,,40 Plaza Way,,Mountain Home,AR,72653,US,(870) 492-2204,36.359990,-92.336080,,,
Enterprise S.C.,,628 Boll Weevil Circle,,Enterprise,AL,36330,US,(334) 347-2801,31.324070,-85.831340,,,
Bridgewater Commons,,2420 Bridgewater Lane,,Northfield,MN,55057,US,(507) 645-6095,44.434180,-93.189520,,,
Woodbury Lakes,,9020 Hudson Rd,,Woodbury,MN,55125,US,(651) 731-0480,44.948470,-92.934270,,,
Faribo West Mall,,200 Western Ave,,Faribault,MN,55021,US,(507) 334-2547,44.2944,-93.29,,,
Maplewood Mall,,3001 White Bear Ave.,,Maplewood,MN,55109,US,(651) 770-9385,45.0308,-93.0178,,,
Town & Country Plz. Sp D2 & D3,,115 N. Poplar Street,,Searcy,AR,72143,US,(501) 279-9211,35.2495,-91.6970,,,
Fischer Marketplace,,14929 Florence Trail,,Apple Valley,MN,55124,US,(952) 891-1879,44.7344,-93.203690,,,
Twin Cities Prem. Olt.,,3985 Eagan Outlets Parkway,,Eagan,MN,55122,US,(651) 994-2545,44.815420,-93.214570,,,
North Park Mall,,320 East Young Ave.,,Warrensburg,MO,64093,US,(660) 429-1213,38.7709,-93.7352,,,
Walmart Strip Center,,1331 3rd Avenue S.W.,,Forest Lake,MN,55025,US,(651) 464-4114,45.2629,-92.9828,,,
Burnsville S. C.,,1095 Burnsville Center,,Burnsville,MN,55306,US,(952) 435-6596,44.7453,-93.2827,,,
Mall Of America,,212 East Broadway,,Bloomington,MN,55425,US,(952) 851-0027,44.8623,-93.2470,,,
Rosedale Center,,1024 Rosedale Center,,Roseville,MN,55113,US,(651) 633-1964,45.0130,-93.171750,,,
Oakleaf Town Center,,9625 Crosshill Blvd.,,Jacksonville,FL,32222,US,(904) 778-9773,30.199310,-81.8269,,,
Wal-Mart Shadow Center,,1967 Dr Mlk Expressway,,Andalusia,AL,36420,US,(334) 222-2507,31.308260,-86.483440,,,
Orange Park Mall,,1910 Wells Road,,Orange Park,FL,32073,US,(904) 278-8660,30.1833,-81.739690,,,
Northtown S. C.,,392 Northtown Drive Ne,,Minneapolis,MN,55434,US,(763) 786-3621,45.165040,-93.160840,,,
The Village Of Blaine,,4255 Pheasant Ridge Drive,,Blaine,MN,55449,US,(763) 784-6310,45.164640,-93.161290,,,
Southdale Center,,2760 Southdale Center,,Edina,MN,55435,US,(952) 929-1039,44.881250,-93.3259,,,
The Center,,800 Aldrich Road,,Bolivar,MO,65613,US,(417) 777-2718,37.5942,-93.4022,,,
Crossroads Center,,217 S. 25th St.,,Fort Dodge,IA,50501,US,(515) 955-5255,42.50,-94.1628,,,
North Branch Outlets,,38500 Tanger Dr.,,North Branch,MN,55056,US,(651) 674-2974,45.5082,-92.995980,,,
Meridian Crossroads,,133 S. Frontage Road,,Meridian,MS,39301,US,(601) 483-6946,32.367160,-88.672780,,,
Eden Prairie Center,,8251 Flying Cloud Drive,,Eden Prairie,MN,55344,US,(952) 944-6472,44.8540,-93.4240,,,
Battlefield Mall,,2825 South Glenstone,,Springfield,MO,65804,US,(417) 882-5280,37.1589,-93.2625,,,
Lake City Mall,,2469 West Us Hwy 90,,Lake City,FL,32055,US,(386) 466-1018,30.1814,-82.659520,,,
Wal-Mart Shadow Center,,1966 W. Retail Lane,,Ozark,MO,65721,US,(417) 485-2410,37.0010,-93.2260,,,
,,808 Laurel Street Ste. A,,Creston,IA,50801,US,(641) 782-7639,41.0573,-94.3624,,,
Governor'S Square,,1500 Apalachee Parkway,,Tallahassee,FL,32301,US,(850) 402-0366,30.4358,-84.2573,,,
Shoppes At Arbor Lakes,,12451 Elm Creek Blvd,,Maple Grove,MN,55369,US,(763) 494-6686,45.019480,-93.4460,,,
Riverdale Village,,12776 Riverdale Blvd.,,Coon Rapids,MN,55448,US,(763) 421-0464,45.204170,-93.357990,,,
Miller Hill Mall,,1600 Miller Trunk Hwy,,Duluth,MN,55811,US,(218) 727-8315,46.8044,-92.1592,,,
River Hills Mall,,1850 Adams Street,,Mankato,MN,56001,US,(507) 625-4289,44.1850,-93.98,,,
Branson Hills Plaza,,1005 Branson Hills Parkway,,Branson,MO,65616,US,(417) 239-3999,36.669440,-93.221380,,,
Branson Landing,,705 Branson Landing,,Branson,MO,65616,US,(417) 335-5800,36.644140,-93.215740,,,
Rockwood Plaza,,204 South Rockwood Road,,Cabot,AR,72023,US,(501) 843-0006,34.979054,-92.040004,,,
Adams Dairy Landing,,1032 Ne Coronado Drive,,Blue Springs,MO,64014,US,(816) 220-0338,39.0270,-94.2490,,,
Shoppes Of Cloquet,,1309 Hwy 33 S,,Cloquet,MN,55720,US,(218) 879-3330,46.7070,-92.457410,,,
Tanger Outlets,,300 Tanger Blvd,,Branson,MO,65616,US,(417) 336-1150,36.64504,-93.26608,,,
Elk Park Center,,19180 Freeport St. N. W.,,Elk River,MN,55330,US,(763) 241-2073,45.3095,-93.56,,,
Independence Center,,18801 East 39th Street,,Independence,MO,64057,US,(816) 795-1216,39.046160,-94.357890,,,
Meadow Park Shopping Center,,1428c Hwy. 62-65 N.,,Harrison,AR,72601,US,(870) 741-9845,36.2497,-93.1184,,,
Albertville Prem. Ot.,,6415 Labeaux Ave. N. E.,,Albertville,MN,55301,US,(763) 497-7278,45.242710,-93.663350,,,
Liberty Commons,,225 S. Stewart Road,,Liberty,MO,64068,US,(816) 401-4934,39.242046,-94.453295,,,
Summit Fair,,880 Nw Blue Parkway,,Lees Summit,MO,64086,US,(816) 525-7809,38.926090,-94.404150,,,
Crawfordville S.C.,,2000 Crawfordville Hwy.,,Crawfordville,FL,32327,US,(850) 926-6175,30.177720,-84.375450,,,
Fairmont Plaza,,1241 Goemann Road,,Fairmont,MN,56031,US,(507) 238-1506,43.679430,-94.447760,,,
Conway Commons,,782 Elsinger Blvd.,,Conway,AR,72032,US,(501) 327-1114,35.091640,-92.424540,,,
Mccain Mall,,3929 Mccain Blvd.,,North Little Rock,AR,72116,US,(501) 753-4882,34.7920,-92.2260,,,
Wright County Shopping Center,,1241 Hwy 25 N,,Buffalo,MN,55313,US,(763) 682-1406,45.184680,-93.876210,,,
Walmart Shadow Center,,1910 Kittyhawk Ave.,,Carroll,IA,51401,US,(712) 792-5625,42.0663,-94.8697,,,
Belton Towne Center,,E 908 North  Ave,,Belton,MO,64012,US,(816) 322-2786,38.813940,-94.517760,,,
Shops At Boardwalk,,8606 North Boardwalk Avenue,,Kansas City,MO,64154,US,(816) 741-5495,39.255420,-94.658580,,,
Maryville S. C.,,1816 S. Main Street,,Maryville,MO,64468,US,(660) 582-4648,40.3264,-94.8737,,,
Ward Parkway Center,,8600 Ward Parkway,,Kansas City,MO,64114,US,(816) 926-0682,38.970180,-94.607550,,,
East Hills,,3702 Fredrick Blvd.,,St Joseph,MO,64506,US,(816) 364-4424,39.7770,-94.8031,,,
Corbin Park,,6501 W 135th,,Overland Park,KS,66223,US,(913) 851-5854,38.8819,-94.66327,,,
Supercenter Square,,1702 Westridge Road,,New Ulm,MN,56073,US,(507) 359-1870,44.329450,-94.4847,,,
Shackleford Crossings,,2610 S Shackleford Road,,Little Rock,AR,72205,US,(501) 227-3844,34.7312,-92.3976,,,
Oak Park Mall,,11417 West 95th Street,,Overland Park,KS,66214,US,(913) 310-0973,38.9529,-94.7198,,,
The Legends Outlets,,1837 Village West Parkway,,Kansas City,KS,66111,US,(913) 788-5599,39.080110,-94.7680,,,
Shawnee Station,,15230 Shawnee Mission Parkway,,Shawnee,KS,66216,US,(913) 248-1099,39.01,-94.7640,,,
Outlets At Little Rock,,11201 Bass Pro Prkway  #B-M167,,Little Rock,AR,72209,US,(501) 455-6277,34.660290,-92.407510,,,
Aroostook Centre Mall,,830 Main St.,,Presque Isle,ME,04769,CA,(207) 760-9009,46.7003,-68.0103,,,
Hutchinson Shadow Center,,1370 Montreal Street,,Hutchinson,MN,55350,US,(320) 587-4466,44.8781,-94.3759,,,
Walmart Center,,1120 Eisenhower,,Leavenworth,KS,66048,US,(913) 651-6722,39.2660,-94.9270,,,
Southgate Retail Center,,15405 S. Rogers Road,,Olathe,KS,66062,US,(913) 829-8777,38.849120,-94.821430,,,
Shoppes At Mountain Iron,,8576 Rock Ridge Drive Ste. 3,,Mountain Iron,MN,55768,US,(218) 749-1332,47.52205,-92.59022,,,
One Storm Lake Plaza,,111 Sale Barn Rd.,,Storm Lake,IA,50588,US,(712) 732-5655,42.6567,-95.2005,,,
Valley Park Centre,,3059 E. Main Street,,Russellville,AR,72801,US,(479) 968-4805,35.2778,-93.0936,,,
Southpark Mall,,901 - 11th Street S. W.,,Spencer,IA,51301,US,(712) 262-4614,43.1217,-95.1483,,,
Crossroads Mall,,4201 W. Division St.,,St Cloud,MN,56301,US,(320) 253-3502,45.5517,-94.2050,,,
Ferguson Center,,1225 Ferguson Drive,,Benton,AR,72015,US,(501) 860-6921,34.5730,-92.5812,,,
Santa Rosa Mall,,300 Mary Esther Blvd.,,Mary Esther,FL,32569,US,(850) 581-0111,30.4133,-86.6547,,,
Santa Rosa Commons,,4733 Highway 90,,Pace,FL,32571,US,(850) 995-9066,30.603450,-87.127090,,,
Outlets Of Mississippi,,200 Bass Pro Drive,,Pearl,MS,39208,US,(601) 939-9236,32.273930,-90.152020,,,
Edgewood Shopping Center,,3101 Lusk Road,,Neosho,MO,64850,US,(417) 455-1311,36.8428,-94.3387,,,
Northpark Mall,,101 N. Rangeline Rd.,,Joplin,MO,64801,US,(417) 624-4336,37.0939,-94.4765,,,
Cordova Mall,,5100 N. 9th Street,,Pensacola,FL,32504,US,(850) 479-3500,30.475850,-87.207850,,,
Pavilion @ Prt. Orange,,5509 Williamson Blvd.,,Port Orange,FL,32128,US,(386) 304-9409,29.1068,-81.018240,,,
Pine Ridge Plaza,,3226 Iowa Street,,Lawrence,KS,66046,US,(785) 841-0334,38.927940,-95.2605,,,
Paddock Mall,,3100 Sw College Rd,,Ocala,FL,34474,US,(352) 854-3028,29.158510,-82.173360,,,
Meadowbrook Mall,,202 East Centennial Dr.,,Pittsburg,KS,66762,US,(620) 231-1940,37.3817,-94.7035,,,
Walmart Plaza,,1900 1st Avenue N. E.,,Little Falls,MN,56345,US,(320) 632-3517,45.9729,-94.3407,,,
Pinnacle Hills Prom.,,2203 Promenade Blvd.,,Rogers,AR,72758,US,(479) 986-0475,36.305060,-94.175360,,,
Ottawa Plaza,,215 East 23rd,,Ottawa,KS,66067,US,(785) 242-1370,38.5852,-95.2683,,,
N.W. Arkansas Mall,,4201 North Shiloh Drive,,Fayetteville,AR,72703,US,(479) 251-1669,36.1290,-94.1450,,,
Walmart Shadow Center,,3050a Highway 169 South,,Grand Rapids,MN,55744,US,(218) 327-1812,47.202090,-93.527280,,,
Westgate Mall,,14136 Baxter Drive,,Brainerd,MN,56425,US,(218) 828-4744,46.356330,-94.2262,,,
Bel-Air Mall,,3270 Bel Air Mall,,Mobile,AL,36606,US,(251) 476-5795,30.6739,-88.1225,,,
Metro Crossing,,3706 Metro Drive,,Council Bluffs,IA,51501,US,(712) 328-3389,41.220250,-95.834690,,,
Cornerstone Marketplace,,251 Cornerstone Court,,Hot Springs,AR,71913,US,(501) 525-1006,34.4650,-93.0597,,,
Kandi Mall,,1605 South First Street,,Willmar,MN,56201,US,(320) 235-6511,45.1145,-95.0420,,,
Worthington Rtl. Ctr.,,1151 Ryans Road,,Worthington,MN,56187,US,(507) 372-7522,43.637780,-95.593520,,,
Turtle Creek Mall,,1000 Turtle Creek Drive,,Hattiesburg,MS,39402,US,(601) 296-6385,31.322090,-89.374590,,,
Tanger Outlet Center,,2601 S. Mckensie St.,,Foley,AL,36535,US,(251) 943-1373,30.374640,-87.683090,,,
Shadow Lake Twn Ctr,,7640 Towne Ctr. Pkwy,,Papillion,NE,68046,US,(402) 597-8694,41.137390,-96.023690,,,
Westroads Mall,,10000 California Street,,Omaha,NE,68114,US,(402) 391-2376,41.266860,-96.068360,,,
Signature Plaza,,200 Progress Ave.,,Siloam Springs,AR,72761,US,(479) 238-1101,36.18314,-94.51566,,,
West Ridge Mall,,1801 Wanamaker Road,,Topeka,KS,66604,US,(785) 272-4525,39.0332,-95.7618,,,
L Street Marketplace,,12310 K Plaza,,Omaha,NE,68137,US,(402) 330-0940,41.212210,-96.100840,,,
Pine Plaza S. C.,,2750 Pine Street,,Arkadelphia,AR,71923,US,(870) 246-2528,34.1213,-93.0835,,,
Village Pointe,,17304 Davenport Street,,Omaha,NE,68118,US,(402) 289-0112,41.2613,-96.1850,,,
Nebraska Crossing Ot.,,21355 Nebraska Crossing Dr.,,Gretna,NE,68028,US,(402) 332-3867,41.098610,-96.249460,,,
Market Street Mall,,1420 E. College Drive,,Marshall,MN,56258,US,(507) 532-3134,44.4507,-95.7583,,,
Walmart Plaza,,2510 South Santa Fe Avenue,,Chanute,KS,66720,US,(620) 431-0096,37.6535,-95.4523,,,
,,1183 Holton Drive,,Le Mars,IA,51031,US,(712) 546-7212,42.781830,-96.1882,,,
Centre Mall,,251 North Main Avenue,,Sioux Center,IA,51250,US,(712) 722-2800,43.0774,-96.1753,,,
Lakeport Commons,,5001 Sergeant Rd.,,Sioux City,IA,51106,US,(712) 274-9999,42.472840,-96.358350,,,
188 Central Mall,,5111 Rogers Avenue,,Fort Smith,AR,72903,US,(479) 452-0704,35.3628,-94.3730,,,
Fremont Mall,,944 E. 23rd Street,,Fremont,NE,68025,US,(402) 727-7371,41.4513,-96.4848,,,
Viking Plaza,,3015 Hwy. 29 S.,,Alexandria,MN,56308,US,(320) 762-2621,45.8633,-95.3870,,,
The Promenade,,3869 Promenade Parkway,,Diberville,MS,39540,US,(228) 392-3132,30.4559,-88.901990,,,
Gateway Mall,,37 Gateway,,Lincoln,NE,68505,US,(402) 464-9155,40.8135,-96.6367,,,
Pecanland Mall,,4700 Millhaven Road,,Monroe,LA,71203,US,(318) 325-3125,32.5058,-92.0717,,,
Wal-Mart Plaza,,407 Daisy Dr.,,Tahlequah,OK,74464,US,(918) 453-0575,35.904790,-94.978610,,,
S Pointe Pavillion Sc,,2910 Pine Lake Rd.,,Lincoln,NE,68516,US,(402) 420-2362,40.742640,-96.675410,,,
Flinthills Village,,1688 Industrial,,Emporia,KS,66801,US,(620) 343-3206,38.4176,-96.2165,,,
Mill Street Marketplace,,581 S Mill Street,,Pryor,OK,74361,US,(918) 825-3291,36.310280,-95.317760,,,
Indian Creek Mall,,2205 N. 6th Street,,Beatrice,NE,68310,US,(402) 228-3661,40.2882,-96.7464,,,
Shoppes At Dawley Farm,,1005 S. Highline Place,,Sioux Falls,SD,57110,US,(605) 336-4126,43.5420,-96.6560,,,
Manhattan Town Ctr.,,100 Manhattan Town Ctr,,Manhattan,KS,66502,US,(785) 776-6853,39.18,-96.5633,,,
1520 Empire Mall,,4001 W. 41st Street,,Sioux Falls,SD,57106,US,(605) 361-3242,43.5150,-96.7744,,,
Marketplace At Vermillion,,324 Bower Street,,Vermillion,SD,57069,US,(605) 624-9930,42.793860,-96.939140,,,
Paul Bunyan Mall,,1401 Paul Bunyan Drive N. W.,,Bemidji,MN,56601,US,(218) 751-1451,47.4967,-94.9067,,,
Nemar Center,,973 West Will Rogers Blvd,,Claremore,OK,74017,US,(918) 283-1158,36.314880,-95.621550,,,
Arrowhead Mall,,501 North Main Street,,Muskogee,OK,74401,US,(918) 687-9556,35.7508,-95.3677,,,
,,984 22nd Ave S,,Brookings,SD,57006,US,(605) 692-1215,44.3117,-96.7683,,,
Washington Prk Mall,,2350 Se Washington Blvd,,Bartlesville,OK,74006,US,(918) 331-3649,36.7156,-95.9314,,,
Main St Shopping Ctr,,796 E. I-10 Service Rd,,Slidell,LA,70461,US,(985) 643-3978,30.284790,-89.747570,,,
Smith Farm Mrktplc.,,9002 N. 121st East Ave.,,Owasso,OK,74055,US,(918) 376-9473,36.285110,-95.840850,,,
River Chase,,69288 Hwy 21,,Covington,LA,70433,US,(985) 875-1226,30.442490,-90.140220,,,
The Village Centre,,104 East 24th Street,,Columbus,NE,68601,US,(402) 564-4252,41.4427,-97.3517,,,
,,601 Frontier Drive,,Fergus Falls,MN,56537,US,(218) 736-1163,46.291490,-96.1259,,,
Shops At Broken Arrow,,1362 East Hillside Drive,,Broken Arrow,OK,74012,US,(918) 355-1220,36.064840,-95.7740,,,
Washington Square Mall,,832 Washington Ave.,,Detroit Lakes,MN,56501,US,(218) 847-8600,46.8187,-95.8447,,,
Sunset Plaza,,1700 Market Lane,,Norfolk,NE,68701,US,(402) 371-4266,42.0183,-97.4250,,,
,,3100 Broadway Ste. 108,,Yankton,SD,57078,US,(605) 665-2268,42.8950,-97.3817,,,
Hammond Square,,321 Palace Drive,,Hammond,LA,70403,US,(985) 542-5753,30.506670,-90.463060,,,
Central Mall,,2400 Richmond Road,,Texarkana,TX,75503,US,(903) 831-9990,33.4564,-94.0869,,,
Tulsa Hills,,7415 S Olympia Ave W,,Tulsa,OK,74132,US,(918) 445-7749,36.061030,-96.006790,,,
Watertown Mall,,1300 9th Avenue Se,,Watertown,SD,57201,US,(605) 882-1344,44.8902,-97.0949,,,
York Crossing,,3537 S. Lincoln Ave.,,York,NE,68467,US,(402) 362-0175,40.808840,-97.597660,,,
,,1634 Commerce Street,,Wahpeton,ND,58075,US,(701) 642-8255,46.2840,-96.6280,,,
Juban Crossing,,10075 Crossing Way,,Denham Springs,LA,70726,US,(225) 664-5146,30.467420,-90.921910,,,
Winfield Plaza,,1900 E. Hwy. 160,,Winfield,KS,67156,US,(620) 221-1919,37.2409,-96.9743,,,
Stirling Bossier,,2765 Beene Blvd.,,Bossier City,LA,71111,US,(318) 747-5535,32.555930,-93.710320,,,
Greenwich Place  Maurices,,2722 N. Greenwich Ct.,,Wichita,KS,67226,US,(316) 630-0897,37.726361,-97.207056,,,
Pineville Crossing,,3740 Monroe Hwy,,Pineville,LA,71360,US,(318) 640-0122,31.367210,-92.409910,,,
Central Mall,,2259 S. 9th Street,,Salina,KS,67401,US,(785) 826-9215,38.7980,-97.6126,,,
Louisiana Boardwalk,,220 Boardwalk Blvd  Bldg. H,,Bossier City,LA,71111,US,(318) 747-5371,32.519180,-93.740080,,,
Towne East Square,,7700 E. Kellogg,,Wichita,KS,67207,US,(316) 652-7722,37.6793,-97.2442,,,
Derby Marketplace,,1942 N Rock Rd,,Derby,KS,67037,US,(316) 788-4003,37.577130,-97.280150,,,
Tanger Outlet,,2210 Tanger Blvd.,,Gonzales,LA,70737,US,(225) 644-3173,30.211630,-90.9505,,,
Maurices,,701 34th Street North,,Dilworth,MN,56529,US,(218) 236-4822,46.876950,-96.719440,,,
,,1007 Spruce St.,,Mitchell,SD,57301,US,(605) 996-1309,43.687520,-98.037910,,,
Towne West Mall,,4600 West Kellogg,,Wichita,KS,67209,US,(316) 945-6722,37.676110,-97.397580,,,
West Acres,,3902 13th Ave. South,,Fargo,ND,58103,US,(701) 277-4844,46.8587,-96.847080,,,
New Market Square,,2441 N. Maize Road,,Wichita,KS,67205,US,(316) 773-2494,37.726990,-97.462720,,,
West Gate Commons,,1500 13th Ave East,,West Fargo,ND,58078,US,(701) 282-6747,46.8640,-96.8760,,,
Ponca Plaza,,2101 N.14th Street,,Ponca City,OK,74601,US,(580) 762-4131,36.7277,-97.0668,,,
Conestoga Mall,,3404 W. 13th Street,,Grand Island,NE,68803,US,(308) 384-3446,40.934980,-98.3812,,,
Cimarron Plaza,,3609 Cimarron Plaza,,Hastings,NE,68902,US,(402) 461-6915,40.624510,-98.384360,,,
Wal-Mart Supercenter,,1775 U S Hwy 59 S. E.,,Thief River Falls,MN,56701,US,(218) 681-7343,48.122250,-96.207370,,,
Dakota Marketplace,,2965 Dakota Ave. S.,,Huron,SD,57350,US,(605) 352-4600,44.341840,-98.214130,,,
Truro Mall,,245 Robie St,,Truro,NS,B2N5N6,CA,(902) 897-0240,45.371120,-63.302920,,,
Pioneer Square,,625 North Perkins Road,,Stillwater,OK,74075,US,(405) 377-4018,36.1305,-97.005290,,,
Hutchinson Mall,,1500 East 11th Avenue,,Hutchinson,KS,67501,US,(620) 665-8374,38.0648,-97.9033,,,
,,107 3rd St. N. E.,,Roseau,MN,56751,US,(218) 463-0727,48.8482,-95.7623,,,
Southland Mall,,5953 W. Park Avenue,,Houma,LA,70364,US,(985) 851-1565,29.634710,-90.756340,,,
Mirabeau Square,,3510 Lamar Avenue,,Paris,TX,75460,US,(903) 737-0551,33.661240,-95.511220,,,
Stirling Lafayette,,3221 Louisiana Ave.,,Lafayette,LA,70501,US,(337) 233-0058,30.270640,-91.984350,,,
Longview Towne Crsing,,3092 N Eastman Rd,,Longview,TX,75605,US,(903) 663-1772,32.5389,-94.724680,,,
Shawnee Mall,,4901 N. Kickapoo Street,,Shawnee,OK,74804,US,(405) 273-7762,35.3867,-96.9293,,,
Sugarcrest S.C.,,219 St. Nazaire Rd.,,Broussard,LA,70518,US,(337) 839-8451,30.158450,-92.050820,,,
Acadiana Mall,,5725 Johnston Street,,Lafayette,LA,70503,US,(337) 406-8871,30.171750,-92.0756,,,
North Hills Centre,,1182 N. Hills Shopping Ctr.,,Ada,OK,74820,US,(580) 436-2197,34.7916,-96.6566,,,
Columbia Mall Box 16,,2800 Columbia Road,,Grand Forks,ND,58201,US,(701) 772-9446,47.8937,-97.0665,,,
Buchanan Phase Ii,,202 Buchanan Drive,,Charlottetown,PE,C1E2H8,CA,(902) 569-0202,46.263688,-63.148197,,,
Aberdeen Mall  Box 135,,3315 6th Avenue S. E.,,Aberdeen,SD,57401,US,(605) 225-0745,45.4589,-98.4910,,,
Hilltop Mall,,5011 2nd Avenue,,Kearney,NE,68847,US,(308) 236-8686,40.72,-99.0833,,,
Highland Square,,689 Westville Road,,New Glasgow,NS,B2H2J6,CA,(902) 752-3036,45.57912,-62.66634,,,
Park Terrace,,1011 N. Pine Street,,Deridder,LA,70634,US,(337) 462-6362,30.862610,-93.288060,,,
Bryant Square,,520 S. Bryant,,Edmond,OK,73034,US,(405) 341-2851,35.6382,-97.4602,,,
Land Run Town Center,,4408 W. Owen Garriott Road,,Enid,OK,73703,US,(580) 234-5469,36.388731,-97.927269,,,
Great Bend Plz,,3511 10th St.,,Great Bend,KS,67530,US,(620) 793-3699,38.361490,-98.786960,,,
Quail Springs Mall,,2501 West Memorial Road,,Oklahoma City,OK,73134,US,(405) 302-4861,35.613180,-97.558320,,,
Shops At Moore,,2300 South Service Road,,Moore,OK,73160,US,(405) 799-2797,35.311730,-97.494380,,,
University Town Center,,1530 24th Avenue  N. W.,,Norman,OK,73069,US,(405) 321-1480,35.232930,-97.485410,,,
Otlts At Oklahoma Cty,,7628 W. Reno Avenue,,Oklahoma City,OK,73127,US,(405) 787-1200,35.4611,-97.6545,,,
,,2010 East 1st Street,,Pratt,KS,67124,US,(620) 672-3348,37.6438,-98.7389,,,
Nacogdoches M.P.,,4919 North St.,,Nacogdoches,TX,75965,US,(936) 560-3498,31.611270,-94.640010,,,
Cumberland Park,,8946 S. Broadway Avenue,,Tyler,TX,75703,US,(903) 534-3970,32.252270,-95.3061,,,
Target Shopping Center,,1654 Garth Brooks Drive,,Yukon,OK,73099,US,(405) 350-0054,35.478950,-97.7602,,,
Big Creek Crossing,,2918 Vine Street,,Hays,KS,67601,US,(785) 625-3212,38.8886,-99.3173,,,
Clear Spring Centre Hwy,,178 Pth North,,Steinbach,MB,R5G1T7,CA,(204) 320-5187,49.54721,-96.69079,,,
Prien Lake Mall,,496 W. Prien Lake Road,,Lake Charles,LA,70601,US,(337) 478-5032,30.200020,-93.226930,,,
Walmart Shadow Center,,809 26th Street Sw,,Jamestown,ND,58401,US,(701) 252-7465,46.8830,-98.72,,,
Ardmore Commons,,2401 12th Avenue Nw,,Ardmore,OK,73401,US,(580) 226-8812,34.1880,-97.1580,,,
Lufkin Mall,,4600 South Medford Drive,,Lufkin,TX,75901,US,(936) 632-1068,31.312470,-94.724790,,,
Southland Square Shopping Ctr,,1830 South 4th Street,,Chickasha,OK,73018,US,(405) 222-2286,35.0310,-97.9360,,,
The Plaza At Rockwall,,1021 E. Ih 30,,Rockwall,TX,75087,US,(972) 722-4777,32.9020,-96.45,,,
Tanger Outlet,,301 Tanger Dr.,,Terrell,TX,75160,US,(972) 551-1436,32.706410,-96.289360,,,
Firewheel Town Center,,475 Coneflower Drive,,Garland,TX,75040,US,(972) 495-6253,32.953260,-96.611370,,,
Preston Ridge,,3333 Preston Road,,Frisco,TX,75034,US,(214) 618-0012,33.1027,-96.80305,,,
Kildonan Place,,1555 Regent Avenue,,Winnipeg,MB,R2C4J2,CA,(204) 654-2642,49.898590,-97.062130,,,
Palestine Plaza,,2030 Crocket Road,,Palestine,TX,75801,US,(903) 729-1269,31.746890,-95.618580,,,
Duncan Towne Square,,1829 Us 81,,Duncan,OK,73533,US,(580) 475-0101,34.527770,-97.969120,,,
Southland Mall,,777 Norquay Drive  Box 30,,Winkler,MB,R6W2S2,CA,(204) 331-6266,49.190330,-97.930040,,,
Northridge Plaza,,1615 N. Harrison,,Pierre,SD,57501,US,(605) 224-0321,44.3783,-100.3133,,,
Denton Crossing West,,1800 S. Loop 288,,Denton,TX,76205,US,(940) 566-4939,33.1940,-97.0982,,,
Weatherford S.C.,,310 N. Washington Street,,Weatherford,OK,73096,US,(580) 774-0276,35.5262,-98.6937,,,
Shoppes Of Devils Lake,,1403 Highway 2e,,Devils Lake,ND,58301,US,(701) 662-7944,48.1180,-98.8598,,,
Parkdale Mall,,6155 Eastex Freeway,,Beaumont,TX,77706,US,(409) 924-0492,30.1256,-94.1617,,,
Central Mall  Maurices,,3100 Highway 365 Ste. #48,,Port Arthur,TX,77642,US,(409) 724-2991,29.948395,-93.989553,,,
Southgate Marketplace,,2809 8th Street,,Woodward,OK,73801,US,(580) 256-7115,36.4190,-99.3860,,,
Central Mall,,200 C Ave & Sw 3rd St,,Lawton,OK,73501,US,(580) 355-4645,34.6052,-98.3912,,,
Platte River Mall,,1000 S. Dewey St.,,North Platte,NE,69101,US,(308) 534-3477,41.1261,-100.7626,,,
Village Square S. C.,,2601 Central Avenue,,Dodge City,KS,67801,US,(620) 225-3415,37.7801,-100.0158,,,
Waxahachie Crossing,,1451 Hwy 77 North,,Waxahachie,TX,75165,US,(972) 937-3234,32.420840,-96.839450,,,
Lk. Prairie Twn. Ctr. Ste 720,,5242 South Hwy 360,,Grand Prairie,TX,75052,US,(972) 352-5501,32.647710,-97.060110,,,
Presidio Towne Crossing,,2245 Porter Creek Drive,,Fort Worth,TX,76177,US,(817) 306-4928,32.900040,-97.313990,,,
Lake Worth Towne Crossing,,6620 Lake Worth Blvd,,Lake Worth,TX,76135,US,(817) 238-2221,32.812920,-97.430340,,,
Ravenwood Village,,249a Ih45s,,Huntsville,TX,77340,US,(936) 439-9318,30.705910,-95.562980,,,
,,106 South Main,,Elk City,OK,73644,US,(580) 243-3540,35.4105,-99.4045,,,
,,2080 South Franklin Ste. 1,,Colby,KS,67701,US,(785) 462-7442,39.3650,-101.0470,,,
Sikes Senter,,3111 Midwestern Parkway,,Wichita Falls,TX,76308,US,(940) 691-1338,33.868290,-98.532650,,,
Outlets At Hillsboro,,104 I. Hwy 35 N. E.,,Hillsboro,TX,76645,US,(254) 582-3006,32.011090,-97.095110,,,
Outlets At Conroe,,1111 League Line Rd.,,Conroe,TX,77303,US,(936) 756-4255,30.363670,-95.482280,,,
Weatherford Ridge,,325 Adams Drive,,Weatherford,TX,76086,US,(817) 598-1669,32.727150,-97.784560,,,
Riceland Pavilion,,4665 Garth Road,,Baytown,TX,77521,US,(281) 422-0907,29.77559,-94.97969,,,
Kirkwood Mall,,643 Kirkwood Mall,,Bismarck,ND,58504,US,(701) 223-3793,46.7949,-100.7850,,,
Hay Creek Shops,,1469 E. Lasalle Drive,,Bismarck,ND,58503,US,(701) 223-6658,46.86105,-100.7684,,,
Garden City Plaza,,2206 East Kansas Ave.,,Garden City,KS,67846,US,(620) 275-1210,37.9750,-100.8838,,,
Mayflower Mall,,800 Grand Lake Road,,Sydney,NS,B1P6S9,CA,(902) 567-2132,46.147170,-60.138270,,,
Luton Ranch West,,3738 E. Hwy. 377,,Granbury,TX,76049,US,(817) 579-1830,32.456569,-97.731301,,,
Bunker Hill Shopping Center,,1450 N. Main,,Altus,OK,73521,US,(580) 477-3810,34.6382,-99.3348,,,
Grand Pkwy Marketplace,,6545 N. Grand Parkway W.,,Spring,TX,77389,US,(832) 585-4567,30.088025,-95.519971,,,
Bryan Towne Center,,3121 Wildflower Drive,,Bryan,TX,77802,US,(979) 774-0800,30.663740,-96.327510,,,
Central Texas Mkt Place,,2412 West Loop 340,,Waco,TX,76711,US,(254) 662-9031,31.492460,-97.151350,,,
Post Oak Mall,,1500 Harvey Road,,College Station,TX,77840,US,(979) 694-6718,30.6247,-96.3035,,,
League City Towne Ctr.,,3010 Gulf Freeway S.,,Dickinson,TX,77539,US,(281) 534-9026,29.465980,-95.086060,,,
Fairfield Town Center,,28634 Hwy 290 Ste. E01,,Cypress,TX,77433,US,(281) 758-1684,29.993815,-95.749758,,,
Liberal Plaza S. C.,,1511 N. Kansas Avenue,,Liberal,KS,67901,US,(620) 626-4701,37.0542,-100.9220,,,
Pearland Town Ctr,,11200 Broadway Street,,Pearland,TX,77584,US,(713) 436-3183,29.552680,-95.393860,,,
Bosque River S.C.,,2900 W. Washington,,Stephenville,TX,76401,US,(254) 968-6512,32.1969,-98.2444,,,
Dollar Tree Plaza,,2819 Hwy 36 South,,Brenham,TX,77833,US,(979) 830-5118,30.142110,-96.3939,,,
Shoppers Mall,,1570 18th Street,,Brandon,MB,R7A5C5,CA,(204) 725-8373,49.825170,-99.964210,,,
Brazo Town Center Ii,,23901 Brazos Town Crossing,,Rosenberg,TX,77471,US,(281) 341-0959,29.542540,-95.815280,,,
Dakota Square Mall,,2400 10th Street S. W.,,Minot,ND,58701,US,(701) 852-1987,48.21,-101.3083,,,
Lake Jackson Mkt.Plc.,,201 W Hwy 332,,Lake Jackson,TX,77566,US,(979) 297-3336,29.048880,-95.465460,,,
Market Heights S.C.,,201 E Central Texas Expressway,,Harker Heights,TX,76548,US,(254) 953-4100,31.0637,-97.6694,,,
,,1418 West Highway 20,,Chadron,NE,69337,US,(308) 432-8341,42.8270,-103.0220,,,
Wolf Ranch Tc,,1021 West University Avenue,,Georgetown,TX,78628,US,(512) 868-3435,30.63016,-97.69382,,,
Stone Hill Town Ctr.,,18700 Limestone Commercial Dr,,Pflugerville,TX,78660,US,(512) 990-9934,30.472350,-97.594640,,,
Borger West Shopping Center,,1416 W Wilson,,Borger,TX,79007,US,(806) 274-9664,35.660590,-101.4068,,,
Rushmore Mall,,2200 N. Maple Street,,Rapid City,SD,57701,US,(605) 341-1234,44.0635,-103.2141,,,
Burleson Crossing S.C.,,773-A Hwy. 71 West,,Bastrop,TX,78602,US,(512) 332-2764,30.1142,-97.3523,,,
High Plains S. C.,,1311 W. Main,,Sterling,CO,80751,US,(970) 522-0440,40.6251,-103.2320,,,
Lakeline Plaza,,11066 Pecan Park Dr.,,Cedar Park,TX,78613,US,(512) 219-9941,30.470570,-97.803730,,,
Shops At Arbor Walk,,10515 N. Mopac Expressway,,Austin,TX,78759,US,(512) 795-8723,30.39038,-97.73402,,,
Commerce Square,,527b West Commerce Street,,Brownwood,TX,76801,US,(325) 641-8245,31.730770,-98.975130,,,
Prairie Hills Mall,,1681 3rd Ave.  W.,,Dickinson,ND,58601,US,(701) 225-4330,46.8961,-102.7893,,,
Mall Of Abilene,,4310 Buffalo Gap Rd,,Abilene,TX,79606,US,(325) 692-0997,32.398930,-99.759480,,,
Southpark Meadows Sc,,9500 S Interstate 35  Blg J200,,Austin,TX,78748,US,(512) 280-6433,30.167130,-97.786210,,,
Walmart Center,,3506 Ave. I,,Scottsbluff,NE,69361,US,(308) 635-7622,41.879230,-103.6758,,,
Guy Lane Plaza,,1534 Guy Lane Plaza,,Dumas,TX,79029,US,(806) 934-0825,35.849470,-101.9733,,,
,,2735 1st Avenue Ste. 101,,Spearfish,SD,57783,US,(605) 642-2760,44.506570,-103.8609,,,
Westgate Mall,,7701 W I-40,,Amarillo,TX,79121,US,(806) 356-0085,35.186480,-101.9269,,,
,,118 West Beaver,,Fort Morgan,CO,80701,US,(970) 867-1980,40.2490,-103.8011,,,
Tanger Outlet 2,,4015 I-35 South,,San Marcos,TX,78666,US,(512) 754-9860,29.8272,-97.9826,,,
Victoria Mall,,7800 N Navarro,,Victoria,TX,77904,US,(361) 578-7622,28.864280,-96.996930,,,
New Braunfels Tc At Creekside,,243 Creekside Way,,New Braunfels,TX,78130,US,(830) 626-0866,29.692480,-98.110180,,,
Stonegate Plaza,,1001 N. I-27,,Plainview,TX,79072,US,(806) 288-0412,34.185850,-101.7438,,,
,,302 Main Street,,Williston,ND,58801,US,(701) 572-7805,48.1464,-103.6213,,,
Frontier Mall,,1400 Dell Range Blvd,,Cheyenne,WY,82009,US,(307) 778-3953,41.160180,-104.7858,,,
River Hills Mall,,200 Sidney Baker South,,Kerrville,TX,78028,US,(830) 792-3776,30.044250,-99.144370,,,
South Plains Mall,,6002 Slide Road,,Lubbock,TX,79414,US,(806) 799-3562,33.540820,-101.9255,,,
Cntrplc. Of Greeley,,4626 Centerplace Drive,,Greeley,CO,80634,US,(970) 351-8084,40.3940,-104.75,,,
Alamo Ranch,,5347 W Loop 1604 N.,,San Antonio,TX,78253,US,(210) 647-4933,29.494030,-98.7046,,,
San Angelo Shopping Ctr,,4427 Sunset Drive,,San Angelo,TX,76901,US,(325) 944-4037,31.434680,-100.4993,,,
Southlands Sc,,6150 S. Main Street,,Aurora,CO,80016,US,(303) 680-1511,39.604825,-104.709354,,,
Flat Acres Mrktplce.,,11465 S. Twenty Mile Rd.,,Parker,CO,80134,US,(720) 851-5896,39.5088,-104.7637,,,
Centerra Marketplace,,1645 Fall River Dr.,,Loveland,CO,80538,US,(970) 669-2416,40.407170,-104.9933,,,
Parkland Mall,,277 Broadway St. E.,,Yorkton,SK,S3N3G7,CA,(306) 782-0044,51.211960,-102.4426,,,
Gardens On Havana,,1250 S. Ironton Street,,Aurora,CO,80012,US,(303) 337-6010,39.693630,-104.8647,,,
Foothills Mall,,215 E. Foothills Pkwy,,Fort Collins,CO,80525,US,(970) 223-5249,40.5433,-105.0767,,,
First And Main Towne Center,,3264 Cinema Point,,Colorado Springs,CO,80922,US,(719) 596-9002,38.880780,-104.7180,,,
Orchard Towne Center,,14685 Orchard Parkway,,Westminster,CO,80023,US,(303) 255-6046,39.96081,-104.9955,,,
Promenade At Castle Rock,,6380 Promenade Pkwy Unit #140,,Castle Rock,CO,80108,US,(303) 660-6788,39.41984,-104.8743,,,
Marketplace At Northglenn,,361a West 104th Ave.,,Northglenn,CO,80234,US,(303) 920-2016,39.885350,-104.9928,,,
Chapel Hills Mall,,1710 Briargate Blvd.,,Colorado Springs,CO,80920,US,(719) 598-3840,38.947790,-104.7953,,,
Harvest Junction N,,180 Ken Pratt Blvd,,Longmont,CO,80501,US,(303) 776-1709,40.153690,-105.0953,,,
Pueblo Crossing,,5935 N. Elizabeth St.,,Pueblo,CO,81008,US,(719) 544-2450,38.334193,-104.623282,,,
Big Spring Market Plc.,,111 E. Marcy Drive,,Big Spring,TX,79720,US,(432) 264-7516,32.228540,-101.4758,,,
Flatiron Crossing,,One W Flatiron Crossing Dr,,Broomfield,CO,80021,US,(303) 410-2860,39.932850,-105.1333,,,
Powder Basin Center,,2610 South Douglas Highway,,Gillette,WY,82718,US,(307) 686-0914,44.27,-105.4932,,,
Southwest Plaza,,8501 West Bowles Avenue,,Littleton,CO,80123,US,(303) 972-5145,39.6097,-105.0910,,,
Colorado Mills,,14500 W. Colfax Avenue,,Lakewood,CO,80401,US,(303) 279-4049,39.7310,-105.1580,,,
University Plaza,,2427 Grand Avenue,,Laramie,WY,82070,US,(307) 721-5187,41.3109,-105.5940,,,
North Plains Mall,,2801 North Prince,,Clovis,NM,88101,US,(575) 763-3726,34.427640,-103.1966,,,
Outlets At Corpus Christi Bay,,500 N. I-69 Ste. 465,,Robstown,TX,78380,US,(361) 500-2279,27.793858,-97.649926,,,
,,306 Roger Lane,,Miles City,MT,59301,US,(406) 232-5931,46.4010,-105.8230,,,
East Ridge Mall,,601 Wyoming Blvd.,,Casper,WY,82609,US,(307) 266-4650,42.8528,-106.2775,,,
Midland Marketplace,,3116 N Loop 250 West,,Midland,TX,79707,US,(432) 699-3252,32.012110,-102.1579,,,
Cross Roads Center,,2020 E 42nd Street,,Odessa,TX,79762,US,(432) 362-1022,31.8870,-102.3530,,,
,,316 N. Main Street,,Sheridan,WY,82801,US,(307) 672-0531,44.8006,-106.9551,,,
Cottonwood Mall,,3304 Clark Street,,Alamosa,CO,81101,US,(719) 589-4231,37.4826,-105.8877,,,
Town And Country Mall,,1235 Main Street North,,Moose Jaw,SK,S6H6M4,CA,(306) 691-0400,50.4047,-105.5310,,,
,,4531 N. Main Street,,Roswell,NM,88201,US,(575) 627-8428,33.450510,-104.5228,,,
Glenwood Meadows,,30 Market Street,,Glenwood Springs,CO,81601,US,(970) 945-5247,39.5661,-107.3267,,,
,,1850 West Victory Way,,Craig,CO,81625,US,(970) 824-7393,40.513540,-107.57,,,
Plaza De Santa Fe,,3517 Zafarano Blvd.,,Santa Fe,NM,87507,US,(505) 474-9117,35.642460,-106.0111,,,
Carlsbad Pavilion,,803 W. Pierce Street,,Carlsbad,NM,88220,US,(575) 628-0060,32.4237,-104.2297,,,
,,1184 West Main Street,,Riverton,WY,82501,US,(307) 856-0317,43.0248,-108.4045,,,
Rimrock Mall,,300 S. 24th Street West,,Billings,MT,59102,US,(406) 656-1351,45.7683,-108.5530,,,
River Landing,,3421 S Rio Grande Avenue,,Montrose,CO,81401,US,(970) 252-3603,38.446820,-107.8649,,,
Coronado Center,,6600 Menaul Blvd. Ne,,Albuquerque,NM,87110,US,(505) 884-0469,35.1091,-106.5680,,,
Plaza Enchanted Hills,,3575 Nm Hwy 528 Ne Building F,,Rio Rancho,NM,87144,US,(505) 867-5951,35.204760,-106.6528,,,
Cottonwood Mall,,10000 Coors Blvd. Nw,,Albuquerque,NM,87114,US,(505) 898-5038,35.197720,-106.6564,,,
Gateway Mall,,1403 Central Avenue,,Prince Albert,SK,S6V7J4,CA,(306) 764-5111,53.2006,-105.7565,,,
,,1101 Sheridan Avenue,,Cody,WY,82414,US,(307) 527-5658,44.5263,-109.0652,,,
Mall At  Lawson Heights,,134 Primrose Drive,,Saskatoon,SK,S7K5S6,CA,(306) 249-6661,52.168280,-106.6404,,,
Swift Current Mall,,1 Springs Drive,,Swift Current,SK,S9H3X6,CA,(306) 778-9196,50.30749,-107.7808,,,
The Shops At Los Lunas,,1500 Main Street,,Los Lunas,NM,87031,US,(505) 866-1379,34.81608,-106.751,,,
Durango Mall,,800 South Camino Del Rio,,Durango,CO,81301,US,(970) 259-4199,37.2477,-107.8524,,,
Mesa Mall,,2424 Hwy. 6 & 50,,Grand Junction,CO,81505,US,(970) 245-2725,39.0767,-108.5750,,,
White Mountain Mall,,2441 Foothill Blvd.,,Rock Springs,WY,82901,US,(307) 382-6440,41.5817,-109.2533,,,
Alamogordo Shopping Center,,516 E 1st Street,,Alamogordo,NM,88310,US,(575) 434-3669,32.8880,-105.9560,,,
Animas Valley Mall,,4601 East Main St.,,Farmington,NM,87402,US,(505) 326-6722,36.7669,-108.1487,,,
Diamond Mountain Shopping Ctr.,,1180 W. Hwy. 40,,Vernal,UT,84078,US,(435) 789-7418,40.450610,-109.55,,,
Holiday Village Mall,,1753 Us Highway 2 Nw,,Havre,MT,59501,US,(406) 265-4350,48.557120,-109.7166,,,
Mesilla Valley Mall,,700 S. Telshor Boulevard,,Las Cruces,NM,88011,US,(575) 522-0099,32.309030,-106.7423,,,
Rio West Mall  Maurices-0516,,1300 W. Maloney Ave.,,Gallup,NM,87301,US,(505) 863-9030,35.5285,-108.7590,,,
Gallatin Valley Mall,,2825 West Main Street,,Bozeman,MT,59718,US,(406) 586-1746,45.6712,-111.0650,,,
Junction Shopping Ctr.,,524 Front Street,,Evanston,WY,82930,US,(307) 789-7329,41.265310,-110.9593,,,
Holiday Village Mall,,1200 10th Avenue S.,,Great Falls,MT,59405,US,(406) 453-0367,47.4942,-111.2860,,,
Castle Rock Square,,1187 E. Main St.,,Price,UT,84501,US,(435) 613-1424,39.597810,-110.7925,,,
Valley River Center,,125 Valley River Drive,,Rexburg,ID,83440,US,(208) 356-3151,43.83,-111.7750,,,
Valley Station S.C.,,1268 S. Us Hwy 189,,Heber City,UT,84032,US,(435) 654-6681,40.489560,-111.4194,,,
Gila Center,,105 N. Rosedale,,Silver City,NM,88061,US,(575) 534-0107,32.787520,-108.2510,,,
Grand Teton Mall,,2300 E. 17th St.,,Idaho Falls,ID,83404,US,(208) 523-6456,43.4825,-111.9830,,,
Skyway Regional Shopping Ctr,,2023 Cromwell Dixon Lane,,Helena,MT,59601,US,(406) 442-0760,46.616360,-112.0105,,,
Cache Valley Mall,,1300 North Main St.  Box 115,,Logan,UT,84341,US,(435) 752-3441,41.7579,-111.8340,,,
University Mall,,575 E University Parkway,,Orem,UT,84097,US,(801) 226-3225,40.2765,-111.6852,,,
Station Park,,180 N. Station Parkway,,Farmington,UT,84025,US,(801) 451-0083,40.982040,-111.9058,,,
Harrisville Retail Center,,478 North 325 East,,Harrisville,UT,84404,US,(801) 782-7016,41.268450,-111.9733,,,
Shoppes At Canyon Gate,,948 W. 1150 South,,Brigham City,UT,84302,US,(435) 734-9601,41.4886,-112.0175,,,
Riverdale Center,,4273 S. Riverdale Rd,,Riverdale,UT,84405,US,(801) 621-0364,41.187410,-111.9847,,,
Layton Hills Mall,,1201 N. Hillfield Rd.,,Layton,UT,84041,US,(801) 546-4366,41.0794,-111.9730,,,
Alpine Valley Shopping Center,,664 W Main Street,,American Fork,UT,84003,US,(801) 492-3407,40.378630,-111.8169,,,
Maurices,,855 South Turf Farm Rd.,,Payson,UT,84651,US,(801) 465-7820,40.027750,-111.7565,,,
South Towne Center,,10450 South State Street,,Sandy,UT,84070,US,(801) 553-8705,40.5613,-111.8899,,,
Otlts At Traverse Mtn,,3700 N. Cabelas Blvd.,,Lehi,UT,84043,US,(801) 901-1322,40.434050,-111.8898,,,
Park Place,,1808 W. 1800 N.,,Clinton,UT,84015,US,(801) 525-5258,41.141930,-112.0608,,,
Crossroads Shopping Center,,1380 North Redwood Road,,Saratoga Springs,UT,84045,US,(801) 766-0337,40.3860,-111.9140,,,
Jordan Landing,,7089 S Plaza Drive,,West Jordan,UT,84084,US,(801) 280-5504,40.609520,-111.9765,,,
Butte Plaza Mall,,3100 Harrison Avenue,,Butte,MT,59701,US,(406) 494-3287,45.9808,-112.5070,,,
Highbury Centre Bldg. E,,5432 W. High Market Drive,,West Valley City,UT,84120,US,(801) 456-7716,40.712890,-112.0099,,,
Pine Ridge Mall,,4155 Yellowstone Hwy.,,Chubbuck,ID,83202,US,(208) 237-1866,42.908930,-112.4664,,,
,,1197 N. Main St. Unit D,,Tooele,UT,84074,US,(435) 833-0178,40.551520,-112.2981,,,
Richfield Plaza,,1174 South Hwy 118,,Richfield,UT,84701,US,(435) 896-0228,38.8262,-111.9862,,,
,,725 Overland Avenue North,,Burley,ID,83318,US,(208) 678-9600,42.5439,-113.7934,,,
Southgate Mall,,2901 S. Brooks Street,,Missoula,MT,59801,US,(406) 721-5235,46.8507,-114.0260,,,
Flagstaff Mall,,4650 N Highway 89,,Flagstaff,AZ,86004,US,(928) 714-0264,35.2063,-111.6134,,,
Kalispell Center Mall,,20 N. Main,,Kalispell,MT,59901,US,(406) 752-7424,48.2021,-114.3141,,,
Renaissance Square,,574 S. Main,,Cedar City,UT,84720,US,(435) 586-8676,37.6668,-113.0626,,,
Magic Valley Mall,,1485 Pole Line Road E.,,Twin Falls,ID,83301,US,(208) 733-4131,42.5736,-114.4575,,,
Cottonwood S. C.,,1100 S State Rte #260,,Cottonwood,AZ,86326,US,(928) 634-3235,34.719140,-112.0046,,,
Mall At Sierra Vista,,2200 El Mercado Loop,,Sierra Vista,AZ,85635,US,(520) 458-5399,31.533450,-110.2646,,,
Tucson Premium,,6401 W Marana Center Blvd,,Tucson,AZ,85742,US,(520) 579-4360,32.3791,-111.1045,,,
Queen Creek Mktplace,,21506 S. Ellsworth Loop Road,,Queen Creek,AZ,85142,US,(480) 783-3315,33.252960,-111.6404,,,
Prescott Valley Crossroads,,5613 E. State 69 Ste. 200,,Prescott Valley,AZ,86314,US,(928) 771-9927,34.574212,-112.365188,,,
Red Cliffs Mall,,1750 Red Cliffs Dr.,,St George,UT,84790,US,(435) 628-9045,37.1098,-113.5570,,,
Crossroads Towne Ctr.,,3855 S. Gilbert Road,,Gilbert,AZ,85297,US,(480) 917-3735,33.279860,-111.7914,,,
Bell Towne Center,,401 E. Bell Road,,Phoenix,AZ,85022,US,(602) 866-5934,33.638520,-112.0673,,,
Chandler Festival,,2600 W Chandler Blvd,,Chandler,AZ,85224,US,(480) 857-2673,33.307720,-111.8857,,,
Blvd. East Retail Ctr,,2600 American Legion Blvd.,,Mountain Home,ID,83647,US,(208) 587-3488,43.134870,-115.6670,,,
Palm Valley Pavilions W Sp G-1,,1400 N. Litchfield Road,,Goodyear,AZ,85395,US,(623) 935-9047,33.462140,-112.3605,,,
Boise Town Square,,350 N Milwaukee,,Boise,ID,83704,US,(208) 322-1768,43.6046,-116.2730,,,
Center Point @ Marketplace,,3371 North Eagle Rd.,,Meridian,ID,83646,US,(208) 887-6325,43.633840,-116.3543,,,
Elko Junction Shopping Center,,2775 Mountain City Highway,,Elko,NV,89801,US,(775) 753-7257,40.840970,-115.8136,,,
Treasure Valley M.P.,,16514 N. Market Place,,Nampa,ID,83687,US,(208) 461-1515,43.604980,-116.6025,,,
Silver Lake Plaza,,291 Canfield Avenue,,Coeur D Alene,ID,83815,US,(208) 772-1815,47.734890,-116.7908,,,
Safeway Plaza,,3930 N. Stockton Hill Road,,Kingman,AZ,86409,US,(928) 757-0011,35.2383,-114.0375,,,
Lewiston Center,,1808 19th Avenue,,Lewiston,ID,83501,US,(208) 746-8141,46.4014,-117.0007,,,
Palouse Empire Mall,,2112 W. Pullman Blvd.,,Moscow,ID,83843,US,(208) 882-1665,46.7327,-117.0150,,,
Ontario Marketplace,,263 E. Lane North,,Ontario,OR,97914,US,(541) 889-0019,44.022670,-116.9404,,,
Spokane Valley Mall,,14700 East Indiana,,Spokane,WA,99216,US,(509) 921-1026,47.6689,-117.1950,,,
Northtown Mall,,4750 North Division Street,,Spokane,WA,99207,US,(509) 483-7233,47.7013,-117.4107,,,
Shops @ Lake Havasu Ste 920,,5601 Hwy. 95 N.,,Lake Havasu City,AZ,86404,US,(928) 764-3067,34.5685,-114.3669,,,
Las Vegas P.O. South.,,7400 S. Las Vegas Blvd.,,Las Vegas,NV,89123,US,(702) 614-1347,36.163610,-115.1581,,,
Centennial Center,,7981 W. Tropical Parkway,,Las Vegas,NV,89149,US,(702) 395-0588,36.269320,-115.2692,,,
The Arroyo Mkt. Sqr.,,7235 Arroyo Crsng Pkwy,,Las Vegas,NV,89113,US,(702) 263-4898,36.067760,-115.2426,,,
Baker Towne Square,,1090 Campbell Street,,Baker City,OR,97814,US,(541) 523-3545,44.781620,-117.8225,,,
Island City Wal-Mart C.,,11627 Island Avenue,,Island City,OR,97850,US,(541) 963-3901,45.333090,-118.0178,,,
Meadowbrook Plaza,,1705 S. E. Meadowbrook Blvd.,,College Place,WA,99324,US,(509) 525-2761,46.056660,-118.3160,,,
,,1740 Sw Court Avenue,,Pendleton,OR,97801,US,(541) 276-2460,45.6708,-118.7854,,,
Columbia Center,,1321 N Columbia Center Blvd,,Kennewick,WA,99336,US,(509) 374-3938,46.226060,-119.2269,,,
Grant County Mall,,601 S. Pioneer Way,,Moses Lake,WA,98837,US,(509) 764-1981,47.131120,-119.2704,,,
Vinter Square S. C.,,2651 Queensgate Drive,,Richland,WA,99352,US,(509) 628-9417,46.2572,-119.3010,,,
Hermiston Plaza,,894-896 Hwy 395 South,,Hermiston,OR,97838,US,(541) 564-1934,45.834990,-119.2874,,,
Valley North Center,,1340 N Miller St,,Wenatchee,WA,98801,US,(509) 662-1391,47.4407,-120.3258,,,
Valley Mall Plaza,,2551 Main Street,,Union Gap,WA,98903,US,(509) 576-3645,46.5645,-120.4811,,,
,,116 East Fourth Avenue,,Ellensburg,WA,98926,US,(509) 925-9350,46.9955,-120.5458,,,
Legends Spark Marina,,1350 Scheels Dr.,,Sparks,NV,89434,US,(775) 356-2869,39.531460,-119.7203,,,
Sparks Crossings,,227 Los Altos Pkwy,,Sparks,NV,89436,US,(775) 626-6568,39.585820,-119.7422,,,
,,1320 W. Sixth Street,,The Dalles,OR,97058,US,(541) 298-5301,45.6065,-121.2023,,,
Meadowood Mall,,5156 Meadowood Mall Circle,,Reno,NV,89502,US,(775) 825-9992,39.474130,-119.7825,,,
Carson Valley Plaza,,911 Topsy Lane,,Carson City,NV,89705,US,(775) 267-9027,39.1118,-119.7736,,,
Walmart Shadow Center,,355 Nw Oak Tree Lane,,Redmond,OR,97756,US,(541) 548-8629,44.294820,-121.1706,,,
Cascade Commons S.C.,,2149  W. Cascade Avenue,,Hood River,OR,97031,US,(541) 386-4823,45.7080,-121.5340,,,
Bend Factory Stores,,61334 S. Highway 97,,Bend,OR,97702,US,(541) 388-6998,44.0214,-121.3226,,,
Factory Strs @ N. Bend,,421 S. Fork Ave. S. W.,,North Bend,WA,98045,US,(425) 831-0045,47.490960,-121.7960,,,
Porterville Marketplace,,1361 W Henderson Avenue,,Porterville,CA,93257,US,(559) 789-9747,36.080470,-119.0439,,,
Everett Mall,,1402 Se Everett Mall Way,,Everett,WA,98208,US,(425) 265-9621,47.90982,-122.213,,,
Park Place Promenade,,2226 South Mooney Boulevard,,Visalia,CA,93277,US,(559) 735-9574,36.313130,-119.3137,,,
Alderwood Mall,,3000 184th Street Sw,,Lynnwood,WA,98037,US,(425) 640-2595,47.829720,-122.2724,,,
Outlet Coll.@ Seattle Ste 1117,,1101 Outlet Collection Way,,Auburn,WA,98001,US,(253) 735-4035,47.299560,-122.2441,,,
Southcenter Mall,,1071 Southcenter,,Tukwila,WA,98188,US,(206) 246-2787,47.458730,-122.2585,,,
Tulare Outlet Ctr.,,1521 Retherford St.,,Tulare,CA,93274,US,(559) 686-4400,36.2270,-119.3340,,,
Cascade Mall,,360 Cascade Mall Dr.,,Burlington,WA,98233,US,(360) 757-1843,48.4648,-122.3366,,,
Seatac Village,,1824 South 320th Street,,Federal Way,WA,98003,US,(253) 941-0889,47.31667,-122.3094,,,
South Hill Mall,,3500 Meridian,,Puyallup,WA,98373,US,(253) 845-5577,47.157480,-122.2995,,,
Clovis Crossing Shopping Ctr,,1335 Herndon Avenue,,Clovis,CA,93611,US,(559) 323-4857,36.837410,-119.6999,,,
Bellis Fair Mall,,1 Bellis Fair Prkwy,,Bellingham,WA,98225,US,(360) 733-1128,48.7860,-122.4890,,,
Tacoma Mall,,4502 South Steele Street,,Tacoma,WA,98409,US,(253) 475-0102,47.216070,-122.4685,,,
Lakewood Towne Center,,5815 Lakewood Town Ctr Blvd Sw,,Lakewood,WA,98499,US,(253) 584-0681,47.16526,-122.5141,,,
Klamath Village,,3380 Washburn Way,,Klamath Falls,OR,97603,US,(541) 882-3364,42.206440,-121.7412,,,
Island Plaza  Ste 8,,31595 Sr20,,Oak Harbor,WA,98277,US,(360) 679-2312,48.2883,-122.6479,,,
The Marketplace At Hanford,,180 N.12th Avenue,,Hanford,CA,93230,US,(559) 589-1034,36.317590,-119.6743,,,
Marketplace At El Paseo,,6599 N. Riverside Drive,,Fresno,CA,93722,US,(559) 277-3787,36.8325,-119.9098,,,
Gresham Station,,937 Nw 12th St.,,Gresham,OR,97030,US,(503) 491-9129,45.50536,-122.4394,,,
Cascade Station,,9941 N E Cascades Parkway,,Portland,OR,97220,US,(503) 287-3363,45.573720,-122.5601,,,
Westfield Vancouver,,8700 Ne Vancouver Mall Drive,,Vancouver,WA,98662,US,(360) 260-4949,45.658270,-122.5835,,,
Clackamas Twn. Ctr.,,12000 Se 82nd Avenue,,Happy Valley,OR,97086,US,(503) 652-6156,45.4362,-122.5739,,,
Pine Creek Sc,,672 Freeman Lane,,Grass Valley,CA,95949,US,(530) 273-8694,39.20303,-121.0651,,,
Westfield Capital Mall,,625 Black Lake Blvd.,,Olympia,WA,98502,US,(360) 705-9262,47.042020,-122.9355,,,
Twin City Center,,1471 Nw Louisiana Ave,,Chehalis,WA,98532,US,(360) 748-3231,46.6741,-122.9785,,,
,,200 Triangle Ctr Way Ste. 210,,Longview,WA,98632,US,(360) 636-6772,46.145950,-122.9307,,,
Streets Of Tanasbourne,,2289 Nw Allie Avenue,,Hillsboro,OR,97124,US,(503) 690-0470,45.535550,-122.8783,,,
Woodburn Prem. Otlts,,1001 Arney Road,,Woodburn,OR,97071,US,(503) 982-5086,45.155140,-122.8793,,,
Rocklin Commons,,5108 Commons Drive,,Rocklin,CA,95677,US,(916) 660-9454,38.803780,-121.2081,,,
Keizer Station,,6194 Ulali Drive,,Keizer,OR,97303,US,(503) 390-2291,45.010290,-122.9984,,,
Salem Center,,480 Center St. Ne,,Salem,OR,97301,US,(503) 589-4289,44.9425,-123.0378,,,
Bayview Center,,2743 E. Highway 101,,Port Angeles,WA,98362,US,(360) 452-2266,48.1205,-123.4353,,,
Monte Vista Crossings,,2723 Countryside Drive,,Turlock,CA,95380,US,(209) 664-9628,37.521940,-120.8859,,,
Mcminnville Plaza,,2656 N. Hwy. 99 W.,,Mcminnville,OR,97128,US,(503) 434-1316,45.1949,-123.1683,,,
Heritage Mall,,2249 14th Avenue S. E.,,Albany,OR,97322,US,(541) 791-9643,44.6370,-123.0907,,,
Chico Mall,,1950 E. 20th Street,,Chico,CA,95928,US,(530) 898-0921,39.7292,-121.8051,,,
Gateway Mall,,3000 Gateway St.,,Springfield,OR,97477,US,(541) 741-7176,44.0750,-123.0440,,,
Valley River Center,,205 Valley River Center,,Eugene,OR,97401,US,(541) 343-0036,44.067280,-123.1069,,,
Timberhill S. C.,,2409 N. W. Kings Blvd.,,Corvallis,OR,97330,US,(541) 753-3636,44.5650,-123.2842,,,
Stadium Center,,2234 Daniels Street,,Manteca,CA,95337,US,(209) 824-9017,37.7830,-121.2570,,,
Shasta Outlets,,1765 Hwy 273,,Anderson,CA,96007,US,(530) 365-7430,40.4478,-122.2981,,,
