store_name,store_number,address,address2,city,state,zip_code,country,phone_number,latitude,longitude,store_hours,other_fields,coming_soon
,,Hediks to 254,,Wien,,1140,Austria,01/914 335 0,48.192936000000,16.275846000000,Monday:06:00 - 01:00;Tuesday:06:00 - 01:00;Wednesday:06:00 - 01:00;Thursday:06:00 - 01:00;Friday:06:00 - 04:00;Saturday:06:00 - 04:00;Sunday:06:00 - 01:00;holiday:06:00 - 01:00;,,0
,,Shopping City South Parking Westring,,Vösendorf,,2334,Austria,01/699 44 42,48.112587000000,16.316097000000,Monday:07:00 - 22:00;Tuesday:07:00 - 22:00;Wednesday:07:00 - 22:00;Thursday:07:00 - 23:00;Friday:07:00 - 23:00;Saturday:07:00 - 22:00;Sunday:11:00 - 20:00;holiday:11:00 - 20:00;,,0
,,Europabrücke car park 1,,Schönberg,,6141,Austria,05225/625 75,47.196598000000,11.397160000000,Monday:00:00 - 24:00;Tuesday:00:00 - 24:00;Wednesday:00:00 - 24:00;Thursday:00:00 - 24:00;Friday:00:00 - 24:00;Saturday:00:00 - 24:00;Sunday:00:00 - 24:00;holiday:00:00 - 24:00;,,0
,,Wagramer Straße 54,,Wien,,1220,Austria,01 / 203 93 55 11,48.239582000000,16.431065000000,Monday:06:00 - 02:00;Tuesday:06:00 - 02:00;Wednesday:06:00 - 02:00;Thursday:06:00 - 02:00;Friday:06:00 - 05:00;Saturday:06:00 - 05:00;Sunday:06:00 - 02:00;holiday:06:00 - 02:00;,,0
,,Landstraße 71 -75,,Linz,,4020,Austria,0732/65 32 98,48.298306000000,14.291737000000,Monday:07:00 - 00:00;Tuesday:07:00 - 00:00;Wednesday:07:00 - 00:00;Thursday:07:00 - 00:00;Friday:07:00 - 00:00;Saturday:07:00 - 00:00;Sunday:08:00 - 00:00;holiday:08:00 - 00:00;,,0
,,Getreidegasse 26,,Salzburg,,5020,Austria,0662/84 09 23 11,47.800102000000,13.041978000000,Monday:07:00 - 24:00;Tuesday:07:00 - 24:00;Wednesday:07:00 - 24:00;Thursday:07:00 - 24:00;Friday:07:00 - 02:00;Saturday:07:00 - 03:00;Sunday:07:00 - 24:00;holiday:07:00 - 24:00;,,0
,,Jakominiplatz 18,,Graz,,8010,Austria,0664 / 969 16 83,47.066689000000,15.441539000000,Monday:06:00 - 00:00;Tuesday:06:00 - 00:00;Wednesday:06:00 - 00:00;Thursday:06:00 - 00:00;Friday:06:00 - 01:00;Saturday:07:00 - 01:00;Sunday:07:00 - 00:00;holiday:07:00 - 00:00;,,0
,,Rotenturmstraße 29,,Wien,,1010,Austria,01/533 20 72,48.211796000000,16.375935000000,Monday:07:00 - 02:00;Tuesday:07:00 - 02:00;Wednesday:07:00 - 02:00;Thursday:07:00 - 02:00;Friday:07:00 - 05:00;Saturday:07:00 - 05:00;Sunday:07:00 - 02:00;holiday:07:00 - 02:00;,,0
,,Simmeringer Hauptstraße 113,,Wien,,1110,Austria,0664 / 887 180 40,48.173862000000,16.417097000000,Monday:07:00 - 01:00;Tuesday:07:00 - 01:00;Wednesday:07:00 - 01:00;Thursday:07:00 - 01:00;Friday:07:00 - 02:00;Saturday:07:00 - 02:00;Sunday:07:00 - 01:00;holiday:07:00 - 01:00;,,0
,,Johannesgasse 3,,Wien,,1010,Austria,01/513 17 22,48.205200000000,16.372101000000,Monday:07:00 - 01:00;Tuesday:07:00 - 01:00;Wednesday:07:00 - 01:00;Thursday:07:00 - 01:00;Friday:07:00 - 02:00;Saturday:07:00 - 02:00;Sunday:07:00 - 01:00;holiday:07:00 - 01:00;,,0
,,Wilhelmstraße 64,,Wien,,1120,Austria,01/815 76 95,48.174854000000,16.331057000000,Monday:05:00 - 01:00;Tuesday:05:00 - 01:00;Wednesday:05:00 - 01:00;Thursday:05:00 - 01:00;Friday:05:00 - 01:00;Saturday:05:00 - 01:00;Sunday:05:00 - 01:00;holiday:05:00 - 01:00;,,0
,,Mariahilferstraße 22 - 24,,Wien,,1070,Austria,01/523 14 45,48.200768000000,16.357262000000,Monday:07:00 - 01:00;Tuesday:07:00 - 01:00;Wednesday:07:00 - 01:00;Thursday:07:00 - 01:00;Friday:07:00 - 03:00;Saturday:07:00 - 03:00;Sunday:08:00 - 01:00;holiday:08:00 - 01:00;,,0
,,Schwarzenbergplatz 17,,Wien,,1010,Austria,01/505 444 30,48.201122000000,16.374096000000,Monday:06:30 - 01:30;Tuesday:06:30 - 01:30;Wednesday:06:30 - 01:30;Thursday:06:30 - 01:30;Friday:06:30 - 05:00;Saturday:06:30 - 05:00;Sunday:06:30 - 01:30;holiday:06:30 - 01:30;,,0
,,"IZ Lower-South, corner street 1, street 6",,Neudorf,,2351,Austria,0043 / 2236 618 49,48.076126000000,16.330383000000,Monday:06:00 - 00:00;Tuesday:06:00 - 00:00;Wednesday:06:00 - 00:00;Thursday:06:00 - 00:00;Friday:06:00 - 00:00;Saturday:07:00 - 00:00;Sunday:08:00 - 00:00;holiday:08:00 - 00:00;,,0
,,Rusterstraße 147,,Eisenstadt,,7000,Austria,02682/750 01,47.828495000000,16.531519000000,Monday:07:00 - 00:00;Tuesday:07:00 - 00:00;Wednesday:07:00 - 00:00;Thursday:07:00 - 00:00;Friday:07:00 - 02:00;Saturday:07:00 - 02:00;Sunday:08:00 - 00:00;holiday:08:00 - 00:00;,,0
,,Kaplanstraße 3,,Rum,,6063,Austria,0512/20 44 50,47.277416000000,11.456435000000,Monday:06:30 - 01:00;Tuesday:06:30 - 01:00;Wednesday:06:30 - 01:00;Thursday:06:30 - 01:00;Friday:06:30 - 03:00;Saturday:06:30 - 03:00;Sunday:06:30 - 00:00;holiday:06:30 - 00:00;,,0
,,McDonald’s Straße 1,,Lorenzen / Mürztal,,8642,Austria,0660 / 461 01 31,47.468829700000,15.346244000000,Monday:07:00 - 00:00;Tuesday:07:00 - 00:00;Wednesday:07:00 - 00:00;Thursday:07:00 - 00:00;Friday:07:00 - 03:00;Saturday:07:00 - 03:00;Sunday:07:00 - 00:00;holiday:07:00 - 00:00;,,0
,,The,,Lustenau,,6890,Austria,05577/63330,47.418660000000,9.672174000000,Monday:07:00 - 01:00;Tuesday:07:00 - 01:00;Wednesday:07:00 - 01:00;Thursday:07:00 - 01:00;Friday:07:00 - 01:00;Saturday:07:00 - 01:00;Sunday:07:00 - 01:00;holiday:07:00 - 01:00;,,0
,,Copy to Clipboard,,Straßwalchen,,5204,Austria,06215/20418,47.971470000000,13.249930000000,Monday:07:00 - 00:00;Tuesday:07:00 - 00:00;Wednesday:07:00 - 00:00;Thursday:07:00 - 00:00;Friday:07:00 - 01:00;Saturday:07:00 - 01:00;Sunday:08:00 - 00:00;holiday:08:00 - 00:00;,,0
,,Eco Plus Park 2. Strasse 1,,Leitha,,2460,Austria,0664 / 88662775,48.033760000000,16.804977000000,Monday:07:00 - 23:00;Tuesday:07:00 - 23:00;Wednesday:07:00 - 23:00;Thursday:07:00 - 23:00;Friday:07:00 - 23:00;Saturday:07:00 - 23:00;Sunday:07:00 - 23:00;holiday:07:00 - 23:00;,,0
,,Mariazeller Straße 93,,Pölten,,3100,Austria,02742 / 7866111,48.189030000000,15.617890000000,Monday:07:00 - 01:00;Tuesday:07:00 - 01:00;Wednesday:07:00 - 01:00;Thursday:07:00 - 02:00;Friday:07:00 - 05:00;Saturday:07:00 - 05:00;Sunday:07:00 - 01:00;holiday:07:00 - 01:00;,,0
,,Copy to Clipboard,,Traun,,4050,Austria,07229/640 61,48.234509900000,14.234044200000,Monday:07:00 - 00:00;Tuesday:07:00 - 00:00;Wednesday:07:00 - 00:00;Thursday:07:00 - 00:00;Friday:07:00 - 00:00;Saturday:07:00 - 00:00;Sunday:07:00 - 00:00;holiday:07:00 - 00:00;,,0
,,Exhibition Street 44a,,Wien,,1020,Austria,0664 88662762,48.217410000000,16.405811300000,Monday:07:00 - 01:00;Tuesday:07:00 - 01:00;Wednesday:07:00 - 01:00;Thursday:07:00 - 01:00;Friday:07:00 - 01:00;Saturday:07:00 - 01:00;Sunday:07:00 - 01:00;holiday:07:00 - 01:00;,,0
,,Copy to Clipboard,,Drau,,9800,Austria,+43 4762 44166,46.786634600000,13.522840500000,Monday:07:00 - 00:00;Tuesday:07:00 - 00:00;Wednesday:07:00 - 00:00;Thursday:07:00 - 00:00;Friday:07:00 - 00:30;Saturday:07:00 - 00:30;Sunday:08:00 - 00:00;holiday:08:00 - 00:00;,,0
,,Copy to Clipboard,,Frauenhofen / Horn,,3580,Austria,02982/30304,48.665384000000,15.634125000000,Monday:07:00 - 01:00;Tuesday:07:00 - 01:00;Wednesday:07:00 - 01:00;Thursday:07:00 - 01:00;Friday:07:00 - 01:00;Saturday:07:00 - 01:00;Sunday:07:00 - 01:00;holiday:07:00 - 01:00;,,0
,,Golling West rest stop on the A10,,Golling,,5440,Austria,06244/20503,47.583269000000,13.156625000000,Monday:06:00 - 24:00;Tuesday:06:00 - 24:00;Wednesday:06:00 - 24:00;Thursday:00:00 - 24:00;Friday:00:00 - 24:00;Saturday:00:00 - 24:00;Sunday:06:00 - 24:00;holiday:06:00 - 24:00;,,0
,,"BahnhofCity Wien Hauptbahnhof, EG Top 151",,Wien,,1100,Austria,01/600 56 28,48.185220300000,16.376450900000,Monday:06:00 - 24:00;Tuesday:06:00 - 24:00;Wednesday:06:00 - 24:00;Thursday:06:00 - 24:00;Friday:06:00 - 24:00;Saturday:06:00 - 24:00;Sunday:07:00 - 24:00;holiday:07:00 - 24:00;,,0
,,A2 direction Graz,,Fischau,,2721,Austria,02639/22401,47.833340000000,16.181720000000,Monday:06:00 - 02:00;Tuesday:06:00 - 02:00;Wednesday:06:00 - 02:00;Thursday:06:00 - 02:00;Friday:06:00 - 02:00;Saturday:06:00 - 02:00;Sunday:06:00 - 02:00;holiday:06:00 - 02:00;,,0
,,Ten-girdle 12-24 (EKZ fishapark),,Neustadt,,2700,Austria,02622/26840,47.819378000000,16.217016000000,Monday:08:30 - 19:30;Tuesday:08:30 - 19:30;Wednesday:08:30 - 19:30;Thursday:08:30 - 19:30;Friday:08:30 - 20:30;Saturday:08:30 - 18:30;Sunday:closed;holiday:closed;,,0
,,Autobahnstation Bergheim-Kasern,,Bergheim,,5101,Austria,0662/661021,47.830917000000,13.065040000000,Monday:06:30 - 22:00;Tuesday:06:30 - 22:00;Wednesday:06:30 - 22:00;Thursday:06:30 - 22:00;Friday:06:30 - 23:00;Saturday:06:30 - 23:00;Sunday:06:30 - 22:00;holiday:06:30 - 22:00;,,0
,,Kennedybrücke / Hadikgasse 62,,Wien,,1140,Austria,01/8920707,48.188416000000,16.303738000000,Monday:07:00 - 00:00;Tuesday:07:00 - 00:00;Wednesday:07:00 - 00:00;Thursday:07:00 - 00:00;Friday:07:00 - 01:00;Saturday:08:00 - 01:00;Sunday:09:00 - 00:00;holiday:09:00 - 00:00;,,0
,,Favoritenstraße 89,,Wien,,1100,Austria,01/6077071,48.179886000000,16.376097000000,Monday:07:00 - 00:00;Tuesday:07:00 - 00:00;Wednesday:07:00 - 00:00;Thursday:07:00 - 00:00;Friday:07:00 - 01:00;Saturday:07:00 - 01:00;Sunday:08:00 - 00:00;holiday:08:00 - 00:00;,,0
,,Anton Hermann Street 1,,Feldkirchen,,8073,Austria,06649683700,47.008327000000,15.439795000000,Monday:06:00 - 00:00;Tuesday:06:00 - 00:00;Wednesday:06:00 - 00:00;Thursday:06:00 - 00:00;Friday:06:00 - 01:00;Saturday:06:00 - 01:00;Sunday:06:00 - 00:00;holiday:06:00 - 00:00;,,0
,,EKZ Passage 22 / Bundesstraße 24,,Rankweil,,6830,Austria,05522/82622,47.273491000000,9.616135000000,Monday:07:00 - 01:00;Tuesday:07:00 - 01:00;Wednesday:07:00 - 01:00;Thursday:07:00 - 01:00;Friday:07:00 - 01:00;Saturday:07:00 - 01:00;Sunday:07:00 - 01:00;holiday:07:00 - 01:00;,,0
,,Copy to Clipboard,,Schwechat,,2320,Austria,01/707 87 45,48.135448000000,16.492992000000,Monday:06:30 - 01:00;Tuesday:06:30 - 01:00;Wednesday:06:30 - 01:00;Thursday:06:30 - 01:00;Friday:06:30 - 01:00;Saturday:06:30 - 01:00;Sunday:06:30 - 01:00;holiday:06:30 - 01:00;,,0
,,Rautenweg 2,,Wien,,1220,Austria,0664/9131012,48.264122000000,16.455765000000,Monday:07:00 - 00:00;Tuesday:07:00 - 00:00;Wednesday:07:00 - 00:00;Thursday:07:00 - 00:00;Friday:07:00 - 01:00;Saturday:07:00 - 01:00;Sunday:07:00 - 00:00;holiday:07:00 - 00:00;,,0
,,Südtirolerplatz Shop 2.125 / Shop 1.132,,Wien,,1040,Austria,01 5032288,48.186115000000,16.375025000000,Monday:05:30 - 00:30;Tuesday:05:30 - 00:30;Wednesday:05:30 - 00:30;Thursday:05:30 - 00:30;Friday:05:30 - 00:30;Saturday:05:30 - 00:30;Sunday:05:30 - 00:30;holiday:05:30 - 00:30;,,0
,,Albert-Schweitzer-Gasse 6 (Auhofcenter),,Wien,,1140,Austria,01/979 18 33,48.207066000000,16.221163000000,Monday:08:00 - 21:00;Tuesday:08:00 - 21:00;Wednesday:08:00 - 21:00;Thursday:08:00 - 21:00;Friday:08:00 - 22:00;Saturday:08:00 - 21:00;Sunday:12:00 - 21:00;holiday:closed;,,0
,,Gz Plaz 1,,Wien,,2201,Austria,0664 / 8866 2774,48.343727000000,16.461468000000,Monday:08:30 - 19:30;Tuesday:08:30 - 19:30;Wednesday:08:30 - 19:30;Thursday:08:30 - 20:00;Friday:08:30 - 20:00;Saturday:08:00 - 19:00;Sunday:closed;holiday:closed;,,0
,,Landstraßer Hauptstraße 1b (station Wien Mitte),,Wien,,1030,Austria,01 / 710 17 25,48.206345000000,16.384773000000,Monday:06:00 - 00:00;Tuesday:06:00 - 00:00;Wednesday:06:00 - 00:00;Thursday:06:00 - 00:00;Friday:06:00 - 00:30;Saturday:06:00 - 00:30;Sunday:06:00 - 00:00;holiday:06:00 - 00:00;,,0
,,SCS Food Plaza Entrance 9,,Vösendorf,,2334,Austria,01/699 83 83 11,48.108704000000,16.318531000000,Monday:08:30 - 19:30;Tuesday:08:30 - 19:30;Wednesday:08:30 - 19:30;Thursday:08:30 - 21:00;Friday:08:30 - 19:30;Saturday:08:30 - 19:00;Sunday:closed;holiday:closed;,,0
,,Radingdorf 11,,Unterweitersdorf,,4210,Austria,07236 20 651,48.359712000000,14.480291000000,Monday:07:00 - 23:00;Tuesday:07:00 - 23:00;Wednesday:07:00 - 23:00;Thursday:07:00 - 23:00;Friday:07:00 - 01:00;Saturday:07:00 - 01:00;Sunday:08:00 - 23:00;holiday:08:00 - 23:00;,,0
,,Commercial street 4,,Parndorf,,7111,Austria,02166/22642,47.979939000000,16.849890000000,Monday:09:00 - 20:00;Tuesday:09:00 - 20:00;Wednesday:09:00 - 20:00;Thursday:09:00 - 20:00;Friday:09:00 - 21:00;Saturday:08:30 - 18:30;Sunday:closed;holiday:closed;,,0
,,Business Street 7,,Mondsee,,5310,Austria,06232/203680,47.859203000000,13.332223000000,Monday:07:00 - 01:00;Tuesday:07:00 - 01:00;Wednesday:07:00 - 01:00;Thursday:07:00 - 01:00;Friday:07:00 - 01:00;Saturday:00:00 - 00:00;Sunday:00:00 - 00:00;holiday:07:00 - 01:00;,,0
,,Airport Vienna Object 115,,Schwechat / Vienna,,1300,Austria,0664 / 887 180 43,48.119686000000,16.562231000000,Monday:00:00 - 24:00;Tuesday:00:00 - 24:00;Wednesday:00:00 - 24:00;Thursday:00:00 - 24:00;Friday:00:00 - 24:00;Saturday:00:00 - 24:00;Sunday:00:00 - 24:00;holiday:00:00 - 24:00;,,0
,,Copy to Clipboard,,Klagenfurt,,9020,Austria,0676 898 388 803,46.626633000000,14.308836000000,Monday:06:30 - 23:00;Tuesday:06:30 - 23:00;Wednesday:06:30 - 23:00;Thursday:06:30 - 23:00;Friday:06:30 - 24:00;Saturday:06:30 - 24:00;Sunday:08:00 - 23:00;holiday:08:00 - 23:00;,,0
,,Taborstrasse 39,,Wien,,1020,Austria,01/212 62 59,48.219345000000,16.380783000000,Monday:07:00 - 01:00;Tuesday:07:00 - 01:00;Wednesday:07:00 - 01:00;Thursday:07:00 - 01:00;Friday:07:00 - 01:00;Saturday:07:00 - 01:00;Sunday:07:00 - 01:00;holiday:07:00 - 01:00;,,0
,,Folk festivity 4,,Rohrbach,,4150,Austria,07289 209260,48.566971000000,13.980963000000,Monday:08:00 - 23:00;Tuesday:08:00 - 23:00;Wednesday:08:00 - 23:00;Thursday:08:00 - 00:00;Friday:08:00 - 01:00;Saturday:08:00 - 01:00;Sunday:08:00 - 23:00;holiday:08:00 - 23:00;,,0
,,Amrasetracks street 56b,,Innsbruck,,6020,Austria,0512/34 85 92,47.262863000000,11.428589000000,Monday:07:00 - 01:00;Tuesday:07:00 - 01:00;Wednesday:07:00 - 01:00;Thursday:07:00 - 01:00;Friday:07:00 - 03:00;Saturday:07:00 - 03:00;Sunday:08:00 - 01:00;holiday:08:00 - 01:00;,,0
,,Dr. Karl Renner Str. 58,,Enns,,4470,Austria,07223 81630,48.216324000000,14.459326000000,Monday:08:00 - 00:00;Tuesday:08:00 - 00:00;Wednesday:08:00 - 00:00;Thursday:08:00 - 00:00;Friday:08:00 - 01:00;Saturday:08:00 - 01:00;Sunday:08:00 - 00:00;holiday:08:00 - 00:00;,,0
,,Europastraße 2,,Gleisdorf,,8200,Austria,0664 8466789,47.108345000000,15.703378000000,Monday:07:00 - 00:00;Tuesday:07:00 - 00:00;Wednesday:07:00 - 00:00;Thursday:07:00 - 00:00;Friday:07:00 - 01:00;Saturday:07:00 - 01:00;Sunday:07:00 - 00:00;holiday:07:00 - 00:00;,,0
,,"Mariahilfer Gürtel OG 1.26, Westbahnhof",,Wien,,1150,Austria,01/962 1597 11,48.196194000000,16.338154000000,Monday:05:00 - 01:00;Tuesday:05:00 - 01:00;Wednesday:05:00 - 01:00;Thursday:05:00 - 01:00;Friday:05:00 - 01:00;Saturday:05:00 - 01:00;Sunday:05:00 - 01:00;holiday:05:00 - 01:00;,,0
,,South Tyrolean Square 5,,Innsbruck,,6020,Austria,0512/560 210,47.263535000000,11.400387000000,Monday:06:00 - 00:00;Tuesday:06:00 - 00:00;Wednesday:06:00 - 00:00;Thursday:06:00 - 00:00;Friday:06:00 - 00:00;Saturday:06:00 - 00:00;Sunday:06:00 - 00:00;holiday:06:00 - 00:00;,,0
,,Flower Road 13-23,,Linz,,4040,Austria,0664 / 886 627 91,48.314205000000,14.283233000000,Monday:07:00 - 21:00;Tuesday:07:00 - 21:00;Wednesday:07:00 - 21:00;Thursday:07:00 - 22:00;Friday:07:00 - 22:00;Saturday:08:00 - 22:00;Sunday:11:00 - 21:00;holiday:11:00 - 21:00;,,0
,,Horner Str. 101a,,Stockerau,,2000,Austria,02266 / 619 11,48.388966000000,16.179567000000,Monday:07:00 - 00:00;Tuesday:07:00 - 00:00;Wednesday:07:00 - 00:00;Thursday:07:00 - 00:00;Friday:07:00 - 01:00;Saturday:07:00 - 01:00;Sunday:07:00 - 00:00;holiday:07:00 - 00:00;,,0
,,"Museumstraße 38, in the shopping center Sillpark",,Innsbruck,,6020,Austria,0512 / 563 233,47.266159000000,11.403652000000,Monday:08:00 - 19:00;Tuesday:08:00 - 19:00;Wednesday:08:00 - 19:00;Thursday:08:00 - 19:00;Friday:08:00 - 20:00;Saturday:08:00 - 18:00;Sunday:closed;holiday:closed;,,0
,,Bahnhofplatz 1,,Pölten,,3100,Austria,02742 / 356 434-0,48.207863000000,15.625860000000,Monday:06:00 - 23:00;Tuesday:06:00 - 23:00;Wednesday:06:00 - 23:00;Thursday:06:00 - 23:00;Friday:06:00 - 00:00;Saturday:06:00 - 00:00;Sunday:08:00 - 23:00;holiday:08:00 - 23:00;,,0
,,Handelskai 92 (Rivergate),,Wien,,1200,Austria,01/330 00 42-11,48.242016000000,16.384235000000,Monday:06:00 - 01:00;Tuesday:06:00 - 01:00;Wednesday:06:00 - 01:00;Thursday:06:00 - 01:00;Friday:06:00 - 02:00;Saturday:06:00 - 02:00;Sunday:06:00 - 01:00;holiday:06:00 - 01:00;,,0
,,Raststation A5 Süd,,Hochleithen,,2123,Austria,02245/89 100,48.425789000000,16.548662000000,Monday:05:00 - 01:00;Tuesday:05:00 - 01:00;Wednesday:05:00 - 01:00;Thursday:05:00 - 01:00;Friday:05:00 - 01:00;Saturday:05:00 - 01:00;Sunday:05:00 - 01:00;holiday:05:00 - 01:00;,,0
,,IGP 19 South / A2 (exit Völkermarkt Ost),,Völkermarkt,,9100,Austria,0676 898 388 816,46.682495000000,14.676446000000,Monday:06:30 - 00:00;Tuesday:06:30 - 00:00;Wednesday:06:30 - 00:00;Thursday:06:30 - 00:00;Friday:06:30 - 00:00;Saturday:06:30 - 00:00;Sunday:06:30 - 00:00;holiday:06:30 - 00:00;,,0
,,The,,Telfs,,6410,Austria,05262 / 63 231,47.307365000000,11.075742000000,Monday:07:00 - 01:00;Tuesday:07:00 - 01:00;Wednesday:07:00 - 01:00;Thursday:07:00 - 01:00;Friday:07:00- 02:00;Saturday:07:00- 02:00;Sunday:07:00 - 01:00;holiday:07:00 - 01:00;,,0
,,"Bahnhofplatz 3-6, Linz main train station",,Linz,,4020,Austria,0664 / 88662792,48.290535000000,14.291190000000,Monday:05:30 - 00:00;Tuesday:05:30 - 00:00;Wednesday:05:30 - 00:00;Thursday:05:30 - 00:00;Friday:05:30 - 01:00;Saturday:05:30 - 01:00;Sunday:05:30 - 00:00;holiday:05:30 - 00:00;,,0
,,Berglund Center 5,,Bergland,,3254,Austria,07412 / 54 900,48.160995000000,15.106426000000,Monday:07:00 - 00:00;Tuesday:07:00 - 00:00;Wednesday:07:00 - 00:00;Thursday:07:00 - 00:00;Friday:07:00 - 01:00;Saturday:07:00 - 01:00;Sunday:07:00 - 00:00;holiday:07:00 - 00:00;,,0
,,"Pilgrambrücke 1, U4 Pilgramgasse",,Wien,,1050,Austria,,48.192844000000,16.354597000000,Monday:06:30 - 02:00;Tuesday:06:30 - 02:00;Wednesday:06:30 - 02:00;Thursday:06:30 - 02:00;Friday:06:30 - 04:00;Saturday:07:00 - 04:00;Sunday:08:00 - 00:30;holiday:08:00 - 00:30;,,0
,,Ennsling 160,,Ennstal,,8967,Austria,03686 / 28 505,47.411583000000,13.779279000000,Monday:07:00 - 00:00;Tuesday:07:00 - 00:00;Wednesday:07:00 - 00:00;Thursday:07:00 - 00:00;Friday:07:00 - 00:00;Saturday:07:00 - 00:00;Sunday:07:00 - 00:00;holiday:07:00 - 00:00;,,0
,,Arenaplatz 5,,Mattersburg,,7210,Austria,02626 / 620 84 21,47.747456000000,16.419722000000,Monday:07:00 - 00:00;Tuesday:07:00 - 00:00;Wednesday:07:00 - 00:00;Thursday:07:00 - 00:00;Friday:07:00 - 02:00;Saturday:07:00 - 02:00;Sunday:08:00 - 00:00;holiday:08:00 - 00:00;,,0
,,Asamerstraße 1,,Vorchdorf,,4655,Austria,7614/200 40,48.010811000000,13.923459000000,Monday:07:00 - 00:00;Tuesday:07:00 - 00:00;Wednesday:07:00 - 00:00;Thursday:07:00 - 00:00;Friday:07:00 - 00:00;Saturday:07:00 - 00:00;Sunday:08:00 - 00:00;holiday:08:00 - 00:00;,,0
,,Haidcenter Top 70/Ikeaplatz 4,,Menstruation,,4053,Austria,0722/979309,48.195583000000,14.247057000000,Monday:09:00 - 20:00;Tuesday:09:00 - 20:00;Wednesday:09:00 - 20:00;Thursday:09:00 - 20:00;Friday:09:00 - 20:00;Saturday:09:00 - 19:00;Sunday:closed;holiday:closed;,,0
,,"Str. 16, city park center",,Spittal / Drau,,9800,Austria,+43 4762 44168,46.797909000000,13.490932000000,Monday:09:00 - 19:00;Tuesday:09:00 - 19:00;Wednesday:09:00 - 19:00;Thursday:09:00 - 19:00;Friday:09:00 - 19:00;Saturday:09:00 - 18:00;Sunday:closed;holiday:closed;,,0
,,"South Tyroler Platz 13, Forum 1",,Salzburg,,5020,Austria,0662/4511540,47.813885000000,13.044674000000,Monday:05:30 - 00:00;Tuesday:05:30 - 00:00;Wednesday:05:30 - 00:00;Thursday:05:30 - 00:00;Friday:05:30 - 02:00;Saturday:05:30 - 02:00;Sunday:05:30 - 00:00;holiday:05:30 - 00:00;,,0
,,Professor Ferry Porsche Straße 4,,See,,5700,Austria,06542/72401,47.294678000000,12.794260000000,Monday:07:00 - 00:00;Tuesday:07:00 - 00:00;Wednesday:07:00 - 00:00;Thursday:07:00 - 00:00;Friday:07:00 - 00:00;Saturday:07:00 - 00:00;Sunday:08:00 - 00:00;holiday:08:00 - 00:00;,,0
,,Praterstern-Bahnhof Nord,,Wien,,1020,Austria,01/212 08 70-11,48.218086000000,16.391859000000,Monday:06:00-01:00;Tuesday:06:00-01:00;Wednesday:06:00-01:00;Thursday:06:00-01:00;Friday:06:00-02:00;Saturday:05:00-02:00;Sunday:05:00-01:00;holiday:05:00-02:00;,,0
,,Kinostraße 4,,Wals,,5071,Austria,0662/85 48 80,47.792801000000,12.991200000000,Monday:06:30 - 01:00;Tuesday:06:30 - 01:00;Wednesday:06:30 - 01:00;Thursday:06:30 - 01:00;Friday:06:30 - 02:00;Saturday:06:30 - 02:00;Sunday:07:00 - 01:00;holiday:07:00 - 01:00;,,0
,,Ostbahnstraße 3,,Graz,,8041,Austria,0664 / 969 16 81,47.040699000000,15.465200000000,Monday:08:00 - 20:00;Tuesday:08:00 - 20:00;Wednesday:08:00 - 20:00;Thursday:08:00 - 20:00;Friday:08:00 - 20:00;Saturday:08:00 - 18:30;Sunday:closed;holiday:closed;,,0
,,"Atrio Villach, Kärntnerstrasse 34",,Villach,,9500,Austria,04242/225 55 60,46.595455000000,13.836130000000,Monday:07:45 - 19:30;Tuesday:07:45 - 19:30;Wednesday:07:45 - 19:30;Thursday:07:45 - 19:30;Friday:07:45 - 19:30;Saturday:07:45 - 18:00;Sunday:closed;holiday:closed;,,0
,,Raststation Walserberg Süd,,Walserberg,,5071,Austria,+43 676 83489349,47.767899000000,12.948100000000,Monday:07:00 - 23:00;Tuesday:07:00 - 23:00;Wednesday:07:00 - 23:00;Thursday:07:00 - 23:00;Friday:07:00 - 00:00;Saturday:07:00 - 00:00;Sunday:07:00 - 23:00;holiday:07:00 - 23:00;,,0
,,Liesinger Platz 1,,Wien,,1230,Austria,01/865 29 64-11,48.135300000000,16.283300000000,Monday:06:30 - 00:00;Tuesday:06:30 - 00:00;Wednesday:06:30 - 00:00;Thursday:06:30 - 00:00;Friday:06:30 - 00:00;Saturday:08:00 - 00:00;Sunday:08:00 - 00:00;holiday:08:00 - 00:00;,,0
,,Carl Zuckmayerstraße 1,,Salzburg,,5020,Austria,0662 / 452 010 11,47.829395000000,13.057216000000,Monday:06:30 - 01:00;Tuesday:06:30 - 01:00;Wednesday:06:30 - 01:00;Thursday:06:30 - 01:00;Friday:06:30 - 02:00;Saturday:06:30 - 02:00;Sunday:07:00 - 01:00;holiday:07:00 - 01:00;,,0
,,Copy to Clipboard,,Wörgl,,6300,Austria,05332/705 54,47.482075000000,12.057398000000,Monday:06:30 - 01:00;Tuesday:06:30 - 01:00;Wednesday:06:30 - 01:00;Thursday:06:30 - 01:00;Friday:06:30 - 03:00;Saturday:06:30 - 03:00;Sunday:06:30 - 01:00;holiday:06:30 - 01:00;,,0
,,Plüddemanngasse 62,,Graz,,8010,Austria,0664 / 840 43 98,47.063942000000,15.464682000000,Monday:07:00 - 00:00;Tuesday:07:00 - 00:00;Wednesday:07:00 - 00:00;Thursday:07:00 - 00:00;Friday:07:00 - 00:00;Saturday:07:00 - 00:00;Sunday:07:00 - 00:00;holiday:07:00 - 00:00;,,0
,,Europaplatz 4,,Graz,,8020,Austria,0664 / 969 16 82,47.072723000000,15.417033000000,Monday:05:30 - 23:00;Tuesday:05:30 - 23:00;Wednesday:05:30 - 23:00;Thursday:05:30 - 23:00;Friday:05:30 - 23:00;Saturday:05:30 - 23:00;Sunday:05:30 - 23:00;holiday:05:30 - 23:00;,,0
,,Seiersberg 3,,Graz-Seiersberg,,8055,Austria,0664 / 840 43 97,47.014137000000,15.413945000000,Monday:08:00 - 20:00;Tuesday:08:00 - 20:00;Wednesday:08:00 - 20:00;Thursday:08:00 - 20:00;Friday:08:00 - 20:00;Saturday:08:00 - 18:30;Sunday:closed;holiday:closed;,,0
,,Rosentaler Strasse 129,,Klagenfurt,,9020,Austria,0676 898 388 804,46.606899000000,14.298900000000,Monday:06:30 - 01:00;Tuesday:06:30 - 01:00;Wednesday:06:30 - 01:00;Thursday:06:30 - 01:00;Friday:06:30 - 02:00;Saturday:06:30 - 02:00;Sunday:07:00 - 01:00;holiday:07:00 - 01:00;,,0
,,Favoritenstrasse 130,,Wien,,1100,Austria,01/607 37 51,48.175072000000,16.377634000000,Monday:06:00 - 01:00;Tuesday:06:00 - 01:00;Wednesday:06:00 - 01:00;Thursday:06:00 - 01:00;Friday:06:00 - 01:00;Saturday:07:00 - 01:00;Sunday:08:00 - 01:00;holiday:08:00 - 01:00;,,0
,,Mitterweg 1,,Innsbruck,,6020,Austria,0512/29 02 30,47.259399000000,11.378000000000,Monday:07:00 - 01:00;Tuesday:07:00 - 01:00;Wednesday:07:00 - 01:00;Thursday:07:00 - 01:00;Friday:07:00 - 01:00;Saturday:07:00 - 01:00;Sunday:08:00 - 01:00;holiday:08:00 - 01:00;,,0
,,"Wagramer Straße 81-83, Top 320 Donauzentrum",,Wien,,1220,Austria,0699/190 001 57,48.242504000000,16.435022000000,Monday:07:00 - 20:30;Tuesday:07:00 - 20:30;Wednesday:07:00 - 20:30;Thursday:07:00 - 20:30;Friday:07:00 - 20:30;Saturday:08:00 - 18:30;Sunday:closed;holiday:closed;,,0
,,Copy to Clipboard,,Neusiedl/See,,7100,Austria,02167/202 08,47.972157000000,16.838770000000,Monday:07:00 - 00:00;Tuesday:07:00 - 00:00;Wednesday:07:00 - 00:00;Thursday:07:00 - 00:00;Friday:07:00 - 02:00;Saturday:07:00 - 02:00;Sunday:08:00 - 00:00;holiday:08:00 - 00:00;,,0
,,"Gasometer A / Shopping Mall Guglgasse 12-14, Top 14/15",,Wien,,1110,Austria,0664 / 887 180 44,48.185132400000,16.417925000000,Monday:07:00 - 00:00;Tuesday:07:00 - 00:00;Wednesday:07:00 - 00:00;Thursday:07:00 - 00:00;Friday:07:00 - 00:00;Saturday:07:00 - 00:00;Sunday:08:00 - 00:00;holiday:08:00 - 00:00;,,0
,,Leopold Werndlstraße 2,,Steyr,,4400,Austria,07252/519 37,48.036987000000,14.414907000000,Monday:07:00 - 20:00;Tuesday:07:00 - 20:00;Wednesday:07:00 - 20:00;Thursday:07:00 - 20:00;Friday:07:00 - 20:00;Saturday:07:00 - 20:00;Sunday:closed;holiday:closed;,,0
,,Margaretengürtel 45,,Wien,,1050,Austria,01 / 5440930,48.179714000000,16.351185000000,Monday:07:00 - 02:00;Tuesday:07:00 - 02:00;Wednesday:07:00 - 02:00;Thursday:07:00 - 02:00;Friday:07:00 - 05:00;Saturday:07:00 - 05:00;Sunday:07:00 - 02:00;holiday:07:00 - 02:00;,,0
,,"Waidhofner Straße 1, City Center Amstetten (CCA)",,Amstetten,,3300,Austria,07472/639 00,48.121449000000,14.867842000000,Monday:08:00 - 00:00;Tuesday:08:00 - 00:00;Wednesday:08:00 - 00:00;Thursday:08:00 - 00:00;Friday:08:00 - 00:00;Saturday:08:00 - 00:00;Sunday:08:00 - 00:00;holiday:08:00 - 00:00;,,0
,,Ossiacherstraße 4,,Veit / Glan,,9300,Austria,0676 898 388 807,46.767056000000,14.360273000000,Monday:07:00 - 00:00;Tuesday:07:00 - 00:00;Wednesday:07:00 - 00:00;Thursday:07:00 - 00:00;Friday:07:00 - 01:00;Saturday:07:00 - 01:00;Sunday:08:00 - 00:00;holiday:08:00 - 00:00;,,0
,,Diepoldsau Straße 51,,Hohenems,,6845,Austria,05576/428 68,47.374374000000,9.676279000000,Monday:07:00 - 01:00;Tuesday:07:00 - 01:00;Wednesday:07:00 -01:00;Thursday:07:00 - 01:00;Friday:07:00 - 01:00;Saturday:07:00 - 01:00;Sunday:07:00 - 01:00;holiday:07:00 - 01:00;,,0
,,Geierau 5,,Haag/Hausruck,,4680,Austria,07732/461 44,48.199394000000,13.642065000000,Monday:07:00 - 00:00;Tuesday:07:00 - 00:00;Wednesday:07:00 - 00:00;Thursday:07:00 - 00:00;Friday:07:00 - 00:00;Saturday:07:00 - 00:00;Sunday:08:00 - 00:00;holiday:08:00 - 00:00;,,0
,,"Karlsplatz / subway passage, local no. 1",,Wien,,1010,Austria,01/585 30 01,48.201000000000,16.367800000000,Monday:06:30 - 00:00;Tuesday:06:30 - 00:00;Wednesday:06:30 - 00:00;Thursday:06:30 - 00:00;Friday:06:30 - 04:00;Saturday:06:30 - 04:00;Sunday:06:30 - 00:00;holiday:06:30 - 00:00;,,0
,,Dr. Adolf Schärf-Straße 12,,Pölten,,3107,Austria,02742/266 30,48.221767000000,15.638945000000,Monday:07:00 - 00:00;Tuesday:07:00 - 00:00;Wednesday:07:00 - 00:00;Thursday:07:00 - 00:00;Friday:07:00 - 01:00;Saturday:07:00 - 01:00;Sunday:08:00 - 00:00;holiday:08:00 - 00:00;,,0
,,Eisenfeldstraße 2a,,Wels,,4600,Austria,07242/206 999,48.165974000000,14.038630000000,Monday:08:00 - 00:00;Tuesday:08:00 - 00:00;Wednesday:08:00 - 00:00;Thursday:08:00 - 00:00;Friday:08:00 - 00:00;Saturday:08:00 - 00:00;Sunday:09:00 - 00:00;holiday:09:00 - 00:00;,,0
,,Business Street 10,,Loosdorf,,3382,Austria,02754/567 81,48.189819000000,15.409459000000,Monday:06:00 - 01:00;Tuesday:06:00 - 01:00;Wednesday:06:00 - 01:00;Thursday:06:00 - 01:00;Friday:06:00 - 02:00;Saturday:06:00 - 02:00;Sunday:06:00 - 01:00;holiday:06:00 - 01:00;,,0
,,Wienerstrasse 13,,Knittelfeld,,8720,Austria,03512/821 99,47.216873000000,14.826988000000,Monday:06:30 - 23:00;Tuesday:06:30 - 23:00;Wednesday:06:30 - 23:00;Thursday:06:30 - 23:00;Friday:06:30 - 01:00;Saturday:06:30 - 01:00;Sunday:07:00 - 23:00;holiday:07:00 - 23:00;,,0
,,Europastraße 10,,Hallein,,5400,Austria,06245/779 11,47.684731000000,13.104214000000,Monday:07:00 - 00:00;Tuesday:07:00 - 00:00;Wednesday:07:00 - 00:00;Thursday:07:00 - 00:00;Friday:07:00 - 01:00;Saturday:07:00 - 01:00;Sunday:07:00 - 00:00;holiday:07:00 - 00:00;,,0
,,7th Haiderquerstraße 2,,Wien,,1110,Austria,0664/88389553,48.181973000000,16.443731000000,Monday:06:00 - 00:00;Tuesday:06:00 - 00:00;Wednesday:06:00 - 00:00;Thursday:06:00 - 01:00;Friday:06:00 - 02:00;Saturday:06:00 - 02:00;Sunday:07:00 - 00:00;holiday:07:00 - 00:00;,,0
,,Ludwig-von-Höhnel-Gasse 15,,Wien,,1100,Austria,"01/6893663, 0664/8341633",48.159302000000,16.386999000000,Monday:06:00 - 01:00;Tuesday:06:00 - 01:00;Wednesday:06:00 - 01:00;Thursday:06:00 - 01:00;Friday:06:00 - 02:00;Saturday:07:00 - 02:00;Sunday:07:00 - 01:00;holiday:07:00 - 01:00;,,0
,,Am Tivoli 1,,Leoben,,8700,Austria,03842/289 00,47.376736000000,15.088957000000,Monday:06:30 - 00:00;Tuesday:06:30 - 00:00;Wednesday:06:30 - 00:00;Thursday:06:30 - 00:00;Friday:06:30 - 01:00;Saturday:06:30 - 01:00;Sunday:07:00 - 00:00;holiday:07:00 - 00:00;,,0
,,Landwehrstr. 6 / S014 (Huma EKZ),,Wien,,1110,Austria,0664 / 887 180 42,48.169453000000,16.471764000000,Monday:08:00 - 20:00;Tuesday:08:00 - 20:00;Wednesday:08:00 - 20:00;Thursday:08:00 - 20:00;Friday:08:00 - 20:00;Saturday:08:00 - 18:00;Sunday:closed;holiday:closed;,,0
,,Palfengasse 2,,Johann / Pongau,,5600,Austria,06412/201 21,47.354202000000,13.195283000000,Monday:07:00 - 23:30;Tuesday:07:00 - 23:30;Wednesday:07:00 - 23:30;Thursday:07:00 - 00:00;Friday:07:00 - 00:00;Saturday:07:00 - 00:00;Sunday:08:00 - 23:30;holiday:08:00 - 23:30;,,0
,,"Shopping Center Nord, Ignaz-Köck-Straße 1",,Wien,,1210,Austria,0664 / 884 695 89,48.267761000000,16.397957000000,Monday:09:00 - 19:00;Tuesday:09:00 - 19:00;Wednesday:09:00 - 19:00;Thursday:09:00 - 19:00;Friday:09:00 - 19:00;Saturday:09:00 - 19:00;Sunday:13:00 - 20:00;holiday:closed;,,0
,,Copy to Clipboard,,Klosterneuburg,,3400,Austria,02243/201 50,48.302513000000,16.330759000000,Monday:07:00 - 00:00;Tuesday:07:00 - 00:00;Wednesday:07:00 - 00:00;Thursday:07:00 - 00:00;Friday:07:00 - 01:00;Saturday:07:00 - 01:00;Sunday:07:00 - 00:00;holiday:07:00 - 00:00;,,0
,,Mitschastraße 37a,,Mistelbach,,2130,Austria,02572/203 00,48.562885000000,16.576908000000,Monday:06:00 - 00:00;Tuesday:06:00 - 00:00;Wednesday:06:00 - 00:00;Thursday:06:00 - 00:00;Friday:06:00 - 02:00;Saturday:06:00 - 02:00;Sunday:06:00 - 00:00;holiday:06:00 - 00:00;,,0
,,Hietzinger Kai 137,,Wien,,1130,Austria,01/877 94 94,48.191601000000,16.278400000000,Monday:06:30 - 00:00;Tuesday:06:30 - 00:00;Wednesday:06:30 - 00:00;Thursday:06:30 - 00:00;Friday:06:30 - 01:00;Saturday:08:00 - 01:00;Sunday:08:00 - 00:00;holiday:08:00 - 00:00;,,0
,,Aubauerstraße 15,,Gmunden,,4810,Austria,07612 770 60,47.931194000000,13.785700000000,Monday:08:00 - 00:00;Tuesday:08:00 - 00:00;Wednesday:08:00 - 00:00;Thursday:08:00 - 00:00;Friday:08:00 - 00:00;Saturday:08:00 - 00:00;Sunday:08:00 - 00:00;holiday:08:00 - 00:00;,,0
,,Handelskai 130,,Wien,,1020,Austria,01/218 53 37,48.233536000000,16.394796000000,Monday:07:00 - 01:00;Tuesday:07:00 - 01:00;Wednesday:07:00 - 01:00;Thursday:07:00 - 01:00;Friday:07:00 - 02:00;Saturday:07:00 - 02:00;Sunday:07:00 - 01:00;holiday:07:00 - 01:00;,,0
,,Women 's,,Deutschlandsberg,,8530,Austria,0664/9691684,46.819374000000,15.228687000000,Monday:07:00 - 23:00;Tuesday:07:00 - 23:00;Wednesday:07:00 - 23:00;Thursday:07:00 - 23:00;Friday:07:00 - 00:00;Saturday:07:00 - 00:00;Sunday:07:00 - 23:00;holiday:07:00 - 23:00;,,0
,,Copy to Clipboard,,Lienz / East Tyrol,,9900,Austria,04852/711 66,46.829655000000,12.772283000000,Monday:07:00 - 00:00;Tuesday:07:00 - 00:00;Wednesday:07:00 - 00:00;Thursday:07:00 - 00:00;Friday:07:00 - 00:30;Saturday:07:00 - 00:30;Sunday:08:00 - 00:00;holiday:08:00 - 00:00;,,0
,,Freistadtstraße 298,,Linz-Dornach,,4040,Austria,0732/25 01 74,48.328938000000,14.312246000000,Monday:07:00 - 00:00;Tuesday:07:00 - 00:00;Wednesday:07:00 - 00:00;Thursday:07:00 - 00:00;Friday:07:00 - 02:00;Saturday:07:00 - 02:00;Sunday:07:00 - 00:00;holiday:07:00 - 00:00;,,0
,,Copy to Clipboard,,Brunn / mountains,,2345,Austria,02236/352 73,48.112801000000,16.302700000000,Monday:06:30 - 01:00;Tuesday:06:30 - 01:00;Wednesday:06:30 - 01:00;Thursday:06:30 - 01:00;Friday:06:30 - 02:00;Saturday:06:30 - 02:00;Sunday:06:30 - 01:00;holiday:06:30 - 01:00;,,0
,,Leoganger Straße 16 A,,Saalfelden,,5760,Austria,06582/720 88,47.429008000000,12.843672000000,Monday:07:00 - 00:00;Tuesday:07:00 - 00:00;Wednesday:07:00 - 00:00;Thursday:07:00 - 00:00;Friday:07:00 - 00:00;Saturday:08:00 - 00:00;Sunday:08:00 - 00:00;holiday:08:00 - 00:00;,,0
,,Salzburgerstraße 224,,Wels-West,,4600,Austria,07242/441 15,48.153557000000,13.987617000000,Monday:08:00 - 00:00;Tuesday:08:00 - 00:00;Wednesday:08:00 - 00:00;Thursday:08:00 - 00:00;Friday:08:00 - 00:00;Saturday:08:00 - 00:00;Sunday:09:00 - 00:00;holiday:09:00 - 00:00;,,0
,,Feldkirchnerstraße 128,,Klagenfurt,,9020,Austria,0676 898 388 809,46.640438000000,14.292003000000,Monday:07:00 - 00:00;Tuesday:07:00 - 00:00;Wednesday:07:00 - 00:00;Thursday:07:00 - 00:00;Friday:07:00 - 02:00;Saturday:07:00 - 02:00;Sunday:07:00 - 00:00;holiday:07:00 - 00:00;,,0
,,On the Leopoldauer Strasse 49,,Wien,,1210,Austria,0699/199 901 19,48.260159000000,16.411135000000,Monday:07:00 - 01:00;Tuesday:07:00 - 01:00;Wednesday:07:00 - 01:00;Thursday:07:00 - 01:00;Friday:07:00 - 02:00;Saturday:07:00 - 02:00;Sunday:07:00 - 01:00;holiday:07:00 - 01:00;,,0
,,Landstraße 3 (Taubenmarkt),,Linz,,4020,Austria,0732/78 16 22,48.304321000000,14.288406000000,Monday:07:00 - 01:00;Tuesday:07:00 - 01:00;Wednesday:07:00 - 01:00;Thursday:07:00 - 01:00;Friday:07:00 - 02:00;Saturday:07:00 - 02:00;Sunday:07:00 - 01:00;holiday:07:00 - 01:00;,,0
,,Eggendorferstraße 4,,Hartberg,,8230,Austria,03332 / 66644,47.283658000000,15.995310000000,Monday:07:00 - 00:00;Tuesday:07:00 - 00:00;Wednesday:07:00 - 00:00;Thursday:07:00 - 00:00;Friday:07:00 - 02:00;Saturday:07:00 - 02:00;Sunday:07:00 - 00:00;holiday:07:00 - 00:00;,,0
,,Lugitschstraße 13,,Feldbach,,8330,Austria,03152/8141,46.956623000000,15.882822000000,Monday:07:00 - 00:00;Tuesday:07:00 - 00:00;Wednesday:07:00 - 00:00;Thursday:07:00 - 00:00;Friday:07:00 - 01:00;Saturday:07:00 - 01:00;Sunday:07:00 - 00:00;holiday:07:00 - 00:00;,,0
,,Copy to Clipboard,,Reutte,,6600,Austria,05672/732 32,47.482555000000,10.724835000000,Monday:08:00 - 00:00;Tuesday:08:00 - 00:00;Wednesday:08:00 - 00:00;Thursday:08:00 - 00:00;Friday:08:00 - 01:00;Saturday:07:00 - 01:00;Sunday:08:00 - 00:00;holiday:08:00 - 00:00;,,0
,,Passthurnstraße 13,,Johann / Tirol,,6380,Austria,05352/613 33,47.518948000000,12.416190000000,Monday:07:00 - 00:00;Tuesday:07:00 - 00:00;Wednesday:07:00 - 00:00;Thursday:07:00 - 00:00;Friday:07:00 - 00:00;Saturday:07:00 - 00:00;Sunday:08:00 - 00:00;holiday:08:00 - 00:00;,,0
,,J. G. Ulmerstraße 1,,Dornbirn,,6850,Austria,05572/271 07,47.426228000000,9.740366000000,Monday:07:00 - 01:00;Tuesday:07:00 - 01:00;Wednesday:07:00 - 01:00;Thursday:07:00 - 01:00;Friday:07:00 - 01:00;Saturday:07:00 - 01:00;Sunday:07:00 - 01:00;holiday:07:00 - 01:00;,,0
,,Schlitters Nr. 27e,,Schlitters,,6262,Austria,05288/871 70,47.381332000000,11.833501000000,Monday:06:00 - 01:00;Tuesday:06:00 - 01:00;Wednesday:06:00 - 01:00;Thursday:06:00 - 01:00;Friday:06:00 - 02:00;Saturday:06:00 - 02:00;Sunday:06:00 - 01:00;holiday:06:00 - 01:00;,,0
,,Europastraße 3,,Leobersdorf,,2544,Austria,02256/632 62,47.931324000000,16.204748000000,Monday:05:00 - 00:00;Tuesday:05:00 - 00:00;Wednesday:05:00 - 00:00;Thursday:05:00 - 00:00;Friday:05:00 - 00:00;Saturday:05:00 - 00:00;Sunday:05:00 - 00:00;holiday:05:00 - 00:00;,,0
,,Pluskaufstraße 7 (Plus City),,Pasching,,4061,Austria,0664 / 88 66 27 93,48.243275000000,14.235785000000,Monday:08:00 - 20:00;Tuesday:08:00 - 20:00;Wednesday:08:00 - 20:00;Thursday:08:00 - 22:00;Friday:08:00 - 22:00;Saturday:08:00 - 22:00;Sunday:closed;holiday:closed;,,0
,,Friedrich-Thurnerstraße 18,,Innkreis,,4910,Austria,07752/899 90,48.212658000000,13.483068000000,Monday:07:00 - 00:00;Tuesday:07:00 - 00:00;Wednesday:07:00 - 00:00;Thursday:07:00 - 00:00;Friday:07:00 - 00:00;Saturday:07:00 - 00:00;Sunday:08:00 - 00:00;holiday:08:00 - 00:00;,,0
,,Fridolin Schröpfer-Platz 1,,Ischl,,4820,Austria,06132/211 11,47.710602000000,13.621300000000,Monday:08:00 - 00:00;Tuesday:08:00 - 00:00;Wednesday:08:00 - 00:00;Thursday:08:00 - 00:00;Friday:08:00 - 00:00;Saturday:08:00 - 00:00;Sunday:08:00 - 00:00;holiday:08:00 - 00:00;,,0
,,Mariahilfer Straße 85-87,,Wien,,1060,Austria,01/585 49 49-0,48.197571000000,16.348345000000,Monday:07:00 - 01:00;Tuesday:07:00 - 01:00;Wednesday:07:00 - 01:00;Thursday:07:00 - 01:00;Friday:07:00 - 02:00;Saturday:07:00 - 02:00;Sunday:07:00 - 01:00;holiday:07:00 - 01:00;,,0
,,Julius Tandler Platz 3,,Wien,,1090,Austria,01/315 72 16,48.225727000000,16.361240000000,Monday:06:30 - 01:00;Tuesday:06:30 - 01:00;Wednesday:06:30 - 01:00;Thursday:06:30 - 01:00;Friday:06:30 - 01:00;Saturday:06:30 - 01:00;Sunday:06:30 - 01:00;holiday:06:30 - 01:00;,,0
,,Check In:,,Wien,,1190,Austria,01/367 66 94,48.243176000000,16.361937000000,Monday:06:00 - 04:00;Tuesday:06:00 - 04:00;Wednesday:06:00 - 04:00;Thursday:06:00 - 04:00;Friday:06:00 - 04:00;Saturday:06:00 - 04:00;Sunday:06:00 - 04:00;holiday:06:00 - 04:00;,,0
,,Triesterstr./Friedr. Schwarzottstr.,,Neunkirchen,,2620,Austria,02635/713 81,47.718678000000,16.071470000000,Monday:07:00 - 00:00;Tuesday:07:00 - 00:00;Wednesday:07:00 - 00:00;Thursday:07:00 - 00:00;Friday:07:00 - 02:00;Saturday:07:00 - 02:00;Sunday:07:00 - 00:00;holiday:07:00 - 23:59;,,0
,,Kapellenweg 8,,Weiz,,8160,Austria,0664 / 846 67 98,47.206704000000,15.638209000000,Monday:07:00 - 00:00;Tuesday:07:00 - 00:00;Wednesday:07:00 - 00:00;Thursday:07:00 - 00:00;Friday:07:00 - 01:00;Saturday:07:00 - 01:00;Sunday:07:00 - 00:00;holiday:07:00 - 00:00;,,0
,,Andre Freyskorn-Straße 2,,Zwettl,,3910,Austria,02822/515 83,48.602093000000,15.186856000000,Monday:07:00 - 00:00;Tuesday:07:00 - 00:00;Wednesday:07:00 - 00:00;Thursday:07:00 - 00:00;Friday:07:00 - 02:00;Saturday:07:00 - 02:00;Sunday:07:00 - 00:00;holiday:07:00 - 00:00;,,0
,,Europastraße 148/Europark,,Salzburg,,5020,Austria,0662/42 86 73,47.816124000000,13.005838000000,Monday:08:30 - 19:30;Tuesday:08:30 - 19:30;Wednesday:08:30 - 19:30;Thursday:08:30 - 19:30;Friday:08:30 - 21:00;Saturday:08:30 - 18:00;Sunday:closed;holiday:closed;,,0
,,Copy to Clipboard,,Korneuburg,,2100,Austria,02262/718 47,48.358948000000,16.312408000000,Monday:07:00 - 00:00;Tuesday:07:00 - 00:00;Wednesday:07:00 - 00:00;Thursday:07:00 - 00:00;Friday:07:00 - 01:00;Saturday:07:00 - 01:00;Sunday:07:00 - 00:00;holiday:07:00 - 00:00;,,0
,,Emperor Ebersdorferstraße 322,,Wien,,1110,Austria,0664 / 887 180 41,48.159328000000,16.470924000000,Monday:07:00 - 24:00;Tuesday:07:00 - 24:00;Wednesday:07:00 - 24:00;Thursday:07:00 - 24:00;Friday:07:00 - 02:00;Saturday:07:00 - 02:00;Sunday:07:00 - 24:00;holiday:07:00 - 24:00;,,0
,,Promenade 9,,Freistadt,,4240,Austria,07942/756 80,48.510521000000,14.501155000000,Monday:07:00 - 23:00;Tuesday:07:00 - 23:00;Wednesday:07:00 - 23:00;Thursday:07:00 - 23:00;Friday:07:00 - 01:00;Saturday:07:00 - 01:00;Sunday:08:00 - 23:00;holiday:08:00 - 23:00;,,0
,,Langgasse 48,,Imst,,6460,Austria,05412/632 32,47.230865000000,10.744500000000,Monday:07:00 - 01:00;Tuesday:07:00 - 01:00;Wednesday:07:00 - 01:00;Thursday:07:00 - 01:00;Friday:07:00 - 02:00;Saturday:06:00 - 02:00;Sunday:07:00 - 01:00;holiday:07:00 - 01:00;,,0
,,Kornfeldgasse 12,,Tribuswinkel,,2512,Austria,02252/458 00,47.990067000000,16.275312000000,Monday:06:30 - 00:00;Tuesday:06:30 - 00:00;Wednesday:06:30 - 00:00;Thursday:06:30 - 00:00;Friday:06:30 - 02:00;Saturday:07:00 - 02:00;Sunday:07:00 - 00:00;holiday:07:00 - 00:00;,,0
,,Weiberfelderweg 2,,Graz,,8054,Austria,,47.028301000000,15.400800000000,Monday:07:00 - 00:00;Tuesday:07:00 - 00:00;Wednesday:07:00 - 00:00;Thursday:07:00 - 00:00;Friday:07:00 - 01:00;Saturday:07:00 - 01:00;Sunday:07:00 - 00:00;holiday:07:00 - 00:00;,,0
,,Gschmeidlerstraße 14-18,,Hollabrunn,,2020,Austria,02952/306 20,48.564014000000,16.074135000000,Monday:06:00 - 00:00;Tuesday:06:00 - 00:00;Wednesday:06:00 - 00:00;Thursday:06:00 - 00:00;Friday:06:00 - 02:00;Saturday:06:00 - 02:00;Sunday:06:00 - 00:00;holiday:06:00 - 00:00;,,0
,,Breitenfurter Straße. 245-247,,Wien,,1230,Austria,01/803 64 64-0,48.152683000000,16.301764000000,Monday:06:00 - 01:00;Tuesday:06:00 - 01:00;Wednesday:06:00 - 01:00;Thursday:06:00 - 01:00;Friday:06:00 - 02:00;Saturday:07:00 - 02:00;Sunday:07:00 - 01:00;holiday:07:00 - 01:00;,,0
,,Nikolaus August Otto-Str. 1 / Wiener Str,,Neustadt,,2700,Austria,02622/811 11,47.843899000000,16.246300000000,Monday:07:00 - 00:00;Tuesday:07:00 - 00:00;Wednesday:07:00 - 00:00;Thursday:07:00 - 00:00;Friday:07:00 - 01:00;Saturday:07:00 - 01:00;Sunday:07:00 - 00:00;holiday:07:00 - 00:00;,,0
,,Gesäusestraße 1,,Liezen,,8940,Austria,03612/302 02,47.561447000000,14.247388000000,Monday:06:00 - 00:00;Tuesday:06:00 - 00:00;Wednesday:06:00 - 00:00;Thursday:06:00 - 00:00;Friday:06:00 - 01:00;Saturday:06:00 - 01:00;Sunday:06:00 - 00:00;holiday:06:00 - 00:00;,,0
,,Hamerlingstr. 1,,Linz,,4020,Austria,0664 88 66 27 94,48.290615000000,14.297446000000,Monday:07:00 - 23:00;Tuesday:07:00 - 23:00;Wednesday:07:00 - 23:00;Thursday:07:00 - 23:00;Friday:07:00 - 00:00;Saturday:08:00 - 00:00;Sunday:08:00 - 23:00;holiday:08:00 - 23:00;,,0
,,Bahnhofstraße 1,,Rosental / Voitsberg,,8582,Austria,0664/88662798,47.052906000000,15.126175000000,Monday:07:00 - 23:00;Tuesday:07:00 - 23:00;Wednesday:07:00 - 23:00;Thursday:07:00 - 23:00;Friday:07:00 - 00:00;Saturday:07:00 - 00:00;Sunday:07:00 - 23:00;holiday:07:00 - 23:00;,,0
,,Business Park Nord 13,,Gralla / Leibnitz,,8431,Austria,0664/88662797,46.805725000000,15.560583000000,Monday:06:00 - 01:00;Tuesday:06:00 - 01:00;Wednesday:06:00 - 01:00;Thursday:06:00 - 01:00;Friday:06:00 - 01:00;Saturday:07:00 - 01:00;Sunday:07:00 - 01:00;holiday:07:00 - 01:00;,,0
,,Industriestraße 7,,Vomp,,6134,Austria,05242/665 76,47.350349000000,11.698958000000,Monday:06:30 - 01:00;Tuesday:06:30 - 01:00;Wednesday:06:30 - 01:00;Thursday:06:30 - 01:00;Friday:06:30 - 02:00;Saturday:06:30 - 02:00;Sunday:06:30 - 01:00;holiday:07:00 - 01:00;,,0
,,Erlachweg 1,,Braunau,,5280,Austria,07722/832 24,48.253525000000,13.044782000000,Monday:07:00 - 00:00;Tuesday:07:00 - 00:00;Wednesday:07:00 - 00:00;Thursday:07:00 - 00:00;Friday:07:00 - 00:00;Saturday:07:00 - 00:00;Sunday:08:00 - 00:00;holiday:08:00 - 00:00;,,0
,,Hauptplatz 8,,Villach,,9500,Austria,04242/225 55 40,46.614677000000,13.847033000000,Monday:07:00 - 00:00;Tuesday:07:00 - 00:00;Wednesday:07:00 - 00:00;Thursday:07:00 - 00:00;Friday:07:00 - 00:00;Saturday:07:00 - 00:00;Sunday:08:00 - 00:00;holiday:08:00 - 00:00;,,0
,,Burggasse 138,,Judenburg,,8750,Austria,03572/428 80,47.172153000000,14.631542000000,Monday:07:00 - 00:00;Tuesday:07:00 - 00:00;Wednesday:07:00 - 00:00;Thursday:07:00 - 00:00;Friday:07:00 - 01:00;Saturday:07:00 - 01:00;Sunday:07:00 - 00:00;,,0
,,Wiener Straße 96-102 (in the Bühl-Center),,Krems,,3500,Austria,02732/850 81,48.416500000000,15.621600000000,Monday:07:00 - 01:00;Tuesday:07:00 - 01:00;Wednesday:07:00 - 01:00;Thursday:07:00 - 01:00;Friday:07:00 - 04:00;Saturday:07:00 - 04:00;Sunday:07:00 - 01:00;holiday:07:00 - 01:00;,,0
,,Richard Strauss Str. 2 / corner Sterngasse,,Wien,,1230,Austria,01/6174670,48.148300000000,16.342501000000,Monday:06:30 - 00:00;Tuesday:06:30 - 00:00;Wednesday:06:30 - 00:00;Thursday:06:30 - 00:00;Friday:06:30 - 00:00;Saturday:07:00 - 00:00;Sunday:08:00 - 00:00;holiday:08:00 - 00:00;,,0
,,Copy to Clipboard,,Fürstenfeld,,8280,Austria,03382/543 54,47.058304000000,16.067472000000,Monday:07:00 - 00:00;Tuesday:07:00 - 00:00;Wednesday:07:00 - 00:00;Thursday:07:00 - 00:00;Friday:07:00 - 01:00;Saturday:07:00 - 01:00;Sunday:07:00 - 00:00;holiday:07:00 - 00:00;,,0
,,Duke Friedrichstraße 35,,Innsbruck,,6020,Austria,0512/56 28 07,47.267502000000,11.393600000000,Monday:08:00 - 00:00;Tuesday:08:00 - 00:00;Wednesday:08:00 - 00:00;Thursday:08:00 - 00:00;Friday:08:00 - 01:00;Saturday:08:00 - 01:00;Sunday:08:00 - 00:00;holiday:08:00 - 00:00;,,0
,,Pond road 3,,Langenrohr,,3442,Austria,02272/677 13,48.322552000000,16.027237000000,Monday:07:00 - 00:00;Tuesday:07:00 - 00:00;Wednesday:07:00 - 00:00;Thursday:07:00 - 00:00;Friday:07:00 - 02:00;Saturday:07:00 - 02:00;Sunday:07:00 - 00:00;holiday:07:00 - 00:00;,,0
,,Poschacher Straße 12,,Mauthausen,,4310,Austria,07238/5680,48.239807000000,14.527962000000,Monday:08:00 - 00:00;Tuesday:08:00 - 00:00;Wednesday:08:00 - 00:00;Thursday:08:00 - 00:00;Friday:08:00 - 01:00;Saturday:08:00 - 01:00;Sunday:08:00 - 00:00;holiday:08:00 - 00:00;,,0
,,Main road 3,,Bludenz/Bürs,,6706,Austria,05552/300 08,47.151684000000,9.814565000000,Monday:07:00 - 00:00;Tuesday:07:00 - 00:00;Wednesday:07:00 - 00:00;Thursday:07:00 - 00:00;Friday:07:00 - 01:00;Saturday:07:00 - 01:00;Sunday:07:00 - 00:00;holiday:07:00 - 00:00;,,0
,,Hütteldorfer Straße 81B / 4,,Wien,,1150,Austria,0664/8466662,48.198853000000,16.319983000000,Monday:06:00 - 02:00;Tuesday:06:00 - 02:00;Wednesday:06:00 - 02:00;Thursday:06:00 - 02:00;Friday:06:00 - 02:00;Saturday:06:00 - 02:00;Sunday:07:00 - 02:00;holiday:07:00 - 02:00;,,0
,,Dammstraße / B8,,German-Wagram,,2232,Austria,0664 / 884 695 91,48.303394000000,16.576574000000,Monday:07:00 - 00:00;Tuesday:07:00 - 00:00;Wednesday:07:00 - 00:00;Thursday:07:00 - 00:00;Friday:07:00 - 02:00;Saturday:07:00 - 02:00;Sunday:07:00 - 00:00;holiday:07:00 - 00:00;,,0
,,Kopernikusstraße 8,,Vöcklabruck,,4840,Austria,0767 / 221 307,48.004780000000,13.673107000000,Monday:07:00 - 00:00;Tuesday:07:00 - 00:00;Wednesday:07:00 - 00:00;Thursday:07:00 - 00:00;Friday:07:00 - 00:00;Saturday:07:00 - 00:00;Sunday:07:00 - 00:00;holiday:07:00 - 00:00;,,0
,,Grinzinger Allee 3,,Wien,,1190,Austria,01/328 28 07,48.246517000000,16.342239000000,Monday:07:00 - 00:00;Tuesday:07:00 - 00:00;Wednesday:07:00 - 00:00;Thursday:07:00 - 00:00;Friday:07:00 - 02:00;Saturday:07:00 - 02:00;Sunday:08:00 - 00:00;holiday:08:00 - 00:00;,,0
,,Copy to Clipboard,,Graz,,8051,Austria,0664 / 846 66 60,47.104416000000,15.400177000000,Monday:06:00 - 00:00;Tuesday:06:00 - 00:00;Wednesday:06:00 - 00:00;Thursday:06:00 - 00:00;Friday:06:00 - 01:00;Saturday:06:00 - 01:00;Sunday:07:00 - 00:00;holiday:07:00 - 00:00;,,0
,,The,,Salzburg,,5020,Austria,0662/875 172,47.809799000000,13.061600000000,Monday:06:30 - 02:00;Tuesday:06:30 - 02:00;Wednesday:06:30 - 02:00;Thursday:06:30 - 02:00;Friday:06:30 - 03:00;Saturday:06:30 - 03:00;Sunday:06:30 - 02:00;holiday:06:30 - 02:00;,,0
,,Waidhofner Straße 46,,Amstetten-Greinsfurth,,3300,Austria,07472/642 80,48.108540000000,14.836826000000,Monday:07:00 - 00:00;Tuesday:07:00 - 00:00;Wednesday:07:00 - 00:00;Thursday:07:00 - 00:00;Friday:07:00 - 01:00;Saturday:07:00 - 01:00;Sunday:07:00 - 00:00;holiday:07:00 - 00:00;,,0
,,Copy to Clipboard,,Kufstein,,6332,Austria,05372/677 70,47.593456000000,12.176650000000,Monday:06:00 - 01:00;Tuesday:06:00 - 01:00;Wednesday:06:00 - 01:00;Thursday:06:00 - 01:00;Friday:06:00 - 03:00;Saturday:06:00 - 03:00;Sunday:06:00 - 01:00;holiday:06:00 - 01:00;,,0
,,Shopping center Cyta / Gießenweg 2,,Völs,,6176,Austria,0512/30 36 39,47.257057000000,11.323176000000,Monday:07:00 - 00:00;Tuesday:07:00 - 00:00;Wednesday:07:00 - 00:00;Thursday:07:00 - 00:00;Friday:07:00 - 01:00;Saturday:07:00 - 01:00;Sunday:07:00 - 00:00;holiday:07:00 - 00:00;,,0
,,Römerstraße 1,,Eugendorf,,5301,Austria,06225/7640,47.859444000000,13.125164000000,Monday:07:00 - 24:00;Tuesday:07:00 - 24:00;Wednesday:07:00 - 24:00;Thursday:07:00 - 24:00;Friday:07:00 - 01:00;Saturday:07:00 - 01:00;Sunday:07:00 - 24:00;holiday:07:00 - 24:00;,,0
,,Rheinstraße 6,,Hard,,6971,Austria,05574/663 66,47.490559000000,9.705108000000,Monday:07:00 - 00:00;Tuesday:07:00 - 00:00;Wednesday:07:00 - 00:00;Thursday:07:00 - 00:00;Friday:07:00 - 01:00;Saturday:07:00 - 01:00;Sunday:07:00 - 00:00;holiday:07:00 - 00:00;,,0
,,Haiderstraße 39,,Ansfelden,,4052,Austria,07229/820 00,48.211369000000,14.279418000000,Monday:06:00 - 01:00;Tuesday:06:00 - 01:00;Wednesday:06:00 - 01:00;Thursday:06:00 - 01:00;Friday:06:00 - 02:00;Saturday:06:00 - 02:00;Sunday:06:00 - 01:00;holiday:06:00 - 01:00;,,0
,,Copy to Clipboard,,Oberwart,,7400,Austria,03352/314 16,47.283249000000,16.186424000000,Monday:07:00 - 00:00;Tuesday:07:00 - 00:00;Wednesday:07:00 - 00:00;Thursday:07:00 - 00:00;Friday:07:00 - 02:00;Saturday:07:00 - 02:00;Sunday:07:00 - 00:00;holiday:07:00 - 00:00;,,0
,,Breitenleer Straße S2,,Wien,,1220,Austria,01/734 59 61-11,48.250202000000,16.470798000000,Monday:06:30 - 01:00;Tuesday:06:30 - 01:00;Wednesday:06:30 - 01:00;Thursday:06:30 - 01:00;Friday:06:30 - 01:00;Saturday:06:30 - 01:00;Sunday:07:00 - 01:00;holiday:07:00 - 01:00;,,0
,,Copy to Clipboard,,Wolfsberg,,9400,Austria,0676 898 388 817,46.823643000000,14.839535000000,Monday:06:30 - 24:00;Tuesday:06:30 - 24:00;Wednesday:06:30 - 24:00;Thursday:06:30 - 24:00;Friday:06:30 - 01:00;Saturday:06:30- 01:00;Sunday:06:30 - 24:00;holiday:06:30 - 24:00;,,0
,,Brünnerstraße 170,,Wien,,1210,Austria,01/292 58 48,48.280624000000,16.411858000000,Monday:08:00 - 22:00;Tuesday:08:00 - 22:00;Wednesday:08:00 - 22:00;Thursday:08:00 - 22:00;Friday:08:00 - 22:00;Saturday:08:00 - 22:00;Sunday:08:00 - 22:00;holiday:08:00 - 22:00;,,0
,,Maria Guilherster 35,,Villach,,9500,Austria,04242/225 55 50,46.605309000000,13.865604000000,Monday:06:00 - 02:00;Tuesday:06:00 - 02:00;Wednesday:06:00 - 02:00;Thursday:06:00 - 02:00;Friday:06:00 - 02:00;Saturday:06:00 - 02:00;Sunday:06:00 - 02:00;holiday:06:00 - 02:00;,,0
,,Schloßhoferstraße 13 - 15,,Wien,,1210,Austria,01/271 55 81,48.257530000000,16.400484000000,Monday:06:00 - 01:00;Tuesday:06:00 - 01:00;Wednesday:06:00 - 01:00;Thursday:06:00 - 01:00;Friday:06:00 - 02:00;Saturday:06:00 - 02:00;Sunday:07:00 - 01:00;holiday:07:00 - 01:00;,,0
,,Wegscheiderstr. 1/GPO I,,Linz,,4020,Austria,0732/37 15 48,48.254082000000,14.282057000000,Monday:07:00 - 01:00;Tuesday:07:00 - 01:00;Wednesday:07:00 - 01:00;Thursday:07:00 - 01:00;Friday:07:00 - 01:00;Saturday:07:00 - 01:00;Sunday:07:00 - 01:00;holiday:07:00 - 01:00;,,0
,,Lauzilgasse 31,,Graz,,8020,Austria,0664 / 884 680 98,47.045532000000,15.430638000000,Monday:06:00 - 00:00;Tuesday:06:00 - 00:00;Wednesday:06:00 - 00:00;Thursday:06:00 - 00:00;Friday:06:00 - 01:00;Saturday:06:00 - 01:00;Sunday:06:00 - 00:00;holiday:06:00 - 00:00;,,0
,,Thaliastraße 17,,Wien,,1160,Austria,01/493 28 75,48.208958000000,16.335102000000,Monday:06:30 - 00:30;Tuesday:06:30 - 00:30;Wednesday:06:30 - 00:30;Thursday:06:30 - 00:30;Friday:06:30 - 00:30;Saturday:07:00 - 00:30;Sunday:07:00 - 00:00;holiday:09:00 - 00:00;,,0
,,Donaustadtstraße 49,,Wien,,1220,Austria,0699/199 000 37,48.220001000000,16.444101000000,Monday:06:00 - 00:00;Tuesday:06:00 - 00:00;Wednesday:06:00 - 00:00;Thursday:06:00 - 00:00;Friday:06:00 - 02:00;Saturday:06:00 - 02:00;Sunday:07:00 - 00:00;holiday:07:00 - 00:00;,,0
,,Ginzkey Street 60,,Wels,,4600,Austria,07242/568 00,48.179642000000,14.063260000000,Monday:09:00 - 00:00;Tuesday:09:00 - 00:00;Wednesday:09:00 - 00:00;Thursday:09:00 - 00:00;Friday:09:00 - 00:00;Saturday:09:00 - 00:00;Sunday:09:00 - 00:00;holiday:09:00 - 00:00;,,0
,,Haratzmüller Straße 80,,Steyr,,4400,Austria,07252/432 88,48.042690000000,14.433714000000,Monday:07:00 - 01:00;Tuesday:07:00 - 01:00;Wednesday:07:00 - 01:00;Thursday:07:00 - 01:00;Friday:07:00 - 01:00;Saturday:07:00 - 01:00;Sunday:07:00 - 01:00;holiday:07:00 - 01:00;,,0
,,Völkermarkter Straße 268,,Klagenfurt,,9020,Austria,0676 898 388 808,46.629536000000,14.354836000000,Monday:06:30 - 01:00;Tuesday:06:30 - 01:00;Wednesday:06:30 - 01:00;Thursday:06:30 - 01:00;Friday:06:30 - 02:00;Saturday:06:30 - 02:00;Sunday:07:00 - 01:00;holiday:07:00 - 01:00;,,0
,,Universitätsring 12,,Wien,,1010,Austria,01/533 30 21,48.213703000000,16.362692000000,Monday:06:00 - 01:30;Tuesday:06:00 - 01:30;Wednesday:06:00 - 01:30;Thursday:06:00 - 01:30;Friday:06:00 - 05:00;Saturday:07:00 - 05:00;Sunday:07:00 - 01:30;holiday:07:00 - 01:30;,,0
,,Triester Straße 70 – Wienerberg,,Wien,,1100,Austria,01/667 85 35,48.165237000000,16.346470000000,Monday:05:30 - 03:00;Tuesday:05:30 - 03:00;Wednesday:05:30 - 03:00;Thursday:05:30 - 03:00;Friday:05:30 - 05:00;Saturday:06:00 - 05:00;Sunday:06:00 - 03:00;holiday:06:00 - 03:00;,,0
,,Conrad v. Hötzendorfstr. 91,,Graz,,8010,Austria,0664 / 884 680 99,47.055412000000,15.448221000000,Monday:06:00 - 01:00;Tuesday:06:00 - 01:00;Wednesday:06:00 - 01:00;Thursday:06:00 - 01:00;Friday:06:00 - 01:00;Saturday:06:00 - 01:00;Sunday:06:00 - 01:00;holiday:06:00 - 01:00;,,0
,,Copy to Clipboard,,Wall,,8600,Austria,03862/56620,47.420795000000,15.274275000000,Monday:07:00 - 01:00;Tuesday:07:00 - 01:00;Wednesday:07:00 - 01:00;Thursday:07:00 - 01:00;Friday:07:00 - 03:00;Saturday:07:00 - 03:00;Sunday:07:00 - 01:00;holiday:07:00 - 01:00;,,0
,,Pottendorferstraße 45,,Neustadt,,2700,Austria,02622/26401,47.829018000000,16.251837000000,Monday:00:00 - 24:00;Tuesday:00:00 - 24:00;Wednesday:00:00 - 24:00;Thursday:00:00 - 24:00;Friday:00:00 - 24:00;Saturday:00:00 - 24:00;Sunday:00:00 - 24:00;holiday:00:00 - 24:00;,,0
,,Singerstraße 4,,Wien,,1010,Austria,01/513 92 79,48.207664000000,16.372374000000,Monday:07:00 - 02:00;Tuesday:07:00 - 02:00;Wednesday:07:00 - 02:00;Thursday:07:00 - 02:00;Friday:07:00 - 04:00;Saturday:07:00 - 04:00;Sunday:07:00 - 02:00;holiday:07:00 - 02:00;,,0
,,"Hernalser Gürtel 82 A - 87, urban railway arches",,Wien,,1090,Austria,01/408 29 00,48.216301000000,16.341574000000,Monday:07:00 - 04:00;Tuesday:07:00 - 04:00;Wednesday:07:00 - 04:00;Thursday:07:00 - 05:00;Friday:07:00 - 05:00;Saturday:07:00 - 05:00;Sunday:08:00 - 03:00;holiday:08:00 - 03:00;,,0
,,Alpenstraße 112,,Salzburg,,5020,Austria,+43 0662 625536,47.774761000000,13.068038000000,Monday:06:30 - 02:00;Tuesday:06:30 - 02:00;Wednesday:06:30 - 02:00;Thursday:06:30 - 02:00;Friday:06:30 - 03:00;Saturday:06:30 - 03:00;Sunday:07:00 - 02:00;holiday:07:00 - 02:00;,,0
,,Franz-Reisch-Strasse 7,,Kitzbühel,,6370,Austria,05356/714 30,47.445900000000,12.389800000000,Monday:09:00 - 02:00;Tuesday:09:00 - 02:00;Wednesday:09:00 - 02:00;Thursday:09:00 - 02:00;Friday:09:00 - 02:00;Saturday:09:00 - 02:00;Sunday:09:00 - 02:00;holiday:09:00 - 02:00;,,0
