store_name,store_number,address,address2,city,state,zip_code,country,phone_number,latitude,longitude,store_hours,other_fields,coming_soon
pearle vision (brooklyn heights),21056772,154 montague street,,brooklyn heights,ny,11201,United States,(718) 246-5795,40.69446,-73.99311,M-F: 10:00 am - 7:00 pm;Sat: 10:00 am - 5:30 pm;Sun: closed,,0
pearle vision (park slope),21088995,95 seventh ave,,brooklyn,ny,11215,United States,(718) 230-0205,40.67446,-73.97545,M-T: 10:00 am - 7:00 pm;Wed: closed;Thur: 10:00 am - 7:00 pm;F-Sa: 10:00 am - 6:00 pm;Sun: 12:00 pm - 5:00 pm,,0
pearle vision (woodside),21091938,48-11 queens blvd,,woodside,ny,11377,United States,(718) 205-9760,40.74276,-73.91666,Mon: 10:00 am - 6:00 pm;Tue: 10:00 am - 7:00 pm;Wed: 10:00 am - 8:00 pm;Thur: 10:00 am - 7:00 pm;F-Sa: 10:00 am - 6:00 pm;Sun: closed,,0
pearle vision (jackson heights),21091431,75-37 31st avenue,,jackson heights,ny,11370,United States,(718) 205-5797,40.75865,-73.89146,M-F: 10:00 am - 7:00 pm;Sat: 10:00 am - 6:00 pm;Sun: closed,,0
pearle vision (georgetown shopping plaza),21030346,2103 ralph ave,,brooklyn,ny,11234,United States,(718) 241-0400,40.62622,-73.91790,Mon: 10:00 am - 6:00 pm;Tue: 10:00 am - 7:00 pm;Wed: 10:00 am - 6:00 pm;Th-F: 10:00 am - 7:00 pm;Sat: 10:00 am - 6:00 pm;Sun: closed,,0
pearle vision (atlantic avenue shopping center),21091432,102-22 atlantic avenue,,ozone park,ny,11416,United States,(718) 846-1144,40.68984,-73.84258,M-F: 10:00 am - 7:00 pm;Sat: 10:00 am - 6:00 pm;Sun: closed,,0
pearle vision (bayside),21040619,19320 northern blvd,,flushing,ny,11358,United States,(718) 357-4666,40.75783,-73.78786,M-Th: 9:30 am - 8:30 pm;Fri: 9:30 am - 6:00 pm;Sat: 9:30 am - 5:00 pm;Sun: closed,,0
pearle vision (saddlebrook),21018628,390 market street,,saddle brook,nj,07663,United States,(201) 843-5453,40.89690,-74.09617,M-Th: 10:00 am - 7:00 pm;Fri: 10:00 am - 6:00 pm;Sat: 9:00 am - 3:00 pm;Sun: closed,,0
pearle vision (essex green shopping center  #217),21018666,495 prospect avenue,,west orange,nj,07052,United States,(973) 736-2200,40.79180,-74.25465,M-T: 10:00 am - 8:00 pm;Wed: 10:00 am - 6:00 pm;Thur: 10:00 am - 8:00 pm;Fri: 10:00 am - 6:00 pm;Sat: 10:00 am - 5:00 pm;Sun: 12:00 pm - 5:00 pm,,0
pearle vision (paramus),21060155,341 route 4 west,,paramus,nj,07652,United States,(201) 489-6000,40.92537,-74.08770,M-F: 10:00 am - 8:00 pm;Sat: 9:30 am - 6:00 pm;Sun: closed,,0
pearle vision (elmont),21121045,1445 hempstead turnpike,,elmont,ny,11003,United States,(516) 616-1771,40.70731,-73.69441,M-Th: 10:00 am - 8:00 pm;F-Sa: 10:00 am - 6:00 pm;Sun: closed,,0
pearle vision (new hyde park),21063927,932 hillside avenue,,new hyde park,ny,11040,United States,(516) 437-2120,40.74355,-73.69295,M-Th: 10:00 am - 8:00 pm;Fri: 10:00 am - 6:00 pm;Sat: 10:00 am - 5:00 pm;Sun: 11:00 am - 5:00 pm,,0
pearle vision (springfield-eye),21082488,275 route 22 east,,springfield,nj,07081,United States,(973) 376-7900,40.68522,-74.32337,M-F: 10:00 am - 8:00 pm;Sat: 10:00 am - 6:00 pm;Sun: closed,,0
pearle vision (totowa),21058960,360 rt. 46 east,,totowa,nj,07512,United States,(973) 785-0900,40.89419,-74.23158,M-F: 10:00 am - 8:00 pm;Sat: 10:00 am - 6:00 pm;Sun: closed,,0
pearle vision (sprout brook shopping center),21018482,556 n state rt 17,,paramus,nj,07652,United States,(201) 670-0010,40.95793,-74.07451,M-F: 9:30 am - 8:00 pm;Sat: 9:30 am - 6:00 pm;Sun: closed,,0
pearle vision (woodbridge-eye),21115754,670 route 1,,iselin,nj,08830,United States,(732) 750-0300,40.56121,-74.30192,M-F: 10:00 am - 8:00 pm;Sat: 10:00 am - 6:00 pm;Sun: closed,,0
pearle vision (roslyn),21092513,1085 northern blvd,,roslyn,ny,11576,United States,(516) 365-4066,40.79965,-73.66051,M-F: 10:00 am - 8:00 pm;Sat: 10:00 am - 5:00 pm;Sun: 11:00 am - 5:00 pm,,0
pearle vision (yonkers),21004361,2340 central park ave.,,yonkers,ny,10710,United States,(914) 961-3737,40.97726,-73.83116,M-F: 9:30 am - 8:00 pm;Sat: 9:30 am - 7:00 pm;Sun: 12:00 pm - 5:00 pm,,0
pearle vision (east hanover plaza),21057215,154 route 10,,east hanover,nj,07936,United States,(973) 887-0216,40.80952,-74.38089,M-F: 10:00 am - 8:00 pm;Sat: 10:00 am - 6:00 pm;Sun: 11:30 am - 5:30 pm,,0
pearle vision (east chester mall),21031017,777 white plains road,,scarsdale,ny,10583,United States,(914) 725-6437,40.97441,-73.80318,M-T: 10:00 am - 7:00 pm;Wed: 10:00 am - 6:00 pm;Thur: 10:00 am - 8:00 pm;Fri: 10:00 am - 6:00 pm;Sat: 10:00 am - 5:00 pm;Sun: closed,,0
pearle vision (e. meadow),21040695,2365 hempstead turnpike,,east meadow,ny,11554,United States,(516) 796-3800,40.72498,-73.54804,M-Th: 10:00 am - 9:00 pm;Fri: 10:00 am - 8:00 pm;Sat: 10:00 am - 5:00 pm;Sun: 11:00 am - 5:00 pm,,0
pearle vision (hadley center),21018451,4919 stelton rd,,south plainfield,nj,07080,United States,(908) 561-7400,40.55006,-74.43117,M-F: 10:00 am - 8:00 pm;Sat: 10:00 am - 5:00 pm;Sun: closed,,0
pearle vision (the square at riverdale),21018616,92 nj-23,,riverdale,nj,07457,United States,(973) 248-1188,40.98790,-74.32378,M-F: 10:00 am - 8:00 pm;Sat: 10:00 am - 6:00 pm;Sun: 11:30 am - 5:30 pm,,0
pearle vision (jericho),21004148,328 n. broadway,,jericho,ny,11753,United States,(516) 681-2020,40.78048,-73.53145,M-Th: 10:00 am - 9:00 pm;Fri: 10:00 am - 8:00 pm;Sat: 10:00 am - 5:00 pm;Sun: closed,,0
pearle vision (east brunswick),21059023,326 route 18 north,,east brunswick,nj,08816,United States,(732) 238-9200,40.43052,-74.40945,M-F: 10:00 am - 8:00 pm;Sat: 10:00 am - 6:00 pm;Sun: closed,,0
pearle vision (randolph),21018644,124 new jersey 10,,randolph,nj,07869,United States,(973) 361-8990,40.87329,-74.53423,Mon: 10:00 am - 7:00 pm;Tue: 10:00 am - 4:30 pm;W-Th: 10:00 am - 8:00 pm;Fri: 10:00 am - 7:00 pm;Sat: 10:00 am - 4:30 pm;Sun: closed,,0
pearle vision (massapequa),21040571,1050 sunrise highway,,massapequa,ny,11758,United States,(516) 795-7880,40.67845,-73.43780,M-Th: 10:00 am - 9:00 pm;Fri: 10:00 am - 8:00 pm;Sat: 10:00 am - 6:00 pm;Sun: 12:00 pm - 5:00 pm,,0
pearle vision (rockaway town square center),21019076,"343 mt. hope ave, ste 2",,rockaway,nj,07866,United States,(973) 366-1181,40.90537,-74.54666,M-F: 10:00 am - 8:00 pm;Sat: 10:00 am - 5:00 pm;Sun: 11:00 am - 4:00 pm,,0
pearle vision (stamford),21027124,111 broad st,,stamford,ct,06901,United States,(203) 348-3200,41.05514,-73.53848,M-W: 9:00 am - 6:00 pm;Thur: 9:00 am - 7:00 pm;Fri: 9:00 am - 6:00 pm;Sat: 9:00 am - 5:00 pm;Sun: closed,,0
pearle vision (eatontown),21115765,255 highway 35 north,,eatontown,nj,07724,United States,(732) 542-8888,40.21526,-74.03026,M-F: 10:00 am - 8:00 pm;Sat: 9:00 am - 5:00 pm;Sun: closed,,0
pearle vision (west babylon),21055640,613 w montauk hwy,,west babylon,ny,11704,United States,(631) 893-0135,40.68600,-73.34474,M-T: 10:00 am - 8:00 pm;Wed: 10:00 am - 5:00 pm;Thur: 10:00 am - 8:00 pm;F-Sa: 10:00 am - 5:00 pm;Sun: 10:00 am - 3:00 pm,,0
pearle vision (somerset shopping center),21018668,329 us hwy 202,,bridgewater,nj,08807,United States,(908) 685-1500,40.57451,-74.65868,M-F: 10:00 am - 8:30 pm;Sat: 10:00 am - 4:30 pm;Sun: closed,,0
pearle vision (shoprite plaza),21018634,3585 rt.9 north,,freehold,nj,07728,United States,(732) 780-7180,40.24099,-74.27727,M-T: 10:00 am - 8:00 pm;Wed: 10:00 am - 6:00 pm;Thur: 10:00 am - 8:00 pm;Fri: 10:00 am - 6:00 pm;Sat: 10:00 am - 5:00 pm;Sun: closed,,0
pearle vision (peppertree commons),21117813,6401 jericho turnpike,,commack,ny,11725,United States,(631) 462-1188,40.84316,-73.29398,Mon: 10:00 am - 6:00 pm;Tue: 10:00 am - 8:00 pm;Wed: 10:00 am - 6:00 pm;Thur: 10:00 am - 8:00 pm;Fri: 10:00 am - 6:00 pm;Sat: 10:00 am - 5:00 pm;Sun: 10:00 am - 3:00 pm,,0
pearle vision (pathmark plaza),21018460,"1933 hwy. #35, ste 120",,wall,nj,07719,United States,(732) 449-5902,40.15537,-74.05436,Mon: 9:00 am - 8:30 pm;Tue: 9:00 am - 7:00 pm;Wed: 9:00 am - 6:00 pm;Thur: 9:00 am - 8:00 pm;Fri: 9:00 am - 7:00 pm;Sat: 9:00 am - 5:00 pm;Sun: closed,,0
pearle vision (norwalk),21054390,350 connecticut avenue,,norwalk,ct,06854,United States,(203) 866-0788,41.10137,-73.43869,M-F: 9:30 am - 7:00 pm;Sat: 9:30 am - 5:00 pm;Sun: closed,,0
pearle vision (target shopping center),21018698,"72 princeton-hightstown road, #10",,e windsor,nj,08520,United States,(609) 918-9808,40.27545,-74.54319,M-T: 10:00 am - 8:00 pm;Wed: 10:00 am - 6:00 pm;Thur: 10:00 am - 8:00 pm;Fri: 10:00 am - 5:00 pm;Sat: 10:00 am - 4:00 pm;Sun: closed,,0
pearle vision (hauppauge),21062213,1253 veterans memorial highway,,hauppauge,ny,11788,United States,(631) 656-0012,40.81560,-73.19323,M-W: 10:00 am - 6:00 pm;Thur: 10:00 am - 8:00 pm;Fri: 10:00 am - 5:00 pm;Sat: 9:30 am - 5:00 pm;Sun: closed,,0
pearle vision (mansfield village square),21088998,2045 rt. 57,,hackettstown,nj,07840,United States,(908) 852-0500,40.82692,-74.83233,M-F: 9:30 am - 7:00 pm;Sat: 9:30 am - 4:00 pm;Sun: closed,,0
pearle vision (quaker bridge mall),6560,205 quaker bridge mall,,lawrenceville,nj,08648,United States,(609) 799-2285,40.29267,-74.68383,M-Sa: 10:00 am - 9:00 pm;Sun: 11:00 am - 5:00 pm,,0
pearle vision (flemington),21018411,315 state highway 202,,flemington,nj,08822,United States,(908) 788-3937,40.50383,-74.85067,M-F: 10:00 am - 8:00 pm;Sat: 10:00 am - 5:00 pm;Sun: closed,,0
pearle vision (bohemia),21040593,4800 sunrise highway,,bohemia,ny,11716,United States,(631) 567-3500,40.75666,-73.10789,M-F: 10:00 am - 8:00 pm;Sat: 10:00 am - 5:00 pm;Sun: closed,,0
pearle vision (stony brook),21040658,"1320 stony brook rd, ste 130",,stony brook,ny,11790,United States,(631) 751-8200,40.87780,-73.11884,M-F: 10:00 am - 8:00 pm;Sat: 10:00 am - 5:00 pm;Sun: 11:00 am - 4:00 pm,,0
pearle vision (hamilton marketplace),21024327,638 marketplace blvd.,,hamilton,nj,08691,United States,(609) 581-5522,40.19561,-74.63952,M-T: 10:00 am - 8:00 pm;Wed: 10:00 am - 6:00 pm;Thur: 10:00 am - 8:00 pm;Fri: 10:00 am - 6:00 pm;Sat: 10:00 am - 4:00 pm;Sun: closed,,0
pearle vision (turnpike shopping center),21054316,1901 black rock turnpike,,fairfield,ct,06825,United States,(203) 334-7722,41.18074,-73.24909,M-F: 9:00 am - 7:00 pm;Sat: 9:00 am - 5:00 pm;Sun: closed,,0
pearle vision (toms river-eye),21018417,1278 hooper avenue,,toms river,nj,08753,United States,(732) 505-0533,39.98543,-74.17925,M-F: 10:00 am - 8:00 pm;Sat: 10:00 am - 5:00 pm;Sun: closed,,0
pearle vision (highlands shopping center),21054315,"111 independent way, ste b",,brewster,ny,10509,United States,(845) 278-7800,41.42195,-73.62904,Mon: 9:30 am - 8:00 pm;Tue: 9:30 am - 6:30 pm;Wed: 11:00 am - 5:00 pm;Thur: 9:30 am - 8:00 pm;F-Sa: 9:30 am - 6:00 pm;Sun: closed,,0
pearle vision (langhorne-eye),21054457,2340 east lincoln highway,,langhorne,pa,19047,United States,(215) 752-7227,40.17926,-74.87845,Mon: 10:00 am - 6:00 pm;Tue: 10:00 am - 8:00 pm;Wed: 10:00 am - 6:00 pm;Thur: 10:00 am - 8:00 pm;Fri: 10:00 am - 6:00 pm;Sat: 10:00 am - 5:00 pm;Sun: closed,,0
pearle vision (boston post rd.),21054376,1330 boston post rd.,,milford,ct,06460,United States,(203) 877-6593,41.23916,-73.03553,M-F: 9:30 am - 7:00 pm;Sat: 9:30 am - 5:00 pm;Sun: 11:00 am - 4:00 pm,,0
pearle vision (poughkeepsie galleria),21089179,"2001 south rd, ste d110",,poughkeepsie,ny,12601,United States,(845) 298-1288,41.62671,-73.91711,M-Sa: 10:00 am - 9:30 pm;Sun: 11:00 am - 6:00 pm,,0
pearle vision (mercer square),21054406,"73 old dublin pike, #13c",,doylestown,pa,18901,United States,(215) 230-4060,40.32328,-75.13275,M-Th: 10:00 am - 7:00 pm;Fri: 10:00 am - 6:00 pm;Sat: 10:00 am - 4:00 pm;Sun: closed,,0
pearle vision (palmer park mall),21125120,147 palmer park mall,,easton,pa,18045,United States,(610) 258-4372,40.68888,-75.27009,M-Sa: 10:00 am - 9:00 pm;Sun: 11:00 am - 6:00 pm,,0
pearle vision (warminster plaza s/c),21028607,632 york rd,,warminster,pa,18974,United States,(215) 674-5700,40.20853,-75.09966,M-Th: 10:00 am - 9:00 pm;Fri: 10:00 am - 6:00 pm;Sat: 10:00 am - 5:00 pm;Sun: closed,,0
pearle vision (madison farms retail),21054385,4753 freemansburg ave.,,bethlehem twp,pa,18045,United States,(610) 866-1000,40.64974,-75.29587,Mon: closed;Tue: 10:00 am - 8:00 pm;Wed: 10:00 am - 6:00 pm;Thur: 10:00 am - 8:00 pm;Fri: 10:00 am - 6:00 pm;Sat: 9:00 am - 4:00 pm;Sun: closed,,0
pearle vision (mall at one),6203,9475 roosevelt blvd,,philadelphia,pa,19114,United States,(215) 698-7600,40.08016,-75.02897,M-F: 10:00 am - 8:00 pm;Sat: 9:00 am - 6:00 pm;Sun: 12:00 pm - 5:00 pm,,0
pearle vision (cinnaminson),21054514,1251 route 130 south,,cinnaminson,nj,08077,United States,(856) 829-3103,39.99990,-74.98708,M-Th: 10:00 am - 7:00 pm;F-Sa: 10:00 am - 5:00 pm;Sun: closed,,0
pearle vision (riverhead),21004332,1053 route 58  roanoke avenue,,riverhead,ny,11901,United States,(631) 727-7777,40.92965,-72.67123,M-Th: 9:30 am - 6:00 pm;Fri: 9:30 am - 7:00 pm;Sat: 9:30 am - 4:00 pm;Sun: closed,,0
pearle vision (hamden plaza s/c),21054405,2100 dixwell avenue,,hamden,ct,06514,United States,(203) 281-4330,41.36937,-72.91910,M-W: 9:30 am - 6:30 pm;Thur: 9:30 am - 7:00 pm;Fri: 9:30 am - 6:00 pm;Sat: 9:30 am - 5:00 pm;Sun: closed,,0
pearle vision (jenkintown-eye),6439,93 old york road,,jenkintown,pa,19046,United States,(215) 576-6676,40.09046,-75.12646,M-F: 9:00 am - 7:00 pm;Sat: 9:00 am - 6:00 pm;Sun: 12:00 pm - 5:00 pm,,0
pearle vision (north wales),6274,26 airport square shopping center,,north wales,pa,19454,United States,(215) 362-0840,40.22400,-75.24251,M-F: 10:00 am - 8:00 pm;Sat: 9:00 am - 6:00 pm;Sun: 12:00 pm - 5:00 pm,,0
pearle vision (richland plaza),21054487,721 so west end blvd,,quakertown,pa,18951,United States,(215) 538-0538,40.43211,-75.35344,Mon: 9:00 am - 6:00 pm;T-Th: 9:00 am - 8:00 pm;Fri: 9:00 am - 6:00 pm;Sat: 9:00 am - 4:00 pm;Sun: closed,,0
pearle vision (marlton crossing),21059485,163 rt 73 s,,marlton,nj,08053,United States,(856) 985-1300,39.88939,-74.92469,M-Th: 10:00 am - 8:00 pm;Fri: 10:00 am - 6:00 pm;Sat: 10:00 am - 4:00 pm;Sun: closed,,0
pearle vision (cherry hill),6294,2128 route 38,,cherry hill,nj,08002,United States,(856) 482-5100,39.93955,-75.01801,M-F: 10:00 am - 8:00 pm;Sat: 9:00 am - 6:00 pm;Sun: 12:00 pm - 5:00 pm,,0
pearle vision (imperial plaza shopping center),21028612,"3400 aramingo avenue, #9",,philadelphia,pa,19134,United States,(215) 425-4340,39.99138,-75.10086,Mon: 9:30 am - 8:00 pm;T-W: 9:30 am - 6:00 pm;Thur: 9:30 am - 8:00 pm;Fri: 9:30 am - 5:30 pm;Sat: 9:00 am - 5:00 pm;Sun: closed,,0
pearle vision (lehigh valley),21125121,"250 lehigh valley mall, #201",,whitehall,pa,18052,United States,(610) 264-8537,40.63322,-75.48134,M-Sa: 10:00 am - 9:00 pm;Sun: 11:00 am - 6:00 pm,,0
pearle vision (plymouth meeting),21125122,661 w germantown pike,,plymouth meeting,pa,19462,United States,(610) 941-9780,40.12021,-75.28735,M-W: 10:00 am - 8:00 pm;Thur: 10:00 am - 6:00 pm;Fri: 10:00 am - 7:00 pm;Sat: 10:00 am - 6:00 pm;Sun: 12:00 pm - 5:00 pm,,0
pearle vision (rittenhouse square),21054340,1528 walnut street,,philadelphia,pa,19102,United States,(215) 732-7622,39.94973,-75.16731,M-F: 10:00 am - 6:00 pm;Sat: 10:00 am - 5:00 pm;Sun: closed,,0
pearle vision (whitman plaza shopping center),21028592,330 w oregon ave,,philadelphia,pa,19148,United States,(215) 463-5889,39.91471,-75.15542,Mon: 10:00 am - 6:00 pm;Tue: 10:00 am - 5:00 pm;W-F: 10:00 am - 6:00 pm;Sat: 10:00 am - 3:00 pm;Sun: closed,,0
pearle vision (suburban square),21028597,74  coulter ave.,,ardmore,pa,19003,United States,(610) 896-0610,40.00791,-75.28783,M-T: 10:00 am - 6:00 pm;Wed: 10:00 am - 8:00 pm;Thur: 10:00 am - 6:00 pm;Fri: 10:00 am - 8:00 pm;Sat: 10:00 am - 6:00 pm;Sun: closed,,0
pearle vision (deptford),21054317,1710 clements bridge rd,,deptford,nj,08096,United States,(856) 853-0860,39.83326,-75.10082,M-T: 10:00 am - 7:30 pm;Wed: 10:00 am - 4:00 pm;Thur: 10:00 am - 7:30 pm;Fri: 10:00 am - 6:00 pm;Sat: 10:00 am - 3:00 pm;Sun: closed,,0
pearle vision (upper darby),21028624,490 s. 69th street,,upper darby,pa,19082,United States,(610) 623-0411,39.95229,-75.25673,M-F: 10:00 am - 7:00 pm;Sat: 9:00 am - 5:00 pm;Sun: closed,,0
pearle vision (providence town center),21054546,500 broad street,,collegeville,pa,19426,United States,(610) 831-1100,40.16411,-75.48097,Mon: 10:00 am - 7:00 pm;Tue: 10:00 am - 8:00 pm;W-F: 10:00 am - 7:00 pm;Sat: 10:00 am - 5:00 pm;Sun: closed,,0
pearle vision (springfield mall),6227,1250 baltimore pike,,springfield,pa,19064,United States,(610) 544-1841,39.91338,-75.35163,M-Sa: 10:00 am - 9:00 pm;Sun: 11:00 am - 6:00 pm,,0
pearle vision (doubletree shopping center),21117614,802 north delsea drive,,glassboro,nj,08028,United States,(856) 582-5550,39.72118,-75.11507,M-F: 10:00 am - 7:30 pm;Sat: 10:00 am - 3:00 pm;Sun: closed,,0
pearle vision (paoli shopping center #42),21028642,31 leopard road,,paoli,pa,19301,United States,(484) 595-0345,40.03978,-75.47621,Mon: 9:30 am - 8:00 pm;T-W: 9:30 am - 6:00 pm;Thur: 9:30 am - 8:00 pm;F-Sa: 9:30 am - 5:30 pm;Sun: 11:30 am - 3:00 pm,,0
pearle vision (coventry mall),6321,"351 w schuylkill rd, ste h-1",,pottstown,pa,19465,United States,(610) 327-2620,40.23339,-75.66115,M-F: 10:00 am - 9:00 pm;Sat: 10:00 am - 6:00 pm;Sun: 12:00 pm - 5:00 pm,,0
pearle vision (eynon plaza),6214,810 scranton carbondale hwy,,eynon,pa,18403,United States,(570) 876-4020,41.50781,-75.57797,M-F: 9:00 am - 8:00 pm;Sat: 9:00 am - 6:00 pm;Sun: 12:00 pm - 5:00 pm,,0
pearle vision (festival plaza shopping center),21060724,428 west lincoln highway,,exton,pa,19341,United States,(610) 363-1164,40.02468,-75.64719,M-T: 10:00 am - 7:00 pm;Wed: 10:00 am - 6:00 pm;Thur: 10:00 am - 8:00 pm;Fri: 10:00 am - 7:00 pm;Sat: 10:00 am - 6:00 pm;Sun: 12:00 am - 5:00 pm,,0
pearle vision (brinton lake ii),21029005,"100 evergreen drive, ste 117",,glen mills,pa,19342,United States,(610) 558-9803,39.88581,-75.53153,Mon: 10:00 am - 8:00 pm;T-W: 10:00 am - 7:00 pm;Thur: 10:00 am - 8:00 pm;Fri: 10:00 am - 5:30 pm;Sat: 9:30 am - 5:30 pm;Sun: 12:30 pm - 4:00 pm,,0
pearle vision (the centre at river oaks),21037626,3031 kirby dr.,,houston,tx,77098,United States,(713) 942-7733,29.73753,-95.41868,M-Sa: 9:00 am - 7:00 pm;Sun: closed,,0
pearle vision (galleria 1),21037803,"5015 westheimer road, ste 2304",,houston,tx,77056,United States,(713) 623-4181,29.74074,-95.46152,M-Sa: 10:00 am - 9:00 pm;Sun: 12:00 pm - 6:00 pm,,0
pearle vision (village plaza at bunker hill),21033476,"9738 katy freeway, #500",,houston,tx,77055,United States,(713) 468-2424,29.78509,-95.53272,M-F: 10:00 am - 7:00 pm;Sat: 10:00 am - 6:00 pm;Sun: closed,,0
pearle vision (new forest crossing),21054463,5815-a e sam houston pkwy north,,houston,tx,77049,United States,(281) 459-3700,29.80983,-95.16393,M-F: 10:00 am - 7:00 pm;Sat: 9:00 am - 5:00 pm;Sun: closed,,0
pearle vision (silverlake village shopping center),21037452,10420 broadway,,pearland,tx,77584,United States,(281) 992-5888,29.55588,-95.38215,M-Th: 10:00 am - 7:00 pm;Fri: 9:00 am - 6:00 pm;Sat: 9:00 am - 4:00 pm;Sun: closed,,0
pearle vision (pasadena),21054476,5767 fairmont pkwy.,,pasadena,tx,77505,United States,(281) 991-1114,29.65002,-95.15220,M-F: 10:00 am - 6:00 pm;Sat: 9:00 am - 4:00 pm;Sun: closed,,0
pearle vision (energy corridor),21054486,"2602 eldridge parkway, ste l",,houston,tx,77082,United States,(281) 558-1832,29.73456,-95.62386,M-F: 9:30 am - 6:00 pm;Sat: 9:30 am - 4:00 pm;Sun: closed,,0
pearle vision (eldridge parkway),21054477,12713 fm 1960 west,,houston,tx,77065,United States,(281) 517-0023,29.92090,-95.60684,M-T: 10:00 am - 6:00 pm;Wed: 10:00 am - 1:00 pm;Th-F: 10:00 am - 6:00 pm;Sat: 10:00 am - 1:00 pm;Sun: closed,,0
pearle vision (copperfield),21054350,7085 highway 6 north,,houston,tx,77095,United States,(281) 463-8333,29.88195,-95.64531,M-F: 9:00 am - 6:00 pm;Sat: 9:00 am - 5:00 pm;Sun: closed,,0
pearle vision (sugar land vision center),21054478,"1875 hwy 6 south, #800",,sugar land,tx,77478,United States,(281) 980-3937,29.59968,-95.62566,M-F: 9:00 am - 6:00 pm;Sat: 9:00 am - 5:00 pm;Sun: closed,,0
pearle vision (atascocita commons),21054538,6709 fm 1960 e,,atascocita,tx,77346,United States,(281) 359-9920,29.99841,-95.17395,M-F: 10:00 am - 7:00 pm;Sat: 9:00 am - 5:00 pm;Sun: closed,,0
pearle vision (greentree retail ctr.),21054347,"19859 katy fwy, ste e",,houston,tx,77094,United States,(281) 398-2805,29.78451,-95.71542,M-Sa: 9:00 am - 6:00 pm;Sun: closed,,0
pearle vision (richmond),21088929,"7101 w. grand parkway s, ste 170",,richmond,tx,77407,United States,(832) 222-9162,29.67316,-95.75309,M-F: 10:00 am - 7:00 pm;Sat: 10:00 am - 5:00 pm;Sun: closed,,0
pearle vision (cypress town center),21054471,"25905 us hwy 290, ste a",,cypress,tx,77433,United States,(281) 256-8774,29.97112,-95.69435,M-T: 9:30 am - 5:30 pm;Wed: 10:30 am - 6:30 pm;Th-F: 9:30 am - 5:30 pm;Sat: 9:30 am - 4:30 pm;Sun: closed,,0
pearle vision (old town square),21029176,"400 w. division st, ste a",,chicago,il,60610,United States,(312) 274-1212,41.90385,-87.63752,M-F: 10:00 am - 7:00 pm;Sat: 9:00 am - 5:00 pm;Sun: 12:00 pm - 5:00 pm,,0
pearle vision (chicago-ashland),21029202,845 n ashland ave,,chicago,il,60622,United States,(312) 942-0407,41.89741,-87.66730,M-F: 9:30 am - 7:00 pm;Sat: 9:30 am - 6:00 pm;Sun: closed,,0
pearle vision (riverpoint),21029153,1730 west fullerton avenue,,chicago,il,60614,United States,(773) 327-3000,41.92510,-87.67269,M-F: 9:30 am - 9:00 pm;Sat: 9:00 am - 5:30 pm;Sun: 12:00 pm - 5:00 pm,,0
pearle vision (belmont),21054409,3136 n. lincoln ave.,,chicago,il,60657,United States,(773) 871-8210,41.93853,-87.66703,Mon: 10:00 am - 7:00 pm;T-W: 10:00 am - 6:00 pm;Thur: 10:00 am - 7:00 pm;Fri: 10:00 am - 6:00 pm;Sat: 10:00 am - 5:30 pm;Sun: closed,,0
pearle vision (logan square),21029198,2706-08 n. milwaukee avenue,,chicago,il,60647,United States,(773) 862-5000,41.93032,-87.70951,M-F: 9:30 am - 7:00 pm;Sat: 9:30 am - 6:00 pm;Sun: 12:00 pm - 5:00 pm,,0
pearle vision (east 53rd),21055847,1200 east 53rd street,,chicago,il,60615,United States,(773) 493-8372,41.79948,-87.59660,Mon: 10:00 am - 6:00 pm;Tue: 10:00 am - 7:00 pm;Wed: closed;Thur: 10:00 am - 7:00 pm;Fri: 10:00 am - 6:00 pm;Sat: 9:00 am - 2:00 pm;Sun: closed,,0
pearle vision (chicago-pulaski),21054490,"5153 s. pulaski rd, unit b",,chicago,il,60632,United States,(773) 284-9844,41.79977,-87.72325,Mon: 10:00 am - 8:00 pm;Tue: 10:00 am - 6:00 pm;Wed: 10:00 am - 7:00 pm;Th-F: 10:00 am - 6:00 pm;Sat: 10:00 am - 5:00 pm;Sun: closed,,0
pearle vision (klee plaza at six corners),21015885,4017 n. milwaukee ave,,chicago,il,60641,United States,(773) 545-2660,41.95378,-87.74790,M-F: 9:30 am - 8:00 pm;Sat: 9:00 am - 5:30 pm;Sun: closed,,0
pearle vision (chicago),21054441,7257 s jeffery boulevard,,chicago,il,60649,United States,(773) 752-3900,41.76266,-87.57621,Mon: 9:00 am - 7:00 pm;Tue: 9:00 am - 6:00 pm;Wed: 9:00 am - 4:00 pm;Thur: 9:00 am - 6:00 pm;Fri: 9:00 am - 7:00 pm;Sat: 9:00 am - 4:00 pm;Sun: closed,,0
pearle vision (north riverside),21057727,7222 w cermak road,,north riverside,il,60546,United States,(708) 447-1494,41.85040,-87.80538,Mon: 10:00 am - 8:00 pm;Tue: 9:00 am - 6:00 pm;Wed: 10:00 am - 8:00 pm;Thur: 10:00 am - 7:00 pm;Fri: 9:00 am - 6:00 pm;Sat: 9:00 am - 5:00 pm;Sun: closed,,0
pearle vision (n lincoln),21054397,6309 n lincoln ave,,chicago,il,60659,United States,(773) 267-1814,41.99579,-87.71614,Mon: 9:00 am - 7:00 pm;T-W: 9:30 am - 7:00 pm;Thur: 9:30 am - 7:30 pm;Fri: 9:00 am - 7:00 pm;Sat: 9:30 am - 5:00 pm;Sun: closed,,0
pearle vision (norridge commons shopping center),21054548,4259 n harlem ave,,norridge,il,60706,United States,(708) 457-2292,41.95761,-87.80716,M-Th: 10:00 am - 7:00 pm;Fri: 10:00 am - 6:00 pm;Sat: 10:00 am - 5:00 pm;Sun: 10:00 am - 4:00 pm,,0
pearle vision (winston plaza shopping center),21015908,904 west north avenue,,melrose park,il,60160,United States,(708) 343-9009,41.90813,-87.84498,M-F: 9:30 am - 9:00 pm;Sat: 9:00 am - 5:30 pm;Sun: 12:00 pm - 5:00 pm,,0
pearle vision (evergreen),21054333,3541 w. 95th street,,evergreen park,il,60805,United States,(708) 425-4162,41.72062,-87.71044,M-T: 9:30 am - 7:00 pm;Wed: 9:30 am - 6:00 pm;Thur: 9:30 am - 7:00 pm;Fri: 9:30 am - 6:00 pm;Sat: 9:30 am - 4:00 pm;Sun: closed,,0
pearle vision (skokie),21054427,7151 n. central ave,,skokie,il,60077,United States,(847) 674-6666,42.01273,-87.76748,Mon: 10:00 am - 7:00 pm;Tue: 10:00 am - 8:00 pm;Wed: 10:00 am - 7:00 pm;Thur: 10:00 am - 8:00 pm;Fri: 10:00 am - 7:00 pm;Sat: 10:00 am - 5:00 pm;Sun: closed,,0
pearle vision (countryside),21055620,5501 w plainfield rd,,countryside,il,60525,United States,(708) 482-7744,41.78814,-87.87890,Mon: 9:30 am - 8:00 pm;Tue: 9:30 am - 5:30 pm;Wed: 9:30 am - 3:30 pm;Thur: 9:30 am - 8:00 pm;Fri: 9:30 am - 5:30 pm;Sat: 9:00 am - 5:00 pm;Sun: closed,,0
pearle vision (willow creek center),21054530,2305 willow road,,glenview,il,60025,United States,(847) 832-9690,42.10545,-87.81397,M-F: 9:30 am - 8:00 pm;Sat: 9:00 am - 6:00 pm;Sun: 11:00 am - 5:00 pm,,0
pearle vision (midlothian),21054345,14702 cicero ave,,midlothian,il,60445,United States,(708) 687-2115,41.62514,-87.73726,M-T: 10:00 am - 8:00 pm;Wed: 10:00 am - 4:00 pm;Thur: 10:00 am - 8:00 pm;Fri: 10:00 am - 6:00 pm;Sat: 8:45 am - 3:00 pm;Sun: closed,,0
pearle vision (oakbrook terrace square),21029189,17w685 w roosevelt road,,oakbrook terrace,il,60181,United States,(630) 916-8282,41.86045,-87.98605,M-W: 10:00 am - 8:00 pm;Thur: 9:00 am - 7:00 pm;Fri: 9:00 am - 6:00 pm;Sat: 9:30 am - 5:00 pm;Sun: 12:00 pm - 5:00 pm,,0
pearle vision (orland park),21029170,24 orland square drive,,orland park,il,60462,United States,(708) 403-3555,41.62053,-87.85235,M-W: 10:00 am - 8:00 pm;Thur: 9:00 am - 7:00 pm;Fri: 9:00 am - 6:00 pm;Sat: 10:00 am - 5:00 pm;Sun: 11:00 am - 5:00 pm,,0
pearle vision (woodridge),21054325,"1001 75th st, #139",,woodridge,il,60517,United States,(630) 910-1600,41.75106,-88.01281,M-Th: 10:00 am - 7:00 pm;Fri: 10:00 am - 6:00 pm;Sat: 10:00 am - 4:00 pm;Sun: closed,,0
pearle vision (homewood),21090968,18234 south halsted street,,homewood,il,60430,United States,(708) 798-7711,41.55829,-87.63608,Mon: 9:30 am - 8:00 pm;Tue: 9:30 am - 5:30 pm;Wed: 9:30 am - 3:30 pm;Thur: 9:30 am - 8:00 pm;Fri: 9:30 am - 5:30 pm;Sat: 9:30 am - 3:30 pm;Sun: closed,,0
pearle vision (south point shopping center),21061045,704 e rand rd,,arlington heights,il,60004,United States,(847) 259-3933,42.10783,-87.97326,M-Th: 10:00 am - 7:00 pm;Fri: 10:00 am - 6:00 pm;Sat: 9:00 am - 4:00 pm;Sun: closed,,0
pearle vision (wheeling),21054459,727 west dundee road,,wheeling,il,60090,United States,(847) 459-4477,42.13920,-87.93341,Mon: 9:30 am - 8:00 pm;T-W: 9:30 am - 6:00 pm;Thur: 9:30 am - 8:00 pm;Fri: 9:30 am - 6:00 pm;Sat: 9:30 am - 4:00 pm;Sun: closed,,0
pearle vision (danada creek shopping center),21015947,"811 butterfield rd, ste 111",,wheaton,il,60187,United States,(630) 480-8591,41.82952,-88.09106,M-F: 10:00 am - 7:00 pm;Sat: 10:00 am - 5:00 pm;Sun: closed,,0
pearle vision (schaumburg),21063928,850 east golf road,,schaumburg,il,60173,United States,(847) 519-1020,42.05014,-88.05710,Mon: 10:00 am - 7:00 pm;T-Th: 10:00 am - 8:00 pm;Fri: 10:00 am - 6:00 pm;Sat: 9:00 am - 5:00 pm;Sun: 11:00 am - 4:00 pm,,0
pearle vision (palatine),21054483,279 north northwest hwy,,palatine,il,60067,United States,(847) 358-4970,42.11473,-88.03498,M-T: 9:30 am - 8:00 pm;Wed: 9:30 am - 7:00 pm;Thur: 9:30 am - 8:00 pm;Fri: 9:30 am - 5:00 pm;Sat: 9:00 am - 5:00 pm;Sun: closed,,0
pearle vision (buffalo grove),21055369,464 w. half day road,,buffalo grove,il,60089,United States,(847) 913-5545,42.19696,-87.96744,Mon: 10:00 am - 8:00 pm;Tue: 10:00 am - 6:00 pm;W-Th: 10:00 am - 8:00 pm;Fri: 10:00 am - 6:00 pm;Sat: 10:00 am - 4:00 pm;Sun: closed,,0
pearle vision (boughton plaza),21054444,1243 w. boughton road,,bolingbrook,il,60440,United States,(630) 679-0900,41.70306,-88.12363,M-F: 9:30 am - 8:00 pm;Sat: 9:00 am - 6:00 pm;Sun: 11:00 am - 5:00 pm,,0
pearle vision (vernon hills),21029147,246 hawthorn village commons,,vernon hills,il,60061,United States,(847) 680-9160,42.24159,-87.94599,Mon: 10:00 am - 8:00 pm;Tue: 10:00 am - 6:00 pm;Wed: 10:00 am - 7:00 pm;Thur: 10:00 am - 8:00 pm;Fri: 9:00 am - 6:00 pm;Sat: 9:00 am - 5:00 pm;Sun: closed,,0
pearle vision (naperville),21019149,680 south route 59,,naperville,il,60540,United States,(630) 357-7710,41.75947,-88.20583,M-F: 10:00 am - 7:00 pm;Sat: 10:00 am - 5:00 pm;Sun: 12:00 pm - 5:00 pm,,0
pearle vision (greyhawk shopping center),21057725,664 s. rand road,,lake zurich,il,60047,United States,(847) 540-7737,42.18634,-88.09757,Mon: 10:00 am - 8:00 pm;T-W: 10:00 am - 6:00 pm;Thur: 10:00 am - 8:00 pm;Fri: 10:00 am - 6:00 pm;Sat: 9:00 am - 5:00 pm;Sun: closed,,0
pearle vision (hillcrest shopping center),21054404,1701 n larkin ave,,crest hill,il,60403,United States,(815) 741-1140,41.55327,-88.12602,M-F: 9:30 am - 8:00 pm;Sat: 9:00 am - 6:00 pm;Sun: 11:00 am - 5:00 pm,,0
pearle vision (geneva),21054522,"1749 south randall rd, ste f",,geneva,il,60134,United States,(630) 845-9110,41.87110,-88.34033,M-T: 10:00 am - 8:00 pm;Wed: 9:00 am - 6:00 pm;Thur: 10:00 am - 8:00 pm;Fri: 9:00 am - 6:00 pm;Sat: 9:00 am - 5:00 pm;Sun: closed,,0
pearle vision (stonebrook commons),21089187,"6641 grand ave, ste d",,gurnee,il,60031,United States,(847) 856-1200,42.38542,-87.96696,M-Th: 10:00 am - 8:00 pm;Fri: 10:00 am - 6:00 pm;Sat: 9:00 am - 5:00 pm;Sun: 10:00 am - 4:00 pm,,0
pearle vision (rose plaza),21054443,4777 northwest hwy.,,crystal lake,il,60014,United States,(815) 477-8500,42.22585,-88.28972,M-F: 9:30 am - 8:00 pm;Sat: 9:00 am - 6:00 pm;Sun: 11:00 am - 5:00 pm,,0
pearle vision (northfield square),6315,1600 n state rt 50,,bourbonnais,il,60914,United States,(815) 935-0404,41.17431,-87.85113,M-Sa: 10:00 am - 9:00 pm;Sun: 11:00 am - 6:00 pm,,0
pearle vision (racine),21088347,2721 s. green bay rd,,racine,wi,53406,United States,(262) 554-5991,42.69940,-87.85353,Mon: 9:00 am - 7:00 pm;Tue: 10:00 am - 6:00 pm;W-Th: 9:00 am - 7:00 pm;Fri: 10:00 am - 6:00 pm;Sat: 9:00 am - 5:00 pm;Sun: closed,,0
pearle vision (oak creek target center),21115373,"8907 s howell ave, ste 600",,oak creek,wi,53154-4461,United States,(414) 764-2651,42.88231,-87.91248,M-T: 10:00 am - 7:00 pm;Wed: 10:00 am - 6:00 pm;Thur: 10:00 am - 7:00 pm;Fri: 10:00 am - 6:00 pm;Sat: 9:00 am - 5:00 pm;Sun: 11:00 am - 4:00 pm,,0
pearle vision (mishawaka),21093140,6502 grape road,,mishawaka,in,46545,United States,(574) 277-7723,41.71899,-86.18771,M-F: 10:00 am - 7:00 pm;Sat: 10:00 am - 5:00 pm;Sun: closed,,0
pearle vision (the brownstones shopping center),21061046,17550-d w blue mound road,,brookfield,wi,53045,United States,(262) 784-3700,43.03663,-88.13340,M-Th: 10:00 am - 8:00 pm;Fri: 10:00 am - 6:00 pm;Sat: 9:00 am - 5:00 pm;Sun: 11:00 am - 4:00 pm,,0
pearle vision (cornerstone shopping center),21054348,695 w silver spring dr,,glendale,wi,53217,United States,(414) 961-6000,43.11859,-87.92002,M-F: 10:00 am - 8:00 pm;Sat: 9:00 am - 6:00 pm;Sun: 11:00 am - 5:00 pm,,0
pearle vision (goshen/market center),21121316,"4024 elkhart rd, ste 23",,goshen,in,46526-5803,United States,(574) 875-5042,41.62078,-85.90129,Mon: 10:00 am - 5:00 pm;Tue: 10:00 am - 7:00 pm;Wed: 10:00 am - 5:00 pm;Thur: 10:00 am - 7:00 pm;Fri: 10:00 am - 6:00 pm;Sat: 9:00 am - 5:00 pm;Sun: closed,,0
pearle vision (mesa river view shopping center),21127776,"937 n. dobson road, ste 102",,mesa,az,85201,United States,(480) 649-6100,33.43416,-111.86989,M-F: 9:30 am - 6:30 pm;Sat: 9:30 am - 5:30 pm;Sun: closed,,0
pearle vision (sonora village shopping center),21002285,"15681 n. hayden rd, ste 115",,scottsdale,az,85260,United States,(480) 948-1131,33.62845,-111.89413,M-F: 9:30 am - 6:30 pm;Sat: 9:30 am - 5:30 pm;Sun: 11:00 am - 4:00 pm,,0
pearle vision (desert ridge marketplace),21127775,"21001 n. tatum blvd, ste 18-1030",,phoenix,az,85050,United States,(480) 513-4184,33.67715,-111.97729,M-W: 9:30 am - 6:30 pm;Thur: 9:30 am - 5:30 pm;Fri: 9:30 am - 6:30 pm;Sat: 9:00 am - 4:00 pm;Sun: closed,,0
pearle vision (rittenhouse square),21054340,1528 walnut street,,philadelphia,pa,19102,United States,(215) 732-7622,39.94973,-75.16731,M-F: 10:00 am - 6:00 pm;Sat: 10:00 am - 5:00 pm;Sun: closed,,0
pearle vision (whitman plaza shopping center),21028592,330 w oregon ave,,philadelphia,pa,19148,United States,(215) 463-5889,39.91471,-75.15542,Mon: 10:00 am - 6:00 pm;Tue: 10:00 am - 5:00 pm;W-F: 10:00 am - 6:00 pm;Sat: 10:00 am - 3:00 pm;Sun: closed,,0
pearle vision (imperial plaza shopping center),21028612,"3400 aramingo avenue, #9",,philadelphia,pa,19134,United States,(215) 425-4340,39.99138,-75.10086,Mon: 9:30 am - 8:00 pm;T-W: 9:30 am - 6:00 pm;Thur: 9:30 am - 8:00 pm;Fri: 9:30 am - 5:30 pm;Sat: 9:00 am - 5:00 pm;Sun: closed,,0
pearle vision (upper darby),21028624,490 s. 69th street,,upper darby,pa,19082,United States,(610) 623-0411,39.95229,-75.25673,M-F: 10:00 am - 7:00 pm;Sat: 9:00 am - 5:00 pm;Sun: closed,,0
pearle vision (suburban square),21028597,74  coulter ave.,,ardmore,pa,19003,United States,(610) 896-0610,40.00791,-75.28783,M-T: 10:00 am - 6:00 pm;Wed: 10:00 am - 8:00 pm;Thur: 10:00 am - 6:00 pm;Fri: 10:00 am - 8:00 pm;Sat: 10:00 am - 6:00 pm;Sun: closed,,0
pearle vision (cherry hill),6294,2128 route 38,,cherry hill,nj,08002,United States,(856) 482-5100,39.93955,-75.01801,M-F: 10:00 am - 8:00 pm;Sat: 9:00 am - 6:00 pm;Sun: 12:00 pm - 5:00 pm,,0
pearle vision (deptford),21054317,1710 clements bridge rd,,deptford,nj,08096,United States,(856) 853-0860,39.83326,-75.10082,M-T: 10:00 am - 7:30 pm;Wed: 10:00 am - 4:00 pm;Thur: 10:00 am - 7:30 pm;Fri: 10:00 am - 6:00 pm;Sat: 10:00 am - 3:00 pm;Sun: closed,,0
pearle vision (jenkintown-eye),6439,93 old york road,,jenkintown,pa,19046,United States,(215) 576-6676,40.09046,-75.12646,M-F: 9:00 am - 7:00 pm;Sat: 9:00 am - 6:00 pm;Sun: 12:00 pm - 5:00 pm,,0
pearle vision (cinnaminson),21054514,1251 route 130 south,,cinnaminson,nj,08077,United States,(856) 829-3103,39.99990,-74.98708,M-Th: 10:00 am - 7:00 pm;F-Sa: 10:00 am - 5:00 pm;Sun: closed,,0
pearle vision (springfield mall),6227,1250 baltimore pike,,springfield,pa,19064,United States,(610) 544-1841,39.91338,-75.35163,M-Sa: 10:00 am - 9:00 pm;Sun: 11:00 am - 6:00 pm,,0
pearle vision (mall at one),6203,9475 roosevelt blvd,,philadelphia,pa,19114,United States,(215) 698-7600,40.08016,-75.02897,M-F: 10:00 am - 8:00 pm;Sat: 9:00 am - 6:00 pm;Sun: 12:00 pm - 5:00 pm,,0
pearle vision (plymouth meeting),21125122,661 w germantown pike,,plymouth meeting,pa,19462,United States,(610) 941-9780,40.12021,-75.28735,M-W: 10:00 am - 8:00 pm;Thur: 10:00 am - 6:00 pm;Fri: 10:00 am - 7:00 pm;Sat: 10:00 am - 6:00 pm;Sun: 12:00 pm - 5:00 pm,,0
pearle vision (marlton crossing),21059485,163 rt 73 s,,marlton,nj,08053,United States,(856) 985-1300,39.88939,-74.92469,M-Th: 10:00 am - 8:00 pm;Fri: 10:00 am - 6:00 pm;Sat: 10:00 am - 4:00 pm;Sun: closed,,0
pearle vision (doubletree shopping center),21117614,802 north delsea drive,,glassboro,nj,08028,United States,(856) 582-5550,39.72118,-75.11507,M-F: 10:00 am - 7:30 pm;Sat: 10:00 am - 3:00 pm;Sun: closed,,0
pearle vision (paoli shopping center #42),21028642,31 leopard road,,paoli,pa,19301,United States,(484) 595-0345,40.03978,-75.47621,Mon: 9:30 am - 8:00 pm;T-W: 9:30 am - 6:00 pm;Thur: 9:30 am - 8:00 pm;F-Sa: 9:30 am - 5:30 pm;Sun: 11:30 am - 3:00 pm,,0
pearle vision (warminster plaza s/c),21028607,632 york rd,,warminster,pa,18974,United States,(215) 674-5700,40.20853,-75.09966,M-Th: 10:00 am - 9:00 pm;Fri: 10:00 am - 6:00 pm;Sat: 10:00 am - 5:00 pm;Sun: closed,,0
pearle vision (north wales),6274,26 airport square shopping center,,north wales,pa,19454,United States,(215) 362-0840,40.22400,-75.24251,M-F: 10:00 am - 8:00 pm;Sat: 9:00 am - 6:00 pm;Sun: 12:00 pm - 5:00 pm,,0
pearle vision (brinton lake ii),21029005,"100 evergreen drive, ste 117",,glen mills,pa,19342,United States,(610) 558-9803,39.88581,-75.53153,Mon: 10:00 am - 8:00 pm;T-W: 10:00 am - 7:00 pm;Thur: 10:00 am - 8:00 pm;Fri: 10:00 am - 5:30 pm;Sat: 9:30 am - 5:30 pm;Sun: 12:30 pm - 4:00 pm,,0
pearle vision (langhorne-eye),21054457,2340 east lincoln highway,,langhorne,pa,19047,United States,(215) 752-7227,40.17926,-74.87845,Mon: 10:00 am - 6:00 pm;Tue: 10:00 am - 8:00 pm;Wed: 10:00 am - 6:00 pm;Thur: 10:00 am - 8:00 pm;Fri: 10:00 am - 6:00 pm;Sat: 10:00 am - 5:00 pm;Sun: closed,,0
pearle vision (providence town center),21054546,500 broad street,,collegeville,pa,19426,United States,(610) 831-1100,40.16411,-75.48097,Mon: 10:00 am - 7:00 pm;Tue: 10:00 am - 8:00 pm;W-F: 10:00 am - 7:00 pm;Sat: 10:00 am - 5:00 pm;Sun: closed,,0
pearle vision (mercer square),21054406,"73 old dublin pike, #13c",,doylestown,pa,18901,United States,(215) 230-4060,40.32328,-75.13275,M-Th: 10:00 am - 7:00 pm;Fri: 10:00 am - 6:00 pm;Sat: 10:00 am - 4:00 pm;Sun: closed,,0
pearle vision (festival plaza shopping center),21060724,428 west lincoln highway,,exton,pa,19341,United States,(610) 363-1164,40.02468,-75.64719,M-T: 10:00 am - 7:00 pm;Wed: 10:00 am - 6:00 pm;Thur: 10:00 am - 8:00 pm;Fri: 10:00 am - 7:00 pm;Sat: 10:00 am - 6:00 pm;Sun: 12:00 am - 5:00 pm,,0
pearle vision (hamilton marketplace),21024327,638 marketplace blvd.,,hamilton,nj,08691,United States,(609) 581-5522,40.19561,-74.63952,M-T: 10:00 am - 8:00 pm;Wed: 10:00 am - 6:00 pm;Thur: 10:00 am - 8:00 pm;Fri: 10:00 am - 6:00 pm;Sat: 10:00 am - 4:00 pm;Sun: closed,,0
pearle vision (coventry mall),6321,"351 w schuylkill rd, ste h-1",,pottstown,pa,19465,United States,(610) 327-2620,40.23339,-75.66115,M-F: 10:00 am - 9:00 pm;Sat: 10:00 am - 6:00 pm;Sun: 12:00 pm - 5:00 pm,,0
pearle vision (richland plaza),21054487,721 so west end blvd,,quakertown,pa,18951,United States,(215) 538-0538,40.43211,-75.35344,Mon: 9:00 am - 6:00 pm;T-Th: 9:00 am - 8:00 pm;Fri: 9:00 am - 6:00 pm;Sat: 9:00 am - 4:00 pm;Sun: closed,,0
pearle vision (quaker bridge mall),6560,205 quaker bridge mall,,lawrenceville,nj,08648,United States,(609) 799-2285,40.29267,-74.68383,M-Sa: 10:00 am - 9:00 pm;Sun: 11:00 am - 5:00 pm,,0
pearle vision (target shopping center),21018698,"72 princeton-hightstown road, #10",,e windsor,nj,08520,United States,(609) 918-9808,40.27545,-74.54319,M-T: 10:00 am - 8:00 pm;Wed: 10:00 am - 6:00 pm;Thur: 10:00 am - 8:00 pm;Fri: 10:00 am - 5:00 pm;Sat: 10:00 am - 4:00 pm;Sun: closed,,0
pearle vision (flemington),21018411,315 state highway 202,,flemington,nj,08822,United States,(908) 788-3937,40.50383,-74.85067,M-F: 10:00 am - 8:00 pm;Sat: 10:00 am - 5:00 pm;Sun: closed,,0
pearle vision (madison farms retail),21054385,4753 freemansburg ave.,,bethlehem twp,pa,18045,United States,(610) 866-1000,40.64974,-75.29587,Mon: closed;Tue: 10:00 am - 8:00 pm;Wed: 10:00 am - 6:00 pm;Thur: 10:00 am - 8:00 pm;Fri: 10:00 am - 6:00 pm;Sat: 9:00 am - 4:00 pm;Sun: closed,,0
pearle vision (lehigh valley),21125121,"250 lehigh valley mall, #201",,whitehall,pa,18052,United States,(610) 264-8537,40.63322,-75.48134,M-Sa: 10:00 am - 9:00 pm;Sun: 11:00 am - 6:00 pm,,0
pearle vision (the shoppes at wyomissing),6458,714 woodland rd,,wyomissing,pa,19610,United States,(610) 376-7272,40.34966,-75.96585,M-F: 10:00 am - 8:00 pm;Sat: 9:00 am - 6:00 pm;Sun: 12:00 pm - 5:00 pm,,0
pearle vision (somerset shopping center),21018668,329 us hwy 202,,bridgewater,nj,08807,United States,(908) 685-1500,40.57451,-74.65868,M-F: 10:00 am - 8:30 pm;Sat: 10:00 am - 4:30 pm;Sun: closed,,0
pearle vision (shoprite plaza),21018634,3585 rt.9 north,,freehold,nj,07728,United States,(732) 780-7180,40.24099,-74.27727,M-T: 10:00 am - 8:00 pm;Wed: 10:00 am - 6:00 pm;Thur: 10:00 am - 8:00 pm;Fri: 10:00 am - 6:00 pm;Sat: 10:00 am - 5:00 pm;Sun: closed,,0
pearle vision (palmer park mall),21125120,147 palmer park mall,,easton,pa,18045,United States,(610) 258-4372,40.68888,-75.27009,M-Sa: 10:00 am - 9:00 pm;Sun: 11:00 am - 6:00 pm,,0
pearle vision (east brunswick),21059023,326 route 18 north,,east brunswick,nj,08816,United States,(732) 238-9200,40.43052,-74.40945,M-F: 10:00 am - 8:00 pm;Sat: 10:00 am - 6:00 pm;Sun: closed,,0
pearle vision (toms river-eye),21018417,1278 hooper avenue,,toms river,nj,08753,United States,(732) 505-0533,39.98543,-74.17925,M-F: 10:00 am - 8:00 pm;Sat: 10:00 am - 5:00 pm;Sun: closed,,0
pearle vision (hadley center),21018451,4919 stelton rd,,south plainfield,nj,07080,United States,(908) 561-7400,40.55006,-74.43117,M-F: 10:00 am - 8:00 pm;Sat: 10:00 am - 5:00 pm;Sun: closed,,0
pearle vision (kendig square shopping center),21126627,2600 willow street,,willow street,pa,17584,United States,(717) 947-4843,39.98496,-76.28001,M-F: 9:00 am - 6:00 pm;Sat: 9:00 am - 4:00 pm;Sun: closed,,0
pearle vision (pathmark plaza),21018460,"1933 hwy. #35, ste 120",,wall,nj,07719,United States,(732) 449-5902,40.15537,-74.05436,Mon: 9:00 am - 8:30 pm;Tue: 9:00 am - 7:00 pm;Wed: 9:00 am - 6:00 pm;Thur: 9:00 am - 8:00 pm;Fri: 9:00 am - 7:00 pm;Sat: 9:00 am - 5:00 pm;Sun: closed,,0
pearle vision (woodbridge-eye),21115754,670 route 1,,iselin,nj,08830,United States,(732) 750-0300,40.56121,-74.30192,M-F: 10:00 am - 8:00 pm;Sat: 10:00 am - 6:00 pm;Sun: closed,,0
pearle vision (park city mall),6225,133 park city center,,lancaster,pa,17601,United States,(717) 393-3926,40.06940,-76.33800,M-Sa: 10:00 am - 9:00 pm;Sun: 11:00 am - 6:00 pm,,0
pearle vision (eatontown),21115765,255 highway 35 north,,eatontown,nj,07724,United States,(732) 542-8888,40.21526,-74.03026,M-F: 10:00 am - 8:00 pm;Sat: 9:00 am - 5:00 pm;Sun: closed,,0
pearle vision (mansfield village square),21088998,2045 rt. 57,,hackettstown,nj,07840,United States,(908) 852-0500,40.82692,-74.83233,M-F: 9:30 am - 7:00 pm;Sat: 9:30 am - 4:00 pm;Sun: closed,,0
pearle vision (cape may),6865,3301 route 9 south,,rio grande,nj,08242,United States,(609) 465-8121,39.01650,-74.87412,M-F: 9:00 am - 7:00 pm;Sat: 9:00 am - 6:00 pm;Sun: 12:00 pm - 5:00 pm,,0
pearle vision (springfield-eye),21082488,275 route 22 east,,springfield,nj,07081,United States,(973) 376-7900,40.68522,-74.32337,M-F: 10:00 am - 8:00 pm;Sat: 10:00 am - 6:00 pm;Sun: closed,,0
pearle vision (lebanon plaza),21092880,1129 quentin road,,lebanon,pa,17042,United States,(717) 272-5685,40.32111,-76.42454,M-F: 9:00 am - 7:00 pm;Sat: 9:00 am - 5:00 pm;Sun: closed,,0
pearle vision (randolph),21018644,124 new jersey 10,,randolph,nj,07869,United States,(973) 361-8990,40.87329,-74.53423,Mon: 10:00 am - 7:00 pm;Tue: 10:00 am - 4:30 pm;W-Th: 10:00 am - 8:00 pm;Fri: 10:00 am - 7:00 pm;Sat: 10:00 am - 4:30 pm;Sun: closed,,0
pearle vision (east hanover plaza),21057215,154 route 10,,east hanover,nj,07936,United States,(973) 887-0216,40.80952,-74.38089,M-F: 10:00 am - 8:00 pm;Sat: 10:00 am - 6:00 pm;Sun: 11:30 am - 5:30 pm,,0
pearle vision (rockaway town square center),21019076,"343 mt. hope ave, ste 2",,rockaway,nj,07866,United States,(973) 366-1181,40.90537,-74.54666,M-F: 10:00 am - 8:00 pm;Sat: 10:00 am - 5:00 pm;Sun: 11:00 am - 4:00 pm,,0
pearle vision (essex green shopping center  #217),21018666,495 prospect avenue,,west orange,nj,07052,United States,(973) 736-2200,40.79180,-74.25465,M-T: 10:00 am - 8:00 pm;Wed: 10:00 am - 6:00 pm;Thur: 10:00 am - 8:00 pm;Fri: 10:00 am - 6:00 pm;Sat: 10:00 am - 5:00 pm;Sun: 12:00 pm - 5:00 pm,,0
pearle vision (park slope),21088995,95 seventh ave,,brooklyn,ny,11215,United States,(718) 230-0205,40.67446,-73.97545,M-T: 10:00 am - 7:00 pm;Wed: closed;Thur: 10:00 am - 7:00 pm;F-Sa: 10:00 am - 6:00 pm;Sun: 12:00 pm - 5:00 pm,,0
pearle vision (brooklyn heights),21056772,154 montague street,,brooklyn heights,ny,11201,United States,(718) 246-5795,40.69446,-73.99311,M-F: 10:00 am - 7:00 pm;Sat: 10:00 am - 5:30 pm;Sun: closed,,0
pearle vision (white marsh mall #2036),6496,8200 perry hall blvd,,baltimore,md,21236,United States,(410) 931-8141,39.37264,-76.47381,M-Sa: 10:00 am - 9:00 pm;Sun: 11:00 am - 6:00 pm,,0
pearle vision (georgetown shopping plaza),21030346,2103 ralph ave,,brooklyn,ny,11234,United States,(718) 241-0400,40.62622,-73.91790,Mon: 10:00 am - 6:00 pm;Tue: 10:00 am - 7:00 pm;Wed: 10:00 am - 6:00 pm;Th-F: 10:00 am - 7:00 pm;Sat: 10:00 am - 6:00 pm;Sun: closed,,0
pearle vision (totowa),21058960,360 rt. 46 east,,totowa,nj,07512,United States,(973) 785-0900,40.89419,-74.23158,M-F: 10:00 am - 8:00 pm;Sat: 10:00 am - 6:00 pm;Sun: closed,,0
pearle vision (the square at riverdale),21018616,92 nj-23,,riverdale,nj,07457,United States,(973) 248-1188,40.98790,-74.32378,M-F: 10:00 am - 8:00 pm;Sat: 10:00 am - 6:00 pm;Sun: 11:30 am - 5:30 pm,,0
pearle vision (woodside),21091938,48-11 queens blvd,,woodside,ny,11377,United States,(718) 205-9760,40.74276,-73.91666,Mon: 10:00 am - 6:00 pm;Tue: 10:00 am - 7:00 pm;Wed: 10:00 am - 8:00 pm;Thur: 10:00 am - 7:00 pm;F-Sa: 10:00 am - 6:00 pm;Sun: closed,,0
pearle vision (saddlebrook),21018628,390 market street,,saddle brook,nj,07663,United States,(201) 843-5453,40.89690,-74.09617,M-Th: 10:00 am - 7:00 pm;Fri: 10:00 am - 6:00 pm;Sat: 9:00 am - 3:00 pm;Sun: closed,,0
pearle vision (atlantic avenue shopping center),21091432,102-22 atlantic avenue,,ozone park,ny,11416,United States,(718) 846-1144,40.68984,-73.84258,M-F: 10:00 am - 7:00 pm;Sat: 10:00 am - 6:00 pm;Sun: closed,,0
pearle vision (jackson heights),21091431,75-37 31st avenue,,jackson heights,ny,11370,United States,(718) 205-5797,40.75865,-73.89146,M-F: 10:00 am - 7:00 pm;Sat: 10:00 am - 6:00 pm;Sun: closed,,0
pearle vision (paramus),21060155,341 route 4 west,,paramus,nj,07652,United States,(201) 489-6000,40.92537,-74.08770,M-F: 10:00 am - 8:00 pm;Sat: 9:30 am - 6:00 pm;Sun: closed,,0
pearle vision (harrisburg),21125961,"5030 jonestown rd., rt 22",,harrisburg,pa,17112,United States,(717) 657-0802,40.34239,-76.78218,M-F: 9:00 am - 7:00 pm;Sat: 9:00 am - 5:00 pm;Sun: closed,,0
pearle vision (sprout brook shopping center),21018482,556 n state rt 17,,paramus,nj,07652,United States,(201) 670-0010,40.95793,-74.07451,M-F: 9:30 am - 8:00 pm;Sat: 9:30 am - 6:00 pm;Sun: closed,,0
pearle vision (bayside),21040619,19320 northern blvd,,flushing,ny,11358,United States,(718) 357-4666,40.75783,-73.78786,M-Th: 9:30 am - 8:30 pm;Fri: 9:30 am - 6:00 pm;Sat: 9:30 am - 5:00 pm;Sun: closed,,0
pearle vision (elmont),21121045,1445 hempstead turnpike,,elmont,ny,11003,United States,(516) 616-1771,40.70731,-73.69441,M-Th: 10:00 am - 8:00 pm;F-Sa: 10:00 am - 6:00 pm;Sun: closed,,0
pearle vision (liberty rd.),21013324,8134 liberty road,,baltimore,md,21244,United States,(410) 521-2197,39.35490,-76.76159,Mon: 10:00 am - 8:00 pm;T-W: 10:00 am - 5:00 pm;Thur: 10:00 am - 8:00 pm;F-Sa: 10:00 am - 5:00 pm;Sun: closed,,0
pearle vision (new hyde park),21063927,932 hillside avenue,,new hyde park,ny,11040,United States,(516) 437-2120,40.74355,-73.69295,M-Th: 10:00 am - 8:00 pm;Fri: 10:00 am - 6:00 pm;Sat: 10:00 am - 5:00 pm;Sun: 11:00 am - 5:00 pm,,0
pearle vision (southdale shopping center),21059670,7931 ritchie highway,,glen burnie,md,21061,United States,(410) 768-5550,39.13790,-76.60017,M-F: 9:00 am - 8:00 pm;Sat: 9:00 am - 5:00 pm;Sun: closed,,0
pearle vision (capital city mall),21125963,"3593 capital city mall dr, spc 738",,camp hill,pa,17011,United States,(717) 737-3462,40.22272,-76.93037,M-Sa: 10:00 am - 9:00 pm;Sun: 12:00 pm - 5:00 pm,,0
pearle vision (north hanover mall),21125968,"1155 carlisle st, ste 20",,hanover,pa,17331,United States,(717) 637-4944,39.82107,-76.99627,M-Sa: 10:00 am - 8:00 pm;Sun: closed,,0
pearle vision (roslyn),21092513,1085 northern blvd,,roslyn,ny,11576,United States,(516) 365-4066,40.79965,-73.66051,M-F: 10:00 am - 8:00 pm;Sat: 10:00 am - 5:00 pm;Sun: 11:00 am - 5:00 pm,,0
pearle vision (yonkers),21004361,2340 central park ave.,,yonkers,ny,10710,United States,(914) 961-3737,40.97726,-73.83116,M-F: 9:30 am - 8:00 pm;Sat: 9:30 am - 7:00 pm;Sun: 12:00 pm - 5:00 pm,,0
pearle vision (the forum at olympia pkwy),21125525,"8235 agora pkwy, ste 123",,selma,tx,78154,United States,(210) 659-9189,29.56988,-98.32848,M-F: 9:00 am - 7:00 pm;Sat: 9:00 am - 6:00 pm;Sun: closed,,0
pearle vision (sunset valley shopping center),21056291,"5601 brodie lane, ste 530",,austin,tx,78745,United States,(512) 899-2662,30.22709,-97.82186,M-F: 10:00 am - 7:00 pm;Sat: 10:00 am - 6:00 pm;Sun: closed,,0
pearle vision (lakeline plaza),21059805,"11066 pecan park blvd, ste b201",,cedar park,tx,78613,United States,(512) 336-2364,30.46866,-97.80376,M-Sa: 10:00 am - 5:00 pm;Sun: closed,,0
pearle vision (wolf ranch town center),21060766,"1013 w university ave, ste 135",,georgetown,tx,78628,United States,(512) 931-2827,30.63293,-97.69580,M-F: 10:00 am - 7:00 pm;Sat: 10:00 am - 6:00 pm;Sun: closed,,0
pearle vision (south buckner),21054343,2130 s buckner blvd,,dallas,tx,75227,United States,(214) 381-1400,32.74924,-96.68280,M-F: 10:00 am - 5:30 pm;Sat: 10:00 am - 4:00 pm;Sun: closed,,0
pearle vision (preston rd.),21037793,"10720 preston rd, ste 1003",,dallas,tx,75230,United States,(214) 696-4614,32.89358,-96.80386,M-Sa: 9:30 am - 6:00 pm;Sun: closed,,0
pearle vision (redbird corners),21054448,7111 marvin d. love freeway,,dallas,tx,75237,United States,(972) 298-1454,32.66158,-96.87102,M-Sa: 9:00 am - 6:00 pm;Sun: closed,,0
pearle vision (towne east crossing shopping center),21054429,"3434 towne crossing blvd, #112",,mesquite,tx,75150,United States,(972) 681-7865,32.81190,-96.62926,M-F: 9:00 am - 7:00 pm;Sat: 9:00 am - 6:00 pm;Sun: closed,,0
pearle vision (forest lane),21061048,3120 forest lane,,dallas,tx,75234,United States,(972) 247-5613,32.90963,-96.87136,M-F: 9:30 am - 6:00 pm;Sat: 9:00 am - 5:00 pm;Sun: closed,,0
pearle vision (irving),21060765,2913 n. beltline road,,irving,tx,75062,United States,(972) 258-8555,32.84594,-96.99244,M-Th: 9:00 am - 7:00 pm;F-Sa: 9:00 am - 6:00 pm;Sun: closed,,0
pearle vision (richardson),21037258,1384 e beltline rd,,richardson,tx,75081,United States,(972) 231-3622,32.94531,-96.70006,M-F: 10:00 am - 7:00 pm;Sat: 10:00 am - 5:00 pm;Sun: closed,,0
pearle vision (irving/valley ranch),21037737,7960 n macarthur blvd.,,irving,tx,75063,United States,(972) 401-2000,32.91783,-96.95852,M-F: 9:00 am - 7:00 pm;Sat: 9:00 am - 6:00 pm;Sun: closed,,0
pearle vision (village at collin creek),21122531,"601 w. plano pkwy, ste 141 b",,plano,tx,75075,United States,(972) 881-1197,33.00909,-96.71254,M-F: 10:00 am - 7:00 pm;Sat: 10:00 am - 6:00 pm;Sun: closed,,0
pearle vision (preston park shopping center),21122530,1713 preston rd,,plano,tx,75093,United States,(972) 931-5775,33.02374,-96.79519,M-F: 10:00 am - 7:00 pm;Sat: 10:00 am - 6:00 pm;Sun: closed,,0
pearle vision (vista grove shopping center),21124221,"2403 s stemmons fwy, ste 113",,lewisville,tx,75067,United States,(972) 316-1113,33.00613,-96.97183,M-F: 10:00 am - 8:00 pm;Sat: 10:00 am - 6:00 pm;Sun: 12:00 pm - 5:00 pm,,0
pearle vision (heritage towne crossing),21054446,"1301 w glade rd, ste 196",,euless,tx,76039,United States,(817) 685-7200,32.88118,-97.09983,M-W: 10:00 am - 6:30 pm;Thur: 10:00 am - 6:00 pm;Fri: 10:00 am - 6:30 pm;Sat: 9:30 am - 4:00 pm;Sun: closed,,0
pearle vision (steger towne crossing),21054380,2827 ridge rd,,rockwall,tx,75032,United States,(972) 722-6222,32.89461,-96.47080,M-F: 10:00 am - 7:00 pm;Sat: 9:00 am - 6:00 pm;Sun: closed,,0
pearle vision (villages by the park),21037620,"4201 s. cooper st, #737",,arlington,tx,76015,United States,(817) 784-2200,32.67827,-97.13496,M-F: 10:00 am - 6:00 pm;Sat: 9:00 am - 5:00 pm;Sun: closed,,0
pearle vision (gateway plaza),21037826,3004 e. southlake blvd.,,southlake,tx,76092,United States,(817) 748-2015,32.93877,-97.10295,M-F: 9:00 am - 6:00 pm;Sat: 9:00 am - 5:00 pm;Sun: closed,,0
pearle vision (east chase market place),21037769,1450 east chase pkwy.,,ft worth,tx,76120,United States,(817) 460-1600,32.75579,-97.16891,M-F: 10:00 am - 6:00 pm;Sat: 10:00 am - 5:00 pm;Sun: closed,,0
pearle vision (n. richland hills),21054326,8100 glenview dr.,,north richland hills,tx,76180,United States,(817) 589-0911,32.82360,-97.20685,M-W: 9:00 am - 6:30 pm;Thur: 9:00 am - 7:00 pm;Fri: 9:00 am - 6:00 pm;Sat: 9:00 am - 5:00 pm;Sun: closed,,0
pearle vision (parkwood crossing),21054521,"5860 north tarrant pkwy, #108",,ft worth,tx,76244,United States,(817) 656-0440,32.90221,-97.20651,M-F: 10:00 am - 6:30 pm;Sat: 9:00 am - 4:00 pm;Sun: closed,,0
pearle vision (market place at highland village),21057420,"3170 fm 407, ste 405",,highland village,tx,75077,United States,(972) 317-5916,33.07214,-97.08237,M-F: 10:00 am - 7:00 pm;Sat: 10:00 am - 5:30 pm;Sun: closed,,0
pearle vision (ft. worth),21037774,309 s. oakland blvd.,,ft worth,tx,76103,United States,(817) 534-4700,32.74003,-97.26170,M-F: 9:30 am - 6:00 pm;Sat: 9:30 am - 4:00 pm;Sun: closed,,0
pearle vision (parkway town crossing),21059473,"11550 legacy dr, ste 470",,frisco,tx,75033,United States,(972) 294-5313,33.17637,-96.84642,M-Sa: 10:00 am - 7:00 pm;Sun: closed,,0
pearle vision (cameron crossing shopping center),21033605,"1681 n central expy, ste 400",,mckinney,tx,75070,United States,(972) 548-8710,33.21415,-96.63749,M-F: 9:30 am - 6:30 pm;Sat: 9:00 am - 5:00 pm;Sun: closed,,0
pearle vision (rivertree center),21037801,2832 s. hulen st.,,ft worth,tx,76109,United States,(817) 926-6000,32.71000,-97.38673,M-F: 10:00 am - 6:00 pm;Sat: 10:00 am - 4:00 pm;Sun: closed,,0
pearle vision (sunset valley shopping center),21056291,"5601 brodie lane, ste 530",,austin,tx,78745,United States,(512) 899-2662,30.22709,-97.82186,M-F: 10:00 am - 7:00 pm;Sat: 10:00 am - 6:00 pm;Sun: closed,,0
pearle vision (lakeline plaza),21059805,"11066 pecan park blvd, ste b201",,cedar park,tx,78613,United States,(512) 336-2364,30.46866,-97.80376,M-Sa: 10:00 am - 5:00 pm;Sun: closed,,0
pearle vision (wolf ranch town center),21060766,"1013 w university ave, ste 135",,georgetown,tx,78628,United States,(512) 931-2827,30.63293,-97.69580,M-F: 10:00 am - 7:00 pm;Sat: 10:00 am - 6:00 pm;Sun: closed,,0
pearle vision (the forum at olympia pkwy),21125525,"8235 agora pkwy, ste 123",,selma,tx,78154,United States,(210) 659-9189,29.56988,-98.32848,M-F: 9:00 am - 7:00 pm;Sat: 9:00 am - 6:00 pm;Sun: closed,,0
pearle vision (college mall),21093109,3024 e 3rd st,,bloomington,in,47401,United States,(812) 332-9014,39.16423,-86.49415,M-Sa: 10:00 am - 7:00 pm;Sun: closed,,0
pearle vision (bridgewater falls),21088991,"3373 princeton road, #121",,hamilton,oh,45011,United States,(513) 893-2900,39.39052,-84.50238,M-Th: 10:00 am - 7:00 pm;Fri: 10:00 am - 6:00 pm;Sat: 9:00 am - 5:00 pm;Sun: closed,,0
pearle vision (florence plaza),21091195,7627 mall road,,florence,ky,41042,United States,(859) 283-1081,38.99995,-84.65352,Mon: 9:00 am - 7:00 pm;T-Th: 9:00 am - 6:00 pm;Fri: 9:00 am - 5:00 pm;Sat: 9:00 am - 3:00 pm;Sun: closed,,0
pearle vision (voice of america),6582,7675 voice of america centre drive,,west chester,oh,45069,United States,(513) 779-5444,39.35453,-84.36309,M-F: 10:00 am - 8:00 pm;Sat: 9:00 am - 6:00 pm;Sun: 12:00 pm - 5:00 pm,,0
pearle vision (regency court),21067252,9398-1 arlington expressway,,jacksonville,fl,32225,United States,(904) 724-5653,30.32148,-81.55316,M-F: 9:00 am - 6:30 pm;Sat: 9:00 am - 6:00 pm;Sun: closed,,0
pearle vision (st johns town center),21060721,4413 town center parkway,,jacksonville,fl,32246,United States,(904) 998-9822,30.26502,-81.52770,M-F: 10:00 am - 7:00 pm;Sat: 9:00 am - 6:00 pm;Sun: closed,,0
pearle vision (orange park plaza),21067220,1911-6 wells road,,orange park,fl,32073,United States,(904) 269-9500,30.18698,-81.73666,M-F: 9:00 am - 7:00 pm;Sat: 9:00 am - 5:30 pm;Sun: closed,,0
pearle vision (mandarin oaks shpg. ctr.),21003509,"11406 san jose blvd, #1",,jacksonville,fl,32223,United States,(904) 260-3839,30.16608,-81.63237,M-F: 9:00 am - 6:00 pm;Sat: 9:00 am - 4:00 pm;Sun: closed,,0
pearle vision (fleming island vision center),21000926,"1524-5 county road, #220",,fleming island,fl,32003,United States,(904) 637-2000,30.10243,-81.70988,M-F: 9:00 am - 6:00 pm;Sat: 9:00 am - 3:00 pm;Sun: closed,,0
pearle vision (jacksonville beach),21060720,359 marsh landing pkwy,,jacksonville beach,fl,32250,United States,(904) 280-0011,30.25435,-81.38967,M-F: 9:00 am - 7:00 pm;Sat: 9:00 am - 6:00 pm;Sun: closed,,0
pearle vision (oaks mall),21090382,"6419 w newberry rd, ste b3",,gainesville,fl,32605,United States,(352) 331-6321,29.65956,-82.41106,M-Sa: 10:00 am - 9:00 pm;Sun: 12:00 pm - 6:00 pm,,0
pearle vision (parkway centre north),21088992,1584 stringtown road,,grove city,oh,43123,United States,(614) 871-4016,39.87834,-83.03803,Mon: 10:00 am - 7:00 pm;Tue: 10:00 am - 6:00 pm;W-F: 10:00 am - 7:00 pm;Sat: 9:00 am - 5:00 pm;Sun: closed,,0
pearle vision (georgesville square),21123137,1595 georgesville square drive,,columbus,oh,43228,United States,(614) 385-0088,39.92109,-83.12132,M-T: 10:00 am - 6:00 pm;Wed: 10:00 am - 7:00 pm;Thur: 10:00 am - 6:00 pm;Fri: 10:00 am - 7:00 pm;Sat: 9:00 am - 5:00 pm;Sun: closed,,0
pearle vision (easton retail center),21088977,3948 morse crossing,,columbus,oh,43219,United States,(614) 475-6512,40.05015,-82.91996,Mon: 10:00 am - 8:00 pm;Tue: 9:00 am - 6:00 pm;W-Th: 10:00 am - 8:00 pm;Fri: 9:00 am - 6:00 pm;Sat: 9:00 am - 5:00 pm;Sun: closed,,0
pearle vision (gahanna),21088982,368 s  hamilton rd,,gahanna,oh,43230,United States,(614) 478-7474,40.00985,-82.86720,Mon: 10:00 am - 7:00 pm;T-W: 10:00 am - 6:00 pm;Thur: 10:00 am - 7:00 pm;Fri: 9:00 am - 6:00 pm;Sat: 9:00 am - 5:00 pm;Sun: closed,,0
pearle vision (tuttle crossing),21088993,"5043 tuttle crossing blvd, spc 238",,dublin,oh,43016,United States,(614) 766-6638,40.07762,-83.12130,Mon: 10:00 am - 7:00 pm;Tue: 10:00 am - 6:00 pm;Wed: 10:00 am - 7:00 pm;Th-F: 10:00 am - 6:00 pm;Sat: 10:00 am - 5:00 pm;Sun: closed,,0
pearle vision (reynoldsburg),21123138,8121 e. broad street,,reynoldsburg,oh,43068,United States,(614) 655-8448,39.98605,-82.78387,Mon: 10:00 am - 7:00 pm;Tue: 10:00 am - 6:00 pm;Wed: 10:00 am - 7:00 pm;Th-F: 10:00 am - 6:00 pm;Sat: 9:00 am - 5:00 pm;Sun: closed,,0
pearle vision (polaris parkway),21088983,1150 polaris parkway,,columbus,oh,43240,United States,(614) 847-3912,40.14341,-82.98955,M-F: 10:00 am - 7:00 pm;Sat: 10:00 am - 6:00 pm;Sun: closed,,0
pearle vision (cross pointe shopping center),21088958,"101 alex-bell rd, ste 120",,centerville,oh,45459,United States,(937) 435-2437,39.64382,-84.15403,M-F: 10:00 am - 7:00 pm;Sat: 9:00 am - 4:00 pm;Sun: closed,,0
pearle vision (voice of america),6582,7675 voice of america centre drive,,west chester,oh,45069,United States,(513) 779-5444,39.35453,-84.36309,M-F: 10:00 am - 8:00 pm;Sat: 9:00 am - 6:00 pm;Sun: 12:00 pm - 5:00 pm,,0
pearle vision (bridgewater falls),21088991,"3373 princeton road, #121",,hamilton,oh,45011,United States,(513) 893-2900,39.39052,-84.50238,M-Th: 10:00 am - 7:00 pm;Fri: 10:00 am - 6:00 pm;Sat: 9:00 am - 5:00 pm;Sun: closed,,0
pearle vision (kenwood towne center),6358,"7875 montgomery road, ste l-105",,cincinnati,oh,45236,United States,(513) 791-6106,39.20034,-84.37650,M-Sa: 10:00 am - 9:00 pm;Sun: 12:00 pm - 6:00 pm,,0
pearle vision (ft. worth),21037774,309 s. oakland blvd.,,ft worth,tx,76103,United States,(817) 534-4700,32.74003,-97.26170,M-F: 9:30 am - 6:00 pm;Sat: 9:30 am - 4:00 pm;Sun: closed,,0
pearle vision (rivertree center),21037801,2832 s. hulen st.,,ft worth,tx,76109,United States,(817) 926-6000,32.71000,-97.38673,M-F: 10:00 am - 6:00 pm;Sat: 10:00 am - 4:00 pm;Sun: closed,,0
pearle vision (n. richland hills),21054326,8100 glenview dr.,,north richland hills,tx,76180,United States,(817) 589-0911,32.82360,-97.20685,M-W: 9:00 am - 6:30 pm;Thur: 9:00 am - 7:00 pm;Fri: 9:00 am - 6:00 pm;Sat: 9:00 am - 5:00 pm;Sun: closed,,0
pearle vision (east chase market place),21037769,1450 east chase pkwy.,,ft worth,tx,76120,United States,(817) 460-1600,32.75579,-97.16891,M-F: 10:00 am - 6:00 pm;Sat: 10:00 am - 5:00 pm;Sun: closed,,0
pearle vision (parkwood crossing),21054521,"5860 north tarrant pkwy, #108",,ft worth,tx,76244,United States,(817) 656-0440,32.90221,-97.20651,M-F: 10:00 am - 6:30 pm;Sat: 9:00 am - 4:00 pm;Sun: closed,,0
pearle vision (villages by the park),21037620,"4201 s. cooper st, #737",,arlington,tx,76015,United States,(817) 784-2200,32.67827,-97.13496,M-F: 10:00 am - 6:00 pm;Sat: 9:00 am - 5:00 pm;Sun: closed,,0
pearle vision (heritage towne crossing),21054446,"1301 w glade rd, ste 196",,euless,tx,76039,United States,(817) 685-7200,32.88118,-97.09983,M-W: 10:00 am - 6:30 pm;Thur: 10:00 am - 6:00 pm;Fri: 10:00 am - 6:30 pm;Sat: 9:30 am - 4:00 pm;Sun: closed,,0
pearle vision (gateway plaza),21037826,3004 e. southlake blvd.,,southlake,tx,76092,United States,(817) 748-2015,32.93877,-97.10295,M-F: 9:00 am - 6:00 pm;Sat: 9:00 am - 5:00 pm;Sun: closed,,0
pearle vision (irving),21060765,2913 n. beltline road,,irving,tx,75062,United States,(972) 258-8555,32.84594,-96.99244,M-Th: 9:00 am - 7:00 pm;F-Sa: 9:00 am - 6:00 pm;Sun: closed,,0
pearle vision (irving/valley ranch),21037737,7960 n macarthur blvd.,,irving,tx,75063,United States,(972) 401-2000,32.91783,-96.95852,M-F: 9:00 am - 7:00 pm;Sat: 9:00 am - 6:00 pm;Sun: closed,,0
pearle vision (market place at highland village),21057420,"3170 fm 407, ste 405",,highland village,tx,75077,United States,(972) 317-5916,33.07214,-97.08237,M-F: 10:00 am - 7:00 pm;Sat: 10:00 am - 5:30 pm;Sun: closed,,0
pearle vision (vista grove shopping center),21124221,"2403 s stemmons fwy, ste 113",,lewisville,tx,75067,United States,(972) 316-1113,33.00613,-96.97183,M-F: 10:00 am - 8:00 pm;Sat: 10:00 am - 6:00 pm;Sun: 12:00 pm - 5:00 pm,,0
pearle vision (redbird corners),21054448,7111 marvin d. love freeway,,dallas,tx,75237,United States,(972) 298-1454,32.66158,-96.87102,M-Sa: 9:00 am - 6:00 pm;Sun: closed,,0
pearle vision (forest lane),21061048,3120 forest lane,,dallas,tx,75234,United States,(972) 247-5613,32.90963,-96.87136,M-F: 9:30 am - 6:00 pm;Sat: 9:00 am - 5:00 pm;Sun: closed,,0
pearle vision (preston rd.),21037793,"10720 preston rd, ste 1003",,dallas,tx,75230,United States,(214) 696-4614,32.89358,-96.80386,M-Sa: 9:30 am - 6:00 pm;Sun: closed,,0
pearle vision (preston park shopping center),21122530,1713 preston rd,,plano,tx,75093,United States,(972) 931-5775,33.02374,-96.79519,M-F: 10:00 am - 7:00 pm;Sat: 10:00 am - 6:00 pm;Sun: closed,,0
pearle vision (south buckner),21054343,2130 s buckner blvd,,dallas,tx,75227,United States,(214) 381-1400,32.74924,-96.68280,M-F: 10:00 am - 5:30 pm;Sat: 10:00 am - 4:00 pm;Sun: closed,,0
pearle vision (richardson),21037258,1384 e beltline rd,,richardson,tx,75081,United States,(972) 231-3622,32.94531,-96.70006,M-F: 10:00 am - 7:00 pm;Sat: 10:00 am - 5:00 pm;Sun: closed,,0
pearle vision (village at collin creek),21122531,"601 w. plano pkwy, ste 141 b",,plano,tx,75075,United States,(972) 881-1197,33.00909,-96.71254,M-F: 10:00 am - 7:00 pm;Sat: 10:00 am - 6:00 pm;Sun: closed,,0
pearle vision (parkway town crossing),21059473,"11550 legacy dr, ste 470",,frisco,tx,75033,United States,(972) 294-5313,33.17637,-96.84642,M-Sa: 10:00 am - 7:00 pm;Sun: closed,,0
pearle vision (towne east crossing shopping center),21054429,"3434 towne crossing blvd, #112",,mesquite,tx,75150,United States,(972) 681-7865,32.81190,-96.62926,M-F: 9:00 am - 7:00 pm;Sat: 9:00 am - 6:00 pm;Sun: closed,,0
pearle vision (steger towne crossing),21054380,2827 ridge rd,,rockwall,tx,75032,United States,(972) 722-6222,32.89461,-96.47080,M-F: 10:00 am - 7:00 pm;Sat: 9:00 am - 6:00 pm;Sun: closed,,0
pearle vision (cameron crossing shopping center),21033605,"1681 n central expy, ste 400",,mckinney,tx,75070,United States,(972) 548-8710,33.21415,-96.63749,M-F: 9:30 am - 6:30 pm;Sat: 9:00 am - 5:00 pm;Sun: closed,,0
