store_name,store_number,address,address2,city,state,zip_code,country,phone_number,latitude,longitude,store_hours,other_fields,coming_soon
Roche Bros. Supermarkets,,MA Route 111 387 Massachusetts Ave,,Acton,MA,01720,United States,(978) 263-8700,,,Monday-Saturday:7am-10pm;Sunday:8am-9pm;,,0
Roche Bros. Supermarkets,,"Campus Plaza, MA Rt. 18 233 Broad Street",,Bridgewater,MA,02324,United States,(508) 697-6145,,,Monday-Saturday:7am-10pm;Sunday:8am-9pm;,,0
Roche Bros. Supermarkets,,Crossroads Plaza 34 Cambridge St,,Burlington,MA,01803,United States,(781) 273-4381,,,Monday-Saturday:7am-10pm;Sunday:8am-9pm;,,0
Roche Bros. Supermarket at Downtown Crossing,,8 Summer Street,,Boston,MA,02110,United States,(617) 456-5118,,,Monday-Saturday:7am-10pm;Sunday:8am-9pm;,,0
Roche Bros. Supermarkets,,MA Route 138 25 Washington Street,,North Easton,MA,02356-1010,United States,(508) 238-4900,,,Monday-Saturday:7am-10pm;Sunday:8am-9pm;,,0
Roche Bros. Supermarkets,,MA Route 139 605 Plain Street,,Marshfield,MA,02050,United States,(781) 837-2370,,,Monday-Saturday:7am-10pm;Sunday:8am-9pm;,,0
Roche Bros. Supermarkets,,South Cape Village 11 Commercial Street,,Mashpee,MA,02649,United States,(508) 477-6999,,,Monday-Saturday:7am-9pm;Sunday:7am-9pm;,,0
Roche Bros. Supermarkets,,MA Route 109 6 Milliston Rd,,Millis,MA,02054-1600,United States,(508) 376-8247,,,Monday-Saturday:7am-10pm;Sunday:8am-9pm;,,0
Roche Bros. Supermarkets,,MA Route 135 150 West Central Street,,Natick,MA,01760,United States,(508) 650-0778,,,Monday-Saturday:7am-11pm;Sunday:8am-9pm;,,0
Roche Bros. Supermarkets,,377 Chestnut Street,,Needham,MA,02492,United States,781-444-0411,,,Monday-Saturday:7am-9pm;Sunday:8am-9pm;,,0
Sudbury Farms,,1177 Highland Avenue,,Needham,MA,02492,United States,(781) 449-2140,,,Monday-Saturday:7am-10pm;Sunday:8am-9pm;,,0
Roche Bros. Supermarkets,,MA Route 140 175 Mansfield Ave,,Norton,MA,02766,United States,(508) 285-8920,,,Monday-Saturday:7am-9pm;Sunday:8am-9pm;,,0
Roche Bros. Supermarkets,,Granite Crossing 101 Falls Boulevard,,Quincy,MA,02169,United States,(617) 471-0341,,,Monday-Saturday:8am-9pm;Sunday:8am-9pm;,,0
Sudbury Farms,,MA RT 20 439 Boston Post Road,,Sudbury,MA,01776,United States,(978) 440-9749,,,Monday-Saturday:7am-10pm;Sunday:8am-9pm;,,0
Roche Bros. Supermarkets,,184 Linden Street,,Wellesley,MA,02481,United States,(781) 237-2070,,,Monday-Saturday:7am-10pm;Sunday:8am-9pm;,,0
Roche Bros. Supermarkets,,1800 Centre Street,,West Roxbury,MA,02132,United States,(617) 469-6858,,,Monday-Saturday:7am-11pm;Sunday:8am-9pm;,,0
Roche Bros. Supermarkets,,1100 Union Street Bay State Commons,,Westborough,MA,01581,United States,(508) 836-3621,,,Monday-Saturday:7am-9pm;Sunday:8am-9pm;,,0
Roche Bros. Supermarkets,,338 Washington Street,,Westwood,MA,02090,United States,(781) 329-6930,,,Monday-Saturday:7am-11pm;Sunday:8am-9pm;,,0
Main Office,,70 Hastings Street,,Wellesley Hills,MA,02481,United States,781-235-9400,,,Monday-Saturday:9am - 5pm (Closed Saturdays);Sunday:Closed;,,0
