store_name,store_number,address,address2,city,state,zip_code,country,phone_number,latitude,longitude,store_hours,other_fields,coming_soon
Hefei Wan Da Mao shop,,"China 's Hefei City Binhu District Luzhou Road 800 Hefei Wan Da Mao 1026,1027 shops",,,,,China,(0551) 62991278,117.312053,-31.710697,10:00-22:00,,0
Ma On Shan Golden Eagle Plaza Shop,,"China 's Ma On Shan City Huashan District, Hunan West Road on the 8th Ma On Shan Golden Eagle International Shopping Center",,,,,China,(0555) 3182473,118.513247,-31.691116, 10:00 -22:00,,0
Hefei Vientiane City shop,,"China 's Hefei City, Anhui Province, Shushan District, 111 buried hill Road, Vientiane City,",,,,,China,(0551) 65583967,117.241479,-31.858133, 10:00 -22:00,,0
Ma On Shan Wanda shop,,"322 Wanda Plaza, 3200 Taibai Lou Avenue, Maanshan City",,,,,China,(0555) 2338838,118.509358,-31.666716,10:00 - 22:00,,0
Bengbu Wanda shop,,"No.588, Gongnong Road, Bengbu City, Anhui Province, Wanda Plaza, 1F, Shop No. 1010/101",,,,,China,(0552)3718807,117.366478,-32.925347,09:30 - 22:00,,0
Wuhu Jinghu Wanda shop,,"Wuhu City, Anhui Province, Jinghu District Ocher Hill Road on the 1st Wanda Plaza",,,,,China,0553-3997066,118.405177,-31.344563,09:30-22:00,,0
Hefei Baohe Wanda shop,,China 's Hefei City Baohe District Ma On Shan Road No,,,,,China,(0551) 2891 428,117.309799,-31.863138,10:00-22:00,,0
Hefei Swan Lake Wanda shop,,"No.318, South Second Ring Road, Shushan District, Hefei SEPHORA (1-16,1-17)",,,,,China,0551-5990228,117.228383,-31.826459,09:30-22:00,,0
Hefei heart city shop,,"China 's Hefei City, 189 Yangtze River Road, the first floor of the heart",,,,,China,（0551）-5189363,39.943,- 116.41,10:00-22:00  ,,0
Beijing Fengtai Wanda shop,,"China 's Fengtai City, Beijing Fengke Road, No. 1036, No. 1036",,,,,China,(010) 6379 9166,116.304993,-39.830488,10:00 - 22:00,,0
Beijing Xiangyun town shop,,"Beijing Shunyi District Airport Street Aetai Street, No. 6, Building 3, 108 Xiangyun Town, shopping malls 3-108 shops",,,,,China,(010)80472670,116.543858,-40.094656, 10:00 - 20:00,,0
Beijing Yingyi IKEA store,,"Address: 15 / F, IKEA Shopping Center, 15 Xinning Street, Daxing District, Beijing, China",,,,,China,(010) 80225981,116.332728,-39.794709, 10:00 - 22:00,,0
Beijing Longhu Chang Ying Tianjie shop,,"Chaoyang District, Beijing Chang Tong Road on the 2nd Longhu Long Ying Street on the 1st floor",,,,,China,(010) 65434260,116.60211,-39.930792, 10:00 - 22:00,,0
Beijing Oriental Xintiandi shop,,"Beijing Dongcheng Xintiandi shopping mall on the 1st floor of East Chang'an Avenue, Dongcheng District, Beijing",,,,,China,(010) 85181810,116.415831,-39.915988,10:00 -22:00,,0
Beijing Tongzhou Wanda shop,,"3rd Floor, Wanda Plaza, No.58 Xinhua West Street, Tongzhou District, Beijing",,,,,China,(010) 50906101,116.64465,-39.911719, 10:00 - 22:00,,0
Beijing Shijingshan Wanda shop,,"Shijingshan District, Beijing Shijingshan Road B, No. 18 Wanda Plaza, Building 3, 4M pedestrian street 129/130 shops",,,,,China,(010)68661878,116.232453,-39.912691,10:00 - 22:00,,0
Beijing Hualian Yizhuang shop,,"Building 1, Ronghua Middle Road, Beijing Economic Development Zone, Building 1, F1-06 / 07/08/09",,,,,China,(010)52595490,116.508318,-39.811427,10:00 - 22:00,,0
Beijing Jinyu Wanke shop,,Beijing Changping District South Ring Road on the 10th hospital Jinyu Vanke L1016 shops,,,,,China,(010)60734182,116.246442,-40.218315,10:00 - 22:00,,0
Beijing Hualian Shunyi shop,,"Shunyi District, Beijing Xin Shun South Street on the 8th hospital 1 F1-51B",,,,,China,(010)89462610,116.65894,-40.135569,09:00 - 21:00,,0
Beijing Joy City flagship store,,"Beijing Xicheng District Xidan North Street, No. 131 Xidan Joy City 1F-07 shops",,,,,China,(010)59711590,116.37893,-39.916752,10:00 - 22:00,,0
Beijing Hualian Wangjing shop,,"No.43, Guangshun North Street, Chaoyang District, Beijing, China Wangjing Shopping Center Beijing Hualian Department Store 1st Floor",,,,,China,(010) 8472 9388,116.475586,-39.997575,10:00 - 22:00,,0
Beijing Kaide Xizhi stores,,"China 's Xicheng District, Beijing Xizhimen Street on the 1st Kaide MALL layer 6/7/8",,,,,China,(010) 5830 2408,116.35908,-39.94711,10:00 - 22:00,,0
Beijing Blue Harbor Store,,"China 's Chaoyang District, Beijing Chaoyang Park Road on the 6th Blue Harbor Business District 1B1-7 shops",,,,,China,(010) 5905 6200,116.482291,-39.955169,10:00 - 22:00,,0
Beijing Longde Plaza store,,"China 's Changping District of Beijing Li Tang Road 186, Long De Plaza, a layer of 135/136 shops",,,,,China,(010) 8482 5952,116.422077,-40.065981,10:00 - 22:00,,0
Beijing R & F Plaza,,"China 's Beijing Chaoyang District, East Third Ring Road on the 65th floor of the first floor of R & F Plaza, 134-137 shops",,,,,China,(010) 5903 7488,116.467342,-39.901553,10:00 - 22:00,,0
Beijing Arima fashion shop,,"China 's Haidian District, Beijing Zhongguancun South Street on the 2nd floor of the Arima Fashion Shopping Center",,,,,China,(010) 5162 6125,116.329903,-39.971415,10:00 - 22:00,,0
Beijing Guorui Center Store,,"China 's Chongwen District, Beijing, China on the 18th floor of the country on the first floor of Chong Chong Shopping Center",,,,,China,(010) 6718 1195,116.426603,-39.904807,10:00 - 22:00,,0
Beijing Raffles shop,,"China 's Dongcheng District, Beijing Dongzhimen Southwest corner Raffles shopping mall layer L1-12A",,,,,China,(010) 8409 4838,116.438318,-39.947079,10:00 - 22:00,,0
Beijing World Trade Day order shop,,"China 's Chaoyang District, Beijing, China Guanghua Road on the 9th World Trade Day on the first floor of the first floor of 134-135 shops",,,,,China,(010) 6587 2685,116.459587,-39.921882,10:00 - 22:00,,0
Beijing Europe and the United States shop,,"Haidian District, Beijing, China Zhongguancun Duling Street on the 1st of Europe and the United States Shopping Center, a layer of 18-19 shops",,,,,China,(010) 8248 8128,39.9800,- 116.3144,10:00 - 22:00,,0
Beijing Chaoyang Joy City store,,"China 's Chaoyang District, Beijing Chaoyang North Road, No. 101, northwest of the city of grain",,,,,China,(010) 8552 7802,116.524778,-39.934848,10:00 - 22:00,,0
Beijing You Tang life square shop,,"China 's Chaoyang District, Beijing Municipality Mitutoyo North Life Plaza, the second phase of 103 shops",,,,,China,(010) 8563 5993,116.442515,-39.927554,10:00 - 22:00,,0
Beijing Yi Di Hong Kong shop,,"China 's Chaoyang District, Beijing Jiuxianqiao Road on the 18th Yi Di a layer of 47-49 shops",,,,,China,(010) 84260332,116.498089,-39.97647,11:00-20:00 ,,0
Beijing Jinyuan new Lufthansa shop,,"No.1, Yuanda Road, Haidian District, Beijing, China",,,,,China,(010)88894986,116.293997,-39.96986,10:00 - 22:00,,0
Beijing Yintai Dahongmen shop,,"Building 10, No. 101, Majiapu Road, Fengtai District, Beijing, China",,,,,China,（010) 5653 0806,116.391877,-39.85109,10:00 - 22:00,,0
Beijing Golden Plaza store,,"L115-L117, Jin Di Plaza, No. 91 Jianguo Road, Chaoyang District, Beijing, China",,,,,China,(010)85713188,27.0,- 119.3,10:00 - 22:00,,0
Fuzhou Taihe shop,,"China's Fujian Province, Fuzhou City, Jin'an District, Yuefeng Town, Zhuyu Road on the 6th East Second Ring Taihe City Plaza, a layer",,,,,China,(0591) 8350 0636,119.332572,-26.145911, 10:00 - 20:00,,0
Xiamen SM new life square shop,,"China's Xiamen City, Siming District, No. 399 Jiahe Road, Xiamen SM New Life Square, a layer of shops C126-129",,,,,China,(0592) 505 3303,118.131453,-24.507988,10:00 - 22:00,,0
Xiamen to elegant department store,,"China's Xiamen City, Fujian Province, Siming District, Zhongshan Road, 193-215 to a department store a layer of Sephora shop",,,,,China,(0592) 210 8663,118.087728,-24.46076,10:00 - 22:00,,0
Quanzhou Puxi Wanda shop,,"Quanzhou, Fujian Province Fengze District Baozhou Road 689, Wanda Plaza, 158 shops on the first floor",,,,,China,0595-28687008,118.597223,-24.895465,10:00- 22:00 ,,0
Fuzhou Cangshan Wanda shop,,"China 's Fuzhou City Cangshan District Pudong Road on the 276 Wanda Plaza 1-1, 1-2 shops",,,,,China,0591-88257116,23.68,- 113.29,10:00 - 22:00,,0
Foshan Ruian shop,,"No. 017, the first floor of Lingnan Tiandi Commercial Building, No. 29, Zumiao Road, Chancheng District, Foshan City, China",,,,,China,（0757）82667067,113.118524,-23.033463, 10:00 - 20:00,,0
Shenzhen China Airlines Nine Square Shopping Center shop,,China 's Shenzhen Futian District in the route on the 1st floor of nine - party shopping center,,,,,China,(0755) 8252 8537,114.027338,-22.633254,: 10:00-22:30,,0
Shantou Suning Square shop,,"China 's Shantou City Longhu District Changping Road 90, Suning Square layer",,,,,China,(0754) 81880043,116.722998,-23.367349, 10:00-23:00,,0
Zhanjiang Xiashan heyday shop shop,,"China 's Zhanjiang City, Xiashan District People' s Road South 116, heyday shopping mall on the first floor",,,,,China,(0759) 2262290,110.405693,-21.217725,周日: 09:300-23:00,,0
Zhuhai famous square shop,,"China 's Zhuhai City, Guangdong Province, Xiangzhou District, Phoenix Road 1066, 1st Floor, famous square",,,,,China,(0756) 6129636,113.583349,-22.282652, 10:00 -22:00,,0
Zhuhai Huafa shop,,"Zhuhai City, Guangdong Province, Zhuhai Road on the 8th Shanghai are on the 1st floor",,,,,China,(0756)8330577,113.516009,-22.231737,10:00 -22:00,,0
Shenzhen Longgang Vanke store,,"Longgang District, Longgang District, Longgang Road, Long Road, No. 7188 Vanke Square Square, L1-08 / 09",,,,,China,(0755) 33189977,114.251443,-22.721445,10:00 - 22:30,,0
Shenzhen Yitian Holiday Plaza shop,,"China 's Shenzhen City, Nanshan District Shennan Road 9028, Yi Tian Holiday Plaza B1-9-10-11 shop",,,,,China,(0755) 8629 8226,113.982422,-22.543376,10:00 - 22:30,,0
Shenzhen Jingji Baina shop,,"5013 Shennan East Road, Luohu District, Shenzhen, China.",,,,,China,(0755) 2290 0233,114.113084,-22.55122,10:00 - 22:30,,0
Guangzhou Tianhe City shop,,"Tianhe District, Guangzhou City, Guangdong Province, Tianhe Road, Tianhe City Plaza, the first floor of the north gate of 1103-1108",,,,,China,(020) 8559 2332,113.329753,-23.137948,10:00-22:00 ,,0
Guangzhou Pacific Valley shop,,"Tianhe Road, Tianhe District, Guangzhou City, 383, Taikoohui shopping mall MU28",,,,,China,(020) 3868 2230,113.338885,-23.139613,10:00 - 22:00,,0
Guangzhou Baiyun Wanda shop,,"China 's Guangzhou City Baiyun District Yuncheng Road 501, Wanda Plaza, the streets of the street shops",,,,,China,(020) 3668 5107,113.272814,-23.178164,09:50 - 22:30,,0
"Star River City, Dongguan store",,"China 's Dongguan City, Dongsheng Road 229, Galaxy City, 1st Floor",,,,,China,(0769) 2383 6050,23.22,- 108.26,10:00 - 22:00,,0
Nanning Vientiane City shop,,"Guangxi Nanning Qingxiu District National Road 136, Vientiane City, the second floor",,,,,China,(0771) 5896702,39.9,- 116.4,: 10:00-22:30,,0
Baoding Wanbo Square shop,,"Baoding City, Hebei Province, the new city of Chaoyang North Street 99, Wanbao Square, the first floor of 1025 stores",,,,,China,0312-6095428,115.476032,-38.881447,10:00 -22:00,,0
Tangshan Road South Wanda shop,,"China 's Tangshan City Road South Xinhua Road 100, Tangshan Wanda Plaza, a layer",,,,,China,(0315) 5102 722,118.194385,-39.630818,09:30-22:00,,0
Shijiazhuang Yuhua Wanda shop,,"China 's Shijiazhuang City, Yuhua District, 136 South Street, Shijiazhuang Wanda on the first floor",,,,,China,(0311) 6779 6368,114.551835,-38.028908,10:00-22:30,,0
Shijiazhuang Lehui City shop,,"No.3, Zhongshan East Road, Shijiazhuang, China",,,,,China,(0311)66187039,114.503818,-38.051703,10:00-22:30,,0
Langfang Wanda shop,,"China 's Langfang City, Guangyang District, Xinhua Road 50, Langfang Square, a layer of 1022-1025 shops",,,,,China,(0316) 5266 722,35.10,- 113.77,09:30-22:00 ,,0
Zhengzhou Xidi Hong Kong shop,,"Shop L1009-L1010, Vancouver Times Square Shopping Center, 15 East Agricultural Road, Zhengdong New District, Zhengzhou, China",,,,,China,(0371) 5857 0150,113.761794,-34.760837,10:00 - 22:00,,0
Zhengzhou Vientiane City shop,,"Zhengzhou City Erqi District Road on the 10th Road, China Resources Vientiane City on the second floor, L223 shops",,,,,China,(0371) 55528220,113.66949,-34.761759,10:00 - 22:00,,0
Luoyang Jianye triumphant square shop,,"China 's Luoyang City Zhongzhou Road 245, Jianye Square, a layer of construction industry",,,,,China,(0379) 6068 9633,112.456,-34.680732,10:00 - 22:00,,0
Zhengzhou International Trade 360 ​​Square shop,,"China 's Zhengzhou City Jinshui District Garden Road 39, Zhengzhou International Trade Plaza, Shop B1003",,,,,China,（0371）87512598,46.23,- 126.6,10:00-22:00 ,,0
Harbin Hongbo Exhibition Shopping Center,,China 's Harbin Nangang District Hongqi Street 301 Red Bo Exhibition Shopping Center B1,,,,,China,(0451) 8599 8443,126.704298,-45.7622, 09:30 - 21:00,,0
Harbin Europa Square shop,,"5th Floor, Jin'an Europa Square, No.69 Central Avenue, Daoli District, Harbin, China",,,,,China,(0451) 8456 7698,126.626165,-45.777825,09:30-21:00,,0
Daqing Saertu Wanda shop,,"No. 10, Dongfeng Road, Sa'tu Road, Daqing City, Guangdong Province, China, Wanda Plaza, a pedestrian street, 1026,1027,1028 shops",,,,,China,(0459) 6079 135,31.02,- 114.32,09:30-21:00,,0
Wuhan International Plaza store,,"Building 2, Wuhan International Plaza, 690 Jiefang Road, Jianghan District, Wuhan, China",,,,,China,(027) 8551 3339,114.277157,-30.586924,10:00 - 22:00,,0
Wuhan Moore City shop,,"China 's Wuhan City, Hanyang District, Longyang Avenue on the 6th Moorish City, a layer",,,,,China,(027) 8476 6178,114.214622,-30.565033,: 09:30-22:00,,0
Wuhan Ying special IKEA store,,"China 's Wuhan City, Wuhan Qiaokou District Changyi Road on the 1st of Wuhan Ying Yi IKEA Shopping Center",,,,,China,(027) 8326 8728,114.171664,-30.624789, 10:00 -22:00,,0
Wuhan Luojia creative experience city shop,,"China 's Wuhan City, Hongshan District Luo Yu Road 35, Luojia Creative Experience City, 1st Floor",,,,,China,(027) 88097150,114.359337,-30.534047, 10:00 -21:30,,0
Wuhan Okuyama Century Plaza shop,,"Building A05, 1st Floor, Okushan Century Plaza, 809 Heping Avenue, Qingshan District, Wuhan City, Hubei Province, China",,,,,China,(027)86885060,114.366131,-30.622773,10:00 - 21:30,,0
Wuhan Lingtai Lake Wanda shop,,"China 's Wuhan City, Jianghan District, Tangjiadun Road on the 5th Lake Waterside Wanda Plaza",,,,,China,(027) 8569 0626,114.2744,-30.61564,10:00 - 22:00,,0
Wuhan Han Street Wanda shop,,China 's Wuhan City Wuchang District Han Street 116,,,,,China,(027) 8711 0628,114.344668,-30.564133,10:00 - 22:00,,0
Wuhan Asia Trade Plaza shop,,China 's Wuhan City Wuchang District Wu Luo Road No. 628,,,,,China,(027)87226038,28.57,- 113.00,10:00- 22:00 ,,0
Changsha Wangfujing shop,,"383, Jinxing Middle Road, Yuelu District, Changsha City, Guangdong Province, China Wangfujing Shopping Center Shopping Mall 1-A03 shops",,,,,China,(0731) 8991 0133,112.939817,-28.224944,10:00 - 22:00,,0
Changsha Vientiane store,,"China Changsha Economic and Technological Development Zone Xingsha Avenue 178, China Resources Vientiane a layer",,,,,China,(0731) 86909680,113.092756,-28.254502, 10:00 -22:00,,0
Xiangtan backgammon shop,,"China 's Hunan Province, Xiangtan City Construction Road 102, step by step on the second floor of the second floor",,,,,China,(0731) 55579701,112.92461,-27.839966, 10:00 -22:00,,0
Zhuzhou Wangfujing shop,,"China 's Zhuzhou City, Hunan Province, Lu Xixiang Road, No. 999 Zhuzhou Wangfujing department store on the first floor",,,,,China,(0731) 22282782,113.160174,-27.844952, 10:00 -22:00,,0
Changsha Deshiqin City Square shop,,"Changsha City Yuhua District Xiangfu Road on the 18th Changsha Desiqin City Plaza, 1st Floor",,,,,China,(0731) 85813883,113.016946,-28.1189, 10:00 -22:00,,0
Changsha Tongcheng famous shop,,"China 's Changsha City, Yuhua District, West Road, No. 589 Tongcheng gold family famous center layer",,,,,China,(0731)  8515 5952,113.001141,-28.175791,09:30-22:30,,0
Changsha Lok City Shop,,"China 's Changsha City Furong District Huangxing Road 188, music and the city of Lixiang shops",,,,,China,(0731) 8878 2028,43.856,- 126.546,10:00 - 22:00,,0
Changchun Hongqi Street Wanda shop,,"2 / F, Wanda Plaza, 616 Hongqi Street, Chaoyang District, Changchun City",,,,,China,(0431) 81870270,125.297556,-43.873696, 09:30 - 21:30,,0
Changchun Eurasian shop,,"China 's Changchun City, Chaoyang District, 5178, opened the first floor of Eurasian store",,,,,China,（0431) 8551 6898,32.51,- 118.87,09:00 - 19:40,,0
Xuzhou Suning Square shop,,China 's Xuzhou City Gulou District Huaihai East Road on the 29th B114 - B115 shops,,,,,China,(0516) 8100 6509,117.194758,-34.270989,10:00 - 22:00,,0
Nanjing Jingfeng Center Shop,,China 's Nanjing Jiangning District Ssangyong Avenue 1698 King Feng Square F114 shops,,,,,China,(025) 8615 5791,118.826887,-31.934848,10:00 - 22:00,,0
Zhenjiang Suning Square shop,,"Zhenjiang City, Jingkou District, Zhongshan East Road 301 Zhenjiang Suning Square shopping malls on the first floor",,,,,China,No time,119.46001,-32.210193, 10:00 -22:00,,0
Changzhou Kyushu New World Store,,"China 's Changzhou City, Tianning District, Lanling Road 999, Kyushu New World level",,,,,China,(0519) 8128 6395,119.956259,-31.770239,:10:00-22:00,,0
Suzhou Wuzhong Wanda shop,,"China 's Suzhou Wuzhong District Shihu West Road 188, Wanda Plaza, a layer",,,,,China,(0512) 6635 9637,120.613998,-31.259546, 10:00 -22:00,,0
Kunshan nine square shopping center shop,,"China 's Kunshan City Xiaoshan Road 666, nine - side shopping center",,,,,China,(0512) 3662 5694,120.961402,-31.410746,: 10:00-22:30,,0
Wuxi Vientiane City shop,,"No.88, Jinshi Road, Binhu District, Wuxi City, China",,,,,China,(0510) 8350 7078,120.285314,-31.520751,10:00-22:00,,0
Suzhou impression city shop,,"China Suzhou City, Suzhou Industrial Park, 1699 Modern Avenue, Suzhou City, 1031, Impression City",,,,,China,(0512) 69563791,120.663758,-31.323633, 10:00 -22:00,,0
Suzhou round into the shopping center shop,,"Suzhou Industrial Park Wang Dun Road 269 constellation business square 1220,1210 shops",,,,,China,(0512)62963172,120.722176,-31.324143,10:00 -22:00,,0
Yancheng Zhongnancheng shop,,"Yancheng District, 278 South Road, Jiefang South Road, 1st Floor, Zhongnan City",,,,,China,(0515) 89908388,120.18372,-33.327914,09:30 -21:30,,0
Wuxi Intimate IKEA,,"Wuxi Xishan Economic Development Zone, No. 7, the unity of the road (near the two springs Road) Shop No.: 2-11-23-SU",,,,,China,(0510)85211601,120.40153,-31.588747,10:00 - 22:00,,0
Nanjing Jiangning Wanda shop,,"Nanjing Jiangning District Zhushan Road 59, Wanda Plaza, a layer of 1026,1027 shops",,,,,China,(025)86156140,118.850037,-31.957266,10:00 - 22:30,,0
Wuxi Hang Lung Plaza shop,,"No. 188, People's Middle Road, Chong'an District, Wuxi City, Hang Lung Plaza, 2nd Floor, 201-202 shops",,,,,China,(0510)-81856706,120.304282,-31.580057,10:00 - 22:00,,0
Xuzhou Yunlong Wanda shop,,"1013, Heping Road, Yunlong District, Xuzhou City",,,,,China,（0516）87877180,117.250454,-34.259245,10:00 - 22:00,,0
Suzhou Ocean shop,,"China 's Pingjiang District of Suzhou City People' s Road 1331, Ocean Department Store on the first floor",,,,,China,(0512) 6581 3276,120.627791,-31.315318,09:30-22:30,,0
Wuxi Binhu Wanda shop,,"China 's Wuxi City, Lane Lake Road, Lane 35, Wanda Plaza, the first floor of the pedestrian street",,,,,China,(0510) 8588 0272,120.272306,-31.568345,09:30 - 22:00,,0
Jiangyin Wanda shop,,"Jiangyin City People's West Road, No. 281 Wanda Plaza, the first floor 1051 Sephora (Gate 3)",,,,,China,(0510)8600 1736,120.247507,-31.906601,10:00-22:30 ,,0
Taizhou Wanda shop,,"China 's Taizhou City Hailing District Jichuan East Road 228 Wanda Plaza pedestrian street 1075,1076,1077",,,,,China,(0523) 8688 1237,119.924186,-32.478473,9:30-22:00,,0
Nantong Zhongnancheng shop,,China Nantong City Chongchuan District Taoyuan Road on the 12th Zhongnan City Shopping Center,,,,,China,(0513)5501 9128,120.900634,-31.976491,10:00-17:00,,0
Nanjing water city shop,,China 's Nanjing Baixia District Jiankang Road on the 1st floor of the water,,,,,China,(025) 8223 3871,118.792195,-32.029648,10:00 - 22:00,,0
Nanjing Longjiang new city store,,"1st Floor, New City Plaza, 99 Grassland Gate Street, Nanjing",,,,,China,(025) 8626 9702,118.747472,-32.063549,10:00 - 22:00,,0
Nanjing Jian Ye Wanda shop,,"No. 98, Jiangdong Middle Road, Jianye District, Nanjing, China",,,,,China,025) 8771 6201,118.743233,-32.037845,10:00 - 22:00,,0
Nanjing Deji Square shop,,"China 's Nanjing Gulou District Zhongshan Road on the 18th Deji Plaza, the first floor of the first floor B109",,,,,China,(025)84767910,118.79097,-32.051465,10:00 - 22:30,,0
Changzhou New North Wanda shop,,"China 's Changzhou City, the new North District Tongjiang Road 88, Wanda Plaza, 1023, first floor",,,,,China,(0519) 8188 2270,119.976969,-31.825657,10:00-22:00 ,,0
Changshu impression city shop,,"China 's Changshu City, Haiyu South Road, No. 88 impression on the 1st floor atrium",,,,,China,(0512) 5292 8313,29.4,- 116.0,09:30 - 22:00,,0
Nanchang West Lake Wanda shop,,"No. 088 Yunjin Road, Xihu District, Nanchang, China 1052 + 1053, Wanda Plaza, Nanchang West Lake",,,,,China,(0791) 8651 5825,115.864387,-28.638555,10:00 - 22:00,,0
Nanchang Honggu Tan Wanda shop,,Nanchang City Convention and Exhibition Road 999 No. 1033-1035,,,,,China,0791-86856160,42.10,- 123.46,10:00 - 22:00,,0
Shenyang Joy City store,,China 's Shenyang City Dadong District Xiaodong Road on the 6th Shenyang Joy City A111 shops,,,,,China,(024) 2435 5242,123.473625,-41.808916,10:00 - 22:00,,0
Shenyang Tiexi Vientiane shop,,"China 's Shenyang City Tiexi District Construction Road 158, China Resources Land Plaza, Vientiane, a layer",,,,,China,(024) 85908622,123.381348,-41.803689, 10:00 -22:00,,0
Dalian Sheng Sheng billion city store,,"No.335, Shandong Road, Ganjingzi District, Dalian City, China",,,,,China,(0411) 39573602,121.591761,-38.997634, 09:00 - 21:00 ,,0
Shenyang Xinhua Xintiandi financial center shop,,"Shenyang City, Guangdong Province, Lane 168, Harbin Road, the first floor of the shopping mall A020-A022",,,,,China,(024) 31211138,123.439781,-41.81845,10:00 -22:00,,0
Fushun Wanda shop,,"Fushun City Xinfu District Hun River Road 56, Wanda Plaza, the first floor",,,,,China,(024) 5395 5168,123.908843,-41.871182,09:30 - 21:30,,0
Dalian Ansheng Plaza shop,,"Dalian Economic and Technological Development Zone No. 189 Jinma Road Dalian Ansheng Shopping Plaza K1G006-2, K1G006-3, K1G006-4",,,,,China,(0411)87539883,121.785122,-39.055407,09:00 - 21:00,,0
Dalian high-tech Wanda store,,"High - tech Zone, Dalian City, 500 Huangpu Road, 000 - Wanda Plaza, a layer of 018 shop",,,,,China,0411-39073735,121.539692,-38.868308,09:30 - 21:00,,0
Shenyang Taiyuan Street Wanda shop,,Shenyang City Heping District Taiyuan South Street on the 2nd Wanda Plaza layer,,,,,China,024-23581885,123.406239,-41.798098, 09:30-21:30,,0
Dalian Cade Peace Plaza shop,,"China 's Dalian City, Shahekou District Golgi Road 695, the first floor of Peace Plaza",,,,,China,(0411) 8431 1161,121.59527,-38.903014,09:30 - 21:00,,0
Dalian Tianxing Roosevelt shop,,"China 's Dalian City, Shahekou District of Xi'an Road 139, Roosevelt Square, first floor",,,,,China,(0411) 8452 1115,38.91,- 106.23,09:00 - 21:00,,0
Yinchuan Jinfeng Wanda shop,,"China's Yinchuan City, No. 380 Beijing Road, Yinchuan Jinfeng Wanda Plaza 1028/1029/1030 Shops",,,,,China,(0951)5108 318,37.04,- 117.02,09:30-22:00,,0
Qingdao Vientiane City shop,,"China 's Qingdao City, Shandong Province, Shandong Road on the 6th China' s Vientiane City, 2nd Floor, Vientiane City",,,,,China,(0532) 55575580,120.384517,-36.073062, 10:00 -22:00,,0
Zibo Vientiane shop,,"Zibo City, Zhangdian District, No. 66 Jingjing Avenue Zibo Vientiane 1 floor",,,,,China,(0533) 6282668,118.066845,-36.807938, 10:00-22:00,,0
Weihai Wei Gao Plaza shop,,"Weihai District, Weihai City, Shandong Province, Xinwei Road, Central Road, Kunming Road, Granville Square L129-130",,,,,China,(0631) 5202551,122.128515,-37.509158,10:00 -21:30,,0
Yantai Joy City store,,"Yantai City, Shandong Province, Zhifu District, North Road, No. 150 Yantai Joy City, first floor",,,,,China,(0535) 6256532,121.392324,-37.550858,10:00 - 21:30,,0
Jining Wanda shop,,"China 's Jining City, 55 East Road, Wanda Plaza, 10th Floor, 1010-1012 A shop",,,,,China,(0537) 5128311,116.607727,-35.415298,10:00 - 22:00,,0
Weifang Taihua City Holiday Plaza shop,,"Weifang City, Shandong Province Kuiwen District Dongfeng East Street Taihua City Holiday Plaza on the first floor",,,,,China,(0536) 8093 038,119.117636,-36.71703,09:30-21:30,,0
Qingdao Belle Square shop,,"China 's Qingdao City, South Road 88, 100 Floor, Belle Square",,,,,China,(0532) 6606 1808,120.398728,-36.065757,10:00 - 22:00,,0
Qingdao Le car city shop,,Qingdao Licang District Xiazhuang Road No. 1 Le car city (South Gate),,,,,China,0532-58701518,120.431118,-36.166673,10:00 - 22:00,,0
Jinan Hang Lung Plaza shop,,"China 's Jinan City, under the Lixia Quancheng Road 188, China' s Jinan Hang Lung Plaza, No. 1, 153 shops",,,,,China,(0531) 5563 8288,117.029198,-36.670442,10:00 - 22:00,,0
Jinan Weijiazhuang Wanda shop,,"China's Jinan City in the four-way Wanda Plaza, a layer",,,,,China,(0531) 6761 8958,38.32,- 112.58,10:00 - 22:00,,0
Taiyuan North America Xintiandi shop,,"Building 1, Changfeng Street, Xiaodian District, Taiyuan, China",,,,,China,(0351) 7856 289,35.0,- 109.1,10:00 - 22:00,,0
Xi'an old city root shop,,"No. 1F-27 + 1F-28, No. 22, Xinghuo Street, Lianhu District, Xi'an, Shaanxi Province, China",,,,,China,(029) 6569 6186,108.928393,-34.290979,10:00 - 22:00,,0
Xi'an Zhongda International Store,,"No.27, High-tech Road, Hi-tech Zone, Xi'an, China",,,,,China,(029) 8881 7887,108.952755,-34.260306,10:00 - 22:00,,0
Xi'an Yintai bell tower shop,,Zoom Here Find Nearby Get Directions,,,,,China,029-87230456,108.949218,-34.265236,10:00 - 22:00,,0
Xi'an Xingzhengyuan Square shop,,China 's Xi'an Beilin District East Street Lumu City on the 1st floor of the first floor of Xing - yuan,,,,,China,(029) 8765 6120,108.949512,-34.265097,09:30- 22:00,,0
Xi'an Qujiang Yintai Cheng shop,,"China 's Xi'an Qujiang New District Yanta Road 410, Yintai City",,,,,China,(029)89123556,31.274,- 121.49,10:00-22:00,,0
Shanghai Baoshan Po Lehui shop,,"No.1269, Mudanjiang Road, Baoshan District, Shanghai, China F123, Baolhui Life Fashion Center Square",,,,,China,(021) 5656 0703,121.491989,-31.405294,10:00 - 22:00,,0
Shanghai Qibao Vanke store,,"Shanghai, China Minhang District Caobao Road 3366 Qibao Vanke Square L134 shops",,,,,China,(021) 6389 5068,121.355759,-31.160695,10:00 - 22:00,,0
Shanghai Disney shop,,"Shanghai Pudong New Area Shendi West Road 255, Lane 735",,,,,China,(021) 5888 3823,121.667054,-31.146944, 10:00 - 20:00,,0
Shanghai Qingpu Wu Yue Plaza shop,,"Shanghai Qingpu District Dianshan Lake Road 152, Lane 41, Qingpu Wu Yue Plaza, 1st Floor",,,,,China,(021) 59803110,121.101406,-31.149699,: 09:30-22:00,,0
Shanghai Changtai Square shop,,"1st Floor, Changtai Plaza, 1253 Zu Chong Road, Pudong New Area, Shanghai",,,,,China,(021) 50650298,121.608679,-31.211527,10:00 -22:00,,0
Shanghai Baoshan Wanda shop,,"Baoshan District, Shanghai Baichuan District Memorial Road 968 Baoshan Wanda 1 layer 102-2,103,105 shops",,,,,China,(021) 60790956,121.454358,-31.330634,10:00 - 22:00,,0
Shanghai Songjiang Wanda shop,,"Shanghai, China Songjiang District Guangfu Lin Road 658 Songjiang Wanda 1 layer",,,,,China,(021) 67728226,121.249721,-31.063013,10:00 - 22:00,,0
Shanghai Moon Star Global Hong Kong shop,,"No. 3300, Zhongshan North Road, Shanghai, China, Hong Kong, Hong Kong, B1 Floor, B1026 shops",,,,,China,(021)52865001,121.418437,-31.237841,10:00 - 22:00,,0
Shanghai Zhengda Square shop,,"Pudong New Area, Shanghai, China Lujiazui Road 168, 1st Floor, No. 47",,,,,China,(021) 5047 2318,121.505825,-31.242382,10:00 - 22:00,,0
Shanghai Huijin Xuhui shop,,"China 's Shanghai Xuhui District Zhaojiabang Road 1000, Huijin Department Store 1 floor",,,,,China,(021) 6426 9076,121.44664,-31.201656,09:30 - 22:00,,0
Shanghai Bailian West suburbs shop,,"China 's Changning District, Shanghai, China Xianxia West Road 88, the western suburbs of 100 - way shopping center on the first floor of 1319 units",,,,,China,(021) 6239 7377,121.376922,-31.214974,10:00 - 22:00,,0
Shanghai Bailian another city shop,,China 's Shanghai Yangpu District Songhu Road on the 8th Brilliance and City Commercial Building New Century Department Store 1st floor,,,,,China,(021) 6548 2808,121.521853,-31.307732,10:00 - 22:00,,0
Shanghai Friendship South shop,,"Shanghai, China Minhang District, Shanghai Min Road 7388 South Mall on the first floor",,,,,China,(021) 6412 8336,121.406346,-31.138285,09:30 - 21:30,,0
Shanghai Lian Yang Plaza store,,"Shanghai, China Pudong New Area, No. 300 Fangdian Road, Lian Yang Plaza, the first floor of A",,,,,China,(021) 6854 9385,121.564394,-31.23275,10:00 - 22:00 ,,0
Shanghai Zhongsheng World Store,,"China 's Minhang District, Shanghai, China City Road 5001 Chung Chung World Mall on the 1st floor",,,,,China,(021) 3463 3550,121.39447,-31.114142,10:00 - 22:00 ,,0
"Shanghai Paris Spring Road, Shaanxi Road shop",,"Shanghai, China Putuo District Changshou Road 155, a layer of 105,106,107 units",,,,,China,(021) 3131 5030,121.445453,-31.245998,10:00 - 22:00 ,,0
Shanghai Jiajie international shop,,"Shanghai, China Hongkou District, Sichuan Road, No. 1689 Jiajie International Plaza, a layer",,,,,China,(021) 3635 6106,121.487954,-31.264935,10:00 - 22:00 ,,0
Shanghai Wujiaochang Wanda shop,,"No. 21-23 Wanda Plaza, 608 Handan Road, Hongkou District, Shanghai, China (First Floor, D27-D30)",,,,,China,(021) 3362 8968,121.519642,-31.306031,10:00 - 22:00 ,,0
Shanghai Long dream store,,"1018 Changning Road, Changning District, Shanghai, China Longxing Dream Shopping Center 1007,1009,1011 shops",,,,,China,(021) 6116 9511,121.423155,-31.225208,10:00 - 22:00,,0
Shanghai Jiangqiao Wanda shop,,"China 's Jiading District of Shanghai Jinsha River Road 1051 Jiangjiang Wanda Plaza, a layer of 1041 shop",,,,,China,(021) 6076 7096,121.329777,-31.246169,09:00 - 22:00,,0
Shanghai Daning International Store,,"No. 1968, Gonghe New Road, Shanghai, China, Unit 101,102",,,,,China,（021）56776121,121.45927,-31.280711,10:00 - 22:00,,0
Shanghai Zhou Pu Wanda shop,,"No.518, Jiabao Bang Road, Pudong New Area",,,,,China,（021）68119992,121.57703,-31.120845,10:00 - 22:00,,0
Shanghai Shangjia Center Store,,"Shanghai, China Changning District Xianxia Road 99, Shangjia Center, 2nd Floor",,,,,China,(021) 60734948,121.41357,-31.211678,10:00 - 22:00,,0
Shanghai Grand Gateway store,,"Hongqiao Road, No.1, Hongqiao Road, Xuhui District, Shanghai, China",,,,,China,(021) 6447 7730,121.443509,-31.201642,10:00-22:00,,0
Shanghai Xiangyang flagship store,,"China 's Shanghai Jing'an District of Nanjing Road 993, 1-2 layer",,,,,China,（021）62230260,121.464987,-31.235301,10:00 - 22:00,,0
Shanghai Bailian Central shop,,"No.128, Zhenguang Road, Putuo District, Shanghai, China A-1F-05",,,,,China,(021) 6139 2358,31.4,- 104.3,10:00 - 22:00,,0
Chengdu Qingyang Wanda shop,,"China 's Chengdu City, Qingyang District, a section of the sun and the moon on the 978 shopping malls 1020,1021,1022 A number of shops",,,,,China,(028) 6423 5636,103.980835,-30.681464,10:00 - 22:00,,0
Luzhou Vientiane shop,,"China 's Sichuan Province, Luzhou City, Jiangyang District, Kang Road on the 1st Vientiane level",,,,,China,(0830) 3755030,105.418024,-28.90118,: 10:00-22:30,,0
Chengdu Joy City shop,,"China 's Chengdu Wuhou District Dade Road 518, a layer of Joy City",,,,,China,(028) 65582808,104.016559,-30.632666, 10:00 -22:00,,0
Chengdu Ocean Pacific Pacific shop,,"Jinjiang District, Chengdu, China on the 8th Street in the sun on the 1st floor",,,,,China,(028) 64657791,104.088173,-30.660262,10:00 -22:00,,0
Chengdu International Financial Center Store,,China 's Chengdu Jinjiang District Red Star Road on the 1st section of the international financial center on the ground floor,,,,,China,(028)86624478,104.086935,-30.660441,10:00 - 22:00,,0
Chengdu Jinniu Wanda shop,,"Chengdu, a ring north of the third section of Jinniu Wanda Plaza, No. 1, No. 4 door",,,,,China,028 8287 6286,104.080921,-30.692551,10:00 - 22:30,,0
Mianyang Fucheng Wanda shop,,"Mianyang City Fucheng District Garden Road on the 9th Wanda Plaza, 1st Floor, No. 2 door",,,,,China,(0816)2358328,104.725804,-31.460146,10:00- 22:30 ,,0
Chengdu Kaidan Square shop,,China 's Chengdu High - tech Zone Sheng and all the way on the 18th Kaidan Square (Auchan next) on the first floor,,,,,China,(028) 6597 9602,104.069562,-30.60854,10:00 - 22:00,,0
Chengdu Raffles shop,,"China 's Chengdu Wuhou District People' s South Road, No. 4 (opposite the provincial gymnasium) layer",,,,,China,(028) 6511 2576,39.141,- 117.20,10:00 - 22:00,,0
Tianjin Aegean shop,,"Tianjin Love Sea Shopping Park, No. 160, Jinbin Road, Hedong District, Tianjin",,,,,China,02259668700,117.26061,-39.128322, 10:00 - 22:00,,0
Tianjin Rice Lae European Geely,,"China 's Tianjin Heping District, China Nanjing Road 209, the first floor of Geely Building",,,,,China,(022) 2721 0571,117.202825,-39.124435,10:00 - 22:00,,0
Tianjin water city shop,,China 's Tianjin Hongqiao District Dafeng Road on the 18th China' s Tianjin Water City AF1 - S04,,,,,China,(022) 5830 1600,117.176559,-39.154199,10:00 - 22:00,,0
Tianjin Joy City store,,"No.2 South Gate Street, Nankai District, Tianjin, China",,,,,China,02258100262,30.58,- 120.10,10:00 - 22:00,,0
Hangzhou Kerry Center store,,"Hangzhou, China under the 353 Yan'an Road, ""Hangzhou Kerry Center"" 3 120 +121 shops",,,,,China,(0571) 8783 9557,120.168653,-30.26583,10:00 - 22:00,,0
Hangzhou Xixi impression city shop,,China's Hangzhou Yuhang District Wuchang Avenue on the 1st Xixi Impression City Mall P1-01-09 / 10/11 shops,,,,,China,(0571) 8585 5176,120.057118,-30.25315,10:00 - 22:00,,0
Shaoxing Huijin Square shop,,"China 's Shaoxing City, 199, Jiefang Road, Huijin Square, a layer",,,,,China,(0575) 8866 6375,120.587842,-30.012015,: 10:00-22:30,,0
Hangzhou Longhu Xiasha shop,,"China 's Hangzhou Jianggan District Jinsha Road 560, Xiasha Street on the first floor",,,,,China,(0571) 86911767,120.332737,-30.315912,9:00-22:00,,0
Ningbo Yintai Universal City shop,,"China 's Ningbo Yinzhou District Tiantong South Road 1088, a layer of Intime City",,,,,China,(0574) 8925 5323,121.552422,-29.803415, 10:00 -21:30,,0
Jinhua Yintai shop,,"Jinhua City, the liberation of East Road 168, Building B, 1st Floor",,,,,China,0579-82326729,119.661047,-29.109529,-周日:10：00-22：00,,0
Hangzhou Yintai City store,,"China 's Hangzhou City Fengteng Street, No. 299 Yintai City, a layer",,,,,China,(0571)8761 6560,120.115124,-30.306746,10:00-22:00,,0
Ningbo Tianyi Square shop,,"China 's Ningbo Haishu District Drug Street Street, 152, the first floor of the cool shopping mall",,,,,China,(0574) 8727 7769,121.562133,-29.875656,09:30 - 22:00,,0
Ningbo Century Oriental shop,,"Room 1, F1113-1098-1099, Oriental Plaza, 1083 Zhongshan East Road, Jiangdong District, Ningbo, China",,,,,China,(0574) 8781 9090,121.600015,-29.867338,09:30- 21:30 ,,0
Ningbo impression city shop,,"No. 288, Qianhu North Road, Yinzhou District, Ningbo City, Zhejiang Province, shop number 01-06",,,,,China,0574-83067712,121.570888,-29.838959,10:00 - 22:00,,0
Ningbo Yinzhou Wanda shop,,"China 's Ningbo City, Ningbo Yinzhou Quming Road 999",,,,,China,0574-83065812,121.550324,-29.83321,09:30 - 22:00,,0
Jiaxing Xuhui Square shop,,"China 's Jiaxing City, Zhongshan Road 666, Xu Hui Square",,,,,China,(0573)82099819,120.753301,-30.767016,10:00-22:00,,0
Huzhou Tianhong Department Store,,"Huzhou City, Wuxing District, No. 7, Aishan Square, Dayton Department Store 1023 first floor",,,,,China,（0572）2503639,120.105716,-30.873055,10:00-22:00,,0
Hangzhou department store shop,,"No.56 Yan'an Road, Lower Town, Hangzhou, China",,,,,China,(0571) 8517 4119,120.170199,-30.275149,09:15- 22:15,,0
Hangzhou Li Xing famous shop,,"China 's Hangzhou City on the city of 124 Pinghai Road, the first floor of the famous Star Square",,,,,China,(0571) 8779 1810,29.597,- 106.548,10:00 - 22:30,,0
Chongqing Zhongyu shop,,China 's Chongqing Yubei District Hongjin Road 100 Hengda Zhongyu Square 1,,,,,China,(023) 6711 5979,106.527897,-29.604641, 10:00 - 20:00,,0
Chongqing big financial city shop,,China 's Chongqing Jiangbei District Guanyinqiao pedestrian street on the 8th into a layer,,,,,China,(023) 6708 7060,106.538854,-29.581321, 10:00 - 20:00,,0
Chongqing Vientiane City,,"Chongqing Jiulongpo District Xiejiawan Street 49, Vientiane City, Lane 2070",,,,,China,(023) 68688277,106.52458,-29.523862,10:00 - 22:00,,0
Chongqing Kaide Shapingba shop,,China 's Chongqing Shapingba District Arima Plaza on the 1st floor of the first shopping center,,,,,China,(023) 6531 6202,106.539529,-29.582982,10:00 - 22:00,,0
Chongqing Beicheng Tianjie shop,,China 's Chongqing Jiangbei District Beicheng Tianjie shopping plaza L6721-1 / 2/3,,,,,China,(023) 6773 3233,106.539529,-29.582982,10:00 - 22:00,,0
Chongqing Bailian South Bank shop,,"China 's Chongqing Nanan District Nanping Road, the first floor of the Brilliance Shopping Center",,,,,China,(023) 6262 6732,106.56768,-29.534831,10:00 - 22:00,,0
Chongqing Association of Star Times Square store,,China 's Chongqing Nanan District Jiangnan Road on the 28th,,,,,China,(023) 6262 8676,106.577126,-29.529522,10:00 - 22:00,,0
Chongqing Daping Times Tianjie shop,,China 's Chongqing Yuzhong District Daping Times Day Street L1 - A - 13/14,,,,,China,(023)68008280,40.9,- 111.8,10:00 - 22:00,,0
Hohhot ethnic shop,,"Inner Mongolia Autonomous Region Hohhot Zhongshan West Road on the 7th Block A, No. 01 shops",,,,,China,0471-3240768,24.28,- 101.38,09:00 - 20:30,,0
Kunming mostly skyscrapers shopping center,,Zoom Here Find Nearby Get Directions Share with Friends,,,,,China,（0871）67331622,102.775426,-24.97499, 10:00 - 20:00,,0
Kunming Xishan Wanda Plaza shop,,"6 / F, Wanda Plaza, 688 Qianxing Road, Xishan District, Kunming",,,,,China,(0871) 64123808,102.716377,-25.013309,10:00 -22:00,,0
Kunming Tongde Plaza shop,,"6 / F, Tongde Plaza Shopping Center, 928 Beijing Road, Panlong District, Kunming",,,,,China,(0871) 65897086,36.914764,-103.923633,10:00 - 22:00,,0
Lanzhou Chengguan Wanda shop,,"1st Floor, Wanda Plaza, No.68 Tianshui North Road, Chengguan District, Lanzhou City",,,,,China,(0931) 8556169,26.641449,-106.612508, 10：00 -21：00,,0
Guiyang Hunter City Square shop,,"China 's Guiyang City, Guizhou Province, Wenchang Road 33, Hunter City Plaza, a layer",,,,,China,(0851) 85636886,36.649268,-101.749777,10:30 -22,,0
Xining Xiadu Square shop,,China 's Xining City in Qinghai Xiguan Street on the 4th floor of the fourth floor of the summer,,,,,China,(0971) 6103028,106.527897,-29.604641,10:00-22:00,,0
Shenzhen Royal Court Square shop,,"China 's Shenzhen Futian District, Fuhua three 118 Road, Wong Tai Merchant Shopping Plaza, a layer",,,,,China,(0755) 8271 7986,87.559985,-43.905977, 10:00 - 20:00,,0
Urumqi Tai Tai shop,,"No. A-028, Tai Bai Shopping Mall, 566 Friendship North Road, Shayibake District, Urumqi, Xinjiang, China",,,,,China,0991-4812033,87.59631,-43.829049,10:00 - 22:00,,0
Urumqi opened Wanda shop,,China Urumqi Economic and Technological Development Zone Xuanwu Lake Road 999,,,,,China,(0991) 3739 167,36.94989178681327,- 105.380859375,10:00 - 22:00,,0
