store_name,store_number,address,address2,city,state,zip_code,country,phone_number,latitude,longitude,store_hours,other_fields,coming_soon
Chandler Fashion Center,71,3111 West Chandler Blvd.,,Chandler,AZ,85206,United States,(480)855-5573,33.3016651,-111.8980181,Monday:10:00 AM - 09:00 PM;Tuesday:10:00 AM - 09:00 PM;Wednesday:10:00 AM - 09:00 PM;Thursday:10:00 AM - 09:00 PM;Friday:10:00 AM - 09:00 PM;Saturday:10:00 AM - 09:00 PM;Sunday:11:00 AM - 06:00 PM;,,0
Southland Mall,7,335 Southland Mall,,Hayward,CA,94545,United States,(510)783-8700,37.6503889,-122.1021572,Monday:10:00 AM - 09:00 PM;Tuesday:10:00 AM - 09:00 PM;Wednesday:10:00 AM - 09:00 PM;Thursday:10:00 AM - 09:00 PM;Friday:10:00 AM - 09:00 PM;Saturday:10:00 AM - 09:00 PM;Sunday:11:00 AM - 07:00 PM;,,0
Hanford Mall,37,1675 W. Lacey Blvd.,,Hanford,CA,93230,United States,(559)589-0718,36.3262285,-119.6702009,Monday:10:00 AM - 09:00 PM;Tuesday:10:00 AM - 09:00 PM;Wednesday:10:00 AM - 09:00 PM;Thursday:10:00 AM - 09:00 PM;Friday:10:00 AM - 09:00 PM;Saturday:10:00 AM - 08:00 PM;Sunday:11:00 AM - 07:00 PM;,,0
Glendale Galleria,58,2148 Glendale Galleria,,Glendale,CA,91210,United States,(818)662-7076,34.1448156,-118.259553,Monday:10:00 AM - 09:00 PM;Tuesday:10:00 AM - 09:00 PM;Wednesday:10:00 AM - 09:00 PM;Thursday:10:00 AM - 09:00 PM;Friday:10:00 AM - 09:00 PM;Saturday:10:00 AM - 09:00 PM;Sunday:11:00 AM - 07:00 PM;,,0
Fashion Fair Mall,55,711 East Shaw Ave. #E20,,Fresno,CA,93710,United States,(559)222-2557,36.8084779,-119.7755898,Monday:10:00 AM - 09:00 PM;Tuesday:10:00 AM - 09:00 PM;Wednesday:10:00 AM - 09:00 PM;Thursday:10:00 AM - 09:00 PM;Friday:10:00 AM - 09:00 PM;Saturday:10:00 AM - 09:00 PM;Sunday:11:00 AM - 07:00 PM;,,0
Fashion Fair Mall,14,563 East Shaw Ave.,,Fresno,CA,93710,United States,(559)229-2614,36.8080276,-119.7773305,Monday:10:00 AM - 09:00 PM;Tuesday:10:00 AM - 09:00 PM;Wednesday:10:00 AM - 09:00 PM;Thursday:10:00 AM - 09:00 PM;Friday:10:00 AM - 09:00 PM;Saturday:10:00 AM - 09:00 PM;Sunday:11:00 AM - 07:00 PM;,,0
WFS Solano Mall,9,1350 Travis Blvd,,Fairfield,CA,94533,United States,(707)404-8900,38.2641148,-122.0528268,Monday:10:00 AM - 09:00 PM;Tuesday:10:00 AM - 09:00 PM;Wednesday:10:00 AM - 09:00 PM;Thursday:10:00 AM - 09:00 PM;Friday:10:00 AM - 09:00 PM;Saturday:10:00 AM - 09:00 PM;Sunday:11:00 AM - 06:00 PM;,,0
WFS North County Mall,70,272 East Via Rancho,,Escondido,CA,92025,United States,(760)432-8861,33.0698523,-117.0647813,Monday:10:00 AM - 09:00 PM;Tuesday:10:00 AM - 09:00 PM;Wednesday:10:00 AM - 09:00 PM;Thursday:10:00 AM - 09:00 PM;Friday:10:00 AM - 09:00 PM;Saturday:10:00 AM - 09:00 PM;Sunday:11:00 AM - 07:00 PM;,,0
WFS Parkway,38,741 Parkway Plaza sp R-9,,El Cajon,CA,92020,United States,(619)593-7225,32.7963222,-116.9675814,Monday:10:00 AM - 09:00 PM;Tuesday:10:00 AM - 09:00 PM;Wednesday:10:00 AM - 09:00 PM;Thursday:10:00 AM - 09:00 PM;Friday:10:00 AM - 09:00 PM;Saturday:10:00 AM - 09:00 PM;Sunday:10:00 AM - 07:00 PM;,,0
Stonewood Mall,86,139 Stonewood St.,,Downey,CA,90241,United States,(562)622-0591,33.9384742,-118.1209637,Monday:10:00 AM - 09:00 PM;Tuesday:10:00 AM - 09:00 PM;Wednesday:10:00 PM - 09:00 PM;Thursday:10:00 AM - 09:00 PM;Friday:10:00 AM - 09:00 PM;Saturday:10:00 AM - 08:00 PM;Sunday:11:00 AM - 07:00 PM;,,0
Westfield Culver City,21,6000 Sepulveda Blvd #1701,,Culver City,CA,90230,United States,(310)391-2184,33.9846483,-118.3950495,Monday:10:00 AM - 09:00 PM;Tuesday:10:00 AM - 09:00 PM;Wednesday:10:00 AM - 09:00 PM;Thursday:10:00 AM - 09:00 PM;Friday:10:00 AM - 09:00 PM;Saturday:10:00 AM - 09:00 PM;Sunday:11:00 AM - 07:00 PM;,,0
Sunvalley Mall,23,One Sunvalley Mall,,Concord,CA,94520,United States,(925)681-1272,37.9651622,-122.0582206,Monday:10:00 AM - 09:00 PM;Tuesday:10:00 AM - 09:00 PM;Wednesday:10:00 AM - 09:00 PM;Thursday:10:00 AM - 09:00 PM;Friday:10:00 AM - 09:00 PM;Saturday:10:00 AM - 09:00 PM;:;,,0
Compton,11,1900 N. Long Beach Blvd. #102-3,,Compton,CA,90221,United States,(310)609-1043,33.9037373,-118.2084679,Monday:10:00 AM - 08:00 PM;Tuesday:10:00 AM - 08:00 PM;Wednesday:10:00 AM - 08:00 PM;Thursday:10:00 AM - 08:00 PM;Friday:10:00 AM - 08:00 PM;Saturday:10:00 AM - 08:00 PM;Sunday:11:00 AM - 06:00 PM;,,0
Sunrise Mall,30,6149 Sunrise Mall Citrus,,Citrus Heights,CA,95610,United States,(916)729-0824,38.7201001,-121.2725644,Monday:10:00 AM - 09:00 PM;Tuesday:10:00 AM - 09:00 PM;Wednesday:10:00 AM - 09:00 PM;Thursday:10:00 AM - 09:00 PM;Friday:10:00 AM - 09:00 PM;Saturday:10:00 AM - 09:00 PM;Sunday:11:00 AM - 07:00 PM;,,0
Otay,81,2015 Birch Rd #1001,,Chula Vista,CA,91915,United States,(619)482-8670,32.621645,-116.96552,Monday:10:00 AM - 09:00 PM;Tuesday:10:00 AM - 09:00 PM;Wednesday:10:00 AM - 09:00 PM;Thursday:10:00 AM - 09:00 PM;Friday:10:00 AM - 09:00 PM;Saturday:10:00 AM - 09:00 PM;Sunday:12:00 PM - 06:00 PM;,,0
Chula Vista Center,34,555 Broadway,,Chula Vista,CA,91910,United States,(619)425-1602,32.6301255,-117.0876526,Monday:10:00 AM - 09:00 PM;Tuesday:10:00 AM - 09:00 PM;Wednesday:10:00 AM - 09:00 PM;Thursday:10:00 AM - 09:00 PM;Friday:10:00 AM - 09:00 PM;Saturday:10:00 AM - 09:00 PM;Sunday:11:00 AM - 06:00 PM;,,0
Westfield Southcenter Mall,118,986 Southcenter Mall,,Tukwila,WA,98188,United States,(206)242-1130,47.4590694,-122.2613121,Monday:10:00 AM - 09:00 PM;Tuesday:10:00 AM - 09:00 PM;Wednesday:10:00 AM - 09:00 PM;Thursday:10:00 AM - 09:00 PM;Friday:10:00 AM - 09:00 PM;Saturday:10:00 AM - 09:00 PM;Sunday:11:00 AM - 07:00 PM;,,0
Tacoma Mall,108,4502 S. Steele St Suit 331A,,Tacoma,WA,98409,United States,(253)471-3273,47.2162925,-122.4687857,Monday:10:00 AM - 09:00 PM;Tuesday:10:00 AM - 09:00 PM;Wednesday:10:00 AM - 09:00 PM;Thursday:10:00 AM - 09:00 PM;Friday:10:00 AM - 09:00 PM;Saturday:10:00 AM - 09:00 PM;:;,,0
Northgate Mall,110,401 NE Northgate Way,,Seattle,WA,98125,United States,(206)306-9716,47.7078801,-122.3267132,Monday:10:00 AM - 09:00 PM;Tuesday:10:00 AM - 09:00 PM;Wednesday:10:00 AM - 09:00 PM;Thursday:10:00 AM - 09:00 PM;Friday:10:00 AM - 09:00 PM;Saturday:10:00 AM - 09:00 PM;Sunday:11:00 AM - 07:00 PM;,,0
Westfield Capital Mall,111,625 Black Lake Blvd,,Olympia,WA,98502,United States,(360)236-0447,47.0438016,-122.9339486,Monday:10:00 AM - 08:00 PM;Tuesday:10:00 AM - 08:00 PM;Wednesday:10:00 AM - 08:00 PM;Thursday:10:00 AM - 08:00 PM;Friday:10:00 PM - 09:00 PM;Saturday:10:00 AM - 09:00 PM;Sunday:11:00 AM - 06:00 PM;,,0
Alderwood Mall,117,3000 184th Street #552,,Lynnwood,WA,98037,United States,(425)776-8822,47.829906,-122.2725679,Monday:10:00 AM - 09:00 PM;Tuesday:10:00 AM - 09:00 PM;Wednesday:10:00 AM - 09:00 PM;Thursday:10:00 AM - 09:00 PM;Friday:10:00 AM - 09:00 PM;Saturday:10:00 AM - 09:00 PM;:;,,0
First Colony Mall,90,16435 Southwest Freeway,,Sugarland,TX,77479,United States,(281)313-0594,29.5941602,-95.6269874,Monday:10:00 AM - 09:00 PM;Tuesday:10:00 AM - 09:00 PM;Wednesday:10:00 AM - 09:00 PM;Thursday:10:00 AM - 09:00 PM;Friday:10:00 AM - 09:00 PM;Saturday:10:00 AM - 09:00 PM;Sunday:12:00 PM - 06:00 PM;,,0
Deer Brooke,88,20121 HIGHWAY 59 NORTH,,Humble,TX,77338,United States,(281)319-4441,30.1642343,-95.4553336,Monday:10:00 AM - 09:00 PM;Tuesday:10:00 AM - 09:00 PM;Wednesday:10:00 AM - 09:00 PM;Thursday:10:00 AM - 09:00 PM;Friday:10:00 AM - 09:00 PM;Saturday:10:00 AM - 09:00 PM;Sunday:12:00 PM - 06:00 PM;,,0
Greenpoint Mall,109,12300 North Freeway Sp #242,,Houston,TX,77060,United States,(281)873-2448,29.94649,-95.410256,Monday:10:00 AM - 09:00 PM;Tuesday:10:00 AM - 09:00 PM;Wednesday:10:00 AM - 09:00 PM;Thursday:10:00 AM - 09:00 PM;Friday:10:00 AM - 09:00 PM;Saturday:10:00 AM - 09:00 PM;Sunday:12:00 PM - 06:00 PM;,,0
Sharpstown Center,119,132 Sharpstown Center,,Houston,TX,77036,United States,(713)771-0753,29.7052871,-95.5167248,Monday:10:00 AM - 09:00 PM;Tuesday:10:00 AM - 09:00 PM;Wednesday:10:00 AM - 09:00 PM;Thursday:10:00 AM - 09:00 PM;Friday:10:00 AM - 09:00 PM;Saturday:10:00 AM - 09:00 PM;Sunday:11:00 AM - 07:00 PM;,,0
West Oaks,78,1000 West Oaks Mall,,Houston,TX,77082,United States,(281)752-8719,29.734898,-95.647704,Monday:10:00 AM - 09:00 PM;Tuesday:10:00 AM - 09:00 PM;Wednesday:10:00 AM - 09:00 PM;Thursday:10:00 AM - 09:00 PM;Friday:10:00 AM - 09:00 PM;Saturday:10:00 AM - 09:00 PM;Sunday:12:00 PM - 06:00 PM;,,0
The Galleria,73,5135 West Alabama Road,,Houston,TX,77056,United States,(713)850-8637,29.737432,-95.463447,Monday:10:00 AM - 09:00 PM;Tuesday:10:00 AM - 09:00 PM;Wednesday:10:00 AM - 09:00 PM;Thursday:10:00 AM - 09:00 PM;Friday:10:00 AM - 09:00 PM;Saturday:10:00 AM - 09:00 PM;Sunday:11:00 AM - 07:00 PM;,,0
Memorial City Mall,94,900 Gessner Rd.,,Houston,TX,77024,United States,(713)467-7744,29.7791275,-95.544359,Monday:10:00 AM - 09:00 PM;Tuesday:10:00 AM - 09:00 PM;Wednesday:10:00 AM - 09:00 PM;Thursday:10:00 AM - 09:00 PM;Friday:10:00 AM - 09:00 PM;Saturday:10:00 AM - 09:00 PM;Sunday:11:00 AM - 07:00 PM;,,0
Baybrook Mall,85,500 Baybrook Mall,,Friendswood,TX,77546,United States,(281)218-6630,29.542113,-95.1487454,Monday:10:00 AM - 09:00 PM;Tuesday:10:00 AM - 09:00 PM;Wednesday:10:00 AM - 09:00 PM;Thursday:10:00 AM - 09:00 PM;Friday:10:00 AM - 09:00 PM;Saturday:10:00 AM - 09:00 PM;Sunday:12:00 PM - 06:00 PM;,,0
Cielo Vista Mall,24,8401 Gateway Blvd.,,El Paso,TX,79925,United States,(915)771-0026,31.7753257,-106.3791262,Monday:10:00 AM - 09:00 PM;Tuesday:10:00 AM - 09:00 PM;Wednesday:10:00 AM - 09:00 PM;Thursday:10:00 AM - 09:00 PM;Friday:10:00 AM - 09:00 PM;Saturday:10:00 AM - 09:00 PM;Sunday:12:00 PM - 06:00 PM;,,0
Galleria Dallas,113,13350 Dallas Parkway,,Dallas,TX,75240,United States,(972)385-9827,32.928493,-96.820319,Monday:10:00 AM - 09:00 PM;Tuesday:10:00 AM - 09:00 PM;Wednesday:10:00 AM - 09:00 PM;Thursday:10:00 AM - 09:00 PM;Friday:10:00 AM - 09:00 PM;Saturday:10:00 AM - 09:00 PM;Sunday:12:00 PM - 06:00 PM;,,0
The Parks @ Arlington,121,3811 S. Cooper Street #1096,,Arlington,TX,76015,United States,(817)375-0063,32.6819863,-97.1311997,Monday:10:00 AM - 09:00 PM;Tuesday:10:00 AM - 09:00 PM;Wednesday:10:00 AM - 09:00 PM;Thursday:10:00 AM - 09:00 PM;Friday:10:00 AM - 09:00 PM;Saturday:10:00 AM - 09:00 PM;:;,,0
SouthLand Mall,132,1215 SouthLand Mall,,Memphis,TN,38115,United States,(901) 348-0076,35.0192274,-90.0231701,Monday:10:00 AM - 09:00 PM;Tuesday:10:00 AM - 09:00 PM;Wednesday:10:00 AM - 09:00 PM;Thursday:10:00 AM - 09:00 PM;Friday:10:00 AM - 09:00 PM;Saturday:10:00 AM - 09:00 PM;Sunday:12:00 PM - 06:00 PM;,,0
MLK,133,5020 NE Martin Luther King Jr Blvd,,Portland,OR,97232,United States,(503) 284-6395,45.55942,-122.661126,,,0
Lloyd Center,120,1226 Lloyd Center,,Portland,OR,97232,United States,(503) 284-1873,45.5316593,-122.6546148,Monday:10:00 AM - 09:00 PM;Tuesday:10:00 AM - 09:00 PM;Wednesday:10:00 AM - 09:00 PM;Thursday:10:00 AM - 09:00 PM;Friday:10:00 AM - 09:00 PM;Saturday:10:00 AM - 09:00 PM;Sunday:11:00 AM - 06:00 PM;,,0
Coronado Mall,10,6600 Menaul NE,,Albuquerque,NM,87110,United States,(505)872-2048,35.1077682,-106.5713319,Monday:10:00 AM - 09:00 PM;Tuesday:10:00 AM - 09:00 PM;Wednesday:10:00 AM - 09:00 PM;Thursday:10:00 AM - 09:00 PM;Friday:10:00 AM - 09:00 PM;Saturday:10:00 AM - 09:00 PM;Sunday:12:00 PM - 06:00 PM;,,0
Cottonwood Mall,101,10000 Coors Blvd BSP NW,,Albuquerque,NM,87114,United States,(505)898-4900,35.1959655,-106.6586274,Monday:10:00 AM - 09:00 PM;Tuesday:10:00 AM - 09:00 PM;Wednesday:10:00 AM - 09:00 PM;Thursday:10:00 AM - 09:00 PM;Friday:10:00 AM - 09:00 PM;Saturday:10:00 AM - 09:00 PM;Sunday:11:00 AM - 06:00 PM;,,0
Town Square Mall,131,6671 Las Vegas Blvd South A-133,,Las Vegas,NV,60629,United States,(702) 617-0236,36.0694857,-115.17225589,Monday:10:00 AM - 07:00 PM;Tuesday:10:00 AM - 07:00 PM;Wednesday:10:00 AM - 07:00 PM;Thursday:10:00 AM - 07:00 PM;Friday:10:00 AM - 07:00 PM;Saturday:10:00 AM - 07:00 PM;Sunday:11:00 AM - 05:00 PM;,,0
LV Flagship,92,3582 S. Maryland Parkaway,,Las Vegas,NV,89169,United States,(702)796-8881,36.1242135,-115.1372408,Monday:10:00 AM - 09:00 PM;Tuesday:10:00 AM - 09:00 PM;Wednesday:10:00 AM - 09:00 PM;Thursday:10:00 AM - 09:00 PM;Friday:10:00 AM - 09:00 PM;Saturday:10:00 AM - 09:00 PM;Sunday:11:00 AM - 07:00 PM;,,0
Fashion Show Mall,51,3200 S. Las Vegas Blvd. Suite 2450,,Las Vegas,NV,89109,United States,(702)369-9911,36.1275236,-115.1715003,,,0
Meadows Mall,61,4300 Meadows Lane,,Las Vegas,NV,89107,United States,(702)413-0330,36.1725319,-115.197258,Monday:10:00 AM - 09:00 PM;Tuesday:10:00 AM - 09:00 PM;Wednesday:10:00 AM - 09:00 PM;Thursday:10:00 AM - 09:00 PM;Friday:10:00 AM - 09:00 PM;Saturday:10:00 AM - 09:00 PM;Sunday:10:00 AM - 06:00 PM;,,0
Galleria at Sunset,89,1300 Sunset Road,,Henderson,NV,89014,United States,(704)434-6331,36.0671229,-115.0428251,Monday:10:00 AM - 09:00 PM;Tuesday:10:00 AM - 09:00 PM;Wednesday:10:00 AM - 09:00 PM;Thursday:10:00 AM - 09:00 PM;Friday:10:00 AM - 09:00 PM;Saturday:10:00 AM - 09:00 PM;Sunday:11:00 AM - 06:00 PM;,,0
Eastland Center,142,18000 Vernier Rd. Ste 840,,Harper Woods,MI,48225,United States,(586)773-5317,42.4489974,-82.9358377,Monday:10:00 AM - 09:00 PM;Tuesday:10:00 AM - 09:00 PM;Wednesday:10:00 AM - 09:00 PM;Thursday:10:00 AM - 09:00 PM;Friday:10:00 AM - 09:00 PM;Saturday:10:00 AM - 09:00 PM;Sunday:12:00 PM - 05:00 PM;,,0
Ford City Mall,129,7601 S. Cicero Ave.,,Chicago,IL,60652,United States,(773) 581-7590,41.691318,-87.621367,Monday:10:00 AM - 07:00 PM;Tuesday:10:00 AM - 07:00 PM;Wednesday:10:00 AM - 07:00 PM;Thursday:10:00 AM - 07:00 PM;Friday:10:00 AM - 07:00 PM;Saturday:10:00 AM - 07:00 PM;Sunday:11:00 AM - 05:00 PM;,,0
River Oaks Center,123,96 River Oaks B-25,,Calumet City,IL,60409,United States,(708)832-2648,41.5957638,-87.5255613,Monday:10:00 AM - 09:00 PM;Tuesday:10:00 AM - 09:00 PM;Wednesday:10:00 AM - 09:00 PM;Thursday:10:00 AM - 09:00 PM;Friday:10:00 AM - 09:00 PM;Saturday:10:00 AM - 09:00 PM;Sunday:11:00 AM - 06:00 PM;,,0
WSF West Covina,107,454 Plaza Drive,,West Covina,CA,91790,United States,(626)962-7600,34.0717385,-117.9348938,Monday:10:00 AM - 09:00 PM;Tuesday:10:00 AM - 09:00 PM;Wednesday:10:00 AM - 09:00 PM;Thursday:10:00 AM - 09:00 PM;Friday:10:00 AM - 09:00 PM;Saturday:10:00 AM - 09:00 PM;Sunday:11:00 AM - 07:00 PM;,,0
Visalia,139,1100 S. Mooney Blvd.,,Visalia,CA,93277,United States,(559)740-0509,36.3209258,-119.3134051,Monday:10:00 AM - 08:00 PM;Tuesday:10:00 AM - 08:00 PM;Wednesday:10:00 AM - 08:00 PM;Thursday:10:00 AM - 08:00 PM;Friday:10:00 AM - 08:00 PM;Saturday:10:00 AM - 08:00 PM;Sunday:11:00 AM - 06:00 PM;,,0
Visalia Mall,32,2167 S. Mooney Blvd. Sp# 1440,,Visalia,CA,93277,United States,(559)741-9241,36.3113954,-119.3147092,,,0
Victorvalley Mall,82,14400 Bear Valley Rd.,,Victorville,CA,92392,United States,(760)962-9190,34.473356,-117.348231,Monday:10:00 AM - 09:00 PM;Tuesday:10:00 AM - 09:00 PM;Wednesday:10:00 AM - 09:00 PM;Thursday:10:00 AM - 09:00 PM;Friday:10:00 AM - 09:00 PM;Saturday:10:00 AM - 08:00 PM;Sunday:11:00 AM - 07:00 PM;,,0
Pacific View Mall,22,3301 E Main St.,,Ventura,CA,93003,United States,(805)650-1018,34.2684836,-119.2486555,Monday:10:00 AM - 09:00 PM;Tuesday:10:00 AM - 09:00 PM;Wednesday:10:00 AM - 09:00 PM;Thursday:10:00 AM - 09:00 PM;Friday:10:00 AM - 09:00 PM;Saturday:10:00 AM - 09:00 PM;Sunday:11:00 AM - 07:00 PM;,,0
Valencia Town Center,64,24201 W Valencia Blvd.,,Valencia,CA,91355,United States,(661)260-1201,34.4148336,-118.558459,Monday:10:00 AM - 09:00 PM;Tuesday:10:00 AM - 09:00 PM;Wednesday:10:00 AM - 09:00 PM;Thursday:10:00 AM - 09:00 PM;Friday:10:00 AM - 09:00 PM;Saturday:10:00 AM - 09:00 PM;Sunday:11:00 AM - 06:00 PM;,,0
West Valley Mall,20,3200 N Aglee Rd. #473,,Tracy,CA,95376,United States,(209)836-8913,37.7605343,-121.4589253,Monday:10:00 AM - 09:00 PM;Tuesday:10:00 AM - 09:00 PM;Wednesday:10:00 AM - 09:00 PM;Thursday:10:00 AM - 09:00 PM;Friday:10:00 AM - 09:00 PM;Saturday:10:00 AM - 09:00 PM;Sunday:12:00 PM - 07:00 PM;,,0
Del Amo Fashion Center Mall,12,21880 Hawthorne Blvd.,,Torrance,CA,90503,United States,(310)303-3144,33.8258072,-118.3513965,Monday:10:00 AM - 09:00 PM;Tuesday:10:00 AM - 09:00 PM;Wednesday:10:00 AM - 09:00 PM;Thursday:10:00 AM - 09:00 PM;Friday:10:00 AM - 09:00 PM;Saturday:10:00 AM - 08:00 PM;:;,,0
Weberstown Mall,45,4950 Pacific Ave.,,Stockton,CA,95207,United States,(209)477-2183,37.9933909,-121.3120424,Monday:10:00 AM - 09:00 PM;Tuesday:10:00 AM - 09:00 PM;Wednesday:10:00 AM - 09:00 PM;Thursday:10:00 AM - 09:00 PM;Friday:10:00 AM - 09:00 PM;Saturday:10:00 AM - 09:00 PM;Sunday:11:00 AM - 06:00 PM;,,0
Sherwood Mall,44,5308 Pacific Ave.,,Stockton,CA,95207,United States,(209)478-4830,37.9989377,-121.3137241,Monday:10:00 AM - 09:00 PM;Tuesday:10:00 AM - 09:00 PM;Wednesday:10:00 AM - 09:00 PM;Thursday:10:00 AM - 09:00 PM;Friday:10:00 AM - 09:00 PM;Saturday:10:00 AM - 09:00 PM;Sunday:11:00 AM - 06:00 PM;,,0
Sherwood Mall,8,5308 Pacific Ave.,,Stockton,CA,95207,United States,(209)474-8500,37.9989377,-121.3137241,Monday:10:00 AM - 09:00 PM;Tuesday:10:00 AM - 09:00 PM;Wednesday:10:00 AM - 09:00 PM;Thursday:10:00 AM - 09:00 PM;Friday:10:00 AM - 09:00 PM;Saturday:10:00 AM - 09:00 PM;Sunday:11:00 AM - 06:00 PM;,,0
Santa Rosa Plaza,19,1051 Santa Rosa Plaza,,Santa Rosa,CA,95401,United States,(707)542-6125,38.4404953,-122.7184525,Monday:10:00 AM - 09:00 PM;Tuesday:10:00 AM - 09:00 PM;Wednesday:10:00 AM - 09:00 PM;Thursday:10:00 AM - 09:00 PM;Friday:10:00 AM - 09:00 PM;Saturday:10:00 AM - 08:00 PM;Sunday:11:00 AM - 06:00 PM;,,0
WFS Valley Fair,40,2855 Stevens Creek Blvd.,,Santa Clara,CA,95050,United States,(408)243-1287,37.3256537,-121.9456201,Monday:10:00 AM - 09:30 PM;Tuesday:10:00 AM - 09:30 PM;Wednesday:10:00 AM - 09:30 PM;Thursday:10:00 AM - 09:30 PM;Friday:10:00 AM - 09:30 PM;Sunday:11:00 AM - 07:00 PM;:;,,0
WFS Main Place,50,2800 N Main St.,,Santa Ana,CA,92705,United States,(714)547-7318,33.7762004,-117.8690816,Monday:10:00 AM - 09:00 PM;Tuesday:10:00 AM - 09:00 PM;Wednesday:10:00 AM - 09:00 PM;Thursday:10:00 AM - 09:00 PM;Friday:10:00 AM - 09:00 PM;Saturday:10:00 AM - 08:00 PM;Sunday:11:00 AM - 07:00 PM;,,0
Northgate Mall,112,5800 Northgate Mall,,San Rafael,CA,94903,United States,(415)507-0870,38.0030032,-122.5446986,Monday:10:00 AM - 09:00 PM;Tuesday:10:00 AM - 09:00 PM;Wednesday:10:00 AM - 09:00 PM;Thursday:10:00 AM - 09:00 PM;Friday:10:00 AM - 09:00 PM;Saturday:10:00 AM - 09:00 PM;Sunday:11:00 AM - 06:00 PM;,,0
Bay Fair Mall,99,310 Bay Fair Mall,,San Leandro,CA,94578,United States,(510)278-8200,37.699327,-122.1290406,Monday:10:00 AM - 08:00 PM;Tuesday:10:00 AM - 08:00 PM;Wednesday:10:00 AM - 08:00 PM;Thursday:10:00 AM - 08:00 PM;Friday:10:00 PM - 09:00 PM;Saturday:10:00 AM - 09:00 PM;Sunday:11:00 AM - 06:00 PM;,,0
Mission Street,42,2627 Mission St.,,San Francisco,CA,94110,United States,(415)920-1760,37.3921118,-121.973711,Monday:10:00 AM - 07:00 PM;Tuesday:10:00 AM - 07:00 PM;Wednesday:10:00 AM - 07:00 PM;Thursday:10:00 AM - 07:00 PM;Friday:10:00 AM - 07:00 PM;Saturday:10:00 AM - 07:00 PM;Sunday:11:00 AM - 06:00 PM;,,0
SF Flagship,95,929 Market St.,,San Francisco,CA,94103,United States,(415)644-0920,37.78324,-122.408487,Monday:10:00 AM - 09:00 PM;Tuesday:10:00 AM - 09:00 PM;Wednesday:10:00 AM - 09:00 PM;Thursday:10:00 AM - 09:00 PM;Friday:10:00 AM - 09:00 PM;Saturday:10:00 AM - 09:00 PM;Sunday:11:00 AM - 07:00 PM;,,0
Gaslamp San Diego,35,953 Fifth Ave,,San Diego,CA,92101,United States,(619) 702-7701,32.71539,-117.15986,,,0
WFS Horton Plaza,46,324 Horton Plaza,,San Diego,CA,92101,United States,(619)744-9941,32.7137321,-117.1628013,Monday:10:00 AM - 09:00 PM;Tuesday:10:00 AM - 09:00 PM;Wednesday:10:00 AM - 09:00 PM;Thursday:10:00 AM - 09:00 PM;Friday:10:00 AM - 09:00 PM;Saturday:10:00 AM - 08:00 PM;Sunday:11:00 AM - 07:00 PM;,,0
Mission Valley,56,1640 Camino del Rio  N. #218,,San Diego,CA,92108,United States,(619)220-4940,32.7671318,-117.1486147,Monday:10:00 AM - 09:00 PM;Tuesday:10:00 AM - 09:00 PM;Wednesday:10:00 AM - 09:00 PM;Thursday:10:00 AM - 09:00 PM;Friday:10:00 AM - 09:00 PM;Saturday:10:00 AM - 09:00 PM;Sunday:11:00 AM - 07:00 PM;,,0
The Shops at Tanforan,102,"1150 El Camino Real, Space 115",,San Bruno,CA,94066,United States,(650)589-2114,37.6359,-122.4187981,Monday:10:00 AM - 09:00 PM;Tuesday:10:00 AM - 09:00 PM;Wednesday:10:00 AM - 09:00 PM;Thursday:10:00 AM - 09:00 PM;Friday:10:00 AM - 09:00 PM;Saturday:10:00 AM - 09:00 PM;Sunday:11:00 AM - 07:00 PM;,,0
Highland Plaza Outlet,400,1631 East Highland Ave. Suite C,,San Bernardino,CA,92404,United States,(909)381-7575,34.1346964,117.2511531,,,0
Highland Plaza,125,1631 East Highland Ave. ste. B,,San Bernardino,CA,92404,United States,(909)381-7575,34.1358417,-117.2266688,Monday:10:00 AM - 08:00 PM;Tuesday:10:00 AM - 08:00 PM;Wednesday:10:00 AM - 08:00 PM;Thursday:10:00 AM - 08:00 PM;Friday:10:00 AM - 08:00 PM;Saturday:10:00 AM - 08:00 PM;Sunday:11:00 AM - 07:00 PM;,,0
Inland Center,48,500 Inland Center Dr,,San Bernardino,CA,92408,United States,(909)383-7004,34.084612,-117.2974783,Monday:10:00 AM - 09:00 PM;Tuesday:10:00 AM - 09:00 PM;Wednesday:10:00 AM - 09:00 PM;Thursday:10:00 AM - 09:00 PM;Friday:10:00 AM - 09:00 PM;Saturday:10:00 AM - 08:00 PM;Sunday:11:00 AM - 07:00 PM;,,0
Northridge Mall,25,628 Northridge Mall,,Salinas,CA,93906,United States,(831)444-6310,36.7272444,-121.6397184,Monday:10:00 AM - 09:00 PM;Tuesday:10:00 AM - 09:00 PM;Wednesday:10:00 AM - 09:00 PM;Thursday:10:00 AM - 09:00 PM;Friday:10:00 AM - 09:00 PM;Saturday:10:00 AM - 09:00 PM;Sunday:11:00 AM - 07:00 PM;,,0
Arden Fair,36,1689 Arden Way,,Sacramento,CA,95815,United States,(916)923-9923,38.6015342,-121.4273544,Monday:10:00 AM - 09:00 PM;Tuesday:10:00 AM - 09:00 PM;Wednesday:10:00 AM - 09:00 PM;Thursday:10:00 AM - 09:00 PM;Friday:10:00 AM - 09:00 PM;Saturday:10:00 AM - 09:00 PM;Sunday:11:00 AM - 07:00 PM;,,0
Florin Mall,103,7215 Stockton Blvd.,,Sacramento,CA,95823,United States,(916)392-1461,38.49522,-121.4282319,Monday:10:00 AM - 08:00 PM;Tuesday:10:00 AM - 08:00 PM;Wednesday:10:00 AM - 08:00 PM;Thursday:10:00 AM - 08:00 PM;Friday:10:00 AM - 08:00 PM;Saturday:10:00 AM - 08:00 PM;Sunday:10:00 AM - 06:00 PM;,,0
Galleria at Tyler,52,2018 Galleria at Tyler,,Riverside,CA,92503,United States,(951)689-0120,33.7726842,-117.2295299,Monday:10:00 AM - 09:00 PM;Tuesday:10:00 AM - 09:00 PM;Wednesday:10:00 AM - 09:00 PM;Thursday:10:00 AM - 09:00 PM;Friday:10:00 AM - 09:00 PM;Saturday:10:00 AM - 09:00 PM;Sunday:11:00 AM - 07:00 PM;,,0
Hilltop Mall,16,1311 Hilltop Mall Rd. #C243,,Richmond,CA,94806,United States,(510)669-9317,37.980725,-122.328355,Monday:10:00 AM - 09:00 PM;Tuesday:10:00 AM - 09:00 PM;Wednesday:10:00 AM - 09:00 PM;Thursday:10:00 AM - 09:00 PM;Friday:10:00 AM - 09:00 PM;Saturday:10:00 AM - 09:00 PM;Sunday:11:00 AM - 06:00 PM;,,0
Hilltop Mall,3,1104 Hilltop Mall Rd. #A104,,Richmond,CA,94806,United States,(510)222-0300,37.9865163,-122.3377333,Monday:10:00 AM - 09:00 PM;Tuesday:10:00 AM - 09:00 PM;Wednesday:10:00 AM - 09:00 PM;Thursday:10:00 AM - 09:00 PM;Friday:10:00 AM - 09:00 PM;Saturday:10:00 AM - 09:00 PM;Sunday:11:00 AM - 06:00 PM;,,0
Galleria at South Bay,53,1815 Hawthorne Blvd.,,Redondo Beach,CA,90278,United States,(310)370-5334,33.8717496,-118.3545793,Monday:10:00 AM - 09:00 PM;Tuesday:10:00 AM - 09:00 PM;Wednesday:10:00 AM - 09:00 PM;Thursday:10:00 AM - 09:00 PM;Friday:10:00 AM - 09:00 PM;Saturday:10:00 AM - 08:00 PM;Sunday:11:00 AM - 07:00 PM;,,0
Antelope Valley Mall,57,1233 Rancho Vista Blvd.,,Palmdale,CA,93551,United States,(661)272-0578,34.6038198,-118.1530999,Monday:10:00 AM - 09:00 PM;Tuesday:10:00 AM - 09:00 PM;Wednesday:10:00 AM - 09:00 PM;Thursday:10:00 AM - 09:00 PM;Friday:10:00 AM - 09:00 PM;Saturday:10:00 AM - 08:00 PM;Sunday:11:00 AM - 06:00 PM;,,0
WFS Palm Desert,76,72840 Highway 111,,Palm Desert,CA,92260,United States,(760)341-8110,33.7216277,-116.3941345,Monday:10:00 AM - 08:00 PM;Tuesday:10:00 AM - 08:00 PM;Wednesday:10:00 AM - 08:00 PM;Thursday:10:00 AM - 08:00 PM;Friday:10:00 PM - 09:00 PM;Saturday:10:00 AM - 09:00 PM;Sunday:11:00 AM - 07:00 PM;,,0
Ontario Mills Mall,105,One Mills Circle,,Ontario,CA,91764,United States,(909)476-8330,34.0744272,-117.5505113,Monday:10:00 AM - 09:00 PM;Tuesday:10:00 AM - 09:00 PM;Wednesday:10:00 AM - 09:00 PM;Thursday:10:00 AM - 09:00 PM;Friday:10:00 AM - 09:00 PM;Saturday:10:00 AM - 09:00 PM;Sunday:11:00 AM - 08:00 PM;,,0
Oakland,98,3422 International Blvd,,Oakland,CA,94601,United States,(510)536-4571,37.7766637,-122.2232406,Monday:10:00 AM - 07:00 PM;Tuesday:10:00 AM - 07:00 PM;Wednesday:10:00 AM - 07:00 PM;Thursday:10:00 AM - 07:00 PM;Friday:10:00 AM - 07:00 PM;Saturday:10:00 AM - 07:00 PM;Sunday:11:00 AM - 06:00 PM;,,0
Eastmont Town Center,115,7200 Bancroft Ave.,,Oakland,CA,94605,United States,(510)568-3543,37.7671679,-122.1767049,Monday:10:00 AM - 08:00 PM;Tuesday:10:00 AM - 08:00 PM;Wednesday:10:00 AM - 08:00 PM;Thursday:10:00 AM - 08:00 PM;Friday:10:00 AM - 08:00 PM;Saturday:10:00 AM - 08:00 PM;Sunday:11:00 AM - 06:00 PM;,,0
Northridge Mall,79,9301 Tampa Ave. SP17,,Northridge,CA,91324,United States,(623)486-2048,33.6415373,-112.2264227,Monday:10:00 AM - 09:00 PM;Tuesday:10:00 AM - 09:00 PM;Wednesday:10:00 AM - 09:00 PM;Thursday:10:00 AM - 09:00 PM;Friday:10:00 AM - 09:00 PM;Saturday:10:00 AM - 09:00 PM;Sunday:11:00 AM - 06:00 PM;,,0
Northridge Fashion Center,59,9301 Tampa Ave.,,Northridge,CA,91324,United States,(818)775-0117,34.238952,-118.557074,Monday:10:00 AM - 09:00 PM;Tuesday:10:00 AM - 09:00 PM;Wednesday:10:00 AM - 09:00 PM;Thursday:10:00 AM - 09:00 PM;Friday:10:00 AM - 09:00 PM;Saturday:10:00 AM - 09:00 PM;Sunday:11:00 AM - 07:00 PM;,,0
Newpark Mall,6,1240 Newpark Mall,,Newark,CA,94560,United States,(510)494-9586,37.5239544,-121.9992388,Monday:10:00 AM - 09:00 PM;Tuesday:10:00 AM - 09:00 PM;Wednesday:10:00 AM - 09:00 PM;Thursday:10:00 AM - 09:00 PM;Friday:10:00 AM - 09:00 PM;Saturday:10:00 AM - 09:00 PM;Sunday:11:00 AM - 07:00 PM;,,0
Plaza Bonita,145,3030 Plaza Bonita,,National City,CA,91950,United States,(619) 472-9686,32.656186,-117.065741,Monday:10:00 AM - 09:00 PM;Tuesday:10:00 AM - 09:00 PM;Wednesday:10:00 AM - 09:00 PM;Thursday:10:00 AM - 09:00 PM;Friday:10:00 AM - 09:00 PM;Saturday:10:00 AM - 09:00 PM;Sunday:11:00 AM - 07:00 PM;,,0
Moreno Valley Mall,29,22500 Towngate Cir.,,Moreno Valley,CA,92553,United States,(951)653-2196,33.9387359,-117.2713013,Monday:10:00 AM - 09:00 PM;Tuesday:10:00 AM - 09:00 PM;Wednesday:10:00 AM - 09:00 PM;Thursday:10:00 AM - 09:00 PM;Friday:10:00 AM - 09:00 PM;Saturday:10:00 AM - 09:00 PM;Sunday:11:00 AM - 07:00 PM;,,0
The Shops at Montebello,146,2056 Montebello Town Center,,Montebello,CA,90640,United States,(323)720-9107,33.9837816,-118.1221296,Monday:10:00 AM - 09:00 PM;Tuesday:10:00 AM - 09:00 PM;Wednesday:10:00 AM - 09:00 PM;Thursday:10:00 AM - 09:00 PM;Friday:10:00 AM - 09:00 PM;Saturday:10:00 AM - 09:00 PM;Sunday:11:00 AM - 07:00 PM;,,0
Montclair Plaza,49,5010 E Montclair Plaza Ln,,Montclair,CA,91763,United States,(909)230-6620,34.1217539,-118.0350645,Monday:10:00 AM - 09:00 PM;Tuesday:10:00 AM - 09:00 PM;Wednesday:10:00 AM - 09:00 PM;Thursday:10:00 AM - 09:00 PM;Friday:10:00 AM - 09:00 PM;Saturday:10:00 AM - 09:00 PM;Sunday:11:00 AM - 07:00 PM;,,0
Vintage Faire Mall,91,"3401 Dale Rd, Suite R06",,Modesto,CA,95356,United States,(209)578-0497,37.6899304,-121.0503851,Monday:10:00 AM - 09:00 PM;Tuesday:10:00 AM - 09:00 PM;Wednesday:10:00 AM - 09:00 PM;Thursday:10:00 AM - 09:00 PM;Friday:10:00 AM - 09:00 PM;Saturday:10:00 AM - 09:00 PM;Sunday:11:00 AM - 07:00 PM;,,0
Great Mall of Bay Area,26,447 Great Mall Dr. Space #168,,Milpitas,CA,95035,United States,(408)935-8645,37.4153208,-121.8941676,Monday:10:00 AM - 09:00 PM;Tuesday:10:00 AM - 09:00 PM;Wednesday:10:00 AM - 09:00 PM;Thursday:10:00 AM - 09:00 PM;Friday:10:00 AM - 09:00 PM;Saturday:10:00 AM - 09:00 PM;Sunday:11:00 AM - 08:00 PM;,,0
Merced Mall,39,740 Merced Mall,,Merced,CA,95340,United States,(209)384-8716,37.320958,-120.482977,Monday:10:00 AM - 09:00 PM;Tuesday:10:00 AM - 09:00 PM;Wednesday:10:00 AM - 09:00 PM;Thursday:10:00 AM - 09:00 PM;Friday:10:00 AM - 09:00 PM;Saturday:10:00 AM - 09:00 PM;Sunday:11:00 AM - 06:00 PM;,,0
Vermont Ave,27,5851-5859 S. Vermont Avenue,,Los Angeles,CA,89119,United States,(909)624-7020,33.988004,-118.291768,Monday:10:00 AM - 08:30 PM;Tuesday:10:00 AM - 08:30 PM;Wednesday:10:00 AM - 08:30 PM;Thursday:10:00 AM - 08:30 PM;Friday:10:00 AM - 08:30 PM;Saturday:10:00 AM - 09:00 PM;Sunday:11:00 AM - 07:00 PM;,,0
Downtown L.A.,31,434 East Washington Blvd.,,Los Angeles,CA,90015,United States,(213)748-4488,34.0290371,-118.2604732,Monday:10:00 AM - 08:00 PM;Tuesday:10:00 AM - 08:00 PM;Wednesday:10:00 AM - 08:00 PM;Thursday:10:00 AM - 08:00 PM;Friday:10:00 AM - 08:00 PM;Saturday:10:00 AM - 08:00 PM;Sunday:11:00 AM - 07:00 PM;,,0
West Side Pavillion,77,10800 West Pico Blvd.,,Los Angeles,CA,90064,United States,(310)481-0334,34.0401391,-118.4274689,Monday:10:00 AM - 09:00 PM;Tuesday:10:00 AM - 09:00 PM;Wednesday:10:00 AM - 09:00 PM;Thursday:10:00 AM - 09:00 PM;Friday:10:00 AM - 09:00 PM;Saturday:10:00 AM - 08:00 PM;Sunday:11:00 AM - 06:00 PM;,,0
Imperial Highway,122,700 W. Imperial Highway,,Los Angeles,CA,90044,United States,(323)755-1612,33.9304538,-118.2874244,Monday:10:00 AM - 07:00 PM;Tuesday:10:00 AM - 07:00 PM;Wednesday:10:00 AM - 07:00 PM;Thursday:10:00 AM - 07:00 PM;Friday:10:00 AM - 07:00 PM;Saturday:10:00 AM - 07:00 PM;Sunday:11:00 AM - 06:00 PM;,,0
Hollywood Store,97,6544 Hollywood Blvd.,,Los Angeles,CA,90028,United States,(323) 467-7457,34.1014696,-118.3325867,Monday:10:00 AM - 09:00 PM;Tuesday:10:00 AM - 09:00 PM;Wednesday:10:00 AM - 09:00 PM;Thursday:10:00 AM - 09:00 PM;Friday:10:00 AM - 09:00 PM;Saturday:10:00 AM - 09:00 PM;Sunday:11:00 AM - 07:00 PM;,,0
Shiekh Legacy - Downtown LA,150,745 S. Broadway,,Los Angeles,CA,90014,United States,(213)622-0658,34.044377,-118.254661,,,0
Downtown LA,149,5025 W. Pico Blvd.,,Los Angeles,CA,90019,United States,(323) 965-7832,34.047883,-118.348111,,,0
Long Beach,148,248 Pine Avenue,,Long Beach,CA,90802,United States,(562) 983-1240,33.770485,-118.192392,,,0
Lakewood Mall,87,500 Lakewood Center Mall,,Lakewood,CA,90712,United States,(562)531-2936,33.85067,-118.13852,Monday:10:00 AM - 09:00 PM;Tuesday:10:00 AM - 09:00 PM;Wednesday:10:00 AM - 09:00 PM;Thursday:10:00 AM - 09:00 PM;Friday:10:00 AM - 09:00 PM;Saturday:10:00 AM - 08:00 PM;Sunday:11:00 AM - 07:00 PM;,,0
Huntington Park,100,6805 Pacific Blvd,,Huntington Park,CA,90255,United States,(323)585-7549,33.9777267,-118.2256266,Monday:10:00 AM - 08:00 PM;Tuesday:10:00 AM - 08:00 PM;Wednesday:10:00 AM - 08:00 PM;Thursday:10:00 AM - 08:00 PM;Friday:10:00 AM - 08:00 PM;Saturday:10:00 AM - 08:00 PM;Sunday:10:00 AM - 07:00 PM;,,0
Los Cerritos Center,116,150 Los Cerritos Center,,Cerritos,CA,90703,United States,(562)860-4414,33.8636682,-118.094569,Monday:10:00 AM - 09:00 PM;Tuesday:10:00 AM - 09:00 PM;Wednesday:10:00 AM - 09:00 PM;Thursday:10:00 AM - 09:00 PM;Friday:10:00 AM - 09:00 PM;Saturday:10:00 AM - 08:00 PM;Sunday:11:00 AM - 07:00 PM;,,0
South Bay Pavillion,143,20700 Avalon Blvd. Ste 399,,Carson,CA,90746,United States,3103299670,33.8443174,-118.2617999,Monday:10:00 AM - 09:00 PM;Tuesday:10:00 AM - 09:00 PM;Wednesday:10:00 AM - 09:00 PM;Thursday:10:00 AM - 09:00 PM;Friday:10:00 AM - 09:00 PM;Saturday:10:00 AM - 08:00 PM;Sunday:11:00 AM - 07:00 PM;,,0
WFS Camino Real Plaza,41,"2525 El Camino Real, Suite 107",,Carlsbad,CA,92008,United States,(760)720-9169,33.1789992,-117.3262465,Monday:10:00 AM - 09:00 PM;Tuesday:10:00 AM - 09:00 PM;Wednesday:10:00 AM - 09:00 PM;Thursday:10:00 AM - 09:00 PM;Friday:10:00 AM - 09:00 PM;Saturday:10:00 AM - 08:00 PM;Sunday:11:00 AM - 06:30 PM;,,0
Capitola Mall,80,1855 41ST Ave.,,Capitola,CA,95010,United States,(831)464-8104,36.9771159,-121.9664482,Monday:10:00 AM - 09:00 PM;Tuesday:10:00 AM - 09:00 PM;Wednesday:10:00 AM - 09:00 PM;Thursday:10:00 AM - 09:00 PM;Friday:10:00 AM - 09:00 PM;Saturday:10:00 AM - 08:00 PM;Sunday:11:00 AM - 07:00 PM;,,0
Topanga Plaza,93,6600 Topanga Canyon Blvd,,Canoga Park,CA,91303,United States,(818)884-4437,34.1912027,-118.6024821,Monday:10:00 AM - 09:00 PM;Tuesday:10:00 AM - 09:00 PM;Wednesday:10:00 AM - 09:00 PM;Thursday:10:00 AM - 09:00 PM;Friday:10:00 AM - 09:00 PM;Saturday:10:00 AM - 09:00 PM;Sunday:11:00 AM - 07:00 PM;,,0
Burbank Town Center,104,201 East Magnolia,,Burbank,CA,91502,United States,(818)846-3304,34.1830712,-118.3117861,Monday:10:00 AM - 09:00 PM;Tuesday:10:00 AM - 09:00 PM;Wednesday:10:00 AM - 09:00 PM;Thursday:10:00 AM - 09:00 PM;Friday:10:00 AM - 09:00 PM;Saturday:10:00 AM - 08:00 PM;Sunday:11:00 AM - 07:00 PM;,,0
Telegraph Avenue,5,2328 Telegraph Avenue,,Berkeley,CA,94806,United States,(510)666-8942,37.8681687,-122.2592065,Monday:10:00 AM - 07:00 PM;Tuesday:10:00 AM - 07:00 PM;Wednesday:10:00 AM - 07:00 PM;Thursday:10:00 AM - 07:00 PM;Friday:10:00 AM - 07:00 PM;Saturday:10:00 AM - 07:00 PM;Sunday:10:00 AM - 06:00 PM;,,0
Crenshaw Plaza,33,3650 W. Martin Luther King Jr. Blvd.,,Baldwin Hills,CA,90008,United States,(323)298-4790,34.010309,-118.3379763,Monday:10:00 AM - 09:00 PM;Tuesday:10:00 AM - 09:00 PM;Wednesday:10:00 AM - 09:00 PM;Thursday:10:00 AM - 09:00 PM;Friday:10:00 AM - 09:00 PM;Saturday:10:00 AM - 08:00 PM;Sunday:11:00 AM - 06:00 PM;,,0
Valley Plaza,17,2701 Ming Ave.,,Bakersfield,CA,93304,United States,(661)836-1948,35.338236,-119.034423,Monday:10:00 AM - 09:00 PM;Tuesday:10:00 AM - 09:00 PM;Wednesday:10:00 AM - 09:00 PM;Thursday:10:00 AM - 09:00 PM;Friday:10:00 AM - 09:00 PM;Saturday:10:00 AM - 09:00 PM;Sunday:11:00 AM - 06:00 PM;,,0
Somersville Towne Center,15,2550 Somerville Rd. #65,,Antioch,CA,94509,United States,(925)756-2328,37.9998229,-121.8421403,Monday:10:00 AM - 09:00 PM;Tuesday:10:00 AM - 09:00 PM;Wednesday:10:00 AM - 09:00 PM;Thursday:10:00 AM - 09:00 PM;Friday:10:00 AM - 09:00 PM;Saturday:10:00 AM - 09:00 PM;Sunday:11:00 AM - 06:00 PM;,,0
Tucson Mall,84,4500 North Oracle Rd.,,Tucson,AZ,85705,United States,(520)888-3265,32.2905694,-110.972986,Monday:10:00 AM - 09:00 PM;Tuesday:10:00 AM - 09:00 PM;Wednesday:10:00 AM - 09:00 PM;Thursday:10:00 AM - 09:00 PM;Friday:10:00 AM - 09:00 PM;Saturday:10:00 AM - 09:00 PM;Sunday:12:00 PM - 06:00 PM;,,0
Park Place,83,5870 East Broadway Blvd.,,Tucson,AZ,85711,United States,(520)571-1185,32.2210487,-110.867677,Monday:10:00 AM - 09:00 PM;Tuesday:10:00 AM - 09:00 PM;Wednesday:10:00 AM - 09:00 PM;Thursday:10:00 AM - 09:00 PM;Friday:10:00 AM - 09:00 PM;Saturday:10:00 AM - 09:00 PM;Sunday:11:00 AM - 06:00 PM;,,0
Arizona Mills,75,5000 Arizona Mills Circle,,Tempe,AZ,85282,United States,(480)820-2099,33.383123,-111.964485,Monday:10:00 AM - 09:00 PM;Tuesday:10:00 AM - 09:00 PM;Wednesday:10:00 AM - 09:00 PM;Thursday:10:00 AM - 09:00 PM;Friday:10:00 AM - 09:00 PM;Saturday:10:00 AM - 09:00 PM;Sunday:11:00 AM - 06:00 PM;,,0
Scottsdale Fashion Square,72,7014 E. Camelback Road,,Scottsdale,AZ,85251,United States,(480)429-8898,33.5025088,-111.9290233,Monday:10:00 AM - 09:00 PM;Tuesday:10:00 AM - 09:00 PM;Wednesday:10:00 AM - 09:00 PM;Thursday:10:00 AM - 09:00 PM;Friday:10:00 AM - 09:00 PM;Saturday:10:00 AM - 09:00 PM;Sunday:11:00 AM - 06:00 PM;,,0
Desert Sky Mall,62,7611 W. Thomas Spc. F028,,Phoenix,AZ,85033,United States,(623) 849-8873,33.6104989,-117.7076521,Monday:10:00 AM - 09:00 PM;Tuesday:10:00 AM - 09:00 PM;Wednesday:10:00 AM - 09:00 PM;Thursday:10:00 AM - 09:00 PM;Friday:10:00 AM - 09:00 PM;Saturday:10:00 AM - 07:00 PM;Sunday:11:00 AM - 07:00 PM;,,0
Paradise Valley Mall,67,4568 E. Cactus Rd.,,Phoenix,AZ,85032,United States,(602)923-0835,33.6011167,-111.9834389,Monday:10:00 AM - 09:00 PM;Tuesday:10:00 AM - 09:00 PM;Wednesday:10:00 AM - 09:00 PM;Thursday:10:00 AM - 09:00 PM;Saturday:10:00 AM - 09:00 PM;Sunday:11:00 AM - 06:00 PM;:;,,0
Desert Sky Mall,68,7611 West Thomas Road,,Phoenix,AZ,85033,United States,(623)849-9264,33.4765,-112.224647,Monday:10:00 AM - 08:00 PM;Tuesday:10:00 AM - 08:00 PM;Wednesday:10:00 AM - 08:00 PM;Thursday:10:00 AM - 08:00 PM;Friday:10:00 AM - 08:00 PM;Saturday:10:00 AM - 08:00 PM;Sunday:11:00 AM - 09:00 PM;,,0
Metrocenter Mall,66,9617 N. Metro Parkway,,Phoenix,AZ,85051,United States,(602)331-9112,33.5756703,-112.1217839,Monday:10:00 AM - 09:00 PM;Tuesday:10:00 AM - 09:00 PM;Wednesday:10:00 AM - 09:00 PM;Thursday:10:00 AM - 09:00 PM;Friday:10:00 AM - 09:00 PM;Saturday:10:00 AM - 09:00 PM;Sunday:11:00 AM - 06:00 PM;,,0
Superstition Springs Center,69,6555 East Southern Ave.,,Mesa,AZ,85206,United States,(480)807-0783,33.390567,-111.6903269,Monday:10:00 AM - 09:00 PM;Tuesday:10:00 AM - 09:00 PM;Wednesday:10:00 AM - 09:00 PM;Thursday:10:00 AM - 09:00 PM;Friday:10:00 AM - 09:00 PM;Saturday:10:00 AM - 09:00 PM;Sunday:11:00 AM - 06:30 PM;,,0
