store_name,store_number,address,address2,city,state,zip_code,country,phone_number,latitude,longitude,store_hours,other_fields,coming_soon
MEIJER,1007076612,1770 WEST LANE RD,,MACHESNEY PARK,IL,61115,US,,42.3656830992344,-89.0190589620146,,,0
MEIJER,1007076496,2013 MCFARLAND RD,,RCOKFORD,IL,61107,US,,42.29045,-88.97774,,,0
MEIJER,1007076823,1900 E. COLLEGE AVE.,,NORMAL,IL,61761,US,,40.5103878571429,-88.9464085714286,,,0
MEIJER,1007076519,400 S. RANDALL ROAD,,ALGONQUIN,IL,60102,US,,42.1701918286555,-88.33526,,,0
MEIJER,1007076653,2253 N RICHMOND RD,,MCHENRY,IL,60050,US,,42.3594044295302,-88.2673065100671,,,0
MEIJER,1007076555,815 S. RANDALL RD.,,ELGIN,IL,60123,US,,42.0142899286982,-88.3362690892886,,,0
MEIJER,1007076550,855 S. RANDALL RD.,,ST. CHARLES,IL,60174,US,,41.9004083333333,-88.34024,,,0
MEIJER,1007076461,2700 ROUTE 34,,OSWEGO,IL,60543,US,,41.68273,-88.36814,,,0
MEIJER,1007077166,11111 W BURLEIGH ST,,WAUWATOSA,WI,53222,US,,43.0746363997013,-88.051320017426,,,0
MEIJER,1007077114,1600 N. PORT WASHINGTON RD,,GRAFTON,WI,53024,US,,43.3354299367528,-87.9254795981026,,,0
MEIJER,1007076808,808 N. ROUTE 59,,AURORA,IL,60504,US,,41.76758,-88.20591,,,0
MEIJER,1007076697,130 S. GARY AVE,,BLOOMINGDALE,IL,60108,US,,41.9532873684211,-88.1204957894737,,,0
MEIJER,1007076392,13521 S. ROUTE 59,,PLAINFIELD,IL,60544,US,,41.63337,-88.20282,,,0
MEIJER,1007076353,171 W. TOWN SQUARE WAY,,OAK CREEK,WI,53154,US,,42.88189,-87.90499,,,0
MEIJER,1007076647,225 N. NAPERVILLE ROAD,,BOLINGBROOK,IL,60440,US,,41.70845,-88.12727,,,0
MEIJER,1007076397,7701 GREEN BAY RD,,KENOSHA,WI,53142,US,,42.5643647474747,-87.8879828282828,,,0
MEIJER,1007076924,1301 MEIJER DRIVE,,ROLLING MEADOWS,IL,60008,US,,42.05137,-87.99655,,,0
MEIJER,1007076605,755 E BOUGHTON ROAD,,BOLINGBROOK,IL,60440,US,,41.7232033333333,-88.0385975,,,0
Timberland&reg<br> - Calhoun Square,1367713328,3001 Hennepin Ave,Suite 1170,Minneapolis,MN,55408,US,612-825-1142,44.94837,-93.2983,,,0
Timberland&reg<br>,238219673,245 Bellevue Square,Space D6U,Bellevue,WA,98004,US,425-453-4685,47.6160193641619,-122.201698381503,,,0
Timberland #335,672543834,20 City Boulevard West,Space 1425,Orange,CA,92868,US,,33.7848294,-117.8935314,,,0
Timberland&reg<br> - San Francisco Centre,1253297196,845 Market Street,Suite 145,San Francisco,CA,94103,US,415-777-5830,37.784695,-122.407163333333,,,0
Timberland&reg<br> - Woodfield,-176530202,L301 Woodfield Mall,,Schaumburg,IL,60173,US,847-619-6275,42.04937,-88.03944,,,0
BOOT BARN,350361931,727 N FEDERAL,,RIVERTON,WY,82501,US,,43.03084875,-108.38064,,,0
BOOT BARN,350361925,3510 EAST 2ND STREET,,CASPER,WY,82609,US,,42.8488506836854,-106.280170268495,,,0
SPORTSMANS WAREHOUSE,1428478787,4120 EAST 2ND STREET,,CASPER,WY,82609,US,3072333700,42.8489020408163,-106.274453877551,,,0
WYOMING WORK WAREHOUSE,1428475549,4330 EAST 2ND STREET,,CASPER,WY,82609,US,3072347044,42.8489521276596,-106.270398510638,,,0
WYOMING WORK WAREHOUSE,350363720,4330 EAST 2ND STREET,,CASPER,WY,82609,US,307-237-8011,42.8489521276596,-106.270398510638,,,0
MACYS,1428472682,501 WYOMING BOULEVARD,C/O MACYS CASPER,CASPER,WY,82609,US,3072359129,42.8461206031484,-106.269346438889,,,0
DICK'S SPORTING GOODS,-1155611212,ADDRESS TO FOLLOW,,CASPER,WY,82609,US,,42.83992,-106.27081,,,0
DICK'S SPORTING GOODS,350369159,EASTRIDGE MALL,601 Se Wyoming Blvd,CASPER,WY,82609,US,307-265-4266,42.84418,-106.26679,,,0
FOOT LOCKER,1428469334,601 SE WYOMING BOULEVARD,EASTRIDGE MALL,CASPER,WY,82609,US,3075775672,42.84418,-106.26679,,,0
JOURNEYS,1428468887,601 S E WYOMING ROAD,EASTRIDGE MALL,CASPER,WY,82609,US,3072349433,42.8460575,-106.2656422,,,0
FRANDSON SAFETY INC,350366722,1100 US HIGHWAY 16,,WORLAND,WY,82401,US,307-347-9430,44.0283796,-107.9542176,,,0
FRANDSON SAFETY,-1155615905,1100 US HIGHWAY 16,,WORLAND,WY,82401,US,,44.0283796,-107.9542176,,,0
KOYOTY SPORTS,1007071317,104 E BRIDGE AVE,(blank),SARATOGA,WY,82331,US,307-326-5551,41.4547808163265,-106.807625102041,,,0
SHIPTON'S BIG R SHERIDAN,350363927,2049 Sugarland Dr,,SHERIDAN,WY,82801-5747,US,307-674-6471,44.7754484592888,-106.939565058854,,,0
BOOT BARN,350361923,150 NORTH MAIN STREET,,SHERIDAN,WY,82801,US,,44.7988913793103,-106.955852758621,,,0
FOOT OF THE BIGHORNS,1428474770,171 NORTH MAIN STREET,SUITE B,SHERIDAN,WY,82801,US,3076737500,44.799172,-106.955847,,,0
BOOT BARN,350361899,1625 STAMPEDE DRIVE,,CODY,WY,82414,US,,44.51885,-109.055403684344,,,0
WAYNES BOOT SHOP,350365710,1250 SHERIDAN AVENUE,,CODY,WY,82414,US,307-587-5234,44.5260768398608,-109.063030213228,,,0
BOOT BARN,350361917,1683 SUNSET DRIVE,,ROCKY SPRING,WY,82901,US,,41.5764356085562,-109.254546085562,,,0
FOOT LOCKER,1428469542,2441 FOOTHILL BOULEVARD,WHITE MOUNTAIIN MALL,ROCK SPRINGS,WY,82901,US,3073827920,41.5794395918367,-109.26343755102,,,0
WYOMING WORK WAREHOUSE,1428475547,2400 CASCADE DRIVE,,ROCK SPRINGS,WY,82901,US,,41.57807,-109.26595,,,0
WYOMING WORK WAREHOUSE,350363710,2400 CASCADE DRIVE,,ROCK SPRINGS,WY,82901,US,307-362-2991,41.57807,-109.26595,,,0
WYOMING WORK WAREHOUSE,350363719,410 EAST LAKEWAY ROAD,,GILLETTE,WY,82718,US,307-682-5053,44.26908,-105.49733,,,0
WYOMING WORK WAREHOUSE,1428475548,410 EAST LAKEWAY ROAD,,GILLETTE,WY,82718,US,3076825053,44.26908,-105.49733,,,0
BOOT BARN,350361930,2610 S DOUGLAS HWY,,GILLETTE,WY,82718,US,,44.2710723529412,-105.494061764706,,,0
LINTON'S BIG R,350367632,455 SOUTH ABSAROKA ST,,POWELL,WY,82435,US,307-754-9521,44.7483461537182,-108.75901,,,0
BOOT BARN,350361898,158 NORTH THIRD,,LARAMIE,WY,82072,US,,41.3134703567267,-105.593350322765,,,0
DODDSCO INC,1007071286,401 S 2ND STREET,(blank),LARAMIE,WY,82070-3613,US,,41.31016,-105.595,,,0
DODDS BOOTERY,1428465647,401 SOUTH 2ND STREET,,LARAMIE,WY,82070,US,3077455455,41.31016,-105.595,,,0
BOOT BARN,350361949,840 WEST BROADWAY,,JACKSON,WY,83002,US,,43.4745174086443,-110.781057191717,,,0
HIBBETT SPORTING GOODS,-1155611150,1830 W VICTORY WAY,,CREAIG,CO,81625,US,,40.51414,-107.567945128205,,,0
THE WARDROBE COMPANY,1428473082,98 SOUTH MAIN,,DRIGGS,ID,83422,US,2083542234,43.72122,-111.11107,,,0
JOURNEYS,1428468542,1400 DELL RANGE BOULEVARD,FRONTIER MALL,CHEYENNE,WY,82009,US,3076351870,41.16031,-104.80639,,,0
DILLARDS,1428467780,1400 DELL RANGE BOULEVARD,FRONTIER MALL,CHEYENNE,WY,82009,US,3076322224,41.16031,-104.80639,,,0
DILLARDS,1428467796,1400 DELL RANGE BOULEVARD,FRONTIER MALL,CHEYENNE,WY,82009,US,3076322224,41.16031,-104.80639,,,0
THE SHOE CARNIVAL,1428472372,1400 DELL RANGE ROAD,FRONTIER MALL,CHEYENNE,WY,82009,US,,41.16031,-104.80639,,,0
TRADEHOME SHOES,1428470977,FRONTIER MALL,,CHEYENNE,WY,82009,US,3076346445,41.16028,-104.80125,,,0
BOOT BARN,350361897,4519 FRONTIER MALL DRIVE,,CHEYENNE,WY,82009,US,,41.1590647258216,-104.801353175346,,,0
BROWNS SHOE FIT CO,350361079,1802 DELL RANGE BOULEVARD,SUITE 1,CHEYENNE,WY,82009,US,307-632-6293,41.16024,-104.79687,,,0
BROWNS SHOE FIT,1428466064,1802 DELL RANGE BOULEVARD,SUITE 1,CHEYENNE,WY,82009,US,3076326293,41.16024,-104.79687,,,0
BOOT BARN,350361867,1518 CAPITAL AVENUE,,CHEYENNE,WY,82001,US,,41.13202125,-104.81482875,,,0
WYOMING WORK WAREHOUSE,350363711,3502 DELL RANGE BOULEVARD,,CHEYENNE,WY,82009-5445,US,307-432-9999,41.1600651546392,-104.766657319588,,,0
SPORTSMAN'S WAREHOUSE,-1155611314,3745 E LINCOLN WAY,,CHEYENNE,WY,82001,US,,41.1403990909091,-104.764247272727,,,0
SPORTSMANS WAREHOUSE,1428478798,3676 PIERCE PARKWAY,,BILLINGS,MT,59106,US,4065480000,45.7342177126985,-108.610463067407,,,0
SHIPTON'S BIG R WEST,350363770,2600 GABEL ROAD,,BILLINGS,MT,59102,US,406-652-9118,45.7464037373737,-108.581947272727,,,0
BILLINGS SCHEELS,-1155615405,1121 SHILOH CROSSING BLVD,,BILLINGS,MT,59102,US,,45.7511978787879,-108.61576,,,0
THE SHOE CARNIVAL,1428472373,909 SHILOH CROSSING,SHILOH CROSSING,BILLINGS,MT,59102,US,,45.7536408191869,-108.615734038066,,,0
BOOT BARN,350361959,327 S 24TH STREET WEST,SUITE 1,BILLINGS,MT,59102,US,,45.76346,-108.57624,,,0
DILLARDS,1428467774,320 S 24TH STREET WEST,RIMROCK MALL,BILLINGS,MT,59102,US,4066560100,45.76357625,-108.57624,,,0
FOOT LOCKER,1428469511,300 SOUTH 24TH STREET W,RIMROCK MALL,BILLINGS,MT,59102,US,4066521744,45.76468,-108.57624,,,0
BILLINGS RIMROCK SCHEELS,-1155615434,300 SOUTH 24TH STREET,WEST E100,BILLINGS,MT,59102,US,,45.78021,-108.49666,,,0
BILLINGS ARMY NAVY SURPLUS STORE,350368142,10 N 29TH ST,,BILLINGS,MT,59101-2138,US,406-259-8528,45.7807091666667,-108.506229166667,,,0
ALS BOOTERY,350365770,1820 1ST AVENUE NORTH,,BILLINGS,MT,59101,US,406-245-4827,45.7879016326531,-108.493756938776,,,0
SHIPTON'S BIG R EAST,350363923,216 N 14TH STREET,,BILLINGS,MT,59101,US,406-252-0503,45.7913820408163,-108.489560408163,,,0
SHIPTON'S BIG R HEIGHTS,350367682,1908 MAIN STREET,,BILLINGS,MT,59105,US,406-384-0099,45.8335755102041,-108.471146122449,,,0
BOOT BARN,350367438,1991 W Hwy 40,,Vernal,UT,84078,US,,40.4383705882353,-109.566188235294,,,0
JAX OUTDOOR GEAR 01,-1155611338,1200 NORTH COLLEGE AVENUE,,FORT COLLINS,CO,80524,US,,40.6026017857143,-105.076603214286,,,0
JAX OUTDOOR,350369686,1200 N COLLEGE AVE,,FORT COLLINS,CO,80524,US,970-488-3250,40.6026017857143,-105.076603214286,,,0
JAX,1428470382,1200 NORTH COLLEGE AVENUE,,FORT COLLINS,CO,80524,US,9702210544,40.6026017857143,-105.076603214286,,,0
FOOT LOCKER,1428470081,215 E FOOTHILLS PARKWAY,FOOTHILLS FASHION MALL,FORT COLLINS,CO,80525,US,9702233082,40.5433016129032,-105.075994677419,,,0
JOURNEYS,1428468525,215 E FOOTHILLS PARKWAY,FOOTHILLS FASHION MALL,FORT COLLINS,CO,80525,US,9703773886,40.5433016129032,-105.075994677419,,,0
MACYS,1428472622,225 E FOOTHILLS PARKWAY,,FORT COLLINS,CO,80525,US,,40.5433,-105.07591,,,0
BROWNS SHOE FIT,1428466073,3500 SOUTH COLLEGE AVENUE,THE SQUARE,FORT COLLINS,CO,80525,US,9702261776,40.539531884058,-105.077,,,0
REI,1428465911,4025 SOUTH COLLEGE AVENUE,,FORT COLLINS,CO,80525,US,9702230123,40.5313412987013,-105.077163506494,,,0
BOOT BARN,350362215,2431 E. COLORADO BLVD.,,SPEARFISH,SD,57783,US,,44.4763040785951,-103.817599178013,,,0
THE SHOE CARNIVAL,1428472236,4354 SOUTH COLLEGE AVENUE,PAVILION SHOPPING CENTER,FORT COLLINS,CO,80525,US,9703773352,40.5271708163265,-105.076981020408,,,0
BOOT BARN,350362004,4414 SOUTH COLLEGE AVENUE,,FORT COLLINS,CO,80525,US,,40.5258485714286,-105.07699,,,0
BOOT BARN,350361932,1850 HARRISON BLVD,,EVANSTAN,WY,82930,US,,41.2639702040816,-110.975806326531,,,0
BROWNS SHOE FIT CO,350361099,1720 BROADWAY,,SCOTTSBLUFF,NE,69361,US,308-632-6665,41.8634440816327,-103.662757959184,,,0
BROWNS SHOE FIT,1428466066,1720 BROADWAY,,SCOTTSBLUFF,NE,69361,US,3086326665,41.8634440816327,-103.662757959184,,,0
TRADEHOME SHOES,1428471039,FOOTHILLS FASHION MALL,,FORT COLLINS,CO,80525,US,9702828907,40.52661,-105.0528,,,0
HIBBETT SPORTING GOODS,-1155611145,EAST VILLAGE S/C,1508 E 20TH STREET STE B,SCOTTSBLUFF,NE,69361,US,,41.8667908080808,-103.64429979798,,,0
"JAX OUTDOOR GEAR, R&H 04",-1155611335,950 EAST EISENHOWER,,LOVELAND,CO,80537,US,,40.407259787234,-105.063900425532,,,0
JAX OUTDOOR,350369690,950 E. Eisenhower Blvd,,LOVELAND,CO,80537,US,970-776-4540,40.407259787234,-105.063900425532,,,0
JAX INC,-1155616178,950E EISENHOWER,,LOVELAND,CO,80537,US,9707764540,40.407259787234,-105.063900425532,,,0
JAX OF LOVELAND,1428470385,950 E EISENHOWER,,LOVELAND,CO,80537,US,9707764540,40.407259787234,-105.063900425532,,,0
THE SHOE CARNIVAL,1428472330,1651 FALL RIVER DRIVE,MARKETPLACE AT CENTERRA,LOVELAND,CO,80538,US,9706631216,40.4099114285714,-105.007084693878,,,0
WHITESIDES,350369704,202 SE 19TH STREET,,LOVELAND,CO,80537,US,970-669-7808,40.3724553125,-105.075710625,,,0
SPORTSMANS WAREHOUSE,1428478776,1675 ROCKY MOUNTAIN AVE,,LOVELAND,CO,80538,US,9704615000,40.4090428750214,-105.002385500007,,,0
MACYS,1428472625,5995 SKY POND DRIVE,,LOVELAND,CO,80538,US,,40.4106058658196,-104.98905071169,,,0
DICKS SPORTING GOODS,1428465300,5975 SKY POND DRIVE,,LOVELAND,CO,80537,US,9704619762,40.4105666362931,-104.988772725862,,,0
THE SHOE CARNIVAL,1428472312,3033 SOUTH 25TH STREET E,TETON SPECTRUM S/C,AMMON,ID,83406,US,2085231118,43.4703862674308,-111.984397398458,,,0
SPORTSMANS WAREHOUSE,1428478775,2909 SOUTH 25TH EAST,,IDAHO FALLS,ID,83405,US,2085421900,43.471438083613,-111.9844176188,,,0
CHAMPS,-1155610840,RUSHMORE MALL,2200 N MAPLE AVE,RAPID CITY,SD,57701,US,,44.06755,-103.27847,,,0
JOURNEYS,1428468555,RUSHMORE MALL,,RAPID CITY,SD,57704,US,,44.06755,-103.27847,,,0
TRADEHOME SHOES,1428471031,RUSHMORE MALL,,RAPID CITY,SD,57701,US,6053438911,44.06755,-103.27847,,,0
BOOT BARN,350362233,1951 SOUTH 25TH EAST,,AMMON,ID,83406,US,,43.480137253886,-111.984494145078,,,0
DILLARDS,1428467771,2420 EAST 17TH STREET,GRAND TETON MALL,IDAHO FALLS,ID,83404,US,2085254000,43.4821073684211,-111.985575789474,,,0
JOURNEYS,1428468624,2300 EAST 17TH STREET,1179 GRAND TETON MALL,IDAHO FALLS,ID,83404,US,2085255294,43.48219,-111.98853,,,0
FOOT LOCKER,1428470094,2300 EAST 17TH STREET,GRAND TETON MALL,IDAHO FALLS,ID,83404,US,2085237967,43.48219,-111.98853,,,0
WORK WEAR HOUSE,350363639,2273 EAST 17TH STREET,,IDAHO FALLS,ID,83404,US,208-528-9470,43.4821968421053,-111.988833333333,,,0
WORK WEAR HOUSE,1428475228,2273 EAST 17TH STREET,,IDAHO FALLS,ID,83404,US,2085289470,43.4821968421053,-111.988833333333,,,0
MACYS,1428472685,2240 EAST 17TH STREET,GRAND TETON MALL,IDAHO FALLS,MT,83404,US,2085220810,43.4822255102041,-111.990104285714,,,0
VICKERS WESTERN STORE,1007071327,2665 NORTH HOLMES AVENUE,,IDAHO FALLS,ID,83401,US,,43.5197664044944,-112.023551910112,,,0
GARRETSONS SPORT CENTER,1428479202,3817 W 10TH STREET,,GREELEY,CO,80634,US,9703538068,40.4225,-104.74263,,,0
FOOT LOCKER,1428469365,2200 N MAPLE AVENUE,RUSHMORE MALL,RAPID CITY,SD,57701,US,6053480375,44.10696,-103.20798,,,0
BOOT BARN,350367182,1183 EGLIN STREET,,RAPID CITY,SD,57701,US,,44.1020660891979,-103.192050184653,,,0
RAPID CITY SCHEELS,-1155615409,1225 EGLIN STREET,,RAPID CITY,SD,57701,US,,44.1017759276774,-103.191321936132,,,0
BOOT BARN,350362235,2651 WEST 29TH STREET,,GREELEY,CO,80631,US,,40.3911743167956,-104.723700009115,,,0
THE SHOE CARNIVAL,1428472340,1623 EGLIN STREET,RUSHMORE CROSSING,RAPID CITY,SD,57701,US,6053421074,44.0984717617599,-103.184795874747,,,0
FOOTWEAR OUTFITTERS,350368127,3202 S 25 E,,IDAHO FALLS,ID,83404-4944,US,208-522-9545,43.62885,-112.0625,,,0
FASHION HUB INC,-1155615734,3000 23RD AVE #5-8,,GREELY,CO,80631,US,,40.38842,-104.71579,,,0
SEARS,350356798,2800 GREELEY MALL,,GREELEY,CO,80631,US,,40.39193,-104.70646,,,0
FOOT LOCKER,1428470077,1915 GREELEY MALL,GREELEY MALL,GREELEY,CO,80631,US,9703564152,40.3904957142857,-104.708834285714,,,0
JOURNEYS,1428468897,1995 GREELEY MALL,,GREELEY,CO,80631,US,9703529030,40.3896712244898,-104.70885877551,,,0
THE FINISH LINE,1428468297,2022 GREELEY MALL,SPACE 44,GREELEY,CO,80631,US,9703566915,40.3894826342317,-104.70906670721,,,0
WHITESIDES BOOTS & CLOTHING,350369699,2017 2ND AVE,,Greeley,CO,80631-7201,US,303-637-9775,40.4053385264897,-104.680275839014,,,0
BROWNS SHOE FIT,1428466015,373 MAIN STREET,,LONGMONT,CO,80501,US,3037762920,40.1652836666667,-105.10254,,,0
BROWNS SHOE FIT,350369673,373 MAIN STREET,,LONGMONT,CO,80501,US,303-776-2920,40.1652836666667,-105.10254,,,0
BROWNS SHOE FIT #15,1007070936,373 MAIN STREET,(blank),LONGMONT,CO,80501,US,,40.1652836666667,-105.10254,,,0
FOOT LOCKER,1428470090,1250 SOUTH HOVER STREET,TWIN PEAKS MALL,LONGMONT,CO,80501,US,3034857772,40.14606,-105.13073,,,0
DILLARDS,1428467794,1250 SOUTH HOVER ROAD,TWIN PEAKS MALL,LONGMONT,CO,80501,US,3036511600,40.14606,-105.13073,,,0
JOURNEYS,1428468357,1250 S HOVER STREET,TWIN PEAKS MALL,LONGMONT,CO,80501,US,3036787560,40.14606,-105.13073,,,0
BOOT BARN,350367676,1268 S HOVER RD,,LONGMONT,CO,80501-7902,US,,40.1440555462185,-105.130741344538,,,0
SMITHFIELD IMPLEMENT CO,1428475542,99 MAIN STREET,,SMITHFIELD,UT,84335,US,4355633444,41.83442,-111.83275,,,0
Smithfield Implements,350369802,99 MAIN STREET,,SMITHFIELD,UT,84335,US,435-563-3211,41.83442,-111.83275,,,0
DICKS SPORTING GOODS,1428465344,210 KEN PRATT BOULEVARD,SUITE 120,LONGMONT,CO,80501,US,3036825740,40.15359,-105.097081020408,,,0
SPORTSMAN'S WAREHOUSE,-1155611313,99 E 1400 N,,LOGAN,UT,84341,US,,41.75751,-111.83173,,,0
ALS SPORTING GOODS,1428474841,1617 NORTH MAIN,,LOGAN,UT,84341,US,4357527247,41.761045,-111.83432,,,0
THE SHOE CARNIVAL,1428472335,"""1475 N MAIN ST, STE 130""",MAIN STREET MARKETPLACE,LOGAN,UT,84341,US,4357521818,41.758812957613,-111.834360771187,,,0
DILLARDS,1428467764,1350 NORTH MAIN,CACHE VALLEY MALL,LOGAN,UT,84341,US,4357507500,41.75651,-111.83441,,,0
FOOT LOCKER,1428470112,1300 NORTH MAIN STREET,CACHE VALLEY MALL,LOGAN,UT,84341,US,4357871213,41.7554429268293,-111.834421463415,,,0
JOURNEYS,1428468625,1300 NORTH MAIN STREET,1112 CACHE VALLEY MALL,LOGAN,UT,84341,US,4357538905,41.7554429268293,-111.834421463415,,,0
SHOE FLY,1428479065,947 PEARL STREET,,BOULDER,CO,80302,US,3034437463,40.0172179591837,-105.283231428571,,,0
MACYS,1428472623,1900 29TH STREET,,BOULDER,CO,80303,US,,40.02074,-105.25637,,,0
REI,1428465906,1789 28TH STREET,,BOULDER,CO,80301,US,3035839970,40.0183751012061,-105.258464684146,,,0
THE FINISH LINE,1428468252,1700 28TH STREET,CROSSROADS MALL,BOULDER,CO,80301,US,3034139122,40.017504448577,-105.25827,,,0
BOOT BARN,350362064,51027 HWY 6 & 24,SUITE 200,GLENWOOD SPRINGS,CO,81601,US,,39.5551144,-107.3455703,,,0
TREADZ,1428479107,812 GRAND AVENUE,,GLENWOOD SPRINGS,CO,81601,US,9709280620,39.5465308163265,-107.324757346939,,,0
CAMP SAVER LLC,-1155615704,2280 S HERITAGE DR,,NIBLEY,UT,84321,US,,41.68956,-111.86627,,,0
FACTORY SURPLUS,1428475534,2828 GLEN AVENUE,,GLENWOOD SPRINGS,CO,81601,US,3034427616,39.5232364705882,-107.321842470588,,,0
COLORADO OUTDOOR RTL GRP,1007071021,2828 GLEN AVENUE,(blank),GLENWOOD SPRINGS,CO,81601,US,,39.5232364705882,-107.321842470588,,,0
JAX OUTDOOR GEAR,350369689,900 US-287,,LAFAYETTE,CO,80026,US,720-266-6160,39.9894543124099,-105.098499788434,,,0
JAX MERCANTILE-LAFAYETTE,1428470387,900 SOUTH HIGHWAY 287,,LAFAYETTE,CO,80026,US,7202666160,39.9898058,-105.0972033,,,0
JAX OUTDOOR GEAR 05,-1155611334,900 S HIGHWAY 287,,LAFAYETTE,CO,80026,US,,39.9898058,-105.0972033,,,0
DOUBLE S SALES,1007071288,435 E 3320 N,(blank),Malad City,ID,83252-6116,US,,42.2320209936507,-112.23716509524,,,0
JOURNEYS,1428468576,1 WEST FLATIRON CIRCLE,FLATIRON CROSSING S/C,BROOMFIELD,CO,80021,US,7208873437,39.9299,-105.13091,,,0
FOOT LOCKER,1428470008,1 W FLATIRON CROSSING DR,FLATIRON CROSSING,BROOMFIELD,CO,80021,US,7208871121,39.9299,-105.13091,,,0
MACYS,1428472620,1 WEST FLATIRON CIRCLE,FLATIRON CROSSING S/C,BROOMFIELD,CO,80027,US,,39.9299,-105.13091,,,0
DILLARDS,1428467790,41 WEST FLATIRON CIRCLE,FLATIRON CROSSING,BROOMFIELD,CO,80021,US,3034643900,39.92893,-105.13277,,,0
NORDSTROM,1428465771,21 WEST FLATIRON CIR DR,FLATIRON CROSSING S/C,BROOMFIELD,CO,80021,US,7208870333,39.9292508879341,-105.131708638501,,,0
DICKS SPORTING GOODS,1428465419,31 WEST FLATIRON CIRCLE,,BROOMFIELD,CO,80021,US,7208870900,39.929051671493,-105.132141095023,,,0
REDMANS SHOES,350365292,308 BOX BUTTE AVENUE,,ALLIANCE,NE,69301,US,308-762-3303,42.0972157142857,-102.870721632653,,,0
REDMANS SHOES,1428477916,308 BOX BUTTE AVENUE,,ALLIANCE,NE,69301,US,3087623303,42.0972157142857,-102.870721632653,,,0
DICK'S SPORTING GOODS,350369365,FLATIRON CROSSING,31 West Flatiron Crossing Drive,BROOMFIELD,CO,80021,US,720-887-0900,39.92709,-105.13074,,,0
NORDSTROM,-1155615357,FLATIRON MARKETPLACE,130 E FLATIRON CROSSING,BROOMFIELD,CO,80021,US,,39.92915,-105.1256,,,0
DICKS SPORTING GOODS,1428465298,16521 WASHINGTON STREET,,THORNTON,CO,80602,US,3032806153,39.99549698253,-104.978086459452,,,0
SEARS,350353631,16395 WASHINGTON ST,,THORNTON,CO,80023,US,,39.99374,-104.97837,,,0
OFF BROADWAY,350352173,14458 DELAWARE ST,,BROOMFIELD,CO,80023-9194,US,,39.9724481208054,-104.992434161074,,,0
RACK ROOM SHOES,1428467404,14643 ORCHARD PKWY STE100,ORCHARD TOWN CENTER,WESTMINSTER,CO,80020,US,3034573908,39.9621414705882,-104.99362,,,0
MACYS,1428472628,14535 DELAWARE STREET,,WESTMINISTER,CO,80023,US,,39.9607706421496,-104.991513604959,,,0
OFF BROADWAY,1428465732,14458 DELAWARE STREET,SUITE 400,WESTMINSTER,CO,80023,US,,39.95971,-104.9915,,,0
VICKERS WESTERN STORE,350349575,1460 YELLOWSTONE AVENUE,,POCATELLO,ID,83201-4216,US,208-237-5700,42.9016797765209,-112.451359425379,,,0
DICK'S SPORTING GOODS,350369155,POCATELLO SQUARE,1844 Hurley Drive,POCATELLO,ID,83202,US,208-238-6002,42.87056,-112.44985,,,0
JAX OUTDOOR GEAR-RANCH & HOME,350369688,5005 W. 120th Ave,,Broomfield,CO,80020,US,3030-439-1000,39.9142396,-105.0501764,,,0
DICKS SPORTING GOODS,1428465461,1844 HURLEY DRIVE,POCATELLO SQUARE,POCATELLO,ID,83201,US,,42.9066037620328,-112.460594495187,,,0
THE SHOE CARNIVAL,1428472324,4150 YELLOWSTONE AVENUE,COBBLESTONE CREEK,POCATELLO,ID,83202,US,2082374016,42.908436791441,-112.46632,,,0
DILLARDS,1428467770,4235 YELLOWSTONE AVENUE,PINE RIDGE MALL,POCATELLO,ID,83202,US,2082384500,42.9099856756757,-112.46632,,,0
KIDS FOOT LOCKER,1428471891,4155 YELLOWSTONE HWY,PINE RIDGE MALL,CHUBUCK,ID,83202,US,,42.9084943926637,-112.46632,,,0
FOOT LOCKER,1428470084,4155 YELLOWSTONE HIGHWAY,PINE RIDGE MALL,CHUBBUCK,ID,83202,US,2082383091,42.9084943926637,-112.46632,,,0
BOOT BARN,350367189,14384 LINCOLN STREET,,THORNTON,CO,80023-9243,US,,39.92854,-104.98454,,,0
CHRISTENSENS,-1155616156,75 SOUTH MAIN,,BRIGHAM CITY,UT,84302,US,4357235551,41.5086808163265,-112.015810204082,,,0
WHITESIDES BOOTS & CLOTHING,350369697,855 BRIDGE STREET,,BRIGHTON,CO,80601,US,303-637-9774,39.98678,-104.8117325,,,0
THE SHOE CARNIVAL,1428472238,6825 WEST 88TH AVENUE,TOWNE CENTER AT BROOKHILL,WESTMINSTER,CO,80021,US,3034240847,39.8565976071675,-105.07434074845,,,0
T & C MENS CENTER,-1155615482,10602 MELODY DRIVE EAST,,NORTHGLENN,CO,80234,US,,39.8885671985422,-104.993260147613,,,0
UNDERGROUND STATION,1428466700,5503 WEST 88TH AVENUE,WESTMINSTER MALL,WESTMINSTER,CO,80030,US,3034876799,39.8565017995733,-105.059210980797,,,0
KIDS FOOT LOCKER,1428471766,5423 W 88TH AVENUE,WESTMINSTER MALL,WESTMINSTER,CO,80031,US,,39.8564965831401,-105.058822482606,,,0
FOOTACTION,1428477117,5403 WEST 88TH AVENUE,SPACE 44,WESTMINSTER,CO,80031,US,3034289791,39.8564955039368,-105.05872535431,,,0
JOURNEYS,1428468313,5403 WEST 88TH AVENUE,WESTMINSTER MALL,WESTMINSTER,CO,80031,US,3036506193,39.8564955039368,-105.05872535431,,,0
FOOT LOCKER,1428469363,5423 W 88TH AVENUE,WESTMINSTER MALL,WESTMINSTER,CO,80031,US,3034275607,39.8564965831401,-105.058822482606,,,0
DILLARDS,1428467789,5301 WEST 88TH AVENUE,WESTMINSTER MALL,WESTMINSTER,CO,80030,US,3034292000,39.85649,-105.05823,,,0
JANS MOUNTAIN OUTFITTER- OUTLET,-1155616198,138 WEST 280 SOUTH,,KAMAS,UT,84036,US,4357836791,40.638603877551,-111.283635102041,,,0
BOOT BARN,350367995,10300 BANNOCK ST,,Northglenn,CO,80260-6067,US,,39.8831896148169,-104.989784089932,,,0
GANDER MOUNTAIN,1428474705,9923 GRANT STREET,,THORNTON,CO,80229,US,3034508122,39.8764045248884,-104.983765505279,,,0
REVOLVER MENSWEAR,-1155615666,30 WEST MAIN STREET,,BOZEMAN,MT,59715,US,,45.6792970833333,-111.037664583333,,,0
SCHNEES BOOTS & SHOES,1428465648,121 WEST MAIN STREET,,BOZEMAN,MT,59715,US,4065870981,45.67929,-111.038985306122,,,0
INTERMOUNTAIN SAFETY SHOES,350369680,15400 WEST 44TH AVENUE,,GOLDEN,CO,80403,US,303-278-2871,39.77615,-105.17216,,,0
MNT GROUP LLC,350349593,15400 W 44TH AVENUE,,Golden,CO,80403-7226,US,303-278-2871,39.77615,-105.17216,,,0
DICKS SPORTING GOODS,1428465511,2269 PRAIRIE CENTER PKWY,,BRIGHTON,CO,80601,US,7206851701,39.9535090909091,-104.778971818182,,,0
SPORTSMANS WAREHOUSE,1428478781,11 WEST 84TH AVENUE,,THORNTON,CO,80260,US,3034286500,39.8489905050505,-104.987799494949,,,0
FOOT LOCKER,1428469804,2825 WEST MAIN,GALLATIN VALLEY MALL,BOZEMAN,MT,59715,US,4065875322,45.6720772616212,-111.075360936063,,,0
MACYS,1428472681,2825 WEST MAIN STREET,,BOZEMAN,MT,59718,US,4065856800,45.6720772616212,-111.075360936063,,,0
SUNDANCE SHOES,1428465649,2825 WEST MAIN #D-9,,BOZEMAN,MT,59718,US,4065874337,45.674028,-111.0773777,,,0
ARMY NAVY SURPLUS,350369710,7560 PECOS STREET,,DENVER,CO,80221,US,303-426-0488,39.8337232271153,-105.006096764458,,,0
ARVADA ARMY NAVY SURPLUS,1428476542,5701 OLDE WADSWORTH BLVD,,ARVADA,CO,80002,US,3034245434,39.80015,-105.08145,,,0
ARAVADA SURPLUS,-1155611354,5701 OLDE WADSWORTH BLVD,,ARAVADA,CO,80002,US,,39.80015,-105.08145,,,0
ARAVADA SURPLUS,350369705,5701 OLDE WADSWORTH BLVD,,ARAVADA,CO,80002,US,303-424-5434,39.80015,-105.08145,,,0
SPORTSMAN'S WAREHOUSE,-1155611330,2214 TSCHACHE LANE,,BOZEMAN,MT,297182008,US,,45.6966257756196,-111.062847590087,,,0
BOB WARD & SONS,350368466,3011 MAX AVE,,BOZEMAN,MT,59715,US,406-586-4381,45.7105583741648,-111.069039020045,,,0
OFF BROADWAY,1428465696,14500 WEST COLFAX AVENUE,,LAKEWOOD,CO,80401,US,,39.73481,-105.15964,,,0
OFF BROADWAY,350351190,14500 W COLFAX AVE UNIT 541,,LAKEWOOD,CO,80401-3241,US,,39.73481,-105.15964,,,0
FOOT LOCKER,1428469750,14500 WEST COLFAX AVENUE,COLORADO MILLS,LAKEWOOD,CO,80401,US,7204972710,39.73481,-105.15964,,,0
RACK ROOM SHOES,1428467423,14500 WEST COLFAX AVENUE,COLORADO MILLS,LAKEWOOD,CO,80401,US,3032786625,39.73481,-105.15964,,,0
JOURNEYS,1428468864,14503 WEST COLFAX,COLORADO MILLS,LAKEWOOD,CO,80401,US,3032791169,39.7328101849593,-105.163184537602,,,0
SCRUBS & BEYOND,1428478851,14500 W COLLINS AVE #538,COLORADO MILLS,LAKEWOOD,CO,80401,US,3035901666,39.73606,-105.15472,,,0
Smith & Edwards,350369801,3936 NORTH HIGHWAY 126,,OGDEN,UT,84404,US,801-731-1120,41.3322243243243,-112.035413783784,,,0
NEVES UNIFORMS INC,350369760,5120 OSAGE ST STE 200,,DENVER,CO,80221,US,303-455-7000,39.7892014285714,-105.00511,,,0
SEARS,350354275,10785 W COLFAX AVE,,LAKEWOOD,CO,80215,US,,39.7402607070707,-105.118836767677,,,0
A1 UNIFORMS,350369752,134 31st Street,,OGDEN,UT,84401,US,801-394-2229,41.2082345454545,-111.978054545455,,,0
IFA #3055,1007071012,1069 W 12TH ST,(blank),OGDEN,UT,84404,US,,41.2445984457694,-112.00545232254,,,0
JOURNEYS,1428468470,3651 WALL AVENUE,NEWGATE MALL,OGDEN,UT,84405,US,8016228814,41.197002244898,-111.979430408163,,,0
FOOT LOCKER,1428469248,1172 NEWGATE MALL,NEWGATE MALL,OGDEN,UT,84405,US,8016217410,41.19615,-111.979473935638,,,0
SEARS,350356111,1000 NEWGATE MALL,,OGDEN,UT,84405,US,,41.19615,-111.97945,,,0
DILLARDS,1428467766,4000 NEWGATE MALL,,OGDEN,UT,84405,US,8013920689,41.19615,-111.979867482061,,,0
REI,1428465883,1416 PLATTE STREET,,DENVER,CO,80202,US,3037563100,39.75571,-105.01026,,,0
COLESPORT INC,-1155615679,1615 PARK AVE,,PARK CITY,UT,84060,US,,40.6567440740741,-111.506627962963,,,0
JARMAN SHOE STORE,1428466762,7200 WEST ALAMEDA AVENUE,VILLA ITALIA S/C,LAKEWOOD,CO,80226,US,3039226090,39.71106,-105.07685,,,0
NORDSTROM,-1155615362,7501 W ALASKA DRIVE,,LAKEWOOD,CO,80226,US,,39.709224949495,-105.080563232323,,,0
SHOE CARNIVAL,350370048,7111 W. ALAMEDA AVENUE,,LAKEWOOD,CO,80226,US,,39.71107,-105.07503,,,0
PARK CITY CLOTHING,1428478063,558 MAIN STREET,,PARK CITY,UT,84060,US,4356490555,40.6450415412143,-111.496643847668,,,0
THE SHOE CARNIVAL,1428472260,7111 W ALAMEDA AVENUE,ALAMEDA VILLAGE S/C,LAKEWOOD,CO,80226,US,3032022761,39.71107,-105.07503,,,0
PROSPECT,1428478706,509 MAIN STREET,,PARK CITY,UT,84060,US,,40.64435067824,-111.496243780681,,,0
DICKS SPORTING GOODS,1428465444,7313 WEST ALASKA DRIVE,,LAKEWOOD,CO,80226,US,3036002600,39.7092217307692,-105.078433461538,,,0
FOOT LOCKER,1428469061,7273 WEST ALASKA DRIVE,BLEMAR SHOPPING CENTER,LAKEWOOD,CO,80226,US,,39.7092156521739,-105.077879565217,,,0
SOLE STREET SHOES,1428478045,716 16TH STREET,UNIT 1,DENVER,CO,80202,US,3038935280,39.745297755102,-104.992302040816,,,0
JOURNEYS,1428468503,500 16TH STREET,DENVER PAVILIONS,DENVER,CO,80202,US,7209325464,39.74386,-104.99043,,,0
Bass Pro Shops,350368554,7970 Northfield Blvd,,Denver,CO,80238,US,720-385-3600,39.78549625,-104.89535,,,0
MACYS,1428472629,8298 EAST 49TH AVENUE,,DENVER,CO,80838,US,,39.7852340076583,-104.89191477133,,,0
OFF BROADWAY,350352207,8510 NORTHFIELD BLVD STE 1810,,DENVER,CO,80238-3158,US,,39.78547,-104.890369262679,,,0
WORKSHOE HQ,350369757,1067 W. Riverdale Road,,Ogden,UT,84405,US,801-392-6010,41.1766223762038,-112.005014540842,,,0
LESLIE BOEHM SHOE STORES INC,1007070990,1065 W RIVERDALE ROAD,(blank),OGDEN,UT,84405-3720,US,,41.1766483291783,-112.004941473236,,,0
SPORTSMANS WAREHOUSE,1428478773,1137 W RIVERDALE ROAD,,RIVERDALE,UT,84405,US,8013344000,41.1756928072901,-112.007564177408,,,0
OFF BROADWAY,1428465726,8560 - 1810 E 48TH AVENUE,UNIT 1810,DENVER,CO,80238,US,,39.7707379,-104.9011079,,,0
BOOT BARN,350362055,5320 SO FREEWAY PARK DR,,RIVERDALE,UT,84405,US,,41.166593798452,-112.020675282581,,,0
FOOTACTION,1428476815,1420 ALAMEDA AVENUE,AURORA MALL,AURORA,CO,80012,US,3033607975,39.7112020408163,-105.006749795918,,,0
LITTLE FEET AND MORE,1428473207,201 UNIVERSITY BOULEVARD,SPACE 103,DENVER,CO,80206,US,3033889535,39.71942,-104.95944,,,0
REAMS BOOTS & JEANS,350369776,472 NORTH MAIN,,HEBER CITY,UT,84032,US,435-654-3054,40.5138924489796,-111.413375306122,,,0
FOOT LOCKER,1428469179,1400 N HILLFIELD ROAD,LAYTON HILLS MALL,LAYTON,UT,84041,US,8015462030,41.0802044897959,-111.973494897959,,,0
MACYS,1428472678,1400 HILL FIELD ROAD,LAYTON HILLS MALL,LAYTON,UT,84041,US,,41.0802044897959,-111.973494897959,,,0
NORDSTROM,1428465772,2810 EAST 1ST AVENUE,CHERRY CREEK S/C,DENVER,CO,80206,US,7207462424,39.71803,-104.954948428571,,,0
SAKS FIFTH AVENUE,1428478657,2900 EAST FIRST AVENUE,CHERRY CREEK MALL,DENVER,CO,80206,US,3033936333,39.71803,-104.95342,,,0
JOURNEYS,1428468515,1006 LAYTON HILLS MALL,,LAYTON,UT,84041,US,8014443161,41.0779498999166,-111.973514203503,,,0
DICKS SPORTING GOODS,-1155615384,LAYTON HILLS MALL #1024,1201 N HILL FIELD ROAD,LAYTON,UT,84041,US,,41.07793,-111.97435,,,0
FINEST FOOTWEAR,1428479007,18 SOUTH MAIN STREET,,KAYSVILLE,UT,84037,US,8015441579,41.0345393382473,-111.938639717023,,,0
MACYS,1428472618,15 SOUTH STEELE STREET,CHERRY CREEK MALL,DENVER,CO,80206,US,3033902200,39.7160142857143,-104.949961428571,,,0
REAMS BOOTS & JEANS,350369797,1040 NORTH MAIN,,LAYTON,UT,84041,US,801-547-9842,41.07503,-111.981305714286,,,0
ROCHESTER BIG AND TALL,1428478103,320 S COLORADO BOULEVARD,,GLENDALE,CO,80246,US,3033213450,39.71088,-104.94064,,,0
"BC SALES CO, INC",350364078,1992 WEST ANTELOPE DRIVE,SUITE 1-A,LAYTON,UT,84041,US,801-825-7400,41.08915,-112.002451836735,,,0
HILL BROTHERS BOOTS,350369682,1901 S BROADWAY,,DENVER,CO,80210,US,303-722-4995,39.68212,-104.98758,,,0
GOVERNORS PLAZA SHOES,1428475959,9880 WEST BELLEVIEW,,LITTLETON,CO,80123,US,3039781897,39.624194040404,-105.108971313131,,,0
FURMO LLC,350349703,1355 S COLORADO BLVD,SUITE C 901,DENVER,CO,80222,US,,39.6916031034483,-104.94076,,,0
AMERICAN BUSINESS FORMS,1007070922,1885 W DARTMOUTH AVE,UNIT 16,ENGLEWOOD,CO,80110,US,,39.660469437751,-105.009589036145,,,0
NORDSTROM,-1155615356,RACK CHERRY CREEK,1505 S COLORADO BLVD,DENVER,CO,80222,US,,39.6892352990073,-104.940760794691,,,0
DARDANO'S,350369684,1550 S. Colorado Blvd.,,Denver,CO,80222,US,702-502-5764,39.6883814285714,-104.940550408163,,,0
T & C MENS CENTER,-1155615485,1550 S COLORADO BOULEVARD,,DENVER,CO,80222,US,,39.6883814285714,-104.940550408163,,,0
UTE MOUNTAINEER LTD,-1155615649,210 S GALENA ST,,ASPEN,CO,81611,US,,39.1895293877551,-106.81834755102,,,0
REI,1428465912,5375 S WADSWORTH BLVD,,LAKEWOOD,CO,80123,US,3039320600,39.6197907692308,-105.091356923077,,,0
THE SPORTS CENTER,1428479118,424 E COOPER AVENUE,,ASPEN,CO,81611,US,9704298016,39.1882387755102,-106.819738571429,,,0
OFF BROADWAY,1428465736,5396 S WADSWORTH BLVD,,LAKEWOOD,CO,80123,US,,39.6184009589041,-105.091119589041,,,0
OFF BROADWAY,350351957,5396 S WADSWORTH BLVD,,LAKEWOOD,CO,80123-2227,US,,39.6184009589041,-105.091119589041,,,0
DILLARDS,1428467787,8501 WEST BOWLES AVENUE,SOUTHWEST PLAZA,LITTLETON,CO,80123,US,3039796111,39.60983,-105.09463,,,0
SEARS,350354745,8501 W BOWLES AVE,,LITTLETON,CO,80123,US,,39.60983,-105.09463,,,0
FOOT LOCKER,1428469201,8501 WEST BOWLES AVENUE,SOUTHWEST PLAZA,LITTLETON,CO,80123,US,3099482709,39.60983,-105.09463,,,0
MACYS,1428472621,8501 WEST BOWLES AVENUE,SOUTHWEST PLAZA,LITTLETON,CO,80123,US,3039324200,39.60983,-105.09463,,,0
JOURNEYS,1428468763,8501 WEST BOWLES AVENUE,SOUTHWEST PLAZA,LITTLETON,CO,80123,US,7209228537,39.60983,-105.09463,,,0
WESTERN TRADING COMPANY,350369713,3524 S BROADWAY,,ENGLEWOOD,CO,80113,US,303-789-1827,39.65254,-104.98765,,,0
WESTERN TRADING COMPANY,1428475537,3524 S BROADWAY,,ENGLEWOOD,CO,80113,US,,39.65254,-104.98765,,,0
DICKS SPORTING GOODS,1428465510,1200 S IRONTON STREET,,AURORA,CO,80010,US,3037550410,39.69475,-104.86322,,,0
SEARS,350353468,14200 E ALAMEDA AVE,,AURORA,CO,80012,US,,39.711085050505,-104.822926565657,,,0
DILLARDS,1428467785,14200 E ALAMEDA AVENUE,TOWN CENTER AT AUROR,AURORA,CO,80012,US,3033605900,39.711085050505,-104.822926565657,,,0
KIDS FOOT LOCKER,1428471973,14200 E ALAMEDA AVENUE,TOWN CTR AT AURORA SP2055,AURORA,CO,80012,US,,39.711085050505,-104.822926565657,,,0
MACYS,1428472624,14200 EAST ALAMEDA AVENUE,AURORA MALL,AURORA,CO,80012,US,3037394200,39.711085050505,-104.822926565657,,,0
CHAMPS SPORTS,1428470334,14200 EAST ALAMEDA AVENUE,AURORA MALL,AURORA,CO,80012,US,7208590575,39.711085050505,-104.822926565657,,,0
FOOT LOCKER,1428469685,14200 E ALAMEDA AVENUE,TOWN CENTER AT AURORA,AURORA,CO,80012,US,3033436311,39.711085050505,-104.822926565657,,,0
JARMAN SHOE STORE,1428466853,14200 EAST ALAMEDA AVENUE,AURORA MALL,AURORA,CO,80012,US,3033440540,39.711085050505,-104.822926565657,,,0
DILLARDS,1428467788,14200 S ALAMEDA AVENUE,AURORA TOWN CENTER,AURORA,CO,80012,US,,39.711085050505,-104.822926565657,,,0
UNDERGROUND STATION,1428466594,14200 EAST ALAMEDA AVENUE,AURORA MALL,AURORA,CO,80012,US,,39.711085050505,-104.822926565657,,,0
K & G MENS CENTER,-1155615478,ABILENE MARKETPLACE,13940 E MISSISSIPPI AVE,AURORA,CO,80012,US,,39.696547979798,-104.825651414141,,,0
SCRUBS & BEYOND STORE #35,1428478865,1113 SOUTH ABILENE STREET,SUITE 107,AURORA,CO,80012,US,7207487783,39.6963750693261,-104.82611,,,0
CABELAS INC,1007072261,1 CABELA DR,(blank),SIDNEY,NE,69160-1004,US,,41.11691,-102.95975,,,0
GANDER MOUNTAIN,1428474704,14000 EAST JEWELL AVENUE,,AURORA,CO,80012,US,3037500055,39.68211,-104.825566525424,,,0
DICKS SPORTING GOODS,1428465378,6737 S VINE STREET,,CENTENNIAL,CO,80122,US,3037973360,39.59354,-104.96387,,,0
MACYS,1428472626,6801 S UNIVERSITY BLVD,SOUTHGLENN S/C,LITTLETON,CO,80122,US,,39.59301,-104.9602,,,0
REI,1428465884,3285 EAST 3300 SOUTH,,SALT LAKE CITY,UT,84109,US,8014862100,40.69986,-111.801016451613,,,0
DILLARDS,1428467786,6921 SOUTH UNIVERSITY,SOUTHGLENN MALL,LITTLETON,CO,80122,US,3037956100,39.5918462790698,-104.960211395349,,,0
THE FINISH LINE,1428468270,6911 S UNIVERSITY BLVD,SOUTHGLENN MALL,LITTLETON,CO,80122,US,3033470360,39.5919160465116,-104.960210232558,,,0
SEARS,350356542,7001 S UNIVERSITY BLVD,,CENTENNIAL,CO,80122,US,,39.5912128571429,-104.960220952381,,,0
BROWNS SHOE FIT,1428466039,315-17 MAIN STREET,,FORT MORGAN,CO,80701,US,9708676462,40.25005,-103.80148,,,0
BROWNS SHOE FIT,350369674,315-17 MAIN STREET,,FORT MORGAN,CO,80701,US,970-867-6462,40.25005,-103.80148,,,0
DICKS SPORTING GOODS,1428465333,SOUTHWEST PLAZA,,LITTLETON,CO,80123,US,7204790600,39.5711701,-104.9906442,,,0
HIBBETT SPORTING GOODS,1428474540,1150 BARLOW ROAD,,FORT MORGAN,CO,80701,US,,40.2606597986577,-103.772762550336,,,0
BOOT BARN,350367991,8500 E ORCHARD RD,,Greenwood Village,CO,80111-5012,US,,39.60928,-104.89017,,,0
MACYS,-1155611449,21 SOUTH MAIN STREET,,SALT LAKE CITY,UT,84111,US,,40.7688471428571,-111.89099,,,0
JARMAN SHOE STORE,1428466766,50 SOUTH MAIN STREET,CROSSROADS PLAZA,SALT LAKE CITY,UT,84144,US,8013225145,40.768484280021,-111.891146877209,,,0
NORDSTROM,1428465768,50 SOUTH MAIN STREET,CROSSROADS PLAZA,SALT LAKE CITY,UT,84144,US,8013224200,40.768484280021,-111.891146877209,,,0
OXFORD SHOP,1428475994,65 WEST 100 SOUTH,,SALT LAKE CITY,UT,84101,US,8013558636,40.7671756666667,-111.893098333333,,,0
NORDSTROM,1428465774,55 SOUTH WEST TEMPLE,,SALT LAKE CITY,UT,84101,US,,40.7681035135135,-111.893925945946,,,0
NORDSTROM,-1155615630,2236 SOUTH 1300 EAST,SUITE D-1,SALT LAKE CITY,UT,84106,US,,40.722316,-111.85365,,,0
3POINT5,-1155615992,224 SOUTH 200 WEST,SUITE 230,SALT LAKE CITY,UT,84101,US,,40.7643268421053,-111.896836315789,,,0
SEARS,350355800,754 S STATE ST,,SALT LAKE CITY,UT,84111,US,,40.7529342857143,-111.88823,,,0
DICKS SPORTING GOODS,1428465424,41 SOUTH RIO GRANDE,,SALT LAKE CITY,UT,84101,US,8014560200,40.76902,-111.90414,,,0
FOOT LOCKER,1428469741,48 SOUTH RIO GRANDE ST,THE GATEWAY,SALT LAKE CITY,UT,84101,US,8014560368,40.7688822138744,-111.904111492526,,,0
JOURNEYS,1428468622,60 S RIO GRANDE STREET,THE GATEWAY,SALT LAKE CITY,UT,84101,US,8014560322,40.7684656640669,-111.904044755209,,,0
THE SHOE CARNIVAL,1428472334,1202 EAST BRICKYARD ROAD,BRICKYARD SHOPPING CENTER,SALT LAKE CITY,UT,84106,US,8014676119,40.7035594229916,-111.858563269123,,,0
MACYS,1428472677,4835 HIGHLAND DRIVE,COTTONWOOD MALL,SALT LAKE CITY,UT,84117,US,,40.6646064046861,-111.839113578596,,,0
BOOT BARN,350367622,6360 S Parker Rd,,AURORA,CO,80016,US,,39.6006273504624,-104.805285041789,,,0
FOOT LOCKER,1428469945,8405 PARK MEADOWS CTR DR,PARK MEADOW MALL,LITTLETON,CO,80124,US,3037991497,39.5621643110686,-104.89111003944,,,0
DILLARDS,1428467784,8415 PARK MEADOWS CTR DR,PARK MEADOWS CENTER,LITTLETON,CO,80124,US,3037900100,39.5620832657634,-104.890983968965,,,0
DICKS SPORTING GOODS,1428465429,8435 PARK MEADOWS CTR DR,,LITTLETON,CO,80124,US,7204790600,39.5618952250391,-104.890752492302,,,0
MACYS,1428472619,8455 PARK MEADOWS CTR DR,PARK MEADOWS,LITTLETON,CO,80124,US,3035666370,39.561685779776,-104.890538060247,,,0
NORDSTROM,1428465770,8465 PARK MEADOWS CTR DR,PARK MEADOWS CENTER,LITTLETON,CO,80124,US,3037993400,39.5615803554057,-104.89043158663,,,0
STRIDE RITE BOOTERY,1428475497,8505 PARK MEADOWS CTR DR,PARK MEADOWS CENTER,LITTLETON,CO,80124,US,3037080405,39.5611285948738,-104.890037497656,,,0
SPORTSMANS WAREHOUSE,1428478777,2464 US HIGHWAY 6 & 50,,GRAND JUNCTION,CO,81505,US,9702438100,39.1128103,-108.6450991,,,0
THE FINISH LINE,1428468232,8505 PARK MEADOWS CTR DR,PARK MEADOWS CENTER,LITTLETON,CO,80124,US,3037909447,39.5611285948738,-104.890037497656,,,0
JOURNEYS,1428468771,8505 PARK MEADOWS CTR DR,PARK MEADOWS CENTER,LITTLETON,CO,80124,US,3036491442,39.5611285948738,-104.890037497656,,,0
OFF BROADWAY,1428465717,9607 E COUNTY LINE ROAD,CENTENNIAL PROMENADE,ENGLEWOOD,CO,80112,US,,39.5660811812633,-104.878089552015,,,0
REI,1428465920,9637 E COUNTY LINE ROAD,,ENGLEWOOD,CO,80112,US,3038581726,39.5660814661441,-104.877840358155,,,0
DICKS SPORTING GOODS,1428465377,15400 E BRIARWOOD CIRCLE,UNIT A,AURORA,CO,80016,US,3036177930,39.59334,-104.81037,,,0
THE SHOE CARNIVAL,1428472343,632 MARKET ST  STE 300,CANYON VIEW MARKETPLACE,GRAND JUNCTION,CO,81505,US,9702454205,39.0979403673577,-108.605909448963,,,0
BOOT BARN,350361972,2424 HIGHWAY 6 & 50,SUITE 0216,GRAND JUNCTION,CO,81505,US,,39.0951733,-108.6034802,,,0
RECREATION OUTLET,1428479144,3665 WEST 500 SOUTH,,SALT LAKE CITY,UT,84104,US,8019747992,40.75839,-111.973827297477,,,0
"BC SALES CO, INC",350364079,2284 S REDWOOD ROAD,,WEST VALLEY,UT,84119,US,801-886-1779,40.721438,-111.938994,,,0
JOURNEYS,1428468508,2424 US HIGHWAY 6 & 50,MESA MALL,GRAND JUNCTION,CO,81506,US,9702411441,39.08279,-108.56515,,,0
FOOT LOCKER,1428469301,2424 US HIGHWAY 6 & 50,MESA MALL,GRAND JUNCTION,CO,81505,US,9702410263,39.08279,-108.56515,,,0
HIBBETT SPORTS,-1155611135,APPLEWOOD CENTER,1115 W MAIN STREET,STERLING,CO,80751,US,,40.63009,-103.23464,,,0
CURTIS BLUE LINE (L.N. CURTIS & SONS),350369754,3060 W. CALIFORNIA AVE,,SALT LAKE CITY,UT,84104,US,801-349-1150,40.7405,-111.964422258065,,,0
REI,1428465928,644 NORTH AVENUE,,GRAND JUNCTION,CO,81501,US,9702548970,39.0774555102041,-108.561972244898,,,0
NORDSTROM,-1155615629,PARK MEADOWS CENTER,8676 PARK MEADOWS CTR DR,LITTLETON,CO,80124,US,,39.54397,-104.87116,,,0
OFF BROADWAY,350351200,23901 E ORCHARD RD UNIT A,,AURORA,CO,80016-5347,US,,39.607851,-104.708085,,,0
OFF BROADWAY,1428465752,23901 EAST ORCHARD ROAD,THE SOUTHLANDS,AURORA,CO,80016,US,,39.607851,-104.708085,,,0
BROWNS SHOE FIT,1428466308,425 MAIN STREET,,GRAND JUNCTION,CO,81501,US,9702427690,39.0673800050427,-108.565730070598,,,0
BROWNS SHOE FIT,1007070951,425 MAIN STREET,(blank),GRAND JUNCTION,CO,81501,US,,39.0673800050427,-108.565730070598,,,0
DICK'S SPORTING GOODS,-1155611261,FAMILY CENTER AT FT UNION,7170 S 1000 E,MIDVALE,UT,84047,US,,40.6175144828337,-111.862569028189,,,0
DICK'S SPORTING GOODS,350369261,FAMILY CENTER AT FT UNION,7171 S 1000 E,MIDVALE,UT,84047,US,801-566-2920,40.6174740419149,-111.862580662009,,,0
THE SHOEMAN,1428475612,449 COLORADO AVENUE,,GRAND JUNCTION,CO,81501,US,9702451674,39.0663148979592,-108.565322040816,,,0
FOOTWEAR OUTFITTERS,350369758,6066 South State Street,,"Murray, UT",UT,84107,US,801-281-5606,40.6391682258065,-111.889114354839,,,0
DILLARDS,1428467765,6191 SOUTH STATE STREET,FASHION PLACE MALL,MURRAY,UT,84107,US,8012662006,40.6360916216216,-111.889254594595,,,0
FOOT LOCKER,1428469429,6191 SOUTH STATE STREET,FASHION PLACE MALL,MURRAY,UT,84107,US,8012633193,40.6360916216216,-111.889254594595,,,0
MACYS,1428472687,6191 SOUTH STATE STREET,FASHION PLACE MALL,MURRAY,UT,84107,US,,40.6360916216216,-111.889254594595,,,0
NORDSTROM,1428465769,6191 SOUTH STATE STREET,FASHION PLACE MALL,MURRAY,UT,84107,US,8012614402,40.6360916216216,-111.889254594595,,,0
JARMAN SHOE STORE,1428466698,6191 SOUTH STATE STREET,FASHION PLACE MALL,MURRAY,UT,84107,US,8012633103,40.6360916216216,-111.889254594595,,,0
JOURNEYS,1428468945,6191 SOUTH STATE STREET,1795 FASHION PLACE MALL,MURRAY,UT,84107,US,8012649470,40.6360916216216,-111.889254594595,,,0
Cabela's,350368758,10670 Cabela Drive,,Lone Tree,CO,80124,US,(303)-625-9920,39.52106,-104.8693801,,,0
MACYS,1428472684,3601 SOUTH 2700 WEST,VALLEY FAIR MALL,WEST VALLEY CITY,UT,84119,US,,40.6940407986363,-111.957893550748,,,0
JARMAN SHOE STORE,1428466800,3601 SOUTH 2700 WEST,VALLEY FAIR MALL,WEST VALLEY CITY,UT,84119,US,8019697355,40.6940407986363,-111.957893550748,,,0
FOOT LOCKER,1428469263,3601 S 2700 WEST,VALLEY FAIR MALL  STE140,WEST VALLEY CITY,UT,84119,US,8019678266,40.6940407986363,-111.957893550748,,,0
JOURNEYS,1428468331,3601 SOUTH 2700 WEST,VALLEY FAIR MALL,WEST VALLEY CITY,UT,84119,US,8019820838,40.6940407986363,-111.957893550748,,,0
JB VARIETY,-1155615809,VALLEY FAIR MALL,3601 S CONTITUTIONAL BNVB,WEST VALLEY CITY,UT,84119,US,,40.69446,-111.95811,,,0
JB VARIETY COLLECTION,-1155615654,3601 S CONSTITUTION BLVD,,WEST VALLEY CITY,UT,84119,US,,40.6940407986363,-111.957893550748,,,0
FOOTACTION,1428476753,3601 SOUTH 2700 WEST,VALLEY FAIR MALL,WEST VALLEY CITY,UT,84119,US,8019672097,40.6940407986363,-111.957893550748,,,0
SUNDANCE CATALOG,-1155615991,3865 WEST 2400 SOUTH,,SALT LAKE CITY,UT,84120,US,,40.71834,-111.983385149251,,,0
SPORTSMANS WAREHOUSE,1428478778,165 WEST 7200 SOUTH,,MIDVALE,UT,84047,US,8015671000,40.6205994090571,-111.896602901244,,,0
PACIFIC FLYWAY WHOLESALE #300,1007071002,1630 S 5070 W,(blank),SALT LAKE CITY,UT,84104,US,,40.7350881632653,-112.012269183673,,,0
REAMS BOOTS & JEANS,350369777,2700 WEST 4700 SOUTH,,TAYLORSVILLE,UT,84129,US,801-963-0397,40.6676,-111.95799,,,0
MACYS,1428472679,10600 SOUTH 110 WEST,SOUTH TOWNE CENTER,SANDY,UT,84070,US,,40.55877,-111.8722,,,0
REAMS BOOTS & JEANS,350369779,10670 SOUTH 700 EAST,,SANDY,UT,84070,US,801-571-4758,40.5572093103448,-111.872203793103,,,0
OSSINE SHOES,350369763,7576 S REDWOOD RD,,WEST JORDAN,UT,84084-4006,US,801-561-5406,40.6135586363636,-111.938762272727,,,0
OSSINE SHOES,1428476503,7576 SOUTH REDWOOD ROAD,,WEST JORDAN,UT,84084,US,8015615406,40.6135586363636,-111.938762272727,,,0
NORDSTROM,-1155615627,COMMONS AT SOUTHTOWNE,10379 SOUTH STATE STREET,SANDY,UT,84070,US,,40.5627611111111,-111.89074,,,0
FOOT LOCKER,1428469578,10450 SOUTH STATE STREET,SOUTH TOWN CENTER,SANDY,UT,84070,US,8015724977,40.561580952381,-111.890930952381,,,0
DILLARDS,1428467767,10450 SOUTH STATE STREET,SOUTH TOWNE CENTER,SANDY,UT,84070,US,8015538800,40.561580952381,-111.890930952381,,,0
JOURNEYS,1428468473,10450 SOUTH STATE STREET,SOUTH TOWNE CENTER,SANDY,UT,84070,US,8015017493,40.561580952381,-111.890930952381,,,0
REAMS BOOTS & JEANS,350369783,3665 WEST 6200 SOUTH,,KEARNS,UT,84118,US,801-969-1999,40.63857,-111.978408,,,0
SANDY SCHEELS,-1155615407,11282 STATE STREET,,SANDY,UT,84070,US,,40.5464655555556,-111.891074444444,,,0
SEARS,350354252,7453 S PLAZA CENTER DR,,WEST JORDAN,UT,84084,US,,40.6145610457196,-111.979936899278,,,0
REAMS BOOTS & JEANS,350369796,2640 WEST 9000 SOUTH,,WEST JORDAN,UT,84088,US,801-561-9381,40.5877668085106,-111.956692978723,,,0
REAMS BOOTS & JEANS,350369778,7235 WEST 3500 SOUTH,,MAGNA,UT,84044,US,801-250-6343,40.6965,-112.063966666667,,,0
THE SHOE CARNIVAL,1428472339,7742 CAMPUS VIEW DR #110,CAMPUS VIEW JORDAN LNDING,WEST JORDAN,UT,84084,US,8012801886,40.6104185019642,-111.981385722004,,,0
DICK'S SPORTING GOODS,350369182,THE MEADOWS SHOPPING DISTRICT,841 W Pacific Drive,AMERICAN FORK,UT,84003,US,801-692-6137,40.372003877551,-111.775970612245,,,0
IFA #3058,1007071013,1926 W 12600 S,(blank),RIVERTON,UT,84065,US,,40.5223052941176,-111.943017058824,,,0
NORDSTROM,1428465773,693 UNIVERSITY PARKWAY,UNIVERSITY MALL,OREM,UT,84097,US,8014262800,40.27309,-111.6785,,,0
JOURNEYS,1428468412,575 E UNIVERSITY PKWY,UNIVERSITY MALL,OREM,UT,84097,US,8012262133,40.27346,-111.681515,,,0
FOOT LOCKER,1428469559,575 E UNIVERSITY PARKWAY,UNIVERSITY MALL,OREM,UT,84097,US,8012263067,40.27346,-111.681515,,,0
MACYS,1428472680,543 E UNIVERSITY PKWY,UNIVERSITY MALL,OREM,UT,84097,US,,40.2735113534725,-111.682208666148,,,0
THE SHOE CARNIVAL,1428472352,305 E UNIVERSITY PKWY,CARILLON SQUARE,OREM,UT,84058,US,,40.273518989899,-111.687354545455,,,0
MISSIONARY MALL,350369773,220 E. University PKWY,,OREM,UT,84058,US,801-851-0115,40.2733939393939,-111.689791111111,,,0
DICK'S SPORTING GOODS,-1155611260,FAMILY CENTER AT OREM,130 E UNIVERSITY PARKWAY,OREM,UT,84058,US,,40.273413877551,-111.692034897959,,,0
DICK'S SPORTING GOODS,350369134,FAMILY CENTER AT OREM,130 E University Parkway,OREM,UT,84058,US,801-225-7073,40.273413877551,-111.692034897959,,,0
NORDSTROM,-1155615625,ADDRESS TO FOLLOW,,OREM,UT,00000,US,,40.2832216,-111.7175632,,,0
SPORTSMANS WAREHOUSE,1428478802,9669 S PROSPERITY ROAD,,WEST JORDAN,UT,84088,US,,40.5750642024012,-112.039412397884,,,0
Cabela's,350368747,2502 W Cabelas Blvd,,Lehi,UT,84043-8747,US,(801)-766-2500,40.43465,-111.89299,,,0
WHATS HOT,1428479129,110 W CENTER STREET,,PROVO,UT,84601,US,8013775213,40.2338010204082,-111.660686530612,,,0
THE SHOE CARNIVAL,1428472364,3651 W MARKET CENTER,RIVERTON DEPOT  STE 100,RIVERTON,UT,84065,US,,40.5139243956589,-111.977727484019,,,0
MODERN SHOE INC,350369759,350 WEST CENTER STREET,,PROVO,UT,84601,US,801-375-2711,40.23382,-111.66480755102,,,0
SPORTSMANS WAREHOUSE,1428478772,1075 S UNIVERSITY AVENUE,,PROVO,UT,84601,US,8018182000,40.2190161005874,-111.65898,,,0
REAMS BOOTS & JEANS,350369774,1201 S UNIVERSITY AVENUE,,PROVO,UT,84601,US,801-623-5195,40.21769,-111.65899,,,0
DILLARDS,1428467768,1200 TOWNE CENTRE BLVD,PROVO TOWNE CENTRE,PROVO,UT,84601,US,8018523000,40.21785,-111.66047,,,0
FOOT LOCKER,1428469993,1200 TOWNE CENTER BLVD,PROVO TOWNE CENTER,PROVO,UT,84601,US,8018523105,40.21785,-111.66047,,,0
JOURNEYS,1428468486,1200 TOWNE CENTRE BLVD,2026 PROVO TOWN CENTRE,PROVO,UT,84601,US,8018525747,40.21785,-111.66047,,,0
THE ATHLETES FOOT,1428478543,1183 E MAIN STREET,,PRICE,UT,84501,US,4356373668,39.598339510638,-110.793154208385,,,0
HIBBETT SPORTING GOODS,1428474528,1410 VALLEY VIEW DR #320,VALLEY VIEW PLAZA,DELTA,CO,81416,US,,38.75101,-108.054748938313,,,0
CABELAS INC #814,1007072262,1961 W OUTFITTERS AVE,(blank),Tooele,UT,84074,US,,40.5351743,-112.3496353,,,0
Bass Pro Shops,350368597,13012 Bass Pro Drive,,Colorado Springs,CO,80921,US,719-488-7300,39.0237582,-104.8265437,,,0
SEARS,350355653,1650 BRIARGATE BLVD,,COLORADO SPRINGS,CO,80920,US,,38.9453120047059,-104.797096344202,,,0
DICKS SPORTING GOODS,1428465350,1710 BRIAR GATE BLVD,,COLORADO SPRINGS,CO,80920,US,7196383400,38.945206410353,-104.795783957245,,,0
UNDERGROUND STATION,1428466699,1710 BRIARGATE BOULEVARD,CHAPEL HILLS MALL,COLORADO SPRINGS,CO,80920,US,,38.945206410353,-104.795783957245,,,0
KIDS FOOT LOCKER,1428471974,1710 BRIARGATE BLVD,CHAPEL HILLS MALL SP339,COLORADO SPRINGS,CO,80920,US,,38.945206410353,-104.795783957245,,,0
FOOT LOCKER,1428470091,1710 BRIARGATE BLVD,CHAPEL HILLS MALL,COLORADO SPRINGS,CO,80920,US,7192646350,38.945206410353,-104.795783957245,,,0
FOOT LOCKER,1428469272,1710 BRIARGATE BLVD,CHAPEL HILLS MALL SP339,COLORADO SPRINGS,CO,80920,US,7192656350,38.945206410353,-104.795783957245,,,0
MACYS,1428472627,1750 BRIARGATE BOULEVARD,CHAPEL HILLS MALL,COLORADO SPRINGS,CO,80920,US,,38.9451406379851,-104.794908676598,,,0
DILLARDS,1428467793,1790 BRIARGATE BOULEVARD,CHAPEL HILLS MALL,COLORADO SPRINGS,CO,80920,US,7195321400,38.9450174215697,-104.794041515528,,,0
THE SHOE CARNIVAL,1428472246,7165 N ACADEMY BOULEVARD,BSK SUBDIVISION,COLORADO SPRINGS,CO,80920,US,7192666836,38.9364932190324,-104.797705247942,,,0
REI,1428465927,1376 EAST WOODMEN ROAD,,COLORADO SPRINGS,CO,80920,US,7192601455,38.93318,-104.799850816327,,,0
BOOT BARN,350361961,5720 N ACADEMY BOULEVARD,,Colorado Springs,CO,80918,US,,38.9138671361166,-104.787764991251,,,0
BURLAP BAG,350369679,31 S. 32nd St.,,COLORADO SPRINGS,CO,80904,US,719-442-1625,38.8557202040816,-104.875299795918,,,0
ROBERT T WILCOX,350349640,31 S 32ND ST,,Colorado Springs,CO,80904-2027,US,,38.8557202040816,-104.875299795918,,,0
Cavender's,350368731,5770 South Carefree Circle,,Colorado Springs,CO,80917,US,719-573-4883,38.87687,-104.729000583942,,,0
DICKS SPORTING GOODS,1428465425,3133 CINEMA POINT,,COLORADO SPRINGS,CO,80922,US,7196383400,38.8792490172937,-104.717585529903,,,0
DICK'S SPORTING GOODS,350369255,FIRST AND MAIN TOWER CENTER,3133 Cinema Point,COLORADO SPRINGS,CO,80922,US,719-638-3400,38.8792490172937,-104.717585529903,,,0
BROWNS SHOE FIT,1428466005,123 NORTH TEJON,,COLORADO SPRINGS,CO,80903,US,7196351575,38.8356475510204,-104.823432040816,,,0
BOB WARD & SONS,350368469,1925 DEWEY BLVD,,BUTTE,MT,59701,US,406-494-4452,45.9834624489796,-112.511239387755,,,0
THE SHOE CARNIVAL,1428472235,3975 PALMER PARK BLVD,RUSTIC HILLS S/C,COLORADO SPRINGS,CO,80909,US,7196380724,38.85438,-104.753740065745,,,0
FOOT LOCKER,1428469379,750 CITADEL DRIVE EAST,CITADELL MALL,COLORADO SPRINGS,CO,80909,US,7195726785,38.8435946737312,-104.7588,,,0
THE FINISH LINE,1428468266,750 CITADEL DRIVE EAST,CITADEL MALL,COLORADO SPRINGS,CO,80909,US,7195917255,38.8435946737312,-104.7588,,,0
FOOTACTION,1428477122,750 CITADEL DRIVE EAST,CITADEL MALL,COLORADO SPRINGS,CO,80909,US,7195965777,38.8435946737312,-104.7588,,,0
UNDERGROUND STATION,1428466587,750 CITADEL DRIVE EAST,CITADEL MALL,COLORADO SPRINGS,CO,80909,US,,38.8435946737312,-104.7588,,,0
JOURNEYS,1428468679,750 CITADEL DRIVE EAST,CITADEL MALL,COLORADO SPRINGS,CO,80909,US,7196379957,38.8435946737312,-104.7588,,,0
DILLARDS,1428467792,750 CITADEL DRIVE EAST,CITADEL MALL,COLORADO SPRINGS,CO,80909,US,7195501159,38.8435946737312,-104.7588,,,0
SPORTSMANS WAREHOUSE,1428478788,555 N CHELTON ROAD,,COLORADO SPRINGS,CO,80909,US,7195979200,38.8405743902439,-104.766586829268,,,0
SEARS,350355287,2050 SOUTHGATE RD,,COLORADO SPRINGS,CO,80906,US,,38.8036139318,-104.8182778475,,,0
MILLERS SHOE STORE,350366051,301 SOUTH ARIZONA,,BUTTE,MT,59701,US,406-782-1306,46.01522100541,-112.532195861622,,,0
US PATRIOT,1007071236,4465 VENETUCCI BLVD,STE 170,Colorado Springs,CO,80906,US,,38.78356,-104.79027,,,0
BROWNS SHOE FIT,1428466309,427 MAIN STREET,,MONTROSE,CO,81401,US,9702496101,38.2697897959184,-108.545875306122,,,0
DILLARDS,1428467773,1600 11TH AVENUE,CAPITAL HILL S/C,HELENA,MT,59601,US,4064433000,46.5898,-112.01276,,,0
CAPITAL SPORTS,350360298,1092 HELENA AVE.,,HELENA,MT,59601,US,406-443-2978,46.5970966666667,-112.023506666667,,,0
SPORTSMAN'S WAREHOUSE,-1155611331,2990 NORTH SANDERS ST,,HELENA,MT,59601,US,,46.6147344668699,-112.015243340061,,,0
BOB WARD & SONS,350368463,3323 DREDGE DRIVE,,HELENA,MT,59601,US,406-443-2138,46.6207077528794,-112.022673786069,,,0
MACYS,1428472686,3405 NORTH MONTANA AVENUE,,HELENA,MT,59602,US,,46.62265,-112.02102,,,0
STADIUM SPORTS,1428479001,789 EAST HWY 18,,MISSION,SD,57555,US,6058564243,43.2674275,-100.9254066,,,0
HIBBETT SPORTING GOODS,1428474292,306 NORTH 16 STREET,CANON PLAZA,CANON CITY,CO,81212,US,7192760791,38.4480051020408,-105.225869387755,,,0
ARFMANN'S FOUR SEASONS,350368146,522 MAIN ST,,SALMON,ID,83467,US,208-756-2422,45.1757618367347,-113.894253877551,,,0
TELLURIDE TRAPPINGS,-1155615987,109 EAST COLORADO AVENUE,,TELLURIDE,CO,81435,US,,37.9371385858586,-107.810717575758,,,0
D&B SUPPLY-TWIN FALLS,350368139,2964 ADDISON AVE E,,TWIN FALLS,ID,83301,US,208-733-9233,42.5628201771232,-114.422025498277,,,0
SPORTSMANS WAREHOUSE,1428478780,1940 BRIDGEVIEW BLVD,,TWIN FALLS,ID,83301,US,2087379900,42.5962876042048,-114.454347109461,,,0
FOOT LOCKER,1428470079,1485 POLE LINE ROAD EAST,MAGIC VALLEY MALL,TWIN FALLS,ID,83301,US,2087366587,42.5919510294118,-114.455208676471,,,0
JOURNEYS,1428468657,1485 POLELINE ROAD EAST,MAGIC VALLEY MALL,TWIN FALLS,ID,83301,US,2087363367,42.5919510294118,-114.455208676471,,,0
TRADEHOME SHOE,1428471066,1485 POLELINE ROAD,SUITE 192,TWIN FALLS,ID,83301,US,2087342533,42.5919510294118,-114.455208676471,,,0
MACYS,1428472683,1379 POLELINE ROAD EAST,,TWIN FALLS,ID,83301,US,2084344800,42.5919588235294,-114.456712941176,,,0
HUDSONS SHOES,350365862,1207 FILER AVENUE EAST,,TWIN FALLS,ID,83301,US,208-733-6280,42.57042,-114.458938979592,,,0
BOOT BARN,350362056,1175 ADDISON AVENUE EAST,,TWIN FILLS,ID,83301,US,,42.5631484672096,-114.45936817231,,,0
DICK'S SPORTING GOODS,350369100,CANYON PARK WEST,1939 Fillmore Street,TWIN FALLS,ID,83301,US,208-944-3105,42.59194,-114.47332,,,0
Bomgaars,350368682,700 E Highway 20,,Valentine,NE,69201,US,402-376-3120,42.86656,-100.5419,,,0
BOOT BARN,350362230,PRAIRIE HILLS MALL,1681 3RD AVE W/UNIT 9,DICKINSON,ND,58601,US,,46.90059,-102.78972,,,0
TRADEHOME SHOES,1428470973,PRAIRIE HILLS MALL,,DICKINSON,ND,58601,US,7012274425,46.90059,-102.78972,,,0
Cavender's,1007071423,5840 N ELIZABETH ST,(blank),PUEBLO,CO,81008,US,,38.33510561338,-104.621393271373,,,0
DILLARDS,1428467791,3601 DILLON DRIVE,PUEBLO MALL,PUEBLO,CO,81008,US,7195459665,38.3064330876924,-104.606890257308,,,0
FOOT LOCKER,1428470089,3529 DILLON DRIVE,PUEBLO MALL,PUEBLO,CO,81008,US,7195455177,38.3059835703251,-104.606831973481,,,0
BOOT BARN,350362014,3429 DILLON DRIVE,SPACE H-25,PUEBLO,CO,81008,US,,38.3051811258408,-104.606590315235,,,0
SEARS,350356478,3201 DILLON DR,,PUEBLO,CO,81008,US,,38.3031919967754,-104.606454121163,,,0
SCHEELS ALL SPORTS,1428466939,1200 10TH AVENUE SOUTH,SUITE 92,GREAT FALLS,MT,59405,US,4064537666,47.49415,-111.28695,,,0
GREAT FALLS HOLIDAY,-1155615412,VILLAGE SCHEELS,1200 10TH AVE SO STE #92,GREAT FALLS,MT,59405,US,,47.49415,-111.28695,,,0
SODER'S FLEET SUPPLY,350368214,1401 25TH AVE NE,,BLACK EAGLE,MT,59414,US,406-761-1451,47.5283434228188,-111.283105838926,,,0
BROWNS SHOE FIT CO,350361117,502 NORTH DEWEY STREET,,NORTH PLATTE,NE,69101,US,308-532-2094,41.1373497979798,-100.761797777778,,,0
BROWNS SHOE FIT,1428466068,502 NORTH DEWEY STREET,,NORTH PLATTE,NE,69101,US,3085322094,41.1373497979798,-100.761797777778,,,0
HIBBETT SPORTING GOODS,1428474024,1000 S DEWEY STREET,SUITE 205,NORTH PLATTE,NE,69101,US,3085321146,41.12439,-100.76284,,,0
TRADEHOME SHOES,1428471014,PIERRE MALL,,PIERRE,SD,57501,US,6059452710,44.36566,-100.35504,,,0
RUNNINGS OF PIERRE,350367509,3605 AIRPORT ROAD,,Pierre,SD,57501-5603,US,,44.3821210512737,-100.296891698645,,,0
GARY'S SHOES,350369756,126 N MAIN,,RICHFIELD,UT,84701,US,435-896-4931,38.7698167346939,-112.08479,,,0
GARYS SHOES,1428471599,126 NORTH MAIN STREET,,RICHFIELD,UT,84701,US,4358964931,38.7698167346939,-112.08479,,,0
HOME OF ECONOMY WATERFORD,350367813,113 6TH ST NE,UNIT 5200,WATFORD CITY,ND,58854,US,,47.8018031111111,-103.274839555556,,,0
HIBBETT SPORTING GOODS,1428474473,215 S SLIGO ST   STE 8,CORTEZ SHOPPING CENTER,CORTEZ,CO,81321,US,9705656900,37.3467243753239,-108.563543597593,,,0
BROWNS SHOE FIT,1007070940,871 MAIN STREET,(blank),DURANGO,CO,81301,US,,37.2730928571429,-107.880837142857,,,0
BROWNS SHOE FIT,1428466307,871 MAIN STREET,,DURANGO,CO,81301,US,9702475542,37.2730928571429,-107.880837142857,,,0
GARDENSWARTZ SPORTING,1428479008,863 MAIN AVENUE,,DURANGO,CO,81301,US,9702472660,37.273002244898,-107.880864897959,,,0
BOB WARD & SONS,350368470,1120 NORTH 1ST ST,,HAMILTON,MT,59840,US,406-363-6204,46.2588355700528,-114.157331545037,,,0
BOOT BARN,350361960,830 S CAMINO DEL RIO,,DURANGO,CO,81301,US,,37.2420132653061,-107.871736734694,,,0
CUIKSA BOOT TIQUE LLC,1007070954,345 DICHOSO ST,(blank),Pagosa Springs,CO,81147-8126,US,,37.2379413431302,-107.098899548865,,,0
HOME OF ECONOMY WILLISTON,350367368,2102 2 ND AVE WEST,,WILLISTON,ND,58801,US,,48.1636987437186,-103.625712562814,,,0
BROWNS SHOE FIT CO,350361119,303 NORRIS AVENUE,,MCCOOK,NE,69001,US,308-345-2380,40.1996604081633,-100.625839591837,,,0
BROWNS SHOE FIT,1428466069,303 NORRIS AVENUE,,MCCOOK,NE,69001,US,3083452380,40.1996604081633,-100.625839591837,,,0
JOURNEYS,1428468880,2901 BROOKS STREET,SOUTHGATE MALL,MISSOULA,MT,59801,US,4065425231,46.84393,-114.02513,,,0
FOOT LOCKER,1428469227,2901 BROOKS STREET,SOUTH GATE MALL,MISSOULA,MT,59801,US,4065434875,46.84393,-114.02513,,,0
DILLARDS,1428467772,2901 BROOKS STREET,SOUTHGATE MALL,MISSOULA,MT,59801,US,4067213100,46.84393,-114.02513,,,0
BOB WARD & SONS,350350688,3015 PAXSON ST,,MISSOULA,MT,59801,US,406-728-3220,46.8428473872287,-114.028986302764,,,0
BOOT BARN,350362234,3666 BROOK STREET,,MISSOULA,MT,59801,US,,46.837306744186,-114.037417906977,,,0
SPORTSMAN'S WAREHOUSE,-1155611332,2323 N RESERVE STREET,,MISSOULA,MT,59808,US,,46.8864603030303,-114.039373838384,,,0
REI,1428465930,3275 NORTH RESERVE STREET,SUITE K-2,MISSOULA,MT,59808,US,4068290432,46.8952676923077,-114.039269230769,,,0
VANDERBILTS,1428475587,1917 SOUTH RANGE,UNIT 11,COLBY,KS,67701,US,7854626767,39.3637466,-101.0548169,,,0
VANDERBILTS,1428475004,1917 SOUTH RANGE,,COLBY,KS,67701,US,9134626767,39.3637466,-101.0548169,,,0
VANDERBILTS,350363895,"1917 SOUTH RANGE, UNIT 11",,COLBY,KS,67701,US,785-462-6767,39.3621661,-101.0550087,,,0
RUNNINGS OF BISMARCK,350367463,701 SOUTH WASHINGTON,,BISMARCK,ND,58504-5475,US,,46.79841,-100.79446,,,0
FOOT LOCKER,1428469210,645 KIRKWOOD MALL,SPACE 316,BISMARCK,ND,58504,US,7012581060,46.7980769899666,-100.783589431438,,,0
BOOT BARN,350362087,635 KIRKWOOD MALL,,BISMARCK,ND,58504,US,,46.7980776588629,-100.783660668896,,,0
JOURNEYS,1428468339,746 KIRKWOOD MALL,,BISMARCK,ND,58504,US,7012581400,46.7980702341137,-100.78286993311,,,0
KIRKWOOD SCHEELS SPORTS,1428466507,800 KIRKWOOD MALL,,BISMARCK,ND,58504,US,7012557255,46.7980666220736,-100.782485250836,,,0
BISMARCK KIRKWOOD,-1155615411,SCHEELS SPORTS,800 KIRKWOOD MALL,BISMARCK,ND,58504,US,,46.7980666220736,-100.782485250836,,,0
TRADEHOME SHOES,1428471063,KIRKWOOD MALL,,BISMARCK,ND,58504,US,7012223365,46.79806,-100.78178,,,0
THE SHOE CARNIVAL,1428472319,909 WEST INTERSTATE AVE,PINEHURST SQUARE S/C,BISMARK,ND,58503,US,7012581736,46.832890833277,-100.805585832939,,,0
TRADEHOME SHOES,1428470979,GATEWAY MALL,,BISMARCK,ND,58501,US,7012228330,46.83448,-100.77889,,,0
BOOT BARN,350362172,3134 NORTH 11TH STREET,,BISMARCK,ND,58503,US,,46.8398750251256,-100.775482361809,,,0
DICK'S SPORTING GOODS,350369268,HAY CREEK SHOPS,1451 East Lasalle Drive,BISMARCK,ND,58503,US,701-989-7908,46.8493,-100.75512,,,0
SPORTSMAN'S WAREHOUSE,-1155611316,4905 E MAIN STREET,,FARMINGTON,NM,87402,US,,36.766903051903,-108.14812152562,,,0
BOOT BARN,350361864,4601 EAST MAIN,,FARMINGTON,NM,87402,US,,36.7649760747682,-108.152031233641,,,0
FOOT LOCKER,1428469337,4601 EAST MAIN STREET,ANIMAS VALLEY MALL,FARMINGTON,NM,87402,US,5053259474,36.7649760747682,-108.152031233641,,,0
SEARS,350356824,4601 E MAIN ST,,FARMINGTON,NM,87402,US,,36.7649760747682,-108.152031233641,,,0
FOOTACTION,1428477118,4601 EAST MAIN STREET,ANIMAS VALLEY MALL,FARMINGTON,NM,87402,US,5053267695,36.7649760747682,-108.152031233641,,,0
JOURNEYS,1428468323,4601 EAST MAIN STREET,ANIMAS VALLEY MALL,FARMINGTON,NM,87402,US,5053251860,36.7649760747682,-108.152031233641,,,0
DILLARDS,1428467758,4601 EAST MAIN STREET,ANIMAS VALLEY MALL,FARMINGTON,NM,87402,US,5053262681,36.7649760747682,-108.152031233641,,,0
KIDS FOOT LOCKER,1428471831,4601 EAST MAIN STREET,ANIMAS VALLEY MALL,FARMINGTON,NM,87402,US,,36.7649760747682,-108.152031233641,,,0
HIBBETT SPORTING GOODS,1428474499,2116 FREEDOM ROAD #40,TRINIDAD PLAZA,TRINIDAD,CO,81082,US,,37.1860516996529,-104.497709760519,,,0
BROWNS SHOE FIT,1428466043,124 WEST MAIN STREET,,FARMINGTON,NM,87401,US,5053279330,36.72905,-108.205732553191,,,0
BROWNS SHOE FIT,350369740,124 WEST MAIN STREET,,FARMINGTON,NM,87401,US,505-327-9330,36.72905,-108.205732553191,,,0
WORKMAN OUTFITTERS,350360268,1008 SOUTH VISTA AVE,,BOISE,ID,83705,US,208-342-5479,43.595253877551,-116.21366,,,0
D&B SUPPLY-BOISE,350368137,6945 OVERLAND RD,,BOISE,ID,83709,US,208-350-7797,43.5901224390244,-116.268245243902,,,0
DICK'S SPORTING GOODS,350369080,WESTPARK TOWNE PLAZA,131 N Milwaukee Street,BOISE,ID,83704,US,208-999-3475,43.6057960723497,-116.281439669896,,,0
Cabela's,350368755,8109 W. Franklin Road,,Boise,ID,83709,US,(208)-672-7900,43.604966730038,-116.283477224335,,,0
THE SHOE CARNIVAL,1428472342,303 N MILWAUKEE STREET,WESTPARK TOWNE PLAZA,BOISE,ID,83704,US,2083771800,43.6079350124586,-116.283398355608,,,0
THE FINISH LINE,1428468273,350 N MILWAUKEE STREET,BOISE TOWNE SQUARE,BOISE,ID,83704,US,2087050766,43.60831,-116.28406,,,0
JOURNEYS,1428468536,350 N MILWAUKEE STREET,2032 BOISE TOWNE SQUARE,BOISE,ID,83704,US,2083230286,43.60831,-116.28406,,,0
FOOT LOCKER,1428470057,350 NORTH MILWAUKEE ST,BOISE TOWNE SQUARE,BOISE,ID,83704,US,2083753538,43.60831,-116.28406,,,0
DILLARDS,1428467769,350 N MILWAUKEE STREET,BOISE TOWNE SQUARE,BOISE,ID,83704,US,2083214646,43.60831,-116.28406,,,0
MACYS,1428472659,370 N MILWAUKEE STREET,,BOISE,ID,83704,US,2083736000,43.608406153073,-116.284216248744,,,0
SEARS,350356924,460 N MILWAUKEE ST,,BOISE,ID,83704,US,,43.6090905704179,-116.284790818778,,,0
REI,1428465909,8300 WEST EMERALD STREET,,BOISE,ID,83704,US,2083221141,43.6112734228188,-116.285525637584,,,0
BOOT BARN,350362061,8525 W. FRANKLIN ROAD,,BOISE,ID,83709,US,,43.6049509125475,-116.287914030418,,,0
SPORTSMANS WAREHOUSE,1428478774,3797 EAST FAIRVIEW AVENUE,,MERIDAN,ID,83642,US,2088843000,43.6194708588957,-116.347497055215,,,0
DICKS SPORTING GOODS,1428465482,3415 N EAGLE ROAD,,MERIDIAN,ID,83646,US,,43.6359416161616,-116.354317171717,,,0
DICK'S SPORTING GOODS,350369114,CENTRE POINT MARKETPLACE,3415 N Eagle Road,MERIDIAN,ID,83646,US,208-884-2026,43.6359416161616,-116.354317171717,,,0
THE SHOE CARNIVAL,1428472345,3349 N EAGLE RD  # 100,CENTERPOINT MARKETPLACE,MERIDIAN,ID,83646,US,2088845112,43.635314949495,-116.354332626263,,,0
D&B SUPPLY-MERIDAN,350368138,1725 E FAIRVIEW,,MERIDIAN,ID,83642,US,208-887-0949,43.6194659090909,-116.372747954545,,,0
BOOT BARN,350361950,1920 EAST IDAHO STREET,,ELKO,NV,89801,US,,40.8456424626236,-115.749392633756,,,0
MEIJER,1007077039,1355 N LEXINGTON-SPRINGMILL,,MANSFIELD,OH,44906,US,,40.7888476470588,-82.59012,,,0
ELKO GENERAL MERCHANDISE,350365558,416 IDAHO STREET,,ELKO,NV,89801,US,775-738-3295,40.8320040816327,-115.763923061224,,,0
DICK'S SPORTING GOODS,350369115,TREASURE VALLEY CROSSING,16905 N Marketplace Blvd,NAMPA,ID,83687,US,208-546-3433,43.6079,-116.49356,,,0
MACYS,1428472666,1406 N GALLERIA DRIVE,,NAMPA,ID,83687,US,2084636800,43.597285,-116.509539,,,0
THE SHOE CARNIVAL,1428472374,1307 N GALLERIA DRIVE,NAMPA GATEWAY CENTER,NAMPA,ID,83687,US,,43.5957949,-116.5104388,,,0
D&B SUPPLY-NAMPA,350368135,3200 12TH AVE S,,NAMPA,ID,83686,US,208-466-7681,43.53817,-116.57276,,,0
SPORTSMAN'S WAREHOUSE,-1155611317,16865 N MARKET PLACE BLVD,,NAMPA,ID,83687,US,,43.61434,-116.594395959596,,,0
FOOT LOCKER,1428469520,1509 CALDWELL BLVD,KARCHER MALL,NAMPA,ID,83651,US,2084676268,43.6013,-116.59695,,,0
D&B SUPPLY-CALDWELL,350368134,3816 CLEVELAND BLVD,,CALDWELL,ID,83605,US,208-459-7444,43.6424402702703,-116.657671171171,,,0
D&M COWPOKE INC,350367459,THE COWPOKE,7310 2ND AVE,KEARNEY,NE,68847,US,308-236-7418,40.7463115463895,-99.0837942120767,,,0
MEIJER,1007077074,4702 MILAN ROAD,,SANDUSKY,OH,44870,US,,41.41055296875,-82.6664025,,,0
MEIJER,1007076970,2900 COLUMBUS LANCASTER ROAD,,LANCASTER,OH,43130,US,,39.7477524135994,-82.6556434818772,,,0
MEIJER,1007077047,8000 E BROAD ST,,REYNOLDSBURG,OH,43068,US,,39.9855575,-82.7885675,,,0
MEIJER,1007076380,8300 MEIJER DRIVE,,CANAL WINCHESTER,OH,43110,US,,39.848025,-82.77895,,,0
MEIJER,1007076389,5050 N. HAMILTON ROAD,,COLUMBUS,OH,43230,US,,40.059486899717,-82.86340486161,,,0
MEIJER,1007077077,100 POLARIS PARKWAY,,WESTERVILLE,OH,43082,US,,40.1476810013737,-82.9281710288471,,,0
MEIJER,1007077170,5555 CLEVELAND AVENUE,,COLUMBUS,OH,43231,US,,40.08185,-82.95132,,,0
MEIJER,1007076950,2153 MARION-MT. GILEAD ROAD,,MARION,OH,43302,US,,40.5814068965517,-83.0730324137931,,,0
TRADEHOME SHOES,1428470999,5003 2ND AVENUE,HILLTOP MALL,KEARNEY,NE,68847,US,3082349111,40.723192173913,-99.0838786956522,,,0
BROWNS SHOE FIT,1428466050,4105 2ND AVENUE,,KEARNEY,NE,68847,US,3082343660,40.7151033057851,-99.0839378512397,,,0
BROWNS SHOE FIT CO,350361048,4105 2ND AVENUE,,KEARNEY,NE,68847,US,308-234-3660,40.7151033057851,-99.0839378512397,,,0
REDMANS SHOES,350366620,2116 CENTRAL AVENUE,,KEARNEY,NE,68847,US,308-236-5751,40.6967597959184,-99.0817451020408,,,0
TRADEHOME SHOES,1428470981,DAKOTA SQUARE MALL,,MINOT,ND,58701,US,7018625711,48.20408,-101.31145,,,0
DAKOTA SQUARE SCHEELS,-1155615969,MINOT DAKOTA SQUARE,2400 10TH STREET SW,MINOT,ND,58701,US,,48.20818,-101.30673,,,0
FOOT LOCKER,1428470105,2400 10TH STREET SW,DAKOTA SQUARE MALL,MINOT,ND,58701,US,7018522975,48.20818,-101.30673,,,0
MEIJER,1007076999,1380 SUNBURY RD.,,DELAWARE,OH,43015,US,,40.2929793483697,-83.031499599659,,,0
MEIJER,1007076662,205 S. RANGE RD.,,MARYSVILLE,MI,48040,US,,42.9078878846154,-82.4997117307692,,,0
MEIJER,1007076585,8870 COUMBUS PIKE,,LEWIS CENTER,OH,43035,US,,40.1610956,-83.0228118,,,0
MEIJER,1007076642,4775 24TH AVENUE,,FORT GRATIOT,MI,48059,US,,43.0465694597074,-82.4571266306472,,,0
MEIJER,1007076442,6175 SAWMILL ROAD,,DUBLIN,OH,43017,US,,40.0931061290323,-83.0917770967742,,,0
MEIJER,1007076557,36865 26 MILE RD.,,LENOX,MI,48048,US,,42.7205365,-82.74347178125,,,0
MEIJER,1007077080,30800 LITTLE MACK ROAD,,ROSEVILLE,MI,48066,US,,42.5224816107383,-82.9088370469799,,,0
MEIJER,1007076482,27255 TWENTY-THREE MILE,,CHESTERFIELD TOWNSHP,MI,48051,US,,42.67662,-82.82665,,,0
MEIJER,1007076997,2811 LONDON-GROVEPORT RD.,,GROVE CITY,OH,43123,US,,39.839426036948,-83.0790344408276,,,0
JOURNEYS,1428468886,2400 10TH STREET SW,DAKOTA SQUARE MALL,MINOT,ND,58701,US,7018525873,48.20818,-101.30673,,,0
BOOT BARN,350362150,1208 20TH AVENUE SW,,MINOT,ND,58701,US,,48.2110615277819,-101.310210638821,,,0
HOME OF ECONOMY MINOT,350367366,107 20TH AVE SW,,MINOT,ND,58701,US,,48.2107364646465,-101.294705050505,,,0
RONS THE WORK WEAR STORE,846310608,1210 4TH STREET,,ESTEVAN,SK,S4A 0W9,CA,,49.1405077777778,-102.995151111111,,,0
MARKS WORK WEARHOUSE #326,846310473,400 KING STREET,,ESTEVAN,SK,S4A 2B4,CA,,49.1467615966387,-102.977001428571,,,0
MARKS WORK WEARHOUSE #326,1442044352,400 KING STREET,,ESTEVAN,SK,S4A 2B4,CA,(306) 634-3261,49.1467615966387,-102.977001428571,,,0
D&B SUPPLY-ONTARIO,350368133,519 SW 19TH ST,,ONTARIO,OR,97914,US,541-889-9119,44.0244331155779,-116.992304070352,,,0
TRADEHOME SHOES,1428470963,LAKEWOOD MALL,,ABERDEEN,SD,57401,US,6052254200,45.47014,-98.48826,,,0
MEIJER,1007076847,40445 S. GROESBECK HWY.,,CLINTON TWP.,MI,48036,US,,42.5963190909091,-82.9002790909091,,,0
MEIJER,1007076410,1661 HILLIARD-ROME ROAD,,COLUMBUS,OH,43228,US,,39.9845791176471,-83.1507667647059,,,0
MEIJER,1007076744,34835 UTICA ROAD,,FRASER,MI,48026,US,,42.5519336363636,-82.96028,,,0
MEIJER,1007076783,16300 FORT STREET,,SOUTHGATE,MI,48195,US,,42.1895403921569,-83.1829403921569,,,0
MEIJER,1007076735,15055 HALL ROAD,,UTICA,MI,48315,US,,42.62776,-82.97613,,,0
MEIJER,1007077105,29505 MOUND RD.,,WARREN,MI,48092,US,,42.50858,-83.04683,,,0
MEIJER,1007077064,36600 VAN DYKE AVENUE,,STERLING HEIGHTS,MI,48312,US,,42.5626066666667,-83.0293388888889,,,0
MEIJER,1007076330,22600 ALLEN ROAD,,WOODHAVEN,MI,48183,US,,42.1439163173939,-83.2266834210998,,,0
MEIJER,1007076753,3710 DIX HIGHWAY,,LINCOLN PARK,MI,48146,US,,42.2308089285714,-83.1945810714286,,,0
FOOT LOCKER,1428470109,3315 SIXTH AVENUE SE,LAKEWOOD MALL,ABERDEEN,SC,57401,US,6052291124,45.45913,-98.4424649697058,,,0
KALISPELL ARMY NAVY,350363757,2140 HIGHWAY 2 EAST,,KALISPELL,MT,59901,US,406-756-3500,48.2216116,-114.2785952,,,0
THE TOGGERY,1428475642,30 COMMONS WAY,,KALISPELL,MT,59901,US,4067551500,48.2196625581395,-114.330040465116,,,0
SPORTSMAN & SKI HAUS,1428474953,145 HUTTON RANCH ROAD,,KALISPELL,MT,59901,US,4067556484,48.2329786048618,-114.326314833165,,,0
BOOT BARN,350367223,75 TREELINE ROAD,,KALISPELL,MT,59901,US,,48.23727,-114.331446122449,,,0
BORREGOS BOOTERY,350369747,825 PASEO DE ONATE,,ESPANOLA,NM,87532,US,505-753-9822,36.0009616666667,-106.085881666667,,,0
TRADEHOME SHOES,1428471059,CONESTOGA MALL,,GRAND ISLAND,NE,68803,US,3083818292,40.93665,-98.38216,,,0
HIBBETT SPORTING GOODS,1428473804,2300 NORTH WEBB ROAD,GRAND ISLAND MALL,GRAND ISLAND,NE,68803,US,3083848500,40.94352,-98.37871,,,0
MEIJER,1007076666,930 COLEMAN'S CROSSING BLVD.,,MARYSVILLE,OH,43040,US,,40.2280140792658,-83.3392386526825,,,0
MEIJER,1007077182,1301 W. EIGHT MILE RD.,,DETROIT,MI,48203,US,,42.4465553333333,-83.1194486666667,,,0
MEIJER,1007077092,1005 13 MILE ROAD,,MADISON HEIGHTS,MI,48017,US,,42.5202751585483,-83.0954859087878,,,0
MEIJER,1007076707,3565 FAIRLANE DRIVE,,ALLEN PARK,MI,48101,US,,42.2804619456304,-83.2073500572312,,,0
MEIJER,1007076369,14640 PARDEE ROAD,,TAYLOR,MI,48180,US,,42.2000164864865,-83.2581813513514,,,0
MEIJER,1007076345,8401 26 MILE ROAD,,WASHINGTON TWP,MI,48094,US,,42.7138788135593,-83.0320308474576,,,0
MEIJER,1007076449,1700 TELEGRAPH ROAD,,MONROE,MI,48162,US,,41.9451671805163,-83.4026072705361,,,0
MEIJER,1007076891,1725 S. WHEELING STREET,,OREGON,OH,43616,US,,41.6191742857143,-83.4859071428571,,,0
INDUSTRIAL OUTFITTERS,350365004,2276 NORTH WEBB RD,,GRAND ISLAND,NE,68803,US,308-398-2668,40.9431561538462,-98.3787015384615,,,0
DICK'S SPORTING GOODS,350369104,NORTHWEST COMMONS,"2250 N Webb Road, Suite 200",GRAND ISLAND,NE,68803,US,308-392-3226,40.9427185714286,-98.3786971428571,,,0
BROWNS SHOE FIT,1428466049,1004 DIERS AVENUE,,GRAND ISLAND,NE,68803,US,,40.9283368937789,-98.3838052280908,,,0
BROWNS SHOE FIT CO,350361031,1004 DIERS AVENUE,,GRAND ISLAND,NE,68803,US,,40.9283368937789,-98.3838052280908,,,0
DILLARDS,1428467571,3404 WEST 13TH STREET,CONESTOGA MALL,GRAND ISLAND,NE,68803,US,3083845200,40.93155,-98.3809685714286,,,0
FOOT LOCKER,1428469507,3404 WEST 13TH STREET,CONESTOGA MALL,GRAND ISLAND,NE,68803,US,3083821600,40.93155,-98.3809685714286,,,0
WESTERN EDGE,350366638,111 DIERS AVENUE,,GRAND ISLAND,NE,68803,US,308-398-3343,40.9172054992299,-98.38426287939,,,0
CRAZY HOUSE,350365614,3502 CAMPUS DRIVE,PO BOX 2440,GARDEN CITY,KS,67846,US,620-275-1417,38.0015292857143,-100.84747,,,0
MEIJER,1007076634,3175 ROCHESTER ROAD,,ROCHESTER HILLS,MI,48306,US,,42.6341960162602,-83.1316555284553,,,0
MEIJER,1007076614,5150 COOLIDGE HIGHWAY,,ROYAL OAK,MI,48073,US,,42.5380745869009,-83.1850219273409,,,0
MEIJER,1007076322,21431 GRAND RIVER AVE,,DETROIT,MI,48219,US,,42.41429,-83.25208,,,0
MEIJER,1007076892,1500 EAST ALEXIS ROAD,,TOLEDO,OH,43612,US,,41.7229786075949,-83.5111050632911,,,0
MEIJER,1007076680,2200 TIFFIN AVENUE,,FINDLAY,OH,45840,US,,41.0547,-83.60133,,,0
MEIJER,1007077018,13000 MIDDLEBELT RD.,,LIVONIA,MI,48150,US,,42.3787184240688,-83.3334759598854,,,0
MEIJER,1007077185,28800 TELEGRAPH RD.,,SOUTHFIELD,MI,48034,US,,42.49932,-83.28497,,,0
MARKS WORK WEARHOUSE #047,1442044129,1240 SIMS AVENUE,,WEYBURN,SK,S4H 3N9,CA,(306) 842-0787,49.6637114409834,-103.877444431642,,,0
MARKS WORK WEARHOUSE #047,846310280,1240 SIMS AVENUE,,WEYBURN,SK,S4H 3N9,CA,,49.6637114409834,-103.877444431642,,,0
RONS THE WORK WEAR STORE,846310607,112 2ND STREET NE,,WEYBURN,SK,S4H 0T8,CA,,49.66194,-103.85512,,,0
WILLIS SHOE & BOOT,350365177,379 NORTH WALNUT,,GRAND ISLAND,NE,68801,US,308-384-1534,40.9266394736842,-98.3447768421053,,,0
FOOT LOCKER,1428470097,2214 EAST KANSAS AVENUE,GARDEN CITY MALL,GARDEN CITY,KS,67846,US,6202763037,37.9767642857143,-100.845055714286,,,0
TRADEHOME SHOES,1428471016,2214 EAST KANSAS AVENUE,GARDEN CITY PLAZA,GARDEN CITY,KS,67846,US,3162729556,37.9767642857143,-100.845055714286,,,0
HIBBETT SPORTING GOODS,1428473839,2204 EAST KANSAS AVENUE,SPACE 6,GARDEN CITY,KS,67846,US,6202756368,37.9766612244898,-100.845180204082,,,0
MEIJER,1007076586,2111 EAST WOOSTER STREET,,BOWLING GREEN,OH,43402,US,,41.37442,-83.60867,,,0
MEIJER,1007076920,10065 MEIJER DRIVE,,ROSSFORD,OH,43460,US,,41.5455335623261,-83.5897519683401,,,0
MEIJER,1007076368,37201 WARREN ROAD,,WESTLAND,MI,48185,US,,42.33422,-83.40838,,,0
MEIJER,1007076881,9701 BELLEVILLE ROAD,,BELLEVILLE,MI,48111,US,,42.2316843358819,-83.485710436236,,,0
MEIJER,1007076483,1391 CONANT STREET,,MAUMEE,OH,43537,US,,41.5805910161357,-83.6647809376362,,,0
MEIJER,1007077119,800 BROWN RD.,,AUBURN HILLS,MI,48326,US,,42.7075873127735,-83.2891322907897,,,0
MEIJER,1007076425,45001 FORD ROAD,,CANTON,MI,48187,US,,42.3220661678981,-83.4825629503892,,,0
DICK'S SPORTING GOODS,350368876,SCHULMAN CROSSING,1540 Lareu Street,GARDEN CITY,KS,67846,US,620-805-3442,37.9748,-100.82775,,,0
WHITEFISH ARMY NAVY,1007071347,6382 US HGHWY 93 SOUTH,,WHITEFISH,MT,59937,US,,48.3923772,-114.3357505,,,0
RONS THE WORK WEAR STORE,846310810,202 MAIN STREET,,RLYLE CARLYLE,SK,S0C 0R0,CA,,49.3809626415094,-102.757302641509,,,0
THE TOGGERY,1428475640,122 CENTRAL AVENUE,,WHITEFISH,MT,59937,US,4068622271,48.411395389211,-114.336764240749,,,0
HIBBETT SPORTING GOODS,1428474141,3609 CIMARRON PLAZA,SUITE 190,HASTING,NE,68901,US,4024622526,40.6205015092132,-98.3852184673881,,,0
MARKS WORK WEARHOUSE #323,846310471,1811 22ND AVENUE NE,,SWIFT CURRENT,SK,S9H 5B7,CA,,50.3087275,-107.7749938,,,0
MARKS WORK WEARHOUSE #323,1442044350,1811 22ND AVENUE NE,,SWIFT CURRENT,SK,S9H 5B7,CA,(306) 773-9211,50.3087315,-107.7751098,,,0
MEIJER,1007076509,20401 HAGGERTY ROAD,,NORTHVILLE,MI,48167,US,,42.436706091851,-83.4352105154684,,,0
MEIJER,1007076947,4200 HIGHLAND ROAD,,WATERFORD,MI,48328,US,,42.6518373913043,-83.3697314492754,,,0
MEIJER,1007076582,7240 W. CENTRAL AVENUE,,TOLEDO,OH,43617,US,,41.6737438461538,-83.7167456410256,,,0
MEIJER,1007076599,900 N. LAPEER RD.,,OXFORD,MI,48371,US,,42.840438339932,-83.2737948230932,,,0
MEIJER,1007076578,1703 HAGGERTY ROAD,,COMMERCE,MI,48390,US,,42.5454667464709,-83.4385627851029,,,0
MEIJER,1007077073,49900 GRAND RIVER AVENUE,,WIXOM,MI,48393,US,,42.49535,-83.5408,,,0
MEIJER,1007076387,3825 CARPENTER ROAD,,YPSILANTI,MI,48197,US,,42.23322,-83.680135,,,0
MARKS WORK WEARHOUSE #033,1442044119,1971 STRACHAN ROAD SE,,MEDICINE HAT,AB,T1B 0G4,CA,(403) 529-9560,49.99677,-110.64507625,,,0
MARKS WORK WEARHOUSE #033,846310270,1971 STRACHAN ROAD SE,,MEDICINE HAT,AB,T1B 0G4,CA,,49.99677,-110.64507625,,,0
SHOE WAREHOUSE,-1953392011,CORNERSTONE POWER,1940 STRACHAN ROAD,MEDICINE HAT,AB,T1B 4K4,CA,,49.9972,-110.64603,,,0
THE BAY,1390471987,MEDICINE HAT SHOPPING MLL,3292 DUNMORE ROAD SE,MEDICINE HAT,AB,T1B 2R4,CA,(403) 526-7888,50.0064285714286,-110.645251428571,,,0
SEARS,1390472155,MEDICINE HAT MALL,3292 DUNMORE ROAD SE,MEDICINE HAT,AB,T1B 2R4,CA,(780) 526-5552,50.0064285714286,-110.645251428571,,,0
QUARKS,1518550172,MEDICINE HAT MALL,# 216-3292 DUNMORE RD SE,MEDICINE HAT,AB,T1B 2R4,CA,(403) 527-1727,50.0228571046771,-110.667057839644,,,0
URBAN TRAIL #2256,-1532970122,205-3292 DUNMORE RD SE,,MEDICINE HAT,AB,T1B 2R4,CA,,50.0228839309577,-110.667104510022,,,0
MEIJER,1007077023,6001 HIGHLAND RD.,,WHITE LAKE,MI,48383,US,,42.64903,-83.52955,,,0
MEIJER,1007077127,1555 DEMILLE ROAD,,LAPEER,MI,48446,US,,43.0433388294314,-83.3235959866221,,,0
MEIJER,1007076516,3145 SALINE ROAD,,ANN ARBOR,MI,48103,US,,42.2394291,-83.7660225,,,0
MEIJER,1007076774,1500 HILLCREST AVENUE,,SPRINGFIELD,OH,45504,US,,39.941952182384,-83.83290475568,,,0
MEIJER,1007076673,8650 WEST GRAND RIVER ROAD,,BRIGHTON,MI,48116,US,,42.5399444827586,-83.7860355172414,,,0
MEIJER,1007076531,2160 HARTLAND RD.,,HARTLAND,MI,48353,US,,42.6367707184027,-83.7464243104164,,,0
MEIJER,1007077079,217 EAST US 223,,ADRIAN,MI,49221,US,,41.8750381632653,-84.0356963265306,,,0
HOME OF ECONOMY JAMESTOWN,350367833,2400 8TH AVE SW,STE C1,Jamestown,ND,58401-6631,US,,46.88334,-98.71926,,,0
KOST FIRE-SAFETY,846310639,677-14 STREET SW,,MEDICINE HAT,AB,T1A 4V5,CA,,50.02615,-110.702207941176,,,0
TRADEHOME SHOES,1428470970,YANKTON MALL,,YANKTON,SD,57078,US,6056653408,42.88896,-97.4269,,,0
Bomgaars,350368677,2300 Broadway Ave,,Yankton,SD,57078,US,605-665-5694,42.89435,-97.39739,,,0
THE SHOE CARNIVAL,1428472332,625 W TELEGRAPH STREET,COTTON MILL II,WASHINGTON,UT,84780,US,,37.1285683188133,-113.519756877634,,,0
SPORTSMANS WAREHOUSE,1428478791,2957 EAST 850 NORTH,,SAINT GEORGE,UT,84790,US,4356347300,37.1233786221322,-113.520953047695,,,0
HIBBETT SPORTING GOODS,1428473692,2918 VINE STREET,THE MALL AT HAYS,HAYS,KS,67601,US,7856280560,38.889472195122,-99.3177578048781,,,0
MEIJER,1007076940,G2333 SOUTH CENTER ROAD,,BURTON,MI,48519,US,,42.9814,-83.63343,,,0
MEIJER,1007077012,3298 ELIDA ROAD,,LIMA,OH,45805,US,,40.77039,-84.16526,,,0
MEIJER,1007077156,3883 E. GRAND RIVE,,HOWELL,MI,48843,US,,42.587745,-83.8767314285714,,,0
MEIJER,1007076577,2474 W. HILL ROAD,,FLINT,MI,48507,US,,42.9439542359679,-83.7293284146619,,,0
MEIJER,1007076466,7150 EXECUTIVE BLVD.,,HUBER HEIGHTS,OH,45424,US,,39.8706702120786,-84.1037043107445,,,0
MEIJER,1007077032,3822 COLONEL GLENN HIGHWAY,,FAIRBORN,OH,45324,US,,39.7758391665709,-84.073468044003,,,0
MEIJER,1007076348,4141 MORRISH RD.,,SWARTZ CREEK,MI,48473,US,,42.9683726262626,-83.8307658585859,,,0
TRADEHOME SHOES,1428470975,2918 VINE STREET,CENTENNIAL MALL,HAYS,KS,67601,US,7856257473,38.889472195122,-99.3177578048781,,,0
VANDERBILTS,1428475582,2704 VINE STREET,SUITE A,HAYS,KS,67601,US,7856283257,38.88673,-99.31778,,,0
VANDERBILTS,1428475000,2704 VINE STREET,SUITE A,HAYS,KS,67601,US,9136283257,38.88673,-99.31778,,,0
VANDERBILTS,350363832,"2704 VINE STREET, STE A",,HAYS,KS,67601,US,785-628-3257,38.88673,-99.31778,,,0
BROWNS SHOE FIT,1428466017,2520 VINE STREET,CENTENNIAL MALL,HAYS,KS,67601,US,7856252711,38.88344,-99.31783,,,0
FOOTACTION,1428477115,4250 CERRILLOS ROAD,VILLA LINDA MALL,SANTA FE,NM,87592,US,5054734221,35.63619,-106.01889,,,0
BOOT BARN,350361859,4250 CERRILLOS ROAD,,SANTA FE,NM,87507,US,,35.63619,-106.01889,,,0
MEIJER,1007077134,137 ELLIOTT RD.,,DEFIANCE,OH,43512,US,,41.3120616238181,-84.3640911229151,,,0
MEIJER,1007076951,1900 WEST MAIN STREET,,TROY,OH,45373,US,,40.05589,-84.24067,,,0
MEIJER,1007076778,4075 WILMINGTON PIKE,,DAYTON,OH,45440,US,,39.6871359867023,-84.1299597266272,,,0
MEIJER,1007076889,9200 NORTH MAIN STREET,,DAYTON,OH,45415,US,,39.85592,-84.2764442465754,,,0
MEIJER,1007076681,5858 SPRINGBORO PIKE,,DAYTON,OH,45449,US,,39.6710234,-84.2220288,,,0
MEIJER,1007076773,3333 E. MICHIGAN AVENUE,,JACKSON,MI,49202,US,,42.2571251425868,-84.3590700368294,,,0
MEIJER,1007076890,2591 EAST M-21,,CORUNNA,MI,48817,US,,42.99852,-84.1168,,,0
MEIJER,1007076772,2777 AIRPORT ROAD,,JACKSON,MI,49202,US,,42.2746868279705,-84.4529826301932,,,0
DILLARDS,1428467757,4250 CERRILLOS ROAD,VILLA LINDA MALL,SANTA FE,NM,87505,US,5054732900,35.63619,-106.01889,,,0
FOOT LOCKER,1428469383,4250 CERRILLOS ROAD,SANTA FE PLACE,SANTA FE,NM,87507,US,5054243571,35.63619,-106.01889,,,0
KIDS FOOT LOCKER,1428471825,4250 CERRILLOS ROAD,SANTA FE PLACE,SANTA FE,NM,87507,US,,35.63619,-106.01889,,,0
JOURNEYS,1428468411,4250 CERRILLOS ROAD,VILLA LINDA MALL,SANTA FE,NM,87592,US,5054241999,35.63619,-106.01889,,,0
NEVES UNIFORMS INC,350369762,2538 CAMINO ENTRADA,,SANTA FE,NM,87507,US,505-474-3828,35.6352231264659,-106.024456997655,,,0
DILLARDS,1428467763,1850 E RED CLIFFS DRIVE,RED CLIFFS MALL,SAINT GEORGE,UT,84790,US,4356344900,37.11893,-113.5439,,,0
MEIJER,1007076864,3651 TOWNE BLVD,,FRANKLIN,OH,45005,US,,39.4996796457761,-84.328661272139,,,0
MEIJER,1007077017,595 N. PINE RD.,,BAY CITY,MI,48708,US,,43.5821170707071,-83.8368842424242,,,0
MEIJER,1007076639,1082 SR 28,,MILFORD,OH,45150,US,,39.1971963,-84.2375274,,,0
MEIJER,1007076785,3911 W. STATE ROAD 22-3,,LOVELAND,OH,45140,US,,39.2936993155321,-84.2949600136961,,,0
MEIJER,1007077180,550 HULL ROAD,,MASON,MI,48854,US,,42.56624,-84.4429849494949,,,0
MEIJER,1007076435,3360 TITTABAWASSEE ROAD,,SAGINAW,MI,48604,US,,43.4801066129032,-83.9828174193548,,,0
FOOT LOCKER,1428469770,1770 RED CLIFF DRIVE,RED CLIFFS MALL,ST GEORGE,UT,84790,US,,37.1181504064463,-113.545613605941,,,0
JOURNEYS,1428468805,1770 E RED CLIFFS DRIVE,RED CLIFFS MALL,SAINT GEORGE,UT,84790,US,4356880684,37.1181504064463,-113.545613605941,,,0
DICKS SPORTING GOODS,-1155611300,RED ROCKS COMMONS,15 S RIVER ROAD STE 240,ST GEORGE,UT,84790,US,,37.1081680457991,-113.554786286554,,,0
DICK'S SPORTING GOODS,350369227,RED ROCK COMMONS,"15 South River Rd, Suite 240",ST GEORGE,UT,84790,US,435-673-4261,37.1081680457991,-113.554786286554,,,0
ORCHARDS SHOE SHOP,350363377,546 THAIN ROAD,,LEWISTON,ID,83501,US,208-743-0981,46.3744209996555,-116.967258162302,,,0
ORCHARDS SHOE SHOP,1428475031,546 THAIN ROAD,,LEWISTON,ID,83501,US,2087430981,46.3744209996555,-116.967258162302,,,0
MARKS WORK WEARHOUSE #248,1442044294,5212 48TH AVENUE,,TABER,AB,T1G 1S1,CA,(403) 223-4311,49.788196122449,-112.15446,,,0
TRADEHOME SHOES,1428471050,SUNSET PLAZA MALL,,NORFOLK,NE,68701,US,4023794811,42.0306,-97.43825,,,0
MEIJER,1007076574,2055 WEST GRAND RIVER ROAD,,OKEMOS,MI,48864,US,,42.7216962156814,-84.4251772940883,,,0
MEIJER,1007077167,7290 TYLERSVILLE ROAD,,WEST CHESTER,OH,45069,US,,39.3563755225115,-84.3830725122144,,,0
MEIJER,1007077015,887 EASTGATE NORTH ROAD,,CINCINNATI,OH,45245,US,,39.0961827612715,-84.2650707812203,,,0
MEIJER,1007076624,8400 GRATIOT ROAD,,SAGINAW,MI,48609,US,,43.4159548484849,-84.0796281818182,,,0
MEIJER,1007076626,2980 W. WILDER ROAD,,BAY CITY,MI,48706,US,,43.623972195122,-83.9320263414634,,,0
MEIJER,1007076714,6200 S. PENNSYLVANIA AVENUE,,LANSING,MI,48911,US,,42.66794,-84.53814,,,0
MEIJER,1007076702,4825 B MARBURG AVE,,CINCINNATI,OH,45209,US,,39.1621104081633,-84.4246753061225,,,0
MEIJER,1007076700,12821 CROSS OVER DR.,,DEWITT,MI,48820,US,,42.8300351219512,-84.54296,,,0
FOOTACTION,1428476584,1300 WEST FRONTAGE ROAD,RIO WEST MALL,GALLUP,NM,87301,US,5058632494,35.53268,-108.655,,,0
RENEGADE STORES LLC,350366161,1700 MARKET LANE,UNIT 390,NORFOLK,NE,68701,US,402-371-0866,42.0187,-97.43185,,,0
BROWNS SHOE FIT CO,350360889,803 SOUTH 13TH STREET,,NORFOLK,NE,68701,US,402-371-0932,42.0244772006774,-97.4265012739204,,,0
BROWNS SHOE FIT,1428466027,803 SOUTH 13TH STREET,,NORFOLK,NE,68701,US,4023710932,42.0244772006774,-97.4265012739204,,,0
BOOT BARN,350361838,804 NORTH US HIGHWAY 491,,GALLUP,NM,87301,US,,35.5335762,-108.7573567,,,0
Bomgaars,350368680,1100 W Omaha Ave,,Norfolk,NE,68701,US,402-371-6667,42.01824,-97.42155,,,0
CITY ELECTRIC SHOE SHOP,350369735,230 WEST COAL AVENUE,,GALLUP,NM,87301,US,505-863-5252,35.527137826087,-108.742770434783,,,0
HIBBETT SPORTING GOODS,1428474357,1752 WEST MALONEY AVENUE,DOLLAR TREE CENTER,GALLUP,NM,87301,US,5057229269,35.5237804560142,-108.777736684483,,,0
SPORTSMAN'S WAREHOUSE#226,-1155611315,2002 THAIN GRADE,,LEWSOTON,ID,83501,US,,46.4008803530076,-117.001956935002,,,0
MEIJER,1007076988,6325 S. GILMORE ROAD,,FAIRFIELD,OH,45014,US,,39.3051615384615,-84.5235584615385,,,0
MEIJER,1007077183,1560 MAIN STREET,,HAMILTON,OH,45013,US,,39.4283352148489,-84.5985345947964,,,0
MEIJER,1007076573,5125 WEST SAGINAW HIGHWAY,,LANSING,MI,48917,US,,42.7410016551724,-84.6223843448276,,,0
MEIJER,1007076629,1350 WEST LAKE LANSING,,LANSING,MI,48823,US,,42.7493324006458,-84.6284489319794,,,0
MEIJER,1007076428,5400 ALEXANDRIA PIKE,,COLD SPRING,KY,41076,US,,39.0001895633552,-84.4196761281381,,,0
MEIJER,1007076901,10301 SR 37 HIGHWAY,,FORT WAYNE,IN,46835,US,,41.1303746,-85.0116726,,,0
MEIJER,1007077126,3711 STONECREEK BLVD.,,CINCINNATI,OH,45251,US,,39.2530144127395,-84.6007783974621,,,0
MEIJER,1007076915,2990 NORTH WAYNE ST.,,ANGOLA,IN,46703,US,,41.66996,-84.99964,,,0
MACYS,1428472667,1806 19TH AVENUE,,LEWISTON,ID,83501,US,2087986000,46.4009520100502,-117.006357336683,,,0
SEARS,1390472158,TOWN N COUNTRY MALL,1235 MAIN STREET NORTH,MOOSE JAW,SK,S6H 6M4,CA,(306) 692-7851,50.4042752941176,-105.534538823529,,,0
KIDS FOOT LOCKER,1428471881,1300 W I-40  SP 214,RIO WEST MALL,GALLUP,NM,87301,US,,35.50566,-108.72059,,,0
MARKS WORK WEARHOUSE #325,846310472,473 THATCHER DRIVE EAST,,MOOSE JAW,SK,S6J 1L8,CA,,50.4118247043248,-105.523161782893,,,0
MARKS WORK WEARHOUSE #325,1442044351,473 THATCHER DRIVE EAST,,MOOSE JAW,SK,S6J 1L8,CA,(306) 692-0606,50.4118247043248,-105.523161782893,,,0
HOFFMAN BOOTS,1007071295,100 E. RIVERSIDE,(blank),KELLOGG,ID,83837,US,,47.53843,-116.11741,,,0
FOOT LOCKER,1428469392,1300 WEST I-40,RIO WEST MALL,GALLUP,NM,87301,US,5058635550,35.50403,-108.84011,,,0
JOURNEYS,1428468890,1300 W I-40 FRONTAGE RD,RIO WEST MALL,GALLUP,NM,87301,US,5057229345,35.50403,-108.84011,,,0
MEIJER,1007076556,730 E. SAGINAW HWY,,GRAND LEDGE,MI,48837,US,,42.7408431313131,-84.7409194949495,,,0
MEIJER,1007076902,2507 CHESTER BLVD.,,RICHMOND,IN,47374,US,,39.8688749962984,-84.8884994558327,,,0
MEIJER,1007077143,7300 EASTMAN ROAD,,MIDLAND,MI,48642,US,,43.6639709774436,-84.2471962406015,,,0
MEIJER,1007077022,6550 HARRISON ROAD,,CINCINNATI,OH,45247,US,,39.1936366666667,-84.6600488888889,,,0
MEIJER,1007076910,620 EAST CHICAGO ROAD,,COLDWATER,MI,49036,US,,41.9372406303725,-85.0561681088825,,,0
MEIJER,1007076331,6309 LIMA ROAD,,FORT WAYNE,IN,46818,US,,41.1368204015336,-85.1616896129245,,,0
MEIJER,1007076745,4990 HOUSTON ROAD,,FLORENCE,KY,41042,US,,39.0133690666799,-84.6404924705533,,,0
MEIJER,1007076960,5909 ILLINOIS ROAD,,FORT WAYNE,IN,46804,US,,41.07448,-85.2165095959596,,,0
MEIJER,1007076711,2805 WEST CHEESMAN RD.,,ALMA,MI,48801,US,,43.4007187807006,-84.6629024189198,,,0
RONS THE WORK WEAR STORE,846310609,202 MAIN STREET,,CARLYLE,SK,S0C 0R0,CA,,49.6333027494952,-102.267625921286,,,0
MARKS WORK WEARHOUSE #267,846310441,3728 MAYOR MAGRATH DR S,,LETHBRIDGE,AB,T1K 7V1,CA,,49.65748,-112.79284,,,0
MARKS WORK WEARHOUSE #267,1442044307,3728 MAYOR MAGRATH DR S,,LETHBRIDGE,AB,T1K 7V1,CA,(403) 381-0800,49.65748,-112.79284,,,0
HIBBETT SPORTING GOODS,1428474266,2500 7TH STREET,,LAS VEGAS,NM,87701,US,5054549162,35.6198115955434,-105.225421262572,,,0
POPULAR DRY GOODS,350369748,119 BRIDGE STREET,,LAS VEGAS,NM,87701,US,505-425-7272,35.5936448580329,-105.224243711912,,,0
SEARS,1390472149,PARK PLACE    UNIT 65,401 1ST AVENUE SOUTH,LETHBRIDGE,AB,T1J 4L8,CA,(780) 329-6666,49.67173,-112.86389,,,0
MARKS WORK WEARHOUSE #035,846310272,1240 2A AVENUE N,,LETHBRIDGE,AB,T1H 0E4,CA,,49.700669,-112.8270329,,,0
MARKS WORK WEARHOUSE #035,1442044121,1240 2A AVENUE N,,LETHBRIDGE,AB,T1H 0E4,CA,(403) 380-3248,49.7010714,-112.8285548,,,0
MEIJER,1007077019,6405 B DRIVE NORTH,,BATTLE CREEK,MI,49014,US,,42.2610865932358,-85.1710302436114,,,0
MEIJER,1007076848,2770 S. STATE RD.,,IONIA,MI,48846,US,,42.9477082717023,-85.0747172826651,,,0
MEIJER,1007076360,1015 PICKARD STREET,,MT. PLEASANT,MI,48858,US,,43.61172,-84.7880040449438,,,0
MEIJER,1007077013,6260 W. MCGOLLIARD ROAD,,MUNCIE,IN,47304,US,,40.2183576071934,-85.4588826805013,,,0
MEIJER,1007076907,2155 PAUL JONES WAY,,LEXINGTON,KY,40509,US,,38.0207374595595,-84.4204133176708,,,0
MEIJER,1007077101,1251 M 32 W,,ALPENA,MI,49707,US,,45.0615810606686,-83.4770857251355,,,0
MEIJER,1007076728,5800 GULL ROAD,,KALAMAZOO,MI,49001,US,,42.3256863253012,-85.5169559036145,,,0
MEIJER,1007076596,351 W. REYNOLDS RD.,,LEXINGTON,KY,40503,US,,37.993767979798,-84.5310987878788,,,0
SHOE WAREHOUSE,-1953392008,CENTRE VILLAGE,"1240 2ND ""A"" AVENUE NORTH",LETHBRIDGE,AB,T1H 0E4,CA,,49.7010714,-112.8285548,,,0
PROGRESS CLOTHING,1390472453,108-114 5TH STREET SOUTH,,LETHBRIDGE,AB,T1J 2B2,CA,(403) 327-2717,49.69771,-112.840521836735,,,0
SPENCE HARDWARE & SUPPLY,350365661,915 WHITE AVENUE,,MOSCOW,ID,83843,US,208-883-8131,46.72277,-116.988785714286,,,0
CABELA'S CANADA,-1532970053,4901 GORDON RD,,REGINA,SK,R2C 4S2,CA,,50.40546,-104.647391365462,,,0
URBAN TRAIL,-1712998061,17A-2965 GORDON ROAD,,REGINA,SK,S4S 6H7,CA,,50.403537,-104.6225188,,,0
MARK'S WORK WEARHOUSE 381,1774286825,2715 GORDON RD,,REGINA,SK,S4S 6H7,CA,,50.4045522147651,-104.621242281879,,,0
QUARKS,1518550170,SOUTHLAND MALL 49-2965,GORDON ROAD,REGINA,SK,S4S 6H7,CA,(306) 347-8092,50.4046,-104.61606,,,0
CROWN ENTERPRISES,-1155616138,DBA TRI-STATE,1104 PULLMAN ROAD,MOSCOW,ID,83843,US,2088824555,46.7328822697167,-117.016373140373,,,0
MEIJER,1007077075,800 US 131,,THREE RIVERS,MI,49093,US,,41.9531117070225,-85.6471906725668,,,0
MEIJER,1007076994,8850 SHAVER RD.,,PORTAGE,MI,49024,US,,42.18782,-85.60174,,,0
MEIJER,1007076933,5121 S. WESTNEDGE AVENUE,,PORTAGE,MI,49002,US,,42.242894581336,-85.5895741764167,,,0
MEIJER,1007077078,11901 FULTON ST.,,LOWELL,MI,49331,US,,42.930725,-85.3736125,,,0
MEIJER,1007076809,606 S. GREENVILLE WEST DR.,,GREENVILLE,MI,48838,US,,43.174017344828,-85.27967,,,0
MEIJER,1007076784,6610 SCATTERFIELD ROAD,,ANDERSON,IN,46013,US,,40.0490132723534,-85.6526786544707,,,0
MEIJER,1007076952,6660 WEST MAIN STREET,,KALAMAZOO,MI,49009,US,,42.2957673170732,-85.6814095121951,,,0
MEIJER,1007076708,1200 LAKE CITY HWY,,WARSAW,IN,46580,US,,41.2632209280783,-85.8413217263991,,,0
TRI-STATE DISTRIBUTORS,1428465949,1104 PULLMAN ROAD,,MOSCOW,ID,83843,US,2088824555,46.7328822697167,-117.016373140373,,,0
TIMBER COUNTRY,350363702,825 MAIN STREET,,SAINT MARIES,ID,83861,US,208-245-2312,47.3162624489796,-116.568077142857,,,0
TIMBER COUNTRY,1428475538,823-825 MAIN STREET,,SAINT MARIES,ID,83861,US,2082451802,47.316262244898,-116.568055714286,,,0
FORT WESTERN,350364094,3315 21ST STREET,,COLUMBUS,NE,68601,US,402-563-3678,41.4368028571429,-97.3684742857143,,,0
MACYS,1428472668,2132 WEST PULLMAN ROAD,,MOSCOW,ID,83843,US,2088926000,46.7325082978723,-117.030774255319,,,0
SHOE WAREHOUSE,-1953392016,GOLDEN MILE,3806 ALBERT STREET,REGINA,SK,S4S 3R2,CA,,50.4186359734981,-104.618112547635,,,0
MEIJER,1007076481,5531 28TH STREET SE,,GRAND RAPIDS,MI,49512,US,,42.91293,-85.5316,,,0
MEIJER,1007077046,4522 ELKHART ROAD,,GOSHEN,IN,46526,US,,41.6271081632653,-85.9073359183674,,,0
MEIJER,1007076434,1801 MARKETPLACE DR. S.E.,,CALEDONIA,MI,49316,US,,42.8447718785039,-85.6196087883874,,,0
MEIJER,1007076791,1997 EAST BELTINE AVENUE NE,,GRAND RAPIDS,MI,49525,US,,42.9986111111111,-85.5904933333333,,,0
MEIJER,1007076859,5500 CLYDE PARK SW,,WYOMING,MI,49509,US,,42.86404,-85.68375,,,0
MEIJER,1007077161,3757 PLAINFIELD AVENUE N.E.,,GRAND RAPIDS,MI,49525,US,,43.0315069454389,-85.627488867849,,,0
MEIJER,1007076761,2799 10 MILE ROAD,,ROCKFORD,MI,49341,US,,43.1170176086957,-85.6003604347826,,,0
WESTERN EDGE,350366637,701 N LINCOLN AVENUE,,YORK,NE,68467,US,402-362-4881,40.86793,-97.593,,,0
YORK BOOT N REPAIR,1428479047,514 GRANT AVENUE,,YORK,NE,68467,US,4023625063,40.8660355898977,-97.5917978697242,,,0
TRADEHOME SHOES,1428470986,2516 13TH STREET,,COLUMBUS,NE,68801,US,4024654015,41.4292932653061,-97.3583740816327,,,0
HIBBETT SPORTING GOODS,1428474353,24TH ST COULUMBER,THE VILLAGE CENTER 124,COLUMBUS,NE,68601,US,4025631866,41.4396,-97.35194,,,0
BROWNS SHOE FIT CO,350360850,825 23RD STREET STE 300,CLOCK TOWER COURT,COLUMBUS,NE,68601,US,402-562-6499,41.4384121276596,-97.335875106383,,,0
BROWNS SHOE FIT,1428466007,825 23RD STREET  STE 300,CLOCK TOWER COURT,COLUMBUS,NE,68601,US,4025626499,41.4384121276596,-97.335875106383,,,0
MARKS WORK WEARHOUSE #240,846310425,2220 WILLOW PLACE,,REGINA,SK,S4V 3A4,CA,,50.423107,-104.523821,,,0
CODA CLOTHING,1518550201,2326 ALBERT STREET,,REGINA,SK,S4P 2V7,CA,(306) 522-2632,50.4419959302976,-104.618223521348,,,0
MEIJER,1007076719,2425 ALPINE NW,,GRAND RAPIDS,MI,49544,US,,43.0074009998537,-85.6886579148874,,,0
MEIJER,1007076832,3434 CENTURY CENTER DRIVE,,GRANDVILLE,MI,49418,US,,42.8816334738201,-85.7459802085782,,,0
MEIJER,1007076503,"315 WILSON AVE., N.W.",,GRAND RAPIDS,MI,49534,US,,42.9688098837758,-85.7762736780935,,,0
MEIJER,1007076837,17000 MERCANTILE BLVD.,,NOBLESVILLE,IN,46060,US,,40.0338,-85.99361,,,0
MEIJER,1007077028,0-550 BALDWIN STREET,,JENISON,MI,49428,US,,42.90717,-85.81761,,,0
MEIJER,1007077090,2301 E. MARKLAND AVENUE,,KOKOMO,IN,46901,US,,40.47672,-86.100856,,,0
MEIJER,1007077107,11351 E. WASHINGTON STREET,,INDIANAPOLIS,IN,46229,US,,39.7760959183673,-85.9649632653061,,,0
MEIJER,1007076543,8375 E. 96TH STREET,,INDIANAPOLIS,IN,46256,US,,39.92721,-86.0194729414231,,,0
THE BAY,1390471976,CORNWALL CENTRE,2150 11TH AVENUE,REGINA,SK,S4P 0J5,CA,(306) 525-8511,50.44884,-104.61231,,,0
SOFT-MOC,1442044093,CORNWALL CENTRE MALL,2102 - 11TH AVENUE,REGINA,SK,S4P 3Y6,CA,(306) 757-1035,50.44884,-104.61231,,,0
TRAV'S OUTFITTER INC,350349158,1631 3RD AVE SW,,Watertown,SD,57201,US,,44.89941,-97.1402370454545,,,0
ROYAL SHOES & MEDICAL,1390472629,SUPPLIES,1640 ALBERT STREET,REGINA,SK,S4S 3E4,CA,(306) 586-2651,50.4528644897959,-104.618221836735,,,0
TRAV'S OUTFITTER INC,350365037,515 10TH STREET NW,,Watertown,SD,57201,US,,44.9070857142857,-97.1319071428571,,,0
SEARS,1390472147,CORNWALL CENTRE,1720 HAMILTON STREET,REGINA,SK,M5B 2B8,CA,(306) 569-1344,50.45829,-104.61227,,,0
SOLEMAN FOOTWEAR COMPANY,846310584,3239 E QUANCE STREET,,REGINA,SK,S4V 3B7,CA,,50.4444504535559,-104.536786292394,,,0
MARKS WORK WEARHOUSE #240,1442044288,2220 WILLOW PLACE,,REGINA,SK,S4V 3A4,CA,(306) 789-2990,50.443275959596,-104.530177979798,,,0
THE SHOE COMPANY,1390471736,REGINA POWER CENTRE  #4,2038 PRINCE OF WALES DR,REGINA,SK,S4V 3A6,CA,(306) 781-0033,50.4461085,-104.5331195,,,0
MEIJER,1007076489,3610 S. BREMEN HIGHWAY,,MISHAWAKA,IN,46544,US,,41.6278205660377,-86.1767711320755,,,0
MEIJER,1007076420,15400 WALDRON WAY,,BIG RAPIDS,MI,49307,US,,43.6893499888573,-85.5133799480007,,,0
MEIJER,1007076486,5020 GRAPE ROAD,,MISHAWAKA,IN,46545,US,,41.7058377434745,-86.187517484395,,,0
MEIJER,1007076685,1425 WEST CARMEL DRIVE,,CARMEL,IN,46032,US,,39.97137,-86.1547408239777,,,0
MEIJER,1007076684,3600 NORTH PORTAGE ROAD,,SOUTH BEND,IN,46628,US,,41.72611,-86.28824,,,0
MEIJER,1007077082,5325 E. SOUTHPORT ROAD,,INDIANAPOLIS,IN,46237,US,,39.6659944262295,-86.0775206557377,,,0
MEIJER,1007077118,746 E. 16TH STREET,,HOLLAND,MI,49423,US,,42.78321,-86.07631,,,0
MEIJER,1007076480,3320 W. SHORE DRIVE,,HOLLAND,MI,49424,US,,42.8280029877023,-86.0926263698526,,,0
TRADEHOME SHOES,1428471024,WATERTOWN MALL,,WATERTOWN,SD,57201,US,6058821101,44.9124,-97.12008,,,0
FOOT LOCKER,1428470096,2601 CENTRAL AVENUE,VILLAGE SQUARE MALL,DODGE CITY,KS,67801,US,6202272337,37.7786042424242,-100.016264848485,,,0
HIBBETT SPORTING GOODS,1428473713,2601 CENTRAL AVENUE,SPACE 20,DODGE CITY,KS,67801,US,6202270832,37.7786042424242,-100.016264848485,,,0
BROWNS SHOE FIT CO,350360972,1701 NORTH 14TH AVENUE,,DODGE CITY,KS,67801,US,620-227-8779,37.7645106030151,-100.032849849246,,,0
BROWNS SHOE FIT,1428466045,1701 NORTH 14TH AVENUE,,DODGE CITY,KS,67801,US,3162278779,37.7645106030151,-100.032849849246,,,0
WORK AUTHORITY-REGINA,846310766,341 PARK STREET,,REGINA,SK,S4N 5B2,CA,,50.4729026530612,-104.579765714286,,,0
FOOT LOCKERC FITTERS,1428470110,1300 NINTH AVENUE,WATERTOWN MALL,WATERTOWN,SD,57201,US,6058824171,44.89005,-97.09556,,,0
LEVITT-SAFETY,1390472612,644 HENDERSON DRIVE,,REGINA,SK,S4N 5X3,CA,(306) 721-7455,50.4739474266995,-104.574185028791,,,0
MEIJER,1007077005,1223 PHOENIX ST.,,SOUTH HAVEN,MI,49090,US,,42.4035,-86.2579321804272,,,0
MEIJER,1007077137,150 S. MARLIN DRIVE,,GREENWOOD,IN,46142,US,,39.6156251898734,-86.1596855696203,,,0
MEIJER,1007076396,4100 TOWNE CENTER DRIVE,,LOUISVILLE,KY,40241,US,,38.29685,-85.55478,,,0
MEIJER,1007076337,5349 PIKE PLAZA ROAD,,INDIANAPOLIS,IN,46254,US,,39.83001,-86.25314,,,0
MEIJER,1007076477,8605 EAST 34 ROAD,,CADILLAC,MI,49601,US,,44.2813013740458,-85.4065942748092,,,0
MEIJER,1007076376,6650 WHITESTOWN PARKWAY,,ZIONSVILLE,IN,46077,US,,39.97107,-86.3175,,,0
MEIJER,1007076733,1920 PIPESTONE ROAD,,BENTON HARBOR,MI,49022,US,,42.08307,-86.41884,,,0
MARKS WORK WEARHOUSE #044,1442044127,3915 ROCHDALE BOULEVARD,,REGINA,SK,S4X 4P7,CA,(306) 949-8118,50.4965701305459,-104.636390703839,,,0
MARKS WORK WEARHOUSE #044,846310278,3915 ROCHDALE BOULEVARD,,REGINA,SK,S4X 4P7,CA,,50.4965701305459,-104.636390703839,,,0
WOT CORNYWEAR LTD,-1532970035,NORWOOD,2401 11TH AVENUE,REGINA,SK,S4P 0K4,CA,,50.493,-104.61426,,,0
LIBBY SPORTS CENTER,350368261,204 W 9TH ST,,LIBBY,MT,59923-1877,US,406-293-4641,48.3883248730888,-115.555882493255,,,0
HIBBETT SPORTING GOODS,1428473744,1509 NORTH KANSAS AVENUE,,LIBERAL,KS,67901,US,6206241775,37.0542365475515,-100.922268178348,,,0
BROWNS SHOE FIT CO,350360857,1413 NORTH KANSAS AVENUE,,LIBERAL,KS,67901,US,620-624-2921,37.053366,-100.9222786,,,0
BROWNS SHOE FIT,1428466010,1413 NORTH KANSAS AVENUE,,LIBERAL,KS,67901,US,6206242921,37.053366,-100.9222786,,,0
MEIJER,1007076338,10841 E. US 36,,AVON,IN,46123,US,,39.7637,-86.3297522727273,,,0
MEIJER,1007076746,4500 S. HURSTBOURNE PKWY,,LOUISVILLE,KY,40299,US,,38.18795,-85.60542,,,0
MEIJER,1007076594,15000 US 31,,GRAND HAVEN,MI,49417,US,,43.0383892982456,-86.22014,,,0
MEIJER,1007076993,2750 ALLISON LANE,,JEFFERSONVILLE,IN,47130,US,,38.32087,-85.71123,,,0
MEIJER,1007076365,5019 RED ARROW HWY,,STEVENSVILLE,MI,49127,US,,42.0277070989332,-86.5178227624655,,,0
MEIJER,1007077120,10509 HEARTLAND BLVD.,,CAMBY,IN,46113,US,,39.6396862019385,-86.3347849505513,,,0
MEIJER,1007076842,5300 HARVEY ST.,,MUSKEGON,MI,49444,US,,43.156493,-86.205741,,,0
MEIJER,1007076474,400 DAN JONES RD.,,PLAINFIELD,IN,46168,US,,39.71266,-86.38082,,,0
HIBBETT SPORTING GOODS,1428474484,2103 N HIGHWAY 64,,GUYMON,OK,73942,US,,36.70213,-101.48442,,,0
MACYS,1428472714,10129 COORS BOULEVARD NW,,ALBUQUERQUE,NM,87114,US,,35.2006225,-106.64942625,,,0
KIDS FOOT LOCKER,1428471986,1000 COORS BYPASS NW,COTTONWOOD MALL,ALBUQUERQUE,NM,87114,US,,35.19793,-106.66061,,,0
SHOES ON A SHOESTRING,1428477222,10030 COORS BYPASS NW,,ALBUQUERQUE,NM,87114,US,5058812221,35.1969195739481,-106.659933486507,,,0
BOOT BARN,350361839,10020 Coors Bypass NW,,ALBUQUERQUE,NM,87114,US,,35.196606782041,-106.659565494857,,,0
UNDERGROUND STATION,1428466531,10000 COORS BYPASS NW,COTTONWOOD MALL,ALBUQUERQUE,NM,87114,US,,35.19604,-106.65878,,,0
JOURNEYS,1428468963,10000 COORS BYPASS NW,COTTONWOOD MALL,ALBUQUERQUE,NM,87114,US,5058971240,35.19604,-106.65878,,,0
SEARS,350356004,10000 COORS BYPASS NW,,ALBUQUERQUE,NM,87114,US,,35.19604,-106.65878,,,0
MEIJER,1007076388,4222 CHARLESTOWN RD.,,NEW ALBANY,IN,47150,US,,38.3500487419622,-85.7957975194884,,,0
MEIJER,1007077057,700 WEST NORTON AVENUE,,MUSKEGON,MI,49441,US,,43.1907738095238,-86.2616084126984,,,0
MEIJER,1007076361,1800 HOLTON ROAD,,N. MUSKEGON,MI,49445,US,,43.2852,-86.22316,,,0
MEIJER,1007076417,9500 PRESTON HIGHWAY,,LOUISVILLE,KY,40229,US,,38.11152,-85.68095,,,0
MEIJER,1007077152,9905 DIXIE HIGHWAY,,LOUISVILLE,KY,40272,US,,38.1131983390204,-85.8625804655227,,,0
MEIJER,1007077164,4900 M 72 E,,WILLIAMSBURG,MI,49690,US,,44.7727506535821,-85.4777252153139,,,0
MEIJER,1007076981,5150 S. FRANKLIN STREET,,MICHIGAN CITY,IN,46360,US,,41.6726890726711,-86.8939886366781,,,0
MEIJER,1007077084,4901 STATE STREET ROAD 26N,,LAFAYETTE,IN,47905,US,,40.3995834,-86.8670503,,,0
ROBERT WAYNE FOOTWEAR,1428467964,10000 COORS BYPASS NW,COTTONWOOD MALL,ALBUQUERQUE,NM,87114,US,5058993144,35.19604,-106.65878,,,0
FOOTACTION,1428476695,10000 COORS BYPASS NW,COTTONWOOD MALL,ALBUQUERQUE,NM,87114,US,,35.19604,-106.65878,,,0
DILLARDS,1428467755,10000 COORS BYPASS NW,COTTONWOOD MALL,ALBUQUERQUE,NM,87114,US,5058982530,35.19604,-106.65878,,,0
DICK'S SPORTING GOODS,-1155611211,ADDRESS TO FOLLOW,,SIOUX FALLS,SD,57106,US,,43.51791,-96.80731,,,0
BOOT BARN,350361951,1460 W WINNEMUCCA BLVD,,WINNEMUCCA,NV,89445,US,,40.9627347348796,-117.744879860469,,,0
TRADEHOME SHOES,1428471046,EMPIRE MALL,,SIOUX FALLS,SD,57106,US,6053617977,43.51216,-96.77709,,,0
MEIJER,1007077063,3955 US 31 HIGHWAY SOUTH,,TRAVERSE CITY,MI,49684,US,,44.7450247651214,-85.6393076397974,,,0
MEIJER,1007076452,2636 US52 (SAGAMORE PKY),,WEST LAFAYETTE,IN,47906,US,,40.4675292715656,-86.9551834146898,,,0
MEIJER,1007076652,3900 WEST US10,,LUDINGTON,MI,49431,US,,43.9561688278048,-86.3790915765871,,,0
MEIJER,1007077094,6050 US HIGHWAY 6,,PORTAGE,IN,46368,US,,41.5505576,-87.1809726,,,0
MEIJER,1007077049,15 CABERFAE HWY,,MANISTEE,MI,49660,US,,44.2678325338971,-86.2984514184816,,,0
MEIJER,1007076802,611 US 30,,MERRILLVILLE,IN,46410,US,,41.482169777479,-87.4358477760121,,,0
MEIJER,1007076692,10138 INDIANAPOLIS BLVD,,HIGHLAND,IN,46322,US,,41.52968125,-87.471171875,,,0
MEIJER,1007076712,5600 NEW MARGARET AVE,,TERRE HAUTE,IN,47803,US,,39.4416,-87.33946,,,0
MEIJER,1007076560,3649 N. VERMILION ST.,,DANVILLE,IL,61832,US,,40.1867584450433,-87.6296290191364,,,0
JOURNEYS,1428468330,1000 WEST EMPIRE MALL,,SIOUX FALLS,SD,57106,US,6053626257,43.5129372363485,-96.77709,,,0
THE FINISH LINE,1428468290,4001 WEST 41ST STREET,EMPIRE MALL,SIOUX FALLS,SD,57106,US,6053615049,43.51485,-96.77449,,,0
RENEGADE STORES LLC,1007075430,4001 W 41ST ST,STE 920A,SIOUX FALLS,SD,57106,US,,43.51485,-96.77449,,,0
MACYS,1428472562,4001 WEST 41ST STREET,,SIOUX FALLS,SD,57106,US,,43.51485,-96.77449,,,0
RUDOLPHS SHOES,1428466300,3405 SOUTH LOUISE AVENUE,,SIOUX FALLS,SD,57106,US,6053629369,43.5148036363636,-96.7710795959596,,,0
THE SHOE CARNIVAL,1428472309,2816 S LOUISE AVENUE,RIVERWOOD PLAZA S/C,SIOUX FALLS,SD,57106,US,6053625799,43.5193895182813,-96.7711657714139,,,0
RUDOLPHS SHOE MART,350351570,3405 S LOUISE AVE,,SIOUX FALLS,SD,57106,US,605-362-9369,43.5148036363636,-96.7710795959596,,,0
DICKS SPORTING GOODSS,-1155611273,COTTONWOOD PLACE,3550 STATE HWY 528 NW,ALBUQUERQUE,NM,87114,US,,35.1631,-106.65458,,,0
MEIJER,1007076572,11305 LINCOLN HIGHWAY,,MOKENA,IL,60448,US,,41.503999,-87.892442,,,0
MEIJER,1007076508,14169 S. BELL RD.,,HOMER GLEN,IL,60491,US,,41.6311023529412,-87.93112,,,0
BOOT BARN,350362192,2805 W. 41ST STREET,,SIOUX FALLS,SD,57105,US,,43.51483,-96.759872244898,,,0
SIOUX FALLS SCHEELS,-1155615421,2101 WEST 41ST STREET,,SIOUX FALLS,SD,57105,US,,43.51487,-96.75105,,,0
BOOT BARN,350361865,6210 SAN MATEO NE,,ALBUQUERQUE,NM,87109,US,,35.14693,-106.58634,,,0
THE SHOE BOX,1428474871,4580 LINCOLN ROAD NE,SUITE C,ALBUQUERQUE,NM,87109,US,5058729413,35.1421598600431,-106.59218674453,,,0
DAKOTA WORKWEAR,350367292,330 WEST 41ST ST,,SIOUX FALLS,SD,57105,US,,43.51488,-96.7294466666667,,,0
SPORTSMANS WAREHOUSE,1428478785,1450 RENAISSANCE BLVD NE,,ALBUQUERQUE,NM,87107,US,5057619900,35.1374053816337,-106.613252813092,,,0
Cavender's,350368733,1431-A Mercantile Ave NE,,Albuquerque,NM,87107,US,505-344-2069,35.135393407837,-106.610489810157,,,0
REI,1428465893,1550 MERCANTILE AVENUE NE,,ALBUQUERQUE,NM,87107,US,5052471191,35.1354482954302,-106.607854488843,,,0
GREAT OUTDOOR STORE,1428478982,201 EAST 10TH STREET,,SIOUX FALLS,SD,57104,US,6053351132,43.54599,-96.72531,,,0
SHOES ON A SHOESTRING,1428477221,7200 MONTGOMERY BLVD NE,SUITE F1,ALBUQUERQUE,NM,87109,US,5058812221,35.13066,-106.56586,,,0
THE SHOE BOX,1428474872,3530 PAN AMERICAN FRWY NE,SUITE G,ALBUQUERQUE,NM,87107,US,5058729413,35.1217989945453,-106.622680502727,,,0
QC SUPPLY,350365662,"574 ROAD 11, PO BOX 581",,SCHUYLER,NE,68661,US,402-352-3167,41.46297,-97.0581254,,,0
DILLARDS,1428467756,3100 LOUISIANA BLVD,WINROCK MALL,ALBUQUERQUE,NM,87110,US,5058835900,35.1182436842105,-106.568790526316,,,0
FOOT LOCKER,1428469766,4414 MENAUL BOULEVARD NE,SUITE 1,ALBUQUERQUE,NM,87110,US,5058883894,35.1091498076923,-106.593778461538,,,0
BOOT BARN,350361554,CORONADO CENTER,6600 MENAUL BOULEVARD NE,ALBUQUERQUE,NM,87110,US,,35.10883,-106.57451,,,0
UNDERGROUND STATION,1428466632,6600 MENAUL BOULEVARD NE,CORONADO CENTER,ALBUQUERQUE,NM,87110,US,,35.10904,-106.57095,,,0
MACYS,1428472709,900 CORONADO CENTER,6600 MENAUL BLVD NE,ALBUQUERQUE,NM,87110,US,5058892100,35.10904,-106.57095,,,0
JOURNEYS,1428468951,6600 MENAUL BOULEVARD NE,CORONADO CENTER,ALBUQUERQUE,NM,87110,US,,35.10904,-106.57095,,,0
FOOT LOCKER,1428469575,6600 MENAUL BOULEVARD NE,CORONADO CENTER,ALBUQUERQUE,NM,87110,US,5058841780,35.10904,-106.57095,,,0
SHOE FITTERS,-1155616140,CORONADO MALL,6600 MENAUL SUITE 383,ALBUQUERQUE,NM,87110,US,5058840005,35.10883,-106.57451,,,0
SEARS,350354723,6600 MENAUL BLVD NE S700,,ALBUQUERQUE,NM,87110,US,,35.10904,-106.57095,,,0
NEVES UNIFORMS INC,350369761,2520 SAN MATEO BLVD NE,,ALBUQUERQUE,NM,87110,US,505-266-0507,35.1079846397694,-106.586420329683,,,0
KIDS FOOT LOCKER,1428471931,6600 MENAUL BOULEVARD NE,CORONADO CENTER,ALBUQUERQUE,NM,87110,US,,35.10904,-106.57095,,,0
DICK'S SPORTING GOODS,350369417,CORONADO MALL,"6600 Menaul Blvd. Ne, Suite 2000-1",ALBUQUERQUE,NM,87110,US,505-884-4415,35.10883,-106.57451,,,0
ROBERT WAYNE FOOTWEAR,1428467963,6600 MENAUL BOULEVARD NE,CORONADO CENTER,ALBUQUERQUE,NM,87110,US,5058722494,35.10904,-106.57095,,,0
THE FINISH LINE,1428468272,6600 MENAUL BOULEVARD NE,CORONADO CENTER,ALBUQUERQUE,NM,87110,US,5058898010,35.10904,-106.57095,,,0
CHAMPS SPORTS,-1155610958,CORONADO CENTER,6600 MENAUL BOULEVARD NE,ALBUQUERQUE,NM,87110,US,,35.10883,-106.57451,,,0
RACK ROOM SHOES,1428467280,4900 CUTLER AVENUE NE,PAVILIONS AT SAN MATEO,ALBUQUERQUE,NM,87110,US,5058885464,35.10552,-106.5897,,,0
THE GIZMO STORE,350369726,410 CENTRAL AVENUE SW,,ALBUQUERQUE,NM,87102,US,505-863-5252,35.0834436734694,-106.64323755102,,,0
DICK'S SPORTING GOODS,-1155611215,ADDRESS TO FOLLOW,ALBUQUERQUE (UPTOWN),ALBUQUERQUE,NM,87001,US,,35.0545561,-106.5816638,,,0
FINAN MCDONALD CLOTHING,-1155616095,COEUR D'ALENE PLAZA,210 SHERMAN AVENUE,COEUR D'ALENE,ID,83814,US,,47.67494,-116.75498,,,0
MACYS,1428472665,200 WEST HANLEY AVENUE,SILVER LAKE MALL,COEUR D'ALENE,ID,83815,US,,47.7299289285714,-116.787659642857,,,0
HIBBETT SPORTING GOODS,1428474064,3709 10TH STREET,,GREAT BEND,KS,67530,US,6207922585,38.36179,-98.7889418778669,,,0
BROWNS SHOE FIT,1428466035,1305 MAIN STREET,,GREAT BEND,KS,67530,US,6207924482,38.3644924512222,-98.76513,,,0
MARKS WORK WEARHOUSE #030,846310267,1060 2ND STREET WEST,,BROOKS,AB,T1R 0N8,CA,,50.578777755102,-111.897146122449,,,0
MARKS WORK WEARHOUSE #030,1442044116,1060 2ND STREET WEST,,BROOKS,AB,T1R 0N8,CA,(403) 362-6400,50.578777755102,-111.897146122449,,,0
RUNNING SUPPLY,350367638,1706 MORNINGSIDE DRIVE,,MILBANK,SD,57252,US,,45.22663,-96.60882,,,0
Cabela's,350368756,101 North Cabela Way,,Post Falls,ID,83854,US,(208)-777-6300,47.70056,-117.03555,,,0
BOMGAARS,1007075402,1805 ZENITH DR,(blank),SIOUX CITY,IA,51103,US,,42.492094320754,-96.4331641376407,,,0
Bomgaars,350368676,1732 Hamilton Blvd,,Sioux City,IA,51103,US,712.226.5200,42.5087659742595,-96.4166438042502,,,0
Bomgaars,350368687,120 2nd St NW,,Pipestone,MN,56164,US,507-825-4133,44.0014320408163,-96.3179140816327,,,0
FINAN MCDONALD CLOTHING,-1155616096,301 NORTH FIRST AVENUE,,SANDPOINT,ID,83864,US,,48.27482,-116.54779,,,0
CRETE LUMBER & FARM,350366627,1600 W 12TH STREET,,CRETE,NE,68333,US,402-826-2197,40.623,-96.98053,,,0
ANDYS BOOT SHOP,350369714,1910 MAIN STREET,,LOS LUNAS,NM,87031,US,505-865-5888,34.8027703161396,-106.711414553868,,,0
DICK'S SPORTING GOODS,350368932,SPOKANE VALLEY MALL,14014 East Indiana Avenue,SPOKANE VALLEY,WA,99216,US,509-891-0977,47.68105,-117.15583,,,0
"DP SALES, INC",350364095,3529 SINGING HILLS BLVD,,SIOUX CITY,IA,51106,US,712-293-1957,42.436867259023,-96.3626986596609,,,0
VIRDEN FOOTWEAR,846310587,220 WEST NELSON STREET,,VIRDEN,MB,R0M 2C0,CA,,49.8502939336043,-100.931050302523,,,0
FOOT LOCKER,1428469178,4400 SERGEANT ROAD,SOUTHERN HILLS MALL,SIOUX CITY,IA,51106,US,7122763358,42.44815,-96.35026,,,0
JOURNEYS,1428468597,4400 SERGEANT ROAD,SOUTHERN HILLS MALL,SIOUX CITY,IA,51106,US,7122761403,42.44815,-96.35026,,,0
SCHEELS,1428466902,4400 SERGEANT ROAD,SOUTHERN HILLS MALL,SIOUX CITY,IA,51106,US,7122521551,42.44815,-96.35026,,,0
RUDOLPHS SHOE MART,350351560,4510 SOUTHERN HILLS DR,,SIOUX CITY,IA,51106-4729,US,712-276-2727,42.4410524999821,-96.3511831521451,,,0
RUDOLPHS FLORSHEIM,1428466299,4510 SOUTHERN HILLS DRIVE,,SIOUX CITY,IA,51106,US,7122762727,42.4410524999821,-96.3511831521451,,,0
SEARS,350356873,4480 SERGEANT RD,,SIOUX CITY,IA,51106,US,,42.4477191874621,-96.3477678882278,,,0
BOOT BARN,350362146,SOUTHERN HILLS MALL,440 SARGEANT ROAD,SIOUX CITY,IA,51106,US,,42.44042,-96.3441,,,0
TRADEHOME SHOES,1428470992,SOUTHERN HILLS MALL,,SIOUX CITY,IA,51106,US,7122769096,42.44042,-96.3441,,,0
SIOUX CITY SCHEELS,-1155615420,SOUTHERN HILLS MALL,4400 SERGEANT ROAD #54,SIOUX CITY,IA,51106,US,,42.44042,-96.3441,,,0
THE SHOE CARNIVAL,1428472278,5001 SERGEANT ROAD,LAKEPORT COMMONS,SIOUX CITY,IA,51106,US,7122742490,42.445349146516,-96.3407406195648,,,0
MACYS,1428472664,14740 EAST INDIANA AVENUE,,SPOKANE,WA,99201,US,5096266000,47.6758461614219,-117.20589139109,,,0
MACYS,1428472661,14740 E INDIANA AVENUE,SPOKANE VALLEY MALL,SPOKANE,WA,99216,US,5098936000,47.6758461614219,-117.20589139109,,,0
SEARS,350356946,14720 E INDIANA AVE,,SPOKANE,WA,99216,US,,47.6761143489642,-117.206867832062,,,0
Bomgaars,350368681,5901 Gordon Dr,,Sioux City,IA,51106,US,712-224-3000,42.4757123105236,-96.332012771732,,,0
JOURNEYS,1428468541,14700 EAST INDIANA STREET,2114 SPOKANE VALLEY MALL,SPOKANE,WA,99216,US,5098921537,47.67607,-117.21087,,,0
DICK'S SPORTING GOODS,-1155611250,14014 EAST INDIANA AVE,,SPOKANE VALLEY,WA,992161451,US,,47.6759123750205,-117.213466799541,,,0
MACYS,1428472700,54 EAST MAIN STREET,,WALLA WALLA,WA,99362,US,5095276000,46.0672925,-118.338031666667,,,0
Bomgaars,350368457,1967 N Main Ave,,Sioux Center,IA,51250,US,712-722-2500,43.0985946733668,-96.1757016080402,,,0
BOOT BARN,1007072458,5605 E SPRAGUE AVE,(blank),SPOKANE VALLEY,CA,99212,US,,47.6571331543624,-117.329868926174,,,0
"WHITE'S BOOTS, INC.",350365379,4002 EAST FERRY AVENUE,,SPOKANE,WA,99202,US,,47.66087,-117.350991543624,,,0
HIBBETT SPORTING GOODS,1428474338,1543 NORTH PARK DRIVE,NOART PARK PLAZA,WINSLOW,AZ,86047,US,9282892389,35.0361169491525,-110.697887118644,,,0
BOB SELF SHOES,350365706,618 S DUMAS AVENUE,,DUMAS,TX,79029,US,,35.8596687755102,-101.97328,,,0
HIBBETT SPORTING GOODS,1428474133,1534 GUYLANE PLAZA,,DUMAS,TX,79029,US,8069340693,35.8490344634574,-101.97512,,,0
MARKS WORK WEARHOUSE #230,846310417,1791 B 9TH AVENUE,,FERNIE,BC,V0B 1M5,CA,,49.5168637,-115.0579533,,,0
MARKS WORK WEARHOUSE #230,1442044279,1791 B 9TH AVENUE,,FERNIE,BC,V0B 1M5,CA,(250) 423-3695,49.517231,-115.0586252,,,0
HITCHIN POST,1428465992,144 NORTH 14TH STREET,,LINCOLN,NE,68508,US,4024763432,40.8141073469388,-96.70111,,,0
NORDSTROM,1428465759,828 WEST MAIN AVENUE,,SPOKANE,WA,99201,US,5094556111,47.6590171428571,-117.423954285714,,,0
THE GENERAL STORE,350363919,2424 N DIVISION STREET,,SPOKANE,WA,99207,US,,47.68014,-117.411186666667,,,0
DICKINSON IMPLEMENT CO,350369745,1301 EAST ROUTE 66,,TUCUMCARI,NM,88401,US,575-461-2740,35.1718101010101,-103.710958282828,,,0
FORT TUFF,350368023,3630 CORNHUSKER HWY,,LINCOLN,NE,68504-1531,US,402-413-9020,40.8442927598035,-96.6675424521346,,,0
REI,1428465888,NORTH 1125 MONROE STREET,,SPOKANE,WA,99201,US,5093289900,47.6674030612245,-117.42668244898,,,0
SEARS,350356442,4700 N DIVISION ST,,SPOKANE,WA,99207,US,,47.70127,-117.41112,,,0
JOURNEYS,1428468617,4750 N DIVISION STREET,NORTHTOWN MALL,SPOKANE,WA,99207,US,5094893036,47.7015806060606,-117.41112,,,0
FOOT LOCKER,1428469785,4750 N DIVISION STREET,NORTHTOWN MALL,SPOKANE,WA,99207,US,5094820667,47.7015806060606,-117.41112,,,0
NORDSTROM,-1155615363,NORTHTOWN MALL,4750 N DIVISION STREET,SPOKANE,WA,99207,US,,47.7015806060606,-117.41112,,,0
MACYS,1428472662,NORTH 4770 DIVISION,NORTHTOWN MALL,SPOKANE,WA,99207,US,5094826800,47.7017048484849,-117.41112,,,0
JOURNEYS,1428468580,4650 NORTH HIGHWAY 89,FLAGSTAFF MALL,FLAGSTAFF,AZ,86004,US,9287141706,35.22317,-111.58367,,,0
FOOT LOCKER,1428470059,4650 NORTH HIGHWAY 89,FLAGSTAFF MALL,FLAGSTAFF,AZ,86004,US,9285278082,35.22317,-111.58367,,,0
DILLARDS,1428467751,4700 NORTH HIGHWAY 89,FLAGSTAFF MALL,FLAGSTAFF,AZ,86004,US,5205265541,35.22317,-111.58367,,,0
RACK ROOM SHOES,1428467424,4650 NORTH HIGHWAY 89,FLAGSTAFF MALL  SP #B038,FLAGSTAFF,AZ,86004,US,,35.22317,-111.58367,,,0
HANEY SHOE STORE,350365702,6133 HAVELOCK AVENUE,,LINCOLN,NE,68507,US,402-466-7175,40.8570534693878,-96.6367393877551,,,0
VON MAUR,1428466916,2900 PINE LAKE ROAD,SOUTH POINT PAVILLION,LINCOLN,NE,68516,US,4024209100,40.7401600976231,-96.6795056945229,,,0
JOURNEYS,1428468491,2910 PINE LAKE ROAD,SOUTH POINTE PAVILION,LINCOLN,NE,68516,US,4024216771,40.7402183496039,-96.6793676157538,,,0
LINCOLN SCHEELS,-1155615423,2960 PINE LAKE ROAD,SUITE B,LINCOLN,NE,68516,US,,40.7407450936078,-96.6780247191766,,,0
LINCOLN SCHEELS,1428475618,2960 PINE LAKE ROAD,SUITE B,LINCOLN,NE,68516,US,4024209000,40.7407450936078,-96.6780247191766,,,0
DILLARDS,1428467570,6100 O STREET,GATEWAY MALL,LINCOLN,NE,68505,US,4024647451,40.81343,-96.63854,,,0
FOOT LOCKER,1428470107,6100 O STREET,GATEWAY MALL,LINCOLN,NE,68505,US,4024667725,40.81343,-96.63854,,,0
TRADEHOME SHOES,1428471044,GATEWAY MALL,,LINCOLN,NE,68505,US,4024641020,40.8154599,-96.63599,,,0
SEARS,350356601,6400 O ST,,LINCOLN,NE,68510,US,,40.81339,-96.63466,,,0
FORT WESTERN OUTFITTERS,1428475779,5601 SOUTH 56TH STREET,,LINCOLN,NE,68516,US,4024213678,40.7571095304792,-96.64439,,,0
FORT WESTERN,350364092,5601 SOUTH 56TH STREET,,LINCOLN,NE,68516,US,402-421-3678,40.7571095304792,-96.64439,,,0
BOOT BARN,350361798,2700 S WOODLANDS,SUITE 500,FLAGSTAFF,AZ,86001,US,,35.17573,-111.66739,,,0
GANDER MOUNTAIN,1428474690,2121 43RD STREET SW,,FARGO,ND,58104,US,7012779979,46.8467857034368,-96.8561106074141,,,0
GANDER MOUNTAIN,350369448,2121 43RD STREET SW,,FARGO,ND,58104,US,701-277-9979,46.8467857034368,-96.8561106074141,,,0
FARGO SCHEELS,1428466515,1551 45TH STREET SW,,FARGO,ND,58103,US,7012982918,46.8573252608069,-96.8620146299056,,,0
FARGO SCHEELS ALL SPORTS,-1155615413,1551 45TH STREET SOUTH,,FARGO,ND,58103,US,,46.8573252608069,-96.8620146299056,,,0
THE SHOE CARNIVAL,1428472362,4340 13TH AVENUE SW,TJ MAXX PLAZA S/C SP 40M,FARGO,ND,58103,US,,46.861705,-96.8562166666667,,,0
HOME OF ECONOMY WAREHOUSE,1007075151,2165 42ND ST N,(blank),GRAND FORKS,ND,58203,US,,47.9862073695195,-97.7316281398652,,,0
BOOT BARN,350362136,WEST ACRES MALL,#301 D,FARGO,ND,58103,US,,46.8578863,-96.8462136,,,0
MACYS,1428472563,1 WEST ACRES CENTER,,FARGO,ND,58102,US,,46.8584892,-96.8463263,,,0
JOURNEYS,1428468319,3902 13TH AVENUE SW,WEST ACRES S/C,FARGO,ND,58103,US,7012775010,46.8615984269663,-96.8465321348314,,,0
SEARS,350356643,3902 13TH AVE S STE 600,,FARGO,ND,58103,US,,46.8615984269663,-96.8465321348314,,,0
FOOT LOCKER,1428469339,3902 13TH AVENUE SW,WEST ACRES SHOP CENTER,FARGO,ND,58103,US,7012822165,46.8615984269663,-96.8465321348314,,,0
HIBBETT SPORTING GOODS,1428474232,2317 NORTH 6TH STREET,AIRPARK CENTER  BAY 4,BEATRICE,NE,68310,US,4022280427,40.2888696259722,-96.7471471161409,,,0
FARGO SOUTH SCHEELS,1428466514,3202 13TH AVENUE SOUTH,,FARGO,ND,58103,US,7012982918,46.8614804081633,-96.8301575510204,,,0
KARLS TV & APPLIANCE,350367391,3515 W MAIN AVE,,FARGO,ND,58103,US,,46.8763518793357,-96.8368028883742,,,0
BROWNS SHOE FIT CO,350360921,509 COURT STREET,,BEATRICE,NE,68310,US,,40.2658691836735,-96.7480581632653,,,0
BROWNS SHOE FIT,1428466031,509 COURT STREET,,BEATRICE,NE,68310,US,4022233109,40.2658691836735,-96.7480581632653,,,0
SHENG HOUSE FURNISHINGS,846310612,724 PARK AVENUE,,ESTERHAZY,SK,S0A 0X0,CA,,50.6535171,-102.0785641,,,0
QC SUPPLY,350365696,21206 CUMBERLAND DRIVE,,ELKHORN,NE,68022,US,402-289-1607,41.2663861449331,-96.2464964833641,,,0
TRADEHOME SHOES,1428471025,MOORHEAD CENTER MALL,,MOORHEAD,MN,56560,US,2182360232,46.8763673,-96.7729319,,,0
DICK'S SPORTING GOODS,-1155611227,ADDRESS TO FOLLOW,,SALINA,KS,67401,US,,38.82903,-97.60978,,,0
BROWNS SHOE FIT CO,350361018,2150 PLANET AVENUE,,SALINA,KS,67401,US,785-823-2146,38.8040375510204,-97.6131597959184,,,0
BROWNS SHOE FIT,1428466048,2150 PLANET AVENUE,,SALINA,KS,67401,US,7858232146,38.8040375510204,-97.6131597959184,,,0
JOURNEYS,1428468826,2259 SOUTH 9TH STREET,CENTRAL MALL,SALINA,KS,67401,US,7858261721,38.8016029983758,-97.6126992855486,,,0
FOOT LOCKER,1428469583,2259 SOUTH 9TH STREET,CENTRAL MALL,SALINA,KS,67401,US,7858237399,38.8016029983758,-97.6126992855486,,,0
HIBBETT SPORTING GOODS,1428473762,2259 SOUTH 9TH STREET,CENTRAL MALL,SALINA,KS,67401,US,7858275100,38.8016029983758,-97.6126992855486,,,0
"RACK ROOM SHOES, INC.",-1155612705,21407 NEBRASKA CROSSING,STE J-10,GRETNA,NE,68028,US,,41.0999436,-96.2508668,,,0
DICK'S SPORTING GOODS,350369125,MID STATE PLAZA,2450 9th Street,SALINA,KS,67401,US,785-827-3540,38.79634,-97.61292,,,0
SCHEELS ALL SPORTS,1428475619,17202 DAVENPORT STREET,,OMAHA,NE,68118,US,4022895666,41.2609087307901,-96.1837671641666,,,0
OMAHA SCHEELS,-1155615415,17202 DAVENPORT STREET,,OMAHA,NE,68118,US,,41.2609087307901,-96.1837671641666,,,0
SOFT-MOC,1442044096,SHOPPERS MALL,1570 - 18TH STREET,BRANDON,MB,R7A 5C5,CA,(240) 727-4653,49.82633,-99.962,,,0
SHOE WAREHOUSE,-1953392003,BRANDON SHOPPERS,1570-18TH STREET,BRANDON,MB,R7A 5C5,CA,,49.82633,-99.962,,,0
VANDERBILTS,1428474999,3005 ENTERPRISE DRIVE,,SALINA,KS,67401,US,9138237027,38.7834916767652,-97.6075415148892,,,0
VANDERBILTS,1428475581,3005 ENTERPRISE DRIVE,,SALINA,KS,67401,US,7858237027,38.7834916767652,-97.6075415148892,,,0
VANDERBILTS,350363831,3005 ENTERPRISE DR,,SALINA,KS,67401,US,785-823-7027,38.7834916767652,-97.6075415148892,,,0
VANDERBILTS,350348951,3005 ENTERPRISE DRIVE,,SALINA,KS,67401,US,785-823-7027,38.7834916767652,-97.6075415148892,,,0
RUNNINGS SUPPLY INC,350367353,911 MICHIGAN RD,,MARSHALL,MN,56258,US,,44.4666810204082,-95.8005624489796,,,0
URBAN TRAIL,-1712998058,71-1570 18TH STREET,,BRANDON,MB,R7A 5C5,CA,,49.848782447633,-99.96202,,,0
NEW SYSTEM STORE,846310588,619 ROSSER AVENUE,,BRANDON,MB,R7A 0K6,CA,,49.8484618367347,-99.9462471428571,,,0
UNION SHOE BRANDON LTD,1390472748,618 ROSSER AVENUE,,BRANDON,MB,R7A 0K7,CA,(204) 727-2806,49.8484618367347,-99.9462471428571,,,0
MARKS WORK WEARHOUSE #300,1442044328,911 18TH STREET N,,BRANDON,MB,R7A 7S1,CA,(204) 725-1508,49.865504551467,-99.96183,,,0
MARKS WORK WEARHOUSE #300,846310451,911 18TH STREET N,,BRANDON,MB,R7A 7S1,CA,,49.865504551467,-99.96183,,,0
TRADEHOME SHOES,1428470968,MARKET STREET MALL,,MARSHALL,MN,56258,US,5075371789,44.4485,-95.76115,,,0
JOURNEYS,1428468314,3001 SOUTH 144TH STREET,OAK VIEW MALL,OMAHA,NE,68144,US,4023305551,41.2291655014327,-96.1384557020057,,,0
SEARS,350355425,3420 OAK VIEW DR,,OMAHA,NE,68144,US,,41.2271233627545,-96.1364013638298,,,0
DILLARDS,1428467569,3030 OAKVIEW DRIVE,OAKVIEW MALL,OMAHA,NE,68144,US,4026971323,41.2304269384438,-96.1322989203993,,,0
DICKS SPORTING GOODS,1428465199,3125 OAKVIEW DRIVE,OAKVIEW PLAZA,OMAHA,NE,68144,US,4023301184,41.2293309651802,-96.1322725141938,,,0
HIGH COUNTRY SPORTSWEAR,1390472465,11-10 AVENUE SOUTH,,CRANBROOK,BC,V1C 2M9,CA,(250) 489-4661,49.5119602040816,-115.767562040816,,,0
SHOE WAREHOUSE,-1953392024,TAMARACK,1500 CRANBROOK ST NORTH,CRANBROOK,BC,V1C 3P9,CA,,49.52445,-115.75379,,,0
HITCHIN POST,1428465993,2609 SOUTH 132ND STREET,,OMAHA,NE,68144,US,4023335206,41.2349367787132,-96.1194398952702,,,0
MARKS WORK WEARHOUSE #146,846310356,2100 WILLOWBROOK DRIVE,,CRANBROOK,BC,V1C 7H2,CA,,49.5294927777778,-115.749221666667,,,0
MARKS WORK WEARHOUSE #146,1442044212,2100 WILLOWBROOK DRIVE,,CRANBROOK,BC,V1C 7H2,CA,(250) 426-3101,49.5294927777778,-115.749221666667,,,0
BOOTS FOR LESS,350365201,13003 CENTER STREET,,OMAHA,NE,68144,US,402-333-1686,41.2340316666667,-96.1175133333333,,,0
THE SHOE CARNIVAL,1428472328,12402 K PLAZA  BLDG F,L STREET MARKETPLACE,OMAHA,NE,68137,US,4023301309,41.2130675283805,-96.1074937074292,,,0
BOOT BARN,350368119,12720 WESTPORT PKWY,BLDG 5,OMAHA,NE,68138,US,,41.1807078518658,-96.1094924815304,,,0
Cabela's,350368752,12703 Westport Parkway,,LaVista,NE,68138-4006,US,(402)-861-4800,41.17945,-96.10833,,,0
FASHION TREND,905157725,10000 California St,Suite 2236,Omaha,NE,68114,US,,41.2666087,-96.0682677,,,0
DICKS SPORTING GOODS,1428465437,9901 NICHOLAS STREET,,OMAHA,NE,68114,US,4029514400,41.26886,-96.06572,,,0
VON MAUR,1428466913,10010 CALIFORNIA STREET,WESTROADS MALL,OMAHA,NE,68114,US,4023900381,41.2644515498629,-96.067083490576,,,0
JOURNEYS,1428468548,10000 CALIFORNIA STREET,WESTROADS MALL,OMAHA,NE,68114,US,4023848277,41.2645,-96.06688,,,0
CHAMPS SPORTS,-1155610928,WESTROADS MALL,10000 CALIFORNIA STREET,OMAHA,NE,68114,US,,41.26427,-96.06685,,,0
CANFIELDS,1428466089,8457 WEST CENTER ROAD,,OMAHA,NE,68124,US,4023933363,41.2342184782609,-96.045697826087,,,0
CANFIELDS INC,350368238,8457 W CENTER RD,,OMAHA,NE,68124-3132,US,402-393-3363,41.2342184782609,-96.045697826087,,,0
CANFIELDS SPORTING GOODS,1428475545,8457 WEST CENTER ROAD,,OMAHA,NE,68124,US,4023933363,41.2342184782609,-96.045697826087,,,0
TRADEHOME SHOES,1428470957,NORTHLAND MALL,,WORTHINGTON,MN,56187,US,6073724399,43.62503,-95.60023,,,0
SEARS,350355709,7424 DODGE ST,,OMAHA,NE,68114,US,,41.2596769230769,-96.0282915384615,,,0
THE FINISH LINE,1428468155,7400 DODGE STREET,CROSSROADS MALL,OMAHA,NE,68114,US,4023922897,41.25966,-96.02687,,,0
SUE'S CLOTHESLINES,1774286845,1127B CANYON STREET,PO Box 130,CRESTON,BC,V0B 1G0,CA,(250) 428-4442,49.09552,-116.511499183673,,,0
BROWNS SHOE FIT,1428466063,324 10TH STREET,,WORTHINGTON,MN,56187,US,5073764160,43.6197443203916,-95.596672079403,,,0
FOOT LOCKER,1428469640,7300 DODGE STREET,CROSSROADS MALL,OMAHA,NE,68114,US,4023917277,41.25963,-96.02457,,,0
BOOT BARN,350368004,970 S 72ND ST,,OMAHA,NE,68114-4634,US,,41.2501722731791,-96.02394,,,0
JOURNEYS,1428468928,VILLAGE POINTE,,OMAHA,NE,68118,US,,41.1776001,-96.0504868,,,0
TOWN & COUNTRY SUPPLY,350365603,900 ATLANTIC AVENUE,,MORRIS,MN,56267,US,,45.5750153096875,-95.9036353491019,,,0
PEEBLES DEPARTMENT STORE,1428477722,1635 OXFORD STREET,,WORTHINGTON,MN,56187,US,5073769689,43.6311077042857,-95.5876338914293,,,0
HANEY SHOE STORE,350365701,6060 MAPLE STREET,,OMAHA,NE,68104,US,,41.285,-96.0065530555556,,,0
MARKS WORK WEARHOUSE #214,1442044267,1000 NORTHWEST BOULEVARD,,CRESTON,BC,V0B 1G6,CA,(250) 428-3003,49.10422,-116.51932,,,0
BLUBOOTS,350366624,425 WEST 10TH STREET,,BORGER,TX,79007,US,,35.67679,-101.393429387755,,,0
HIBBETT SPORTING GOODS,1428474091,1424 WEST WILSON,,BORGER,TX,79007,US,8062749742,35.6599916725296,-101.407797114105,,,0
COMFORT WELDING,1390472778,120 COLLIS STREET,,CRESTON,BC,V0B 1G6,CA,(250) 428-7464,49.11714,-116.52897,,,0
COMFORT WELDING,846310688,120 COLLIS STREET,,CRESTON,BC,V0B 1G6,CA,,49.11714,-116.52897,,,0
DICKS SPORTING GOODS,1428465400,7403 TOWN CENTER PKWY,,PAPILLION,NE,68046,US,4025921642,41.1346417102306,-96.0259296063192,,,0
TRADEHOME SHOES,1428470983,WESTRIDGE MALL,,FERGUS FALLS,MN,56537,US,2187365110,46.28563,-96.10697,,,0
VALLEY VET SUPPLY,350367116,DBA FASHION DIRECT,1118 PONY EXPRESS HWY,MARYSVILLE,KS,66508,US,785-562-5106,39.841885,-96.6161625,,,0
PIONEER FARM STORE,350368052,427 NE 14TH ST,,ABILENE,KS,67410,US,785-263-7163,38.92984,-97.2083165909091,,,0
BROWNS SHOE FIT CO,350361155,118 NORTH MAIN ST,,MCPHERSON,KS,67460-4304,US,620-241-3963,38.3695483673469,-97.66693,,,0
BROWNS SHOE FIT,1428466076,118 NORTH MAIN STREET,,MCPHERSON,KS,67460,US,3162413963,38.3695483673469,-97.66693,,,0
BROWNS SHOE FIT,1428466062,410 EAST 30TH,,HUTCHINSON,KS,67502,US,3166636991,38.0865320408163,-97.9239236734694,,,0
PENDLETON WOOLEN MILLS,-1155615668,1100 FORT CROOK RD NORTH,,BELLEVUE,NE,68005,US,,41.1782043522657,-95.9275802721813,,,0
Bass Pro Shops,350368549,2901 Bass Pro Drive,,Council Bluffs,IA,51501,US,712-325-6000,41.23616,-95.89268,,,0
HIBBETT SPORTING GOODS,1428474405,2206 E KANSAS AVENUE,MCPHERSON S/C,MCPHERSON,KS,67460,US,6202411051,38.3707686896026,-97.6264327599352,,,0
OFFUTT MAIN STORE,1428466900,106 MEYER AVENUE,BUILDING 166,OFFUTT AFB,NE,68113,US,,41.1198533333333,-95.9208166666667,,,0
JOURNEYS,1428468882,2800 COLUMBIA ROAD,COLUMBIA MALL,GRAND FORKS,ND,58201,US,7017950286,47.89215,-97.06667,,,0
MACYS,1428472567,2800 S COLUMBIA ROAD,,GRAND FORKS,ND,58201,US,,47.89215,-97.06667,,,0
BOOT BARN,350362144,2800 SOUTH COLUMBIA ROAD,,GRAND FORKS,ND,58201,US,,47.89215,-97.06667,,,0
FOOT LOCKER,1428469160,2800 S COLUMBIA ROAD,COLUMBIA MALL  UNIT 250,GRAND FORKS,ND,58201,US,7017466379,47.89215,-97.06667,,,0
SCHEELS ALL SPORTS,-1155615406,2800 S COLUMBIA RD,,GRAND FORKS,ND,58201,US,,47.89215,-97.06667,,,0
HIBBETT SPORTING GOODS,1428473823,1500 EAST 11TH STREET,SPACE H02,HUTCHINSON,KS,67501,US,6206634042,38.0649,-97.89928,,,0
THE SHOE CARNIVAL,1428472329,3271 MARKETPLACE DRIVE,,COUNCIL BLUFFS,IA,51501,US,7123661015,41.2288434231675,-95.8780187123089,,,0
BOOT BARN,1007072459,3271 MARKETPLACE DR #2,STE A5,Council Bluffs,IA,51501-8203,US,,41.2288434231675,-95.8780187123089,,,0
SHOE CARNIVAL,350369949,3271 MARKETPLACE DRIVE,,COUNCIL BLUFFS,IA,51501,US,,41.2288434231675,-95.8780187123089,,,0
BASIN DEPARTMENT STORE,350363903,111 WEST FIRST AVENUE,,KENNEWICK,WA,99336,US,,46.2076210204082,-119.118569183673,,,0
BASIN DEPARTMENT STORE,1428475595,111 WEST FIRST AVENUE,,KENNEWICK,WA,99336,US,5095866309,46.2076210204082,-119.118569183673,,,0
TRADEHOME SHOES,1428471065,COLUMBIA MALL,,GRAND FORKS,ND,58201,US,7017809661,47.92617,-97.06498,,,0
CHAMPS SPORTS,-1155610874,347 COLUMBIA MALL,SPACE 347,KENNEWICK,WA,99336,US,,46.213322,-119.121310285714,,,0
JOURNEYS,1428468611,COLUMBIA CENTER,SUITE 475,KENNEWICK,WA,99336,US,5093740135,46.21682,-119.12615,,,0
M & R FOOTWEAR,1007072622,828 S HIGHWAY 395,(blank),HERMISTON,OR,97838-2621,US,,45.834719416898,-119.286941000214,,,0
DICK'S SPORTING GOODS,350369177,METRO CROSSING,3816 Metro Drive,COUNCIL BLUFFS,IA,51501,US,712-435-3142,41.22046,-95.83709,,,0
JOURNEYS,1428468895,1751 MADISON AVENUE,MALL OF THE BLUFFS,COUNCIL BLUFFS,IA,51503,US,7123226882,41.2468008233804,-95.8246044909955,,,0
TRADEHOME SHOES,1428471048,1751 MADISON AVENUE,MALL OF THE BLUFFS,COUNCIL BLUFFS,IA,51503,US,7123227994,41.2468008233804,-95.8246044909955,,,0
FOOT LOCKER,1428469500,1751 MADISON AVENUE,MALL OF THE BLUFFS,COUNCIL BLUFFS,IA,51503,US,7123230808,41.2468008233804,-95.8246044909955,,,0
NW FARM SUPPLY,350368053,80411 HWY 395 N,,HERMISTON,OR,97838,US,,45.8670665075589,-119.291847397458,,,0
CABELAS,1428465952,210 DEMERS DRIVE AVE NW,,EAST GRAND FORK,MN,56721,US,,47.9284095784139,-97.0265799892906,,,0
TNT OUTFITTERS INC,350362924,211 DEMERS AVE,HOLIDAY MALL,EAST GRAND FORKS,MN,56721,US,218-773-8683,47.9284095784139,-97.0265799892906,,,0
REI,1428465933,129 NORTH ELY,MAIN 2,KENNEWICK,WA,99336,US,5097348989,46.2106540268456,-119.158954295302,,,0
MARKS WORK WEARHOUSE #028,846310265,CORNERSTONE 341 201 SOUTHRIDGE DRIVE,,OKOTOKS,AB,T1S 2E1,CA,,50.7037683,-113.9714866,,,0
MARKS WORK WEARHOUSE #028,1442044114,CORNERSTONE 341,201 SOUTHRIDGE DRIVE,OKOTOKS,AB,T1S 2E1,CA,(403) 938-9471,50.70528,-113.9748,,,0
SPORTSMAN'S WAREHOUSE,-1155611325,6603 W CANAL DRIVE,,KENNEWICK,WA,99336,US,,46.2267401337793,-119.209761070234,,,0
FOOTACTION,1428476700,556 COLUMBIA CENTER BLVD,COLUMBIA CENTER,KENNEWICK,WA,99336,US,5097838157,46.2137085543513,-119.225465279059,,,0
KENNEWICK RANCH & HOME,350365653,845 N COLUMBIA CTR BLVD,,KENNEWICK,WA,99336,US,509-737-1996,46.2187040560456,-119.224263679374,,,0
FOOT LOCKER,1428469577,1321 N COLUMBIA CTR BLVD,COLUMBIA CENTER,KENNEWICK,WA,99336,US,5097359393,46.2246768686869,-119.224014848485,,,0
MACYS,1428472694,1321 N COLUMBIA CTR BLVD,SUITE 400,KENNEWICK,WA,99336,US,5097346000,46.2246768686869,-119.224014848485,,,0
MARKS WORK WEARHOUSE #762,1442044475,220A BROADWAY STREET EAST,,YORKTON,SK,S3N 4C3,CA,(306) 782-1414,51.21014,-102.450386666667,,,0
MARKS WORK WEARHOUSE #762,846310563,220A BROADWAY STREET EAST,,YORKTON,SK,S3N 4C3,CA,,51.21014,-102.450386666667,,,0
GANDER MOUNTAIN,1428474694,10300 WEST I-40,,AMARILLO,TX,79124,US,8063549095,35.1878980788548,-101.95807926919,,,0
Cavender's,350368711,7920 IH 40 West,,Amarillo,TX,79106,US,806-358-1400,35.1880353,-101.9283816,,,0
KIDS FOOT LOCKER,1428471950,7701 I 40 WEST,WESTGATE MALL,AMARILLO,TX,79121,US,,35.18412,-101.93645,,,0
FOOT LOCKER,1428469188,7701 I 40 WEST,WESTGATE MALL,AMARILLO,TX,79121,US,8063582113,35.18412,-101.93645,,,0
THE SHOE CARNIVAL,1428472172,3102 SONCY ROAD,THE SHOPS AT SONCY,AMARILLO,TX,79124,US,8063560716,35.1796254537151,-101.93819,,,0
BROWNBILT SHOES,350369739,111 MANZANARES AVENUE,,SOCORRO,NM,87801,US,505-242-5055,34.0580485074627,-106.884458905473,,,0
"BC SALES CO, INC",350364080,69 COLUMBIA POINT DRIVE,,RICHLAND,WA,99352,US,509-943-8730,46.2641512828697,-119.264705471449,,,0
ACADEMY SPORTS & OUTDOORS,1428475162,4400 SONCY ROAD,,AMARILLO,TX,79119,US,8064572460,35.1624485427136,-101.938112462312,,,0
AMERICAN WORKER,350361560,4250 EAST BONANZA ROAD,SUITE 4,LAS VEGAS,NV,89110,US,,36.17348,-115.083755714286,,,0
THE WORK BOOT,350364791,1930 CIVIC CIRCLE,,AMARILLO,TX,79109,US,,35.1935777777778,-101.86341969697,,,0
FOOT LOCKER,1428469704,4300 CHARELSTON BLVD,,LAS VEGAS,NV,89104,US,7024530055,36.159249,-115.081636,,,0
HIBBETT SPORTING GOODS,1428474295,1645 E COTTONWOOD STREET,COTTONWOOD TOWNE CENTER,COTTONWOOD,AZ,86326,US,9286460281,34.7286210843373,-112.009808313253,,,0
US PATRIOT,1007071238,6914 WARREN RD,(blank),FORT RILEY,KS,66442,US,,39.1034658618308,-96.8164907523944,,,0
SPORTSMANS WAREHOUSE,-1155611319,5647 CENTENNIAL CENTER,BOULEVARD,LAS VEGAS,NV,89149,US,,36.2638495439099,-115.256757189802,,,0
MARKS WORK WEARHOUSE #233,1442044281,900 PINE ROAD,UNIT 109,STRATHMORE,AB,T1P 0A2,CA,(403) 934-4627,51.03755,-113.405464889228,,,0
MARKS WORK WEARHOUSE #233,846310419,900 PINE ROAD UNIT 109,,STRATHMORE,AB,T1P 0A2,CA,,51.03755,-113.405464889228,,,0
BOOT BARN,350361829,4481 S WHITE MOUNTAIN RD,SUITE 4,SHO LOW,AZ,85901,US,,34.2093597453526,-110.023722013868,,,0
HIBBETT SPORTING GOODS,1428474082,7701 WEST I-40,SPACE 728,AMARILLO,TX,79106,US,8063553470,35.19305,-101.7554,,,0
JOURNEYS,1428468463,7701 I-40 W,WESTGATE MALL,AMARILLO,TX,79121,US,8063524020,35.19305,-101.7554,,,0
ROBERT WAYNE FOOTWEAR,1428467954,605 S GRAND CENTRAL PKWY,SPACE 1256,LAS VEGAS,NV,89106,US,7024744508,36.165426567155,-115.155566889242,,,0
FOOTACTION,1428476784,7701 I-40 WEST,WESTGATE MALL,AMARILLO,TX,79121,US,8063596068,35.19305,-101.7554,,,0
DILLARDS,1428467693,7701 I-40 WEST,WESTGATE MALL,AMARILLO,TX,79121,US,8063587771,35.19305,-101.7554,,,0
JOURNEYS,1428468653,775 S GRAND CENTRAL PKWY,LAS VEGAS PREM OUTLETS,LAS VEGAS,NV,89106,US,7023822084,36.1645417391304,-115.156151304348,,,0
DEICHMANN WORLD OF SHOES,1428467307,775 GRAND CENTRAL PARKWAY,LAS VEGAS PREMIUM OUTLETS,LAS VEGAS,NV,89106,US,7023839857,36.1645417391304,-115.156151304348,,,0
MARKS WORK WEARHOUSE #367,1442044372,2302 QUILL CENTER,,HUMBOLDT,SK,S0K 2A0,CA,(306) 682-5388,51.75341,-104.52198,,,0
Timberland&reg<br><br>Factory Store - Las Vegas,1126481106,805 Grand Central Parkway,Suite 1901,Las Vegas,NV,89106,US,702-386-3045,36.1643004347826,-115.156307826087,,,0
FORT WESTERN OUTPOST,1428475780,903 CENTRAL AVENUE,,NEBRASKA CITY,NE,68410,US,,40.6766702040816,-95.8563955102041,,,0
FORT WESTERN,350364093,903 CENTRAL AVENUE,,NEBRASKA CITY,NE,68410,US,402-873-7395,40.6766702040816,-95.8563955102041,,,0
HIBBETT SPORTING GOODS,1428474042,427 EAST CHESTNUT,,JUNCTION CITY,KS,66441,US,7857624545,39.0217951048951,-96.8229025174825,,,0
FORT TUFF,350367444,815 CENTRAL AVE,,NEBRASKA CITY,NE,68410,US,402-873-4228,40.6766614285714,-95.8553242857143,,,0
BROWNS SHOE FIT CO,350360876,811 CENTRAL AVENUE,,NEBRASKA CITY,NE,68410,US,402-873-5468,40.6766610204082,-95.8552744897959,,,0
BROWNS SHOE FIT,1428466020,811 CENTRAL AVENUE,,NEBRASKA CITY,NE,68410,US,4028735468,40.6766610204082,-95.8552744897959,,,0
HIBBETT SPORTING GOODS,1428474360,1615 N HOBART STREET,,PAMPA,TX,79065,US,8066692651,35.5537815384615,-100.971954615385,,,0
BROWNS SHOE FIT CO,350360883,1500 NORTH HOBART,,PAMPA,TX,79065,US,,35.55143,-100.97195,,,0
BROWNS SHOE FIT,1428466024,1500 NORTH HOBART,,PAMPA,TX,79065,US,8066655691,35.55143,-100.97195,,,0
SEARS,350354487,4000 MEADOWS LANE,,LAS VEGAS,NV,89107,US,,36.1701812765957,-115.19436177305,,,0
MACYS,1428472782,4100 MEADOWS LANE,THE MEADOWS MALL,LAS VEGAS,NV,89107,US,7022582100,36.1701915458937,-115.195257777778,,,0
DILLARDS,1428467776,4200 MEADOWS LANE,THE MEADOWS MALL,LAS VEGAS,NV,89107,US,7028702039,36.1702012077295,-115.196368888889,,,0
SHIEKH SHOES,1428470553,4300 MEADOWS LANE,MEADOWS MALL,LAS VEGAS,NV,89107,US,7024130330,36.1702108695652,-115.19748,,,0
JOURNEYS,1428468957,4300 MEADOWS LANE,THE MEADOWS,LAS VEGAS,NV,89107,US,7028770425,36.1702108695652,-115.19748,,,0
ROBERT WAYNE FOOTWEAR,1428467941,4300 MEADOWS LANE,THE MEADOWS MALL,LAS VEGAS,NV,89107,US,7028703844,36.1702108695652,-115.19748,,,0
FOOT LOCKER,1428469151,4300 MEADOWS LANE,,LAS VEGAS,NV,89107,US,7028788226,36.1702108695652,-115.19748,,,0
FOOTACTION,1428477086,4300 MEADOWS LANE,MEADOWS MALL,LAS VEGAS,NV,89107,US,7028701899,36.1702108695652,-115.19748,,,0
MARKS WORK WEARHOUSE #838,1442044494,555 HIGHWAY 10 EAST,,DRUMHELLER,AB,T0J 0Y0,CA,(403) 823-9675,51.35436,-112.5139,,,0
MARKS WORK WEARHOUSE #838,846310580,555 HIGHWAY 10 EAST,,DRUMHELLER,AB,T0J 0Y0,CA,,51.35436,-112.5139,,,0
SEARS,350353858,3450 S MARYLAND PKWY,,LAS VEGAS,NV,89169,US,,36.12692,-115.13707,,,0
RACK ROOM SHOES,1428467405,300 W LAKE MEAD PKWY #100,LAKE MEAD CROSSING,HENDERSON,NV,89015,US,,36.03638,-114.99249,,,0
KIDS FOOT LOCKER,1428471746,3488 S MARYLAND PKWY,THE BOULEVARD MALL,LAS VEGAS,NV,89169,US,,36.12614575,-115.13712225,,,0
FOOT LOCKER,1428469424,3500 S MARYLAND PARKWAY,THE BOULEVARD MALL,LAS VEGAS,NV,89109,US,7027313639,36.12590125,-115.13713875,,,0
SHIEKH SHOES,1428470538,3528 S MARYLAND PARKWAY,THE BOULEVARD MALL,LAS VEGAS,NV,89109,US,7027336866,36.12533075,-115.13717725,,,0
ROBERT WAYNE FOOTWEAR,1428467953,1300 WEST SUNSET ROAD,SPACE 1520,HENDERSON,NV,89014,US,7024355346,36.06382,-115.04032,,,0
KIDS FOOT LOCKER,1428471912,1300 W SUNSET RD STE 2113,GALLERIA AT SUNSET,HENDERSON,NV,89014,US,,36.06382,-115.04032,,,0
FOOT LOCKER,1428469054,1300 WEST SUNSET ROAD,GALLERIA AT SUNSET,HENDERSON,NV,89014,US,7024560587,36.06382,-115.04032,,,0
MACYS,1428472780,1304 WEST SUNSET ROAD,SUNSET GALLERIA,HENDERSON,NV,89014,US,7024587300,36.0638183333333,-115.040549166667,,,0
JOURNEYS,1428468386,1300 WEST SUNSET ROAD,GALLERIA AT SUNSET,HENDERSON,NV,89014,US,7028983396,36.06382,-115.04032,,,0
DICKS SPORTING GOODS,1428465432,1308 WEST SUNSET ROAD,,HENDERSON,NV,89014,US,7028555000,36.0638166666667,-115.040778333333,,,0
DICK'S SPORTING GOODS,350369367,GALLERIA AT SUNSET,1308 West Sunset Road,HENDERSON,NV,89014,US,702-855-5000,36.0638166666667,-115.040778333333,,,0
JOURNEYS,1428468585,3564 S MARYLAND PARKWAY,THE BOULEVARD,LAS VEGAS,NV,89109,US,7027328125,36.1240504444444,-115.137279333333,,,0
DILLARDS,1428467778,1320 WEST SUNSET ROAD,SUNSET GALLERIA,HENDERSON,NV,89014,US,7024356300,36.0638116666667,-115.041465833333,,,0
MACYS,1428472784,3634 MARYLAND PARKWAY,,LAS VEGAS,NV,89109,US,7027912100,36.1232026666667,-115.137326,,,0
UNDERGROUND STATION,1428466625,3680 S MARYLAND PARKWAY,THE BOULEVARD MALL,LAS VEGAS,NV,89109,US,7026936659,36.12253,-115.137361052632,,,0
FOOTACTION,1428476614,3680 S MARYLAND PARKWAY,SUITE 154,LAS VEGAS,NV,89109,US,7027944492,36.12253,-115.137361052632,,,0
DILLARDS,1428467777,3700 S MARYLAND PARKWAY,THE BOULEVARD MALL,LAS VEGAS,NV,89119,US,7027342111,36.12217,-115.13738,,,0
Timberland&reg; - Maiquetia,1126481152,Terminal International,,Maiquetia,,,VE,+ 58 212 3551450,10.5976177,-67.0058751,,,0
Timberland&reg; - Margarita,1126481154,Av. Jovito Villalba,,Margarita,,,VE,+58 295 260-2179,10.9929452,-63.8274953,,,0
Timberland&reg; - Caracas,1126481151,Av. Libertador,,Caracas,,,VE,+58 212 267 7671,10.4910884,-66.8585674,,,0
Timberland&reg; - Barquisimeto,1126481150,Av. Los Leones con Avenida Libertador,,Barquisimeto,,,VE,+58-251 2546538,10.0832583,-69.3203648,,,0
Timberland&reg; - Maracaibo,1126481153,Avenida El Mojan,,Maracaibo,,,VE,+ 58 261 7400858,10.6544509,-71.7147951,,,0
Timberland&reg; - Puerto Ordaz,1126481155,Av Guayana,,Puerto Ordaz,,,VE,+58 286 6003260,8.2836441,-62.7611536,,,0
Timberland&reg; - San Cristobal,1126481156,Calle 10 entre Av. Libertador y Antonio Jose de Sucre,,San Cristobal,,,VE,+58 276 3403423,7.7713572,-72.2261466,,,0
SEARS,350356261,POB 7426,,PONCE,PR,00731,US,,18.004089,-66.5842402,,,0
SEARS,350355328,AVE AGAUS BUENAS,,BAYAMON,PR,00959,US,,18.3887,-66.1605,,,0
SEARS,350354907,INTSCTN ST RD PR 1 & PR 1,,CAGUAS,PR,00725,US,,18.2362,-66.0341,,,0
SEARS,350355006,AVE F D ROOSEVELT,,SAN JUAN,PR,00918,US,,18.4669587,-66.1124631,,,0
MACYS,-1155615597,PLAZA LAS AMERICAS,525 F D ROOSEVELT AVE,SAN JUAN,PR,00918,US,,18.4663338,-66.1057217,,,0
THE YATES COMPANY,1007073017,808 RH TODD AVENUE,(blank),SAN JUAN,PR,00908,US,,18.4473,-66.0765,,,0
TOMCAS WORK & SAFETY SHOE,1007073025,COUNTRY CLUB 227A #JWA-12,(blank),CAROLINA,PR,00982,US,,18.425903,-65.990184,,,0
SEARS,350355695,506 CALLE TRUNCADO,,HATILLO,PR,00659,US,,18.47,-66.8251,,,0
SEARS,350355654,975 HOSTOS AVENUE STE 110,,MAYAGUEZ,PR,00680,US,,18.1953,-67.1395,,,0
CHICCO STORE,1428477184,WHEATLEY CENTER,,SAINT THOMAS,VI,00802,US,3407748778,18.335584,-64.964475,,,0
CHAMPS SPORTS,-1155610890,TUTU PARK,26A EST.CHARLOTTE AMALIE,SAINT THOMAS,VI,00802,US,,18.335584,-64.964475,,,0
JOURNEYS,1428468540,4605 TUTU PARK MALL,TUTU PARK MALL,SAINT THOMAS,VI,00802,US,3407750248,18.335584,-64.964475,,,0
ASFOUR DEPARTMENT STORE,1428476173,CITIBANK BUILDING,,SAINT THOMAS,VI,00802,US,,18.335584,-64.964475,,,0
JUST THREADS,1428476219,4605 TU TU PARK MALL,SUITE 249,SAINT THOMAS,VI,00802,US,3407147553,18.335584,-64.964475,,,0
URBAN THREADZ,1428476535,9800 BUCCANEER MALL,,SAINT THOMAS,VI,00802,US,,18.335584,-64.964475,,,0
KIDS FOOT LOCKER,1428471946,26A EST CHARLOTTE AMALIE,TUTU PARK,SAINT THOMAS,VI,00802,US,3407755975,18.338567,-64.940701,,,0
FOOT LOCKER,1428469110,26A EST.CHARLOTTE AMALIE,TUTU PARK,SAINT THOMAS,VI,00802,US,3407773843,18.338567,-64.940701,,,0
FOOT LOCKER,1428469913,5197 DRONNINGENS GADE,SUITE #2,ST THOMAS,VI,00804,US,3407769726,18.3439,-64.9311,,,0
FOOT LOCKER,1428469962,LOCKHART GARDENS S/C,PARCEL 1-E,SAINT THOMAS,VI,00801,US,3407779922,18.3439,-64.9311,,,0
URBAN THREADZ,1428476537,SUNNY ISLE S/C,,SAINT CROIX,VI,00820,US,,17.700143,-64.862723,,,0
STRICTLY THE BEST,1428475906,6814 SUNNY ISLES,,SAINT CROIX,VI,00823,US,,17.700143,-64.862723,,,0
FOOT LOCKER,1428469779,SUNNY ISLE S/C,SPACE 10/11/12,SAINT CROIX,VI,00820,US,3407783585,17.700143,-64.862723,,,0
MVP GEAR,-1155611311,VIRGIN ISLANDS CARGO,#1 ESTATE CANE,FREDERIKSTED,--,00840,VI,,17.7278313,-64.8245714,,,0
PINNACLE SAFETY SHOES,1007072979,6002 DIAMOND RUBY,SUITE 3-125,CHRISTIANSTED,VI,00820,US,,17.746571,-64.704676,,,0
SPORTS CENTER,-1155616110,134A VICTORIA ROAD,,BASSETERRE,--,,KN,,17.299233,-62.724222,,,0
PARIS SHOES,-1155616162,CORNER OF MARKET & NEVIS,,SAINT JOHN,--,,AG,2684620107,17.1197681,-61.8439065,,,0
ANGELO ST MAARTEN,-1155616054,BACK STREET SQUARE #60,,PHILLIPSBURG,--,,AG,,17.060816,-61.796428,,,0
NEW FASHIONS,-1155616111,105 BACK STREET,PHILIPSBURG,SAINT MAARTEN,--,,AN,,12.25,-68.75,,,0
ANGELOS BONAIRE,-1155615947,KAYA GRANDI 40,,"KRALENDEIK,BONAIRE",--,,AN,,12.25,-68.75,,,0
JEANS ALLEY ARUBA,-1155616053,ROYAL PLAZA MALL,,ORANJESTAD,--,,AW,,12.5092044,-70.0086306,,,0
ANGELO ARUBA,-1155616055,MAIN STREET 92,,ORANJESTAD,--,,AW,,12.5194712,-70.0319502,,,0
CLERY SHOE CIRCUS,-1155616098,65 CHAUSSEE ROAD,,CASTRIES,--,,LC,,14.0101094,-60.9874687,,,0
THE TREND,-1155616012,P O BOX 802,,KINGSTOWN,--,,VC,,13.1600249,-61.2248157,,,0
BLADES & WILLIAMS,-1155615910,TWEEDSIDE ROAD,,ST MICHAEL,--,BB11000,BB,,13.10539,-59.61144,,,0
NULOOK BOUTIQUE,-1155616085,SATHYA PLAZA,ROEBUCK STREET,BRIDGETOWN,--,00000,BB,,13.1023534,-59.6104378,,,0
MICHAELS & JODYS LTD,-1155616099,GULF CITY COMPLEX,SHOP D28A GROUND FLOOR,ROMAINE,--,,TT,,10.2790633,-61.4578539,,,0
LEES TROPICAL SHOES,-1155616159,12-14 CONSTANT SPRING RD,,KINGSTON 10,--,,JM,8769267554,18.0120927,-76.7976946,,,0
KAYMART LIMITED,-1155616094,MANOR CENTRE,195 CONSTANT SPRING ROAD,KINGSTON 8,--,,JM,,18.0120888,-76.7977129,,,0
COLLECTIBLES,-1155616130,PO BOX 1092,,KINGSTON 8,--,,JM,,17.9887329,-76.8049585,,,0
LITTLE GIGGLES FASHION,-1155616000,38-42 MOLYNES ROAD,,KINGSTON 10,--,KGN10,JM,,18.0185348,-76.8105762,,,0
SEXY CREATIONS,-1155615951,BRUMALIA TOWN CENTER,2 PERTH ROAD #6 & 7,MANDEVILLE,--,,JM,,18.0477128,-77.5165954,,,0
HOFFER & SONS,-1155616112,374 BAY STREET,,NASSAU,--,,BS,,25.0741489,-77.3153781,,,0
THE SPORTS CENTER,-1155616153,SHIRLEY STREET,,NASSAU,--,,BS,2423275956,25.0734373,-77.3241865,,,0
THE ATHLETES FOOT,-1155611343,MALL AT MARATHON,,NASSAU,--,,BS,,25.0479835,-77.355413,,,0
THE ATHLETES FOOT,-1155611344,CHURCHILL SQUARE,,FREEPORT GRAND BAHAMA,--,,BS,,26.5416093,-78.6455475,,,0
WESLEY & STEPHANIE FORDE,-1155616106,T/A JOHN WES SHOE STORE 2,1C TOWN CENTRE MALL,FREEPORT,--,3333,BS,,26.5325217,-78.7756205,,,0
W J BOYLE & SON LTD,-1155615642,P O BOX HM504,,HAMILTON HMCX,--,,BM,,32.294816,-64.781375,,,0
WINNER CIRCLE SPORTS,-1155616014,22 ALBERT PANTON STREET,BOX 10446,GEORGE TOWN CAYMAN I,--,KY1 1004,KY,,19.2959689,-81.3820945,,,0
MEIJER,1007076609,1676 WESTPARK DR.,,BOWLING GREEN,KY,42104,US,,36.9547326559732,-86.4364011467562,,,0
SPORTSMANS WAREHOUSE,1428478796,1901 EAST PARKS HIGHWAY,,WASILLA,AK,99654,US,9078648000,61.57512,-149.40281,,,0
SHUZY Q,1428479087,737 WEST 5TH AVENUE,,ANCHORAGE,AK,98501,US,,61.2175463265306,-149.896810612245,,,0
BIG RAYS STORE,350368187,320 W 4TH AVE,,ANCHORAGE,AK,99501,US,,61.2185420408163,-149.887784285714,,,0
SKINNY RAVEN SPORTS,1428478066,800 H STREET,,ANCHORAGE,AK,99501,US,9072747222,61.21461,-149.89756,,,0
FOOT LOCKER,1428469612,320 WEST 5TH AVENUE,FIFTH AVENUE MALL,ANCHORAGE,AK,99501,US,9072583719,61.2175679591837,-149.887760408163,,,0
JOURNEYS,1428468602,320 WEST 5TH AVENUE,FIFTH AVENUE MALL,ANCHORAGE,AK,99501,US,9079293803,61.2175679591837,-149.887760408163,,,0
NORDSTROM,1428465761,603 D STREET,,ANCHORAGE,AK,99501,US,9072797622,61.2165597959184,-149.8894,,,0
Bass Pro Shops,350368656,3046 Mountain View Drive,,Anchorage,AK,99501,US,907-330-5200,61.2201772956581,-149.823000687526,,,0
REI,1428465881,1200-A W NORTHERN LIGHTS,,ANCHORAGE,AK,99503,US,9072724565,61.19529,-149.90544,,,0
ALASKA TEXTILES,350367118,620 W FIREWEED LANE,,ANCHORAGE,AK,99503,US,,61.1986204261048,-149.894065765878,,,0
FOOT LOCKER,1428469486,3101 PENLAND PARKWAY,NORTHWAY MALL,ANCHORAGE,AK,99508,US,9072764230,61.2154783333333,-149.820463333333,,,0
FOOT LOCKER,1428469653,600 E NORTHERN LIGHTS BLD,SEARS MALL,ANCHORAGE,AK,99503,US,9072799475,61.19528,-149.87249,,,0
SEARS,350356384,700 E NORTHERN LIGHTS BLV,,ANCHORAGE,AK,99503,US,,61.19528,-149.87033,,,0
ARMY NAVY STORE/MIDTOWN,1428475533,3200 SEWARD HIGHWAY,SUITE 103,ANCHORAGE,AK,99503,US,9072224600,61.1911258882547,-149.86805850482,,,0
BIG RAYS STORE,350350135,3200 SEWARD HIGHWAY,,ANCHORAGE,AK,99503,US,907-222-4600,61.1911258882547,-149.86805850482,,,0
BOOT COUNTRY,1428467848,7901 OLD SEWARD HIGHWAY,,ANCHORAGE,AK,99518,US,9073498413,61.14911,-149.86402,,,0
FOOT LOCKER,1428469544,800 EAST DIMOND BOULEVARD,DIMOND CENTER,ANCHORAGE,AK,99515,US,9075223824,61.14459,-149.86741,,,0
JOURNEYS,1428468570,800 EAST DIMOND BOULEVARD,DIMOND CENTER,ANCHORAGE,AK,99515,US,9076778727,61.14459,-149.86741,,,0
SPORTSMANS WAREHOUSE,1428478783,8681 OLD SEWARD HWY,,ANCHORAGE,AK,99515,US,9076441400,61.1421384615385,-149.864093076923,,,0
BIG RAYS STORE,350367826,3230 AIRPORT WAY,,Fairbanks,AK,99709-4756,US,,64.836968876284,-147.796261226435,,,0
PROSPECTOR OUTFITTERS INC,350367551,1512 S CUSHMAN,,Fairbanks,AK,99701-6204,US,,64.8344069230769,-147.717197692308,,,0
BIG RAYS,1428475531,507 SECOND AVENUE,,FAIRBANKS,AK,99701,US,9074523458,64.8436118057593,-147.717698727598,,,0
BIG RAYS STORE,350367896,507 2ND AVE,,Fairbanks,AK,99701,US,,64.8436118057593,-147.717698727598,,,0
FOOT LOCKER,1428469519,32 COLLEGE ROAD,BENTLEY MALL,FAIRBANKS,AK,99701,US,9074564386,64.8506511881402,-147.70302380372,,,0
JOURNEYS,1428468584,32 COLLEGE ROAD,BENTLEY MALL,FAIRBANKS,AK,99701,US,9073746992,64.8506511881402,-147.70302380372,,,0
SPORTSMANS WAREHOUSE,1428478790,423 MERHAR AVENUE,,FAIRBANKS,AK,99701,US,9073748800,64.8579920221835,-147.699777779812,,,0
SPORTSMANS WAREHOUSE,1428478800,44402 STERLING HIGHWAY,,SOLDOTNA,AK,99669,US,9074203000,60.4831329822874,-151.069318816422,,,0
VALDEZ PROSPECTOR,1007072626,200 EGAN STREET,(blank),VALDEZ,AK,99686,US,,61.1291,-146.35411,,,0
MARKS WORK WEARHOUSE #193,1442044254,2 CHILKOOT WAY,,WHITEHORSE,YK,Y1A 6T5,CA,(867) 633-8457,60.73049,-135.07305,,,0
MARKS WORK WEARHOUSE #193,846310397,2 CHILKOOT WAY,,WHITEHORSE,YK,Y1A 6T5,CA,,60.73049,-135.07305,,,0
SPORTS EXPERTS,-1532970116,309 MAIN STREET,,WHITEHORSE,YK,Y1A 2B4,CA,,60.719292244898,-135.054428367347,,,0
SPORTS EXPERTS,1390471845,309 MAIN STREET,,WHITEHORSE,YK,Y1A 2B3,CA,(867) 667-4074,60.719292244898,-135.054428367347,,,0
KLOTHES RUSH,1428473231,5TH & BROADWAY,,SKAGWAY,AK,99840,US,9079832370,59.4553595,-135.3152013,,,0
NUGGET ALASKAN OUTFITTER,350367279,9107 Mendenhall Mall Rd #301,,Juneau,AK,99801,US,,58.3718371585847,-134.584873778858,,,0
NUGGET ALASKAN OUTFITTER,1428474868,8745 GLACIER HIGHWAY,NUGGET MALL,JUNEAU,AK,99801,US,8004786848,58.363467755102,-134.578001428571,,,0
WORK & RUGGED GEAR,350363163,336 LINCOLN STREET,,SITKA,AK,99835-7545,US,,57.0504969387755,-135.334062653061,,,0
WORK & RUGGED GEAR,1428473219,407 LINCOLN STREET,SUITE F,SITKA,AK,99835,US,9077476238,57.0510682505896,-135.33270686763,,,0
LEES CLOTHING,-1155615676,PO Box 747,,PETERSBURG,AK,99833,US,,56.7912,-133.02855,,,0
CRAIG EMPORIUM,1428473218,803 WATER,BOX 218,CRAIG,AK,99921,US,9078263939,55.47556,-133.14583,,,0
SPORTS LINE,350369609,417 KALANIKOA STREET,,HILO,HI,96720,US,,19.7168622988506,-155.06568816092,,,0
FOOT LOCKER,1428469259,111 E PUAINAKO STREET,PRINCE KUHIO PLAZA,HILO,HI,96720,US,8089595630,19.6952638095238,-155.063881904762,,,0
SEARS,350354344,111 E PUAINAKO ST,,HILO,HI,96720,US,,19.6952638095238,-155.063881904762,,,0
NATURALLY BIRKENSTOCK,350369605,340 HANA HIGHWAY,SUITE C,KAHULUI,HI,96732,US,,20.8876266666667,-156.45646,,,0
NATURALLY BIRKENSTOCK,1428478505,340 HANA HIGHWAY,SUITE C,KAHULUI,HI,96732,US,,20.8876266666667,-156.45646,,,0
KIDS FOOT LOCKER,1428471838,275 KAAHUMANU AVENUE,KAAHUMANU CENTER,KAHULUI MAUI,HI,96732,US,,20.8930377420779,-156.463395962204,,,0
MACYS,1428472721,275 KAAHUMANU AVENUE,,KAHULUI,HI,96732,US,,20.8930377420779,-156.463395962204,,,0
SEARS,350354973,275 KAAHUMANU AVE STE 10,,KAHULUI,HI,96732,US,,20.8930377420779,-156.463395962204,,,0
FOOT LOCKER,1428469238,275 W KAAHUMANU AVENUE,KAAHUMANU CENTER,KAHULUI MAUI,HI,96732,US,8088776878,20.8887505263158,-156.475974210526,,,0
FOOT LOCKER,1428469404,1221 HONOAPIILANI HIGHWAY,LAHAINA CANNERY,LAHAINA MAUI,HI,96761,US,8086672748,20.8854393082047,-156.682429782213,,,0
FOOT LOCKER,1428469066,2284 KALAKAUA AVENUE,CENTER OF WAIKIKI SPC130,HONOLULU,HI,96815,US,8089243500,21.27834,-157.828089090909,,,0
NATURALLY BIRKENSTOCK,350369606,1247 KAILUA RD,STE E,KAILUA,HI,96734,US,,21.3839684375,-157.753200625,,,0
WAIKIKI MART,1428479150,2136 KALAKAUA AVENUE,,HONOLULU,HI,96815,US,8083586734,21.28145,-157.83056,,,0
FOOTACTION,1428476918,1450 ALA MOANA BOULEVARD,ALA MOANA CENTER,HONOLULU,HI,96814,US,8089460936,21.2894259183673,-157.842793265306,,,0
CHAMPS SPORTS,1428470323,1450 ALA MOANA BOULEVARD,ALA MOANA CENTER,HONOLULU,HI,96814,US,8089561634,21.2894259183673,-157.842793265306,,,0
JOURNEYS,1428468325,1450 ALA MOANA BOULEVARD,ALA MOANA CENTER,HONOLULU,HI,96814,US,8089476344,21.2894259183673,-157.842793265306,,,0
FOOT LOCKER,1428469228,1450 ALA MOANA BOULEVARD,ALA MOANA CENTER,HONOLULU,HI,96814,US,8089448390,21.2894259183673,-157.842793265306,,,0
MACYS,1428472718,1450 ALA MOANA BOULEVARD,ALA MOANA CENTER,HONOLULU,HI,96814,US,8089418091,21.2894259183673,-157.842793265306,,,0
NORDSTROM,1428465851,1519 KAPIOLANI BLVD,ALA MOANA CENTER,HONOLULU,HI,96814,US,8089536100,21.29254,-157.84118,,,0
NORDSTROM RACK,-1155615628,1170 AUAHI STREET,SUITE 102,HONOLULU,HI,96814,US,,21.2928911174001,-157.851472667976,,,0
FOOT LOCKER,1428469319,46-056 KAMEHAMEHA HIGHWAY,WINDWARD MALL,KANEOHE,HI,96744,US,8082355997,21.42061,-157.803372857143,,,0
SEARS,350353708,46-056 KAMEHAMEHA HWY,,KANEOHE,HI,96744,US,,21.42061,-157.803372857143,,,0
WORK SHOE HAWAII,350369612,401 Waiakamilo Rd,Suite 102,HONOLULU,HI,96817,US,,21.3219041,-157.8782727,,,0
SEARS,350352764,98-180 KAMEHAMEHA HWY,,AIEA,HI,96701,US,,21.3816045454545,-157.942026363636,,,0
FOOT LOCKER,1428469256,98-1005 MOANALUA ROAD,PEARLRIDGE S/C,AIEA,HI,96701,US,8084580273,21.3863527272727,-157.941791818182,,,0
KIDS FOOT LOCKER,1428471745,98-1005 MOANALUA ROAD,PEARLRIDGE CENTER,AIEA,HI,96701,US,,21.3863527272727,-157.941791818182,,,0
FOOTACTION,1428476920,98-1005 MOANALUA ROAD,PEARL RIDGE MALL,AIEA,HI,96701,US,8084840683,21.3863527272727,-157.941791818182,,,0
CHAMPS SPORTS,-1155610881,PEARLRIDGE CENTER,98-1005 MOANALUA ROAD,AIEA,HI,96701,US,,21.3863527272727,-157.941791818182,,,0
MACYS,1428472719,98-205 KAONOHI STREET,,AIEA,HI,96701,US,,21.38555,-157.94314,,,0
FOOT LOCKER,1428469292,3 2600 KAUMUALII HIGHWAY,KUKUI GROVE,LIHUE KAUAI,HI,96766,US,8082457595,21.9734863965602,-159.377263162714,,,0
NATURALLY BIRKENSTOCK,1007072235,1467 KUHIO HWY,,KAPAA,HI,96746,US,,22.05495,-159.32955,,,0
NATURALLY BIRKENSTOCK,1428478507,4-1467 KUHIO HIGHWAY,,KAPAA,HI,96746,US,,22.0779765181238,-159.315998796143,,,0
