store_name,store_number,address,address2,city,state,zip_code,country,phone_number,latitude,longitude,store_hours,other_fields,coming_soon
SpringHill Suites Louisville Hurstbourne/North,,10101 Forest Green Boulevard,,Louisville,KY,40223,United States,1-502-326-3895,38.263181000000000000000000000000,-85.569423000000000000000000000000,,,0
SpringHill Suites Louisville Airport,,820 Phillips Lane,,Louisville,KY,40209,United States,1-502-361-9009,38.191846000000000000000000000000,-85.742356000000000000000000000000,,,0
SpringHill Suites Louisville Downtown,,132 E Jefferson,,Louisville,KY,40202,United States,1-502-569-7373,38.253233000000000000000000000000,-85.751509000000000000000000000000,,,0
SpringHill Suites Lexington Near the University of Kentucky,,863 South Broadway,,Lexington,KY,40504,United States,1-859-225-1500,38.039683000000000000000000000000,-84.513837000000000000000000000000,,,0
SpringHill Suites Cincinnati Airport South,,7492 Turfway Road,,Florence,KY,41042,United States,1-859-371-3388,39.017978000000000000000000000000,-84.635722000000000000000000000000,,,0
SpringHill Suites Cincinnati Midtown,,610 Eden Park Drive,,Cincinnati,OH,45202,United States,1-513-381-8300,39.117832000000000000000000000000,-84.498989000000000000000000000000,,,0
SpringHill Suites Bloomington,,501 North College Avenue,,Bloomington,IN,47404,United States,1-812-337-7772,39.170600000000000000000000000000,-86.535200000000000000000000000000,,,0
SpringHill Suites Cincinnati North/Forest Park,,12001 Chase Plaza Drive,,Cincinnati,OH,45240,United States,1-513-825-9035,39.296807000000000000000000000000,-84.525223000000000000000000000000,,,0
SpringHill Suites Cincinnati Blue Ash,,4650 Creek Road,,Cincinnati,OH,45242,United States,1-513-793-1000,39.259956000000000000000000000000,-84.378981000000000000000000000000,,,0
SpringHill Suites Cincinnati Northeast/Mason,,9365 Waterstone Blvd.,,Cincinnati,OH,45249,United States,1-513-683-7797,39.301374000000000000000000000000,-84.303085000000000000000000000000,,,0
SpringHill Suites Indianapolis Downtown,,601 West Washington Street,,Indianapolis,IN,46204,United States,1-317-972-7293,39.767189000000000000000000000000,-86.168859000000000000000000000000,,,0
SpringHill Suites Dayton South/Miamisburg,,417 Springboro Pike,,Dayton,OH,45449,United States,1-937-432-9277,39.646277000000000000000000000000,-84.224442000000000000000000000000,,,0
SpringHill Suites Indianapolis Fishers,,9698 Hague Road,,Indianapolis,IN,46256,United States,1-317-841-0416,39.929686000000000000000000000000,-86.033150000000000000000000000000,,,0
SpringHill Suites Indianapolis Carmel,,11855 N. Meridian Street,,Carmel,IN,46032,United States,1-317-846-1800,39.961169000000000000000000000000,-86.155452000000000000000000000000,,,0
SpringHill Suites Dayton Beavercreek,,2663 Fairfield Commons Drive,,Beavercreek,OH,45431,United States,1-937-429-9090,39.762961000000000000000000000000,-84.056543000000000000000000000000,,,0
SpringHill Suites Dayton North,,3591 York Plaza Lane,,Dayton,OH,45414,United States,1-937-280-4150,39.849667000000000000000000000000,-84.193811000000000000000000000000,,,0
SpringHill Suites Terre Haute,,3304 US 41 South,,Terre Haute,IN,47802,United States,1-812-235-0696,39.428613000000000000000000000000,-87.414776000000000000000000000000,,,0
SpringHill Suites Nashville Airport,,1100 Airport Center Drive,,Nashville,TN,37214,United States,1-615-884-6111,36.145515000000000000000000000000,-86.662997000000000000000000000000,,,0
SpringHill Suites Nashville MetroCenter,,250 Athens Way,,Nashville,TN,37228,United States,1-615-244-5474,36.194579000000000000000000000000,-86.800482000000000000000000000000,,,0
SpringHill Suites Nashville Downtown,,410 5th Avenue,,Nashville,TN,37203,United States,,36.156375000000000000000000000000,-86.775306000000000000000000000000,,,0
SpringHill Suites Nashville Vanderbilt/West End,,1800 West End Avenue,,Nashville,TN,37203,United States,1-615-988-9930,36.153633000000000000000000000000,-86.797272000000000000000000000000,,,0
SpringHill Suites Knoxville at Turkey Creek,,10955 Turkey Drive,,Knoxville,TN,37934,United States,1-865-966-8888,35.903716000000000000000000000000,-84.148969000000000000000000000000,,,0
SpringHill Suites Columbus OSU,,1421 Olentangy River Road,,Columbus,OH,43212,United States,1-614-297-9912,39.988721000000000000000000000000,-83.026092000000000000000000000000,,,0
SpringHill Suites Columbus Airport Gahanna,,665 Taylor Road,,Columbus,OH,43230,United States,1-614-501-4770,40.003373000000000000000000000000,-82.859101000000000000000000000000,,,0
SpringHill Suites Murray,,1512 North 12th Street,,Murray,KY,42071,United States,1-270-917-8000,36.635147000000000000000000000000,-88.310114000000000000000000000000,,,0
SpringHill Suites Pigeon Forge,,120 Christmas Tree Lane,,Pigeon Forge,TN,37863,United States,1-865-453-4514,35.809478000000000000000000000000,-83.575519000000000000000000000000,,,0
SpringHill Suites Chattanooga Ooltewah,,8876 Old Lee Highway,,Ooltewah,TN,37363,United States,1-423-301-5669,35.083817000000000000000000000000,-85.068128000000000000000000000000,,,0
SpringHill Suites Chattanooga Downtown/Cameron Harbor,,495 Riverfront Parkway,,Chattanooga,TN,37402,United States,1-423-834-9300,35.054480284452438000000000000000,-85.318729877471924000000000000000,,,0
SpringHill Suites Asheville,,Two Buckstone Place,,Asheville,NC,28805,United States,1-828-253-4666,35.586235000000000000000000000000,-82.527881000000000000000000000000,,,0
SpringHill Suites South Bend Mishawaka,,5225 Edison Lakes Parkway,,Mishawaka,IN,46545,United States,1-574-271-0832,41.704462000000000000000000000000,-86.185670000000000000000000000000,,,0
SpringHill Suites Huntsville West/Research Park,,320 Providence Main Street,,Huntsville,AL,35806,United States,1-256-430-1485,34.752670000000000000000000000000,-86.692920000000000000000000000000,,,0
SpringHill Suites Huntsville Downtown,,745 Constellation Place Drive SW,,Huntsville,AL,35801,United States,1-256-512-0188,34.726150000000000000000000000000,-86.593060000000000000000000000000,,,0
"SpringHill Suites Chicago Southeast/Munster, IN",,9651 Calumet Avenue,,Munster,IN,46321,United States,1-219-924-2700,41.526500000000000000000000000000,-87.509444000000000000000000000000,,,0
SpringHill Suites St. Louis Brentwood,,1231 Strassner Drive,,Brentwood,MO,63144,United States,1-314-647-8400,38.622806000000000000000000000000,-90.335034000000000000000000000000,,,0
SpringHill Suites Benton Harbor St. Joseph,,1255 Cinema Way,,Benton Harbor,MI,49022,United States,1-269-338-8300,42.073617000000000000000000000000,-86.428888000000000000000000000000,,,0
SpringHill Suites St. Louis Airport/Earth City,,3099 Rider Trail South,,St. Louis,MO,63044,United States,1-314-739-9991,38.753042000000000000000000000000,-90.447800000000000000000000000000,,,0
SpringHill Suites Chicago Bolingbrook,,125 Remington Boulevard,,Bolingbrook,IL,60440,United States,1-630-759-0529,41.687824000000000000000000000000,-88.069204000000000000000000000000,,,0
SpringHill Suites Chicago Southwest at Burr Ridge/Hinsdale,,15W90 N Frontage Rd,,Burr Ridge,IL,60527,United States,1-630-323-7530,41.762202000000000000000000000000,-87.916998000000000000000000000000,,,0
SpringHill Suites St. Louis Chesterfield,,1065 Chesterfield Parkway East,,Chesterfield,MO,63017,United States,1-636-519-7500,38.652812000000000000000000000000,-90.551050000000000000000000000000,,,0
SpringHill Suites Chicago Downtown/River North,,410 North Dearborn Street,,Chicago,IL,60654,United States,1-312-644-4071,41.889655000000000000000000000000,-87.629908000000000000000000000000,,,0
SpringHill Suites Canton,,5770 Dressler Road NW,,North Canton,OH,44720,United States,1-330-433-0101,40.864846000000000000000000000000,-81.430483000000000000000000000000,,,0
SpringHill Suites Peoria Westlake,,2701 West Lake Ave.,,Peoria,IL,61615,United States,1-309-681-2700,40.739121000000000000000000000000,-89.635897000000000000000000000000,,,0
SpringHill Suites Wheeling Triadelphia Area,,908 National Road,,Wheeling,WV,26003,United States,1-304-232-8903,40.077422000000000000000000000000,-80.692679000000000000000000000000,,,0
SpringHill Suites Chicago Naperville/Warrenville,,4305 Weaver Parkway,,Warrenville,IL,60555,United States,1-630-393-0400,41.803489000000000000000000000000,-88.165815000000000000000000000000,,,0
SpringHill Suites Bridgeport Clarksburg,,97 Platinum Drive,,Bridgeport,WV,26330,United States,1-304-842-5200,39.280505000000000000000000000000,-80.276464000000000000000000000000,,,0
SpringHill Suites Chicago Elmhurst/Oakbrook Area,,410 West Lake Street,,Elmhurst,IL,60126,United States,1-630-782-6300,41.918094000000000000000000000000,-87.952317000000000000000000000000,,,0
SpringHill Suites Chicago O'Hare,,8101 West Higgins Road,,Chicago,IL,60631,United States,1-773-867-0000,41.985349000000000000000000000000,-87.830501000000000000000000000000,,,0
SpringHill Suites Atlanta Alpharetta,,12730 Deerfield Parkway,,Alpharetta,GA,30004,United States,1-770-751-6900,34.091820000000000000000000000000,-84.271319000000000000000000000000,,,0
SpringHill Suites Atlanta Kennesaw,,3399 Town Point Drive,,Kennesaw,GA,30144,United States,1-770-218-5550,34.028423000000000000000000000000,-84.579605000000000000000000000000,,,0
SpringHill Suites Cleveland Independence,,6060 Rockside Place,,Independence,OH,44131,United States,1-216-264-4190,41.399214000000000000000000000000,-81.649636000000000000000000000000,,,0
SpringHill Suites Atlanta Buford/Mall of Georgia,,3250 Buford Drive,,Buford,GA,30519,United States,1-678-714-2150,34.066769000000000000000000000000,-83.989136000000000000000000000000,,,0
SpringHill Suites Detroit Metro Airport Romulus,,8280 Merriman Rd,,Romulus,MI,48174,United States,1-734-326-7500,42.243152000000000000000000000000,-83.347535000000000000000000000000,,,0
SpringHill Suites Chicago Schaumburg/Woodfield Mall,,1550 McConnor Parkway,,Schaumburg,IL,60173,United States,1-847-995-1500,42.056036000000000000000000000000,-88.041439000000000000000000000000,,,0
SpringHill Suites Cleveland Solon,,30100 Aurora Road,,Solon,OH,44139,United States,1-440-248-9600,41.396898000000000000000000000000,-81.466113000000000000000000000000,,,0
SpringHill Suites Chicago Lincolnshire,,300 Marriott Drive,,Lincolnshire,IL,60069,United States,1-847-793-7500,42.195051000000000000000000000000,-87.932757000000000000000000000000,,,0
SpringHill Suites Atlanta Buckhead,,3459 Buckhead Loop NE,,Atlanta,GA,30326,United States,1-404-844-4800,33.849328000000000000000000000000,-84.373334000000000000000000000000,,,0
SpringHill Suites Pittsburgh Washington,,16 Trinity Point Drive,,Washington,PA,15301,United States,1-724-223-7800,40.182607000000000000000000000000,-80.223570000000000000000000000000,,,0
SpringHill Suites Atlanta Six Flags,,960 Bob Arnold Boulevard,,Lithia Springs,GA,30122,United States,1-770-819-9906,33.770651000000000000000000000000,-84.607029000000000000000000000000,,,0
SpringHill Suites Morgantown,,1910 Hunter's Way,,Morgantown,WV,26505,United States,1-304-225-5200,39.618578000000000000000000000000,-79.923812000000000000000000000000,,,0
SpringHill Suites Charlotte Lake Norman/Mooresville,,121 Gateway Boulevard,,Mooresville,NC,28117,United States,1-704-658-0053,35.556742000000000000000000000000,-80.854522000000000000000000000000,,,0
SpringHill Suites Chicago Waukegan/Gurnee,,4101 Fountain Square Place,,Waukegan,IL,60085,United States,1-847-688-9800,42.344668000000000000000000000000,-87.901686000000000000000000000000,,,0
SpringHill Suites Lansing,,111 South Market Place Boulevard,,Lansing,MI,48917,United States,1-517-627-0002,42.733560000000000000000000000000,-84.672728000000000000000000000000,,,0
SpringHill Suites Detroit Southfield,,28555 Northwestern Highway,,Southfield,MI,48034,United States,1-248-352-6100,42.497785000000000000000000000000,-83.301957000000000000000000000000,,,0
SpringHill Suites Athens,,3500 Daniells Bridge Road,,Athens,GA,30606,United States,1-706-353-8484,33.909992000000000000000000000000,-83.456003000000000000000000000000,,,0
SpringHill Suites Winston-Salem Hanes Mall,,1015 Marriott Crossing Way,,Winston-Salem,NC,27103,United States,1-336-765-0190,36.066097000000000000000000000000,-80.321123000000000000000000000000,,,0
SpringHill Suites Memphis East/Galleria,,2800 New Brunswick Road,,Memphis,TN,38133,United States,1-901-380-9700,35.200562000000000000000000000000,-89.784387000000000000000000000000,,,0
SpringHill Suites Pittsburgh Airport,,239 Summit Park Drive,,Pittsburgh,PA,15275,United States,1-412-494-9446,40.448001000000000000000000000000,-80.178081000000000000000000000000,,,0
SpringHill Suites Atlanta Airport Gateway,,2091 Convention Center Concourse,,College Park,GA,30337,United States,1-770-907-8498,33.643837000000000000000000000000,-84.457115000000000000000000000000,,,0
SpringHill Suites Charlotte Airport,,3055 Scott Futrell Drive,,Charlotte,NC,28208,United States,1-704-405-6061,35.237673000000000000000000000000,-80.916650000000000000000000000000,,,0
SpringHill Suites Grand Rapids Airport Southeast,,5250 28th St. SE,,Grand Rapids,MI,49512,United States,1-616-464-1130,42.907361000000000000000000000000,-85.539328000000000000000000000000,,,0
SpringHill Suites Pittsburgh Mt. Lebanon,,611 Washington Road,,Mt. Lebanon,PA,15228,United States,1-412-563-6300,40.382479000000000000000000000000,-80.044018000000000000000000000000,,,0
SpringHill Suites Charlotte Concord Mills/Speedway,,7811 Gateway Lane NW,,Concord,NC,28027,United States,1-704-979-2500,35.368939000000000000000000000000,-80.711403000000000000000000000000,,,0
SpringHill Suites Charlotte University Research Park,,8700 Research Drive,,Charlotte,NC,28262,United States,1-704-503-4800,35.315356000000000000000000000000,-80.762752000000000000000000000000,,,0
SpringHill Suites Charlotte Uptown,,311 East 5th Street,,Charlotte,NC,28202,United States,1-704-439-8100,35.226030000000000000000000000000,-80.838501000000000000000000000000,,,0
SpringHill Suites West Mifflin,,1000 Regis Avenue,,Pittsburgh,PA,15236,United States,1-412-653-9800,40.347669000000000000000000000000,-79.951879000000000000000000000000,,,0
SpringHill Suites Pittsburgh North Shore,,223 Federal Street,,Pittsburgh,PA,15212,United States,1-412-323-9005,40.448507000000000000000000000000,-80.004328000000000000000000000000,,,0
SpringHill Suites Pittsburgh Southside Works,,2950 South Water Street,,Pittsburgh,PA,15203,United States,1-412-488-8003,40.426854000000000000000000000000,-79.961970000000000000000000000000,,,0
SpringHill Suites Detroit Auburn Hills,,4919 Interpark Dr.,,Orion Township,MI,48359,United States,1-248-475-4700,42.709202000000000000000000000000,-83.241450000000000000000000000000,,,0
SpringHill Suites Grand Rapids North,,450 Center Drive,,Grand Rapids,MI,49544,United States,1-616-785-1600,43.018915000000000000000000000000,-85.680406000000000000000000000000,,,0
SpringHill Suites Pittsburgh Bakery Square,,134 Bakery Square Boulevard,,Pittsburgh,PA,15206,United States,1-412-362-8600,40.456778000000000000000000000000,-79.914989000000000000000000000000,,,0
SpringHill Suites Memphis Downtown,,85 West Court Avenue,,Memphis,TN,38103,United States,1-901-522-2100,35.146163000000000000000000000000,-90.052834000000000000000000000000,,,0
SpringHill Suites Birmingham Downtown at UAB,,2024 4th Avenue South,,Birmingham,AL,35233,United States,1-205-322-8600,33.509236000000000000000000000000,-86.801698000000000000000000000000,,,0
SpringHill Suites Charlotte Ballantyne Area,,12325 Johnston Road,,Charlotte,NC,28277,United States,1-704-817-1500,35.071347000000000000000000000000,-80.842075000000000000000000000000,,,0
SpringHill Suites Newnan,,1119 Bullsboro Drive,,Newnan,GA,30265,United States,1-770-254-8900,33.395256000000000000000000000000,-84.741787000000000000000000000000,,,0
SpringHill Suites Greensboro Airport,,505 Hickory Branch Road,,Greensboro,NC,27409,United States,1-336-884-4901,36.074322000000000000000000000000,-79.960844000000000000000000000000,,,0
SpringHill Suites Birmingham Colonnade,,3950 Colonnade Parkway,,Birmingham,AL,35243,United States,1-205-969-8099,33.437008000000000000000000000000,-86.734451000000000000000000000000,,,0
SpringHill Suites Greensboro,,6006 Landmark Center Blvd,,Greensboro,NC,27407,United States,1-336-809-0909,36.052005000000000000000000000000,-79.892031000000000000000000000000,,,0
SpringHill Suites Pittsburgh Monroeville,,122 Daugherty Drive,,Monroeville,PA,15146,United States,1-412-380-9100,40.435075000000000000000000000000,-79.754855000000000000000000000000,,,0
SpringHill Suites Pittsburgh Mills,,3015 Pittsburgh Mills Blvd,,Tarentum,PA,15084,United States,1-724-274-1064,40.570678000000000000000000000000,-79.804627000000000000000000000000,,,0
SpringHill Suites Lynchburg,,15171 Wards Road,,Lynchburg,VA,24502,United States,1-434-237-5848,37.335075000000000000000000000000,-79.191357000000000000000000000000,,,0
SpringHill Suites Pittsburgh Butler/Centre City,,125 East Jefferson Street,,Butler,PA,16001,United States,1-724-256-9844,40.860692000000000000000000000000,-79.894314000000000000000000000000,,,0
SpringHill Suites Pittsburgh Latrobe,,115 Arnold Palmer Dr,,Latrobe,PA,15650,United States,1-724-537-7800,40.280541000000000000000000000000,-79.391010000000000000000000000000,,,0
SpringHill Suites Milwaukee Downtown,,744 North 4th Street,,Milwaukee,WI,53203,United States,1-414-273-9811,43.039563000000000000000000000000,-87.915746000000000000000000000000,,,0
SpringHill Suites Frankenmuth,,530 S. Main Street,,Frankenmuth,MI,48734,United States,1-989-652-7500,43.329559000000000000000000000000,-83.739089000000000000000000000000,,,0
SpringHill Suites Tuscaloosa,,4020 Greensboro Avenue,,Tuscaloosa,AL,35405,United States,1-205-750-2003,33.170385000000000000000000000000,-87.546169000000000000000000000000,,,0
SpringHill Suites Saginaw,,5270 Fashion Square Blvd.,,Saginaw,MI,48604,United States,1-989-792-2800,43.484072000000000000000000000000,-83.969068000000000000000000000000,,,0
SpringHill Suites Columbia,,3415 Clark Lane,,Columbia,MO,65202,United States,1-573-554-9024,38.965261000000000000000000000000,-92.286736000000000000000000000000,,,0
SpringHill Suites Augusta,,1110 Marks Church Road,,Augusta,GA,30909,United States,1-706-396-6600,33.481147000000000000000000000000,-82.082392000000000000000000000000,,,0
SpringHill Suites Macon,,4630 Sheraton Drive,,Macon,GA,31210,United States,1-478-803-9100,32.919582000000000000000000000000,-83.705956000000000000000000000000,,,0
SpringHill Suites Columbia Downtown/The Vista,,511 Lady Street,,Columbia,SC,29201,United States,1-803-978-2333,33.999503000000000000000000000000,-81.044402000000000000000000000000,,,0
SpringHill Suites Midland,,800 Joe Mann Boulevard,,Midland,MI,48642,United States,1-989-837-2700,43.659912000000000000000000000000,-84.235434000000000000000000000000,,,0
SpringHill Suites Erie,,2087 Interchange Road,,Erie,PA,16509,United States,1-814-864-5000,42.062868000000000000000000000000,-80.104589000000000000000000000000,,,0
SpringHill Suites Durham Chapel Hill,,5310 McFarland Drive,,Durham,NC,27707,United States,1-919-403-1111,35.951047000000000000000000000000,-78.992363000000000000000000000000,,,0
SpringHill Suites Pinehurst Southern Pines,,10024 US Highway 15/501,,Pinehurst,NC,28374,United States,1-910-695-0234,35.181157000000000000000000000000,-79.436270000000000000000000000000,,,0
SpringHill Suites Columbus,,5415 Whittlesey Blvd,,Columbus,GA,31909,United States,1-706-576-3773,32.542538000000000000000000000000,-84.948977000000000000000000000000,,,0
SpringHill Suites Raleigh-Durham Airport/Research Triangle Park,,920 Slater Road,,Durham,NC,27703,United States,1-919-998-9500,35.875941000000000000000000000000,-78.837390000000000000000000000000,,,0
SpringHill Suites Coralville,,1001 25th Avenue,,Coralville,IA,52241,United States,1-319-625-1001,41.688258000000000000000000000000,-91.603261000000000000000000000000,,,0
SpringHill Suites Raleigh Cary,,1128 Ledsome Lane,,Cary,NC,27511,United States,1-919-977-7244,35.762047000000000000000000000000,-78.748939000000000000000000000000,,,0
SpringHill Suites Sumter,,2645 Broad Street,,Sumter,SC,29150,United States,1-803-469-6000,33.962003000000000000000000000000,-80.400853000000000000000000000000,,,0
SpringHill Suites Montgomery,,1201 Townplace Drive,,Montgomery,AL,36106,United States,1-334-409-9999,32.361720000000000000000000000000,-86.219582000000000000000000000000,,,0
SpringHill Suites Florence,,2670 Hospitality Boulevard,,Florence,SC,29501,United States,1-843-317-9050,34.189120000000000000000000000000,-79.834796000000000000000000000000,,,0
SpringHill Suites Hagerstown,,17280 Valley Mall Road,,Hagerstown,MD,21740,United States,1-301-582-0011,39.626389000000000000000000000000,-77.773153000000000000000000000000,,,0
SpringHill Suites Gainesville Haymarket,,7921 Gateway Promenade Place,,Gainesville,VA,20155,United States,1-703-753-0121,38.787756000000000000000000000000,-77.605733000000000000000000000000,,,0
SpringHill Suites Richmond Northwest,,9960 Independence Park Drive,,Henrico,VA,23233,United States,1-804-217-7075,37.639280000000000000000000000000,-77.569522000000000000000000000000,,,0
SpringHill Suites Lumberton,,5128 Fayetteville Road,,Lumberton,NC,28360,United States,1-910-738-2085,34.670934000000000000000000000000,-79.006487000000000000000000000000,,,0
SpringHill Suites Centreville Chantilly,,5920 Trinity Parkway,,Centreville,VA,20120,United States,1-703-815-7800,38.841182000000000000000000000000,-77.440617000000000000000000000000,,,0
SpringHill Suites Ashburn Dulles North,,20065 Lakeview Center Plaza,,Ashburn,VA,20147,United States,1-703-723-9300,39.059695000000000000000000000000,-77.450711000000000000000000000000,,,0
SpringHill Suites Dulles Airport,,22595 Shaw Road,,Sterling,VA,20166,United States,1-703-444-3944,38.991103000000000000000000000000,-77.428801000000000000000000000000,,,0
SpringHill Suites Richmond Virginia Center,,9701 Brook Road,,Glen Allen,VA,23059,United States,1-804-266-9403,37.664774000000000000000000000000,-77.460513000000000000000000000000,,,0
SpringHill Suites Wisconsin Dells,,461 Wisconsin Dells Parkway,,Wisconsin Dells,WI,53965,United States,1-608-678-2225,43.595460000000000000000000000000,-89.793891000000000000000000000000,,,0
SpringHill Suites Herndon Reston,,138 Spring Street,,Herndon,VA,20170,United States,1-703-435-3100,38.958433000000000000000000000000,-77.373121000000000000000000000000,,,0
SpringHill Suites Fairfax Fair Oaks,,11191 Waples Mill Road,,Fairfax,VA,22030,United States,1-703-691-7880,38.853774000000000000000000000000,-77.337890000000000000000000000000,,,0
SpringHill Suites State College,,1935 Waddle Road,,State College,PA,16803,United States,1-814-867-1807,40.817050000000000000000000000000,-77.897279000000000000000000000000,,,0
SpringHill Suites Potomac Mills Woodbridge,,14325 Crossing Place,,Woodbridge,VA,22192,United States,1-703-576-9000,38.654885000000000000000000000000,-77.283934000000000000000000000000,,,0
SpringHill Suites Gaithersburg,,9715 Washingtonian Blvd.,,Gaithersburg,MD,20878,United States,1-301-987-0900,39.112378000000000000000000000000,-77.192428000000000000000000000000,,,0
SpringHill Suites Statesboro University Area,,105 Springhill Drive,,Statesboro,GA,30458,United States,1-912-489-0000,32.405998000000000000000000000000,-81.763119000000000000000000000000,,,0
SpringHill Suites Alexandria Old Town/Southwest,,2950 Eisenhower Avenue,,Alexandria,VA,22314,United States,1-703-317-0013,38.802499000000000000000000000000,-77.080372000000000000000000000000,,,0
SpringHill Suites Alexandria,,6065 Richmond Highway,,Alexandria,VA,22303,United States,1-571-481-4441,38.785063000000000000000000000000,-77.070213000000000000000000000000,,,0
SpringHill Suites Little Rock West,,306 Markham Center Drive,,Little Rock,AR,72205,United States,1-501-978-6000,34.755903000000000000000000000000,-92.389940000000000000000000000000,,,0
SpringHill Suites Green Bay,,1011 Tony Canadeo Run,,Green Bay,WI,54304,United States,1-920-569-8500,44.496720000000000000000000000000,-88.051463000000000000000000000000,,,0
SpringHill Suites Columbia,,7055 Minstrel Way,,Columbia,MD,21046,United States,1-410-290-7896,39.176831000000000000000000000000,-76.844648000000000000000000000000,,,0
SpringHill Suites Charleston North/Ashley Phosphate,,7535 North Forest Drive,,North Charleston,SC,29420,United States,1-843-572-8866,32.938912000000000000000000000000,-80.052522000000000000000000000000,,,0
SpringHill Suites Arundel Mills BWI Airport,,7544 Teague Road,,Hanover,MD,21076,United States,1-410-799-7100,39.155035000000000000000000000000,-76.716282000000000000000000000000,,,0
SpringHill Suites Baltimore BWI Airport,,899 Elkridge Landing Road,,Linthicum,MD,21090,United States,1-410-694-0555,39.201481000000000000000000000000,-76.685627000000000000000000000000,,,0
SpringHill Suites Prince Frederick,,75 Sherry Lane,,Prince Frederick,MD,20678,United States,1-443-968-3000,38.532219000000000000000000000000,-76.584241000000000000000000000000,,,0
SpringHill Suites Williamsburg,,1644 Richmond Road,,Williamsburg,VA,23185,United States,1-757-941-3000,37.294571000000000000000000000000,-76.725052000000000000000000000000,,,0
SpringHill Suites Jackson Ridgeland/The Township at Colony Park,,121 Southtowne Avenue,,Ridgeland,MS,39157,United States,1-601-898-3747,32.442085000000000000000000000000,-90.149740000000000000000000000000,,,0
SpringHill Suites Harrisburg Hershey,,15 Capital Drive at I-81 Progress Avenue Exit 69,,Harrisburg,PA,17110-9446,United States,1-717-540-5100,40.303757000000000000000000000000,-76.854730000000000000000000000000,,,0
SpringHill Suites Baltimore Downtown/Inner Harbor,,120 East Redwood Street,,Baltimore,MD,21202,United States,1-410-685-1095,39.288986000000000000000000000000,-76.612197000000000000000000000000,,,0
SpringHill Suites Buffalo Airport,,6647 Transit Road,,Buffalo,NY,14221,United States,1-716-650-4625,42.950264000000000000000000000000,-78.695386000000000000000000000000,,,0
SpringHill Suites Savannah Airport,,One  Jay R. Turner Drive (Exit 104),,Savannah,GA,31408,United States,1-912-330-5555,32.140689000000000000000000000000,-81.234316000000000000000000000000,,,0
SpringHill Suites Annapolis,,189 Admiral Cochrane Drive,,Annapolis,MD,21401,United States,1-443-321-2500,38.972368000000000000000000000000,-76.549309000000000000000000000000,,,0
SpringHill Suites Charleston Downtown/Riverview,,98 Ripley Point Drive,,Charleston,SC,29407,United States,1-843-571-1711,32.777912000000000000000000000000,-79.963613000000000000000000000000,,,0
SpringHill Suites Charleston Mount Pleasant,,245 Magrath Darby Boulevard,,Mount Pleasant,SC,29464,United States,1-843-284-5260,32.799822000000000000000000000000,-79.895644000000000000000000000000,,,0
SpringHill Suites Hershey Near the Park,,115 Museum Drive,,Hershey,PA,17033,United States,1-717-583-2222,40.299837000000000000000000000000,-76.689794000000000000000000000000,,,0
SpringHill Suites Savannah I-95 South,,4 Gateway Blvd East (Exit 94),,Savannah,GA,31419,United States,1-912-629-7777,32.005374000000000000000000000000,-81.280224000000000000000000000000,,,0
SpringHill Suites Savannah Downtown/Historic District,,150 Montgomery Street,,Savannah,GA,31401,United States,1-912-629-5300,32.078390000000000000000000000000,-81.096865000000000000000000000000,,,0
SpringHill Suites Toronto Vaughan,,612 Applewood Crescent,,Vaughan,ON,L4K 4B4,United States,1-905-760-9960,43.799205000000000000000000000000,-79.539135000000000000000000000000,,,0
SpringHill Suites Savannah Midtown,,11317 Abercorn Street,,Savannah,GA,31419,United States,1-912-920-3787,31.980023000000000000000000000000,-81.147259000000000000000000000000,,,0
SpringHill Suites Bentonville,,2304 SE Walton Boulevard,,Bentonville,AR,72712,United States,1-479-464-4777,36.335165000000000000000000000000,-94.186075000000000000000000000000,,,0
SpringHill Suites Hampton,,1997 Power Plant Parkway,,Hampton,VA,23666,United States,1-757-310-6333,37.035526000000000000000000000000,-76.394341000000000000000000000000,,,0
SpringHill Suites Edgewood Aberdeen,,1420 Handlir Drive,,Bel Air,MD,21015,United States,1-410-297-4970,39.481635000000000000000000000000,-76.252929000000000000000000000000,,,0
SpringHill Suites Des Moines West,,1236 Jordan Creek Pkwy,,West Des Moines,IA,50266,United States,1-515-223-9005,41.587475000000000000000000000000,-93.809531000000000000000000000000,,,0
SpringHill Suites Kansas City Overland Park,,12000 Blue Valley Parkway,,Overland Park,KS,66213,United States,1-913-491-0010,38.910934000000000000000000000000,-94.672181000000000000000000000000,,,0
SpringHill Suites Wilmington Mayfaire,,1014 Ashes Drive,,Wilmington,NC,28405,United States,1-910-239-9975,34.240350000000000000000000000000,-77.825838000000000000000000000000,,,0
SpringHill Suites Kansas City Lenexa/City Center,,17190 West 87th Street,,Lenexa,KS,66219,United States,1-913-225-9955,38.971164000000000000000000000000,-94.784111000000000000000000000000,,,0
SpringHill Suites Norfolk Old Dominion University,,4500 Hampton Boulevard,,Norfolk,VA,23508,United States,1-757-423-4100,36.884896000000000000000000000000,-76.302386000000000000000000000000,,,0
SpringHill Suites New Bern,,300 Hotel Drive,,New Bern,NC,28562,United States,1-252-637-0017,35.101695000000000000000000000000,-77.079860000000000000000000000000,,,0
SpringHill Suites Chesapeake Greenbrier,,1446 Crossways Boulevard,,Chesapeake,VA,23320,United States,1-757-410-9406,36.778544000000000000000000000000,-76.240831000000000000000000000000,,,0
SpringHill Suites Norfolk Virginia Beach,,6350 Newtown Rd,,Norfolk,VA,23502,United States,1-757-333-3100,36.842699000000000000000000000000,-76.186184000000000000000000000000,,,0
SpringHill Suites Virginia Beach Oceanfront,,901 Atlantic Avenue,,Virginia Beach,VA,23451,United States,1-757-417-3982,36.837877000000000000000000000000,-75.972262000000000000000000000000,,,0
SpringHill Suites Lawrence,,One Riverfront Plaza,,Lawrence,KS,66044,United States,1-785-841-2700,38.973037000000000000000000000000,-95.234363000000000000000000000000,,,0
SpringHill Suites Tallahassee Central,,1300 Executive Center Drive,,Tallahassee,FL,32301,United States,1-850-325-1103,30.426425000000000000000000000000,-84.235876000000000000000000000000,,,0
SpringHill Suites Mobile,,3655 Springhill Memorial Drive North,,Mobile,AL,36608,United States,1-251-378-3800,30.681509000000000000000000000000,-88.130204000000000000000000000000,,,0
SpringHill Suites Pensacola,,487 Creighton Road,,Pensacola,FL,32504,United States,1-850-475-0055,30.495887000000000000000000000000,-87.225324000000000000000000000000,,,0
SpringHill Suites Rochester Mayo Clinic Area/Saint Marys,,1125 2nd Street SW,,Rochester,MN,55902,United States,1-507-281-5455,44.021587000000000000000000000000,-92.479354000000000000000000000000,,,0
SpringHill Suites Navarre Beach,,8375 Gulf Boulevard,,Navarre,FL,32566,United States,1-850-939-0010,30.379908000000000000000000000000,-86.873017000000000000000000000000,,,0
SpringHill Suites Philadelphia Valley Forge/King of Prussia,,875 Mancill Mill Road,,King of Prussia,PA,19406,United States,1-610-783-1400,40.105513000000000000000000000000,-75.409986000000000000000000000000,,,0
SpringHill Suites Pensacola Beach,,24 Via De Luna,,Pensacola Beach,FL,32561,United States,1-850-932-6000,30.334048000000000000000000000000,-87.131299000000000000000000000000,,,0
SpringHill Suites Philadelphia Airport/Ridley Park,,201 Industrial Highway,,Ridley Park,PA,19078,United States,1-610-915-6600,39.866555000000000000000000000000,-75.315659000000000000000000000000,,,0
SpringHill Suites Quakertown,,1930 John Fries Highway,,Quakertown,PA,18951,United States,1-215-529-6800,40.435495000000000000000000000000,-75.416078000000000000000000000000,,,0
SpringHill Suites Allentown Bethlehem/Center Valley,,3800 West Drive,,Center Valley,PA,18034,United States,1-610-709-9797,40.550514000000000000000000000000,-75.423431000000000000000000000000,,,0
SpringHill Suites Philadelphia Plymouth Meeting,,430 Plymouth Road,,Plymouth Meeting,PA,19462,United States,1-610-940-0400,40.112314000000000000000000000000,-75.287946000000000000000000000000,,,0
SpringHill Suites Scranton Wilkes-Barre,,19 Radcliffe Drive,,Moosic,PA,18507,United States,1-570-207-1212,41.362324000000000000000000000000,-75.680873000000000000000000000000,,,0
SpringHill Suites Orange Beach at The Wharf,,4673 Wharf Parkway West,,Orange Beach,AL,36561,United States,1-251-943-6600,30.292716000000000000000000000000,-87.631926000000000000000000000000,,,0
SpringHill Suites Philadelphia Willow Grove,,3900 Commerce Avenue,,Willow Grove,PA,19090,United States,1-215-657-7800,40.161556000000000000000000000000,-75.131453000000000000000000000000,,,0
SpringHill Suites Voorhees Mt. Laurel/Cherry Hill,,1031 Voorhees Drive,,Voorhees,NJ,08043,United States,1-856-782-2555,39.847607000000000000000000000000,-74.981938000000000000000000000000,,,0
SpringHill Suites Mt. Laurel Cherry Hill,,5000 Midlantic Drive,,Mount Laurel,NJ,08054,United States,1-856-234-2009,39.964697000000000000000000000000,-74.919108000000000000000000000000,,,0
SpringHill Suites Jacksonville Airport,,13550 Airport Court,,Jacksonville,FL,32218,United States,1-904-741-8002,30.482032000000000000000000000000,-81.654873000000000000000000000000,,,0
SpringHill Suites Philadelphia Langhorne,,200 North Buckstown Drive,,Langhorne,PA,19047,United States,1-215-891-5501,40.186719596385956000000000000000,-74.870890751481056000000000000000,,,0
SpringHill Suites Ewing Princeton South,,1000 Charles Ewing Blvd,,Ewing,NJ,08628,United States,1-609-530-0900,40.287285000000000000000000000000,-74.796413000000000000000000000000,,,0
SpringHill Suites Jacksonville,,4385 Southside Boulevard,,Jacksonville,FL,32216,United States,1-904-997-6650,30.266160000000000000000000000000,-81.558141000000000000000000000000,,,0
SpringHill Suites Tulsa,,11015 East 73rd Street,,Tulsa,OK,74133,United States,1-918-254-1777,36.058782000000000000000000000000,-95.851979000000000000000000000000,,,0
"SpringHill Suites Omaha East/Council Bluffs, IA",,3216 Plaza View Dr,,Council Bluffs,IA,51501,United States,1-712-256-6500,41.236181000000000000000000000000,-95.894280000000000000000000000000,,,0
SpringHill Suites Syracuse Carrier Circle,,6580 Weighlock Drive,,East Syracuse,NY,13057,United States,1-315-437-0056,43.088894000000000000000000000000,-76.079901000000000000000000000000,,,0
SpringHill Suites Tulsa at Tulsa Hills,,1521 West 80th Street South,,Tulsa,OK,74132,United States,1-918-392-8100,36.048381000000000000000000000000,-96.008253000000000000000000000000,,,0
SpringHill Suites Somerset Franklin Township,,16 Cedar Grove Lane,,Somerset,NJ,08873,United States,1-732-595-5100,40.533536000000000000000000000000,-74.508317000000000000000000000000,,,0
SpringHill Suites Shreveport-Bossier City/Louisiana Downs,,8010 E. Texas Street,,Bossier City,LA,71111-7016,United States,1-318-747-7772,32.549176000000000000000000000000,-93.630700000000000000000000000000,,,0
SpringHill Suites Minneapolis-St. Paul Airport/Eagan,,3635 Crestridge Drive,,Eagan,MN,55122,United States,1-651-686-0600,44.825808000000000000000000000000,-93.168445000000000000000000000000,,,0
SpringHill Suites Minneapolis-St. Paul Airport/Mall of America,,2870 Metro Drive,,Bloomington,MN,55425,United States,1-952-854-0300,44.859665000000000000000000000000,-93.230907000000000000000000000000,,,0
SpringHill Suites Minneapolis Eden Prairie,,11552 Leona Road,,Eden Prairie,MN,55344,United States,1-952-944-7700,44.859836000000000000000000000000,-93.424454000000000000000000000000,,,0
SpringHill Suites Gainesville,,4155 SW 40th Blvd.,,Gainesville,FL,32608,United States,1-352-376-8873,29.616342000000000000000000000000,-82.383153000000000000000000000000,,,0
SpringHill Suites Minneapolis West/St. Louis Park,,5901 Wayzata Blvd,,St. Louis Park,MN,55416,United States,1-952-738-7300,44.969931000000000000000000000000,-93.355531000000000000000000000000,,,0
SpringHill Suites Baton Rouge North/Airport,,7980 Howell Boulevard,,Baton Rouge,LA,70807,United States,1-225-356-6705,30.521267000000000000000000000000,-91.156757000000000000000000000000,,,0
SpringHill Suites Newark Liberty International Airport,,652 US Highway 1 and 9 South,,Newark,NJ,07114,United States,1-973-624-5300,40.709290000000000000000000000000,-74.170165000000000000000000000000,,,0
SpringHill Suites Baton Rouge South,,7979 Essen Park Avenue,,Baton Rouge,LA,70809,United States,1-225-766-5252,30.404386000000000000000000000000,-91.101350000000000000000000000000,,,0
SpringHill Suites New Orleans Downtown/Canal Street,,1600 Canal Street,,New Orleans,LA,70112,United States,1-504-702-6800,29.958394000000000000000000000000,-90.077208000000000000000000000000,,,0
SpringHill Suites New Orleans Downtown/Convention Center,,301 St. Joseph Street,,New Orleans,LA,70130,United States,1-504-522-3100,29.943117000000000000000000000000,-90.066408000000000000000000000000,,,0
SpringHill Suites New York Midtown Manhattan/Fifth Avenue,,25 West 37th St,,New York,NY,10018,United States,1-212-391-2255,40.751190185546875000000000000000,-73.984596252441400000000000000000,,,0
SpringHill Suites Baton Rouge Gonzales,,2801 South Cabela's Parkway,,Gonzales,LA,70737,United States,1-225-621-3000,30.208129000000000000000000000000,-90.951104000000000000000000000000,,,0
SpringHill Suites New York LaGuardia Airport,,112-15 Northern Boulevard,,Corona,NY,11368,United States,1-718-651-5000,40.758111000000000000000000000000,-73.857767000000000000000000000000,,,0
SpringHill Suites Wichita East at Plazzio,,1220 North Greenwich Road,,Wichita,KS,67206,United States,1-316-681-1800,37.705622000000000000000000000000,-97.207942000000000000000000000000,,,0
SpringHill Suites Tarrytown Greenburgh,,480 White Plains Road,,Tarrytown,NY,10591,United States,1-914-366-4600,41.063364000000000000000000000000,-73.843320000000000000000000000000,,,0
SpringHill Suites Fishkill,,500 Westage Business Center Drive,,Fishkill,NY,12524,United States,1-845-896-8100,41.524576000000000000000000000000,-73.895769000000000000000000000000,,,0
SpringHill Suites Carle Place Garden City,,20 Westbury Avenue,,Carle Place,NY,11514,United States,1-516-880-1000,40.748397000000000000000000000000,-73.620086000000000000000000000000,,,0
SpringHill Suites Wichita Airport,,6633 West Kellogg,,Wichita,KS,67209,United States,1-316-260-4404,37.672165000000000000000000000000,-97.419183000000000000000000000000,,,0
SpringHill Suites Danbury,,30 Old Ridgebury Rd,,Danbury,CT,06810,United States,1-203-744-7333,41.386175000000000000000000000000,-73.515184000000000000000000000000,,,0
SpringHill Suites Lafayette South at River Ranch,,321 Settlers Trace Boulevard,,Lafayette,LA,70508,United States,1-337-981-5512,30.168437000000000000000000000000,-92.040481000000000000000000000000,,,0
SpringHill Suites Albany-Colonie,,8 California Avenue,,Albany,NY,12205,United States,1-518-724-7999,42.702435000000000000000000000000,-73.815405000000000000000000000000,,,0
SpringHill Suites New Smyrna Beach,,512 Flagler Avenue,,New Smyrna Beach,FL,32169,United States,1-386-427-0512,29.038994000000000000000000000000,-80.896108000000000000000000000000,,,0
SpringHill Suites Milford,,50 Rowe Avenue,,Milford,CT,06460,United States,1-203-283-0200,41.210814000000000000000000000000,-73.090831000000000000000000000000,,,0
SpringHill Suites Long Island Brookhaven,,2 Sawgrass Drive,,Bellport,NY,11713,United States,1-631-924-0090,40.808765000000000000000000000000,-72.947370000000000000000000000000,,,0
SpringHill Suites Oklahoma City Midwest City/Del City,,5400 Main Street,,Del City,OK,73115,United States,1-405-604-0552,35.442972000000000000000000000000,-97.425586000000000000000000000000,,,0
SpringHill Suites Orlando North/Sanford,,201 North Towne Road,,Sanford,FL,32771,United States,1-407-995-1000,28.810192000000000000000000000000,-81.336588000000000000000000000000,,,0
SpringHill Suites Oklahoma City Downtown,,600 East Sheridan Avenue,,Oklahoma City,OK,73104,United States,1-405-601-9098,35.465572000000000000000000000000,-97.503217000000000000000000000000,,,0
SpringHill Suites Oklahoma City Quail Springs,,3201 W. Memorial Road,,Oklahoma City,OK,73134,United States,1-405-749-1595,35.609864000000000000000000000000,-97.573856000000000000000000000000,,,0
SpringHill Suites Sioux Falls,,4304 W. Empire Place,,Sioux Falls,SD,57106,United States,1-605-444-4200,43.514300000000000000000000000000,-96.778535000000000000000000000000,,,0
SpringHill Suites Oklahoma City Moore,,613 NW 8th ST,,Moore,OK,73160,United States,1-405-759-2600,35.347076000000000000000000000000,-97.497692000000000000000000000000,,,0
SpringHill Suites Enid,,5815 KL Drive,,Enid,OK,73703,United States,1-580-540-4256,36.389000000000000000000000000000,-97.949000000000000000000000000000,,,0
SpringHill Suites Orlando Altamonte Springs/Maitland,,205 W. State Road 436,,Altamonte Springs,FL,32714,United States,1-407-865-6400,28.662052000000000000000000000000,-81.390501000000000000000000000000,,,0
SpringHill Suites Oklahoma City Airport,,510 South MacArthur Boulevard,,Oklahoma City,OK,73128,United States,1-405-604-0200,35.461458000000000000000000000000,-97.618758000000000000000000000000,,,0
SpringHill Suites Ardmore,,2501 Centennial Drive North,,Ardmore,OK,73402,United States,1-580-226-7100,34.200431000000000000000000000000,-97.161639000000000000000000000000,,,0
SpringHill Suites Lake Charles,,1551 West Prien Lake Road,,Lake Charles,LA,70601,United States,1-337-474-1112,30.197690000000000000000000000000,-93.243366000000000000000000000000,,,0
SpringHill Suites Orlando Convention Center/International Drive Area,,8840 Universal Boulevard,,Orlando,FL,32819,United States,1-407-345-9073,28.437419000000000000000000000000,-81.468145000000000000000000000000,,,0
SpringHill Suites Orlando at Flamingo Crossings/Western Entrance,,13279 Flamingo Crossings Boulevard,,Winter Garden,FL,34787,United States,1-407-507-1200,28.380657000000000000000000000000,-81.614372000000000000000000000000,,,0
SpringHill Suites Orlando Airport,,5828 Hazeltine National Drive,,Orlando,FL,32822,United States,1-407-816-5533,28.462679000000000000000000000000,-81.306421000000000000000000000000,,,0
SpringHill Suites Orlando at SeaWorldÂ®,,10801 International Drive,,Orlando,FL,32821,United States,1-407-354-1176,28.410171508789062000000000000000,-81.454719543457031000000000000000,,,0
SpringHill Suites Orlando Lake Buena Vista in Marriott Village,,8601 Vineland Avenue,,Orlando,FL,32821,United States,1-407-938-9001,28.376730000000000000000000000000,-81.502413000000000000000000000000,,,0
SpringHill Suites Tampa North/I-75 Tampa Palms,,5396 Primrose Lake Circle,,Tampa,FL,33647,United States,1-813-558-0300,28.128264000000000000000000000000,-82.378128000000000000000000000000,,,0
SpringHill Suites Orlando Kissimmee,,4991 Calypso Cay Way,,Kissimmee,FL,34746,United States,1-407-997-1300,28.338723000000000000000000000000,-81.482847000000000000000000000000,,,0
SpringHill Suites Hartford Airport/Windsor Locks,,225 Ella Grasso Turnpike,,Windsor Locks,CT,06096,United States,1-860-758-7000,41.930497000000000000000000000000,-72.670447000000000000000000000000,,,0
SpringHill Suites Dallas Rockwall,,2601 Lakefront Trail,,Rockwall,TX,75032,United States,1-972-961-5100,32.892783000000000000000000000000,-96.479192000000000000000000000000,,,0
SpringHill Suites Tampa Clearwater Beach,,309 Coronado Drive,,Clearwater Beach,FL,33767,United States,1-727-218-1090,27.973497000000000000000000000000,-82.827953000000000000000000000000,,,0
SpringHill Suites Dallas Richardson/Plano,,3251 E President George Bush Turnpike,,Richardson,TX,75082,United States,1-972-479-0300,32.989735000000000000000000000000,-96.666499000000000000000000000000,,,0
SpringHill Suites Tampa Westshore Airport,,4835 W Cypress Street,,Tampa,FL,33607,United States,1-813-639-9600,27.952288000000000000000000000000,-82.524839000000000000000000000000,,,0
SpringHill Suites Dallas Plano/Frisco,,8401 Angels Drive,,Plano,TX,75024,United States,1-469-362-7773,33.092821000000000000000000000000,-96.802636000000000000000000000000,,,0
SpringHill Suites St. Petersburg Clearwater,,3485 Ulmerton Road,,Clearwater,FL,33762,United States,1-727-571-1600,27.894157000000000000000000000000,-82.681730000000000000000000000000,,,0
SpringHill Suites Tampa Brandon,,1051 S. Falkenburg Road,,Tampa,FL,33619,United States,1-813-623-9990,27.940146000000000000000000000000,-82.337193000000000000000000000000,,,0
SpringHill Suites Dallas Addison/Quorum Drive,,15255 Quorum Dr.,,Addison,TX,75001,United States,1-972-774-1010,32.956978000000000000000000000000,-96.826257000000000000000000000000,,,0
SpringHill Suites Mystic Waterford,,401 North Frontage Road,,Waterford,CT,06385,United States,1-860-439-0151,41.372598000000000000000000000000,-72.120813000000000000000000000000,,,0
SpringHill Suites Dallas Lewisville,,720 East Vista Ridge Mall Drive,,Lewisville,TX,75067,United States,1-972-221-2999,32.998072000000000000000000000000,-96.968668000000000000000000000000,,,0
SpringHill Suites Dallas Downtown/West End,,1907 N. Lamar St,,Dallas,TX,75202,United States,1-214-999-0500,32.782941000000000000000000000000,-96.806520000000000000000000000000,,,0
SpringHill Suites Denton,,1434 Centre Place Drive,,Denton,TX,76205,United States,1-940-383-4100,33.199311000000000000000000000000,-97.129226000000000000000000000000,,,0
SpringHill Suites Dallas NW Highway at Stemmons/I-35E,,2363 Stemmons Trail,,Dallas,TX,75220,United States,1-214-350-2300,32.856188000000000000000000000000,-96.886104000000000000000000000000,,,0
SpringHill Suites Dallas DFW Airport East/Las Colinas Irving,,5800 High Point Drive,,Irving,TX,75038,United States,1-972-580-1120,32.891917000000000000000000000000,-96.971460000000000000000000000000,,,0
SpringHill Suites Dallas DFW Airport North/Grapevine,,2240 W. Grapevine Mills Circle,,Grapevine,TX,76051,United States,1-972-724-5500,32.962076000000000000000000000000,-97.045734000000000000000000000000,,,0
SpringHill Suites Dallas Arlington North,,1975 E. Lamar Blvd,,Arlington,TX,76006,United States,1-817-860-2737,32.762971000000000000000000000000,-97.078913000000000000000000000000,,,0
SpringHill Suites Lawton,,3 SE Interstate Drive,,Lawton,OK,73501,United States,1-580-248-8500,34.607158000000000000000000000000,-98.378507000000000000000000000000,,,0
SpringHill Suites Fort Worth Fossil Creek,,5301 North Riverside Drive,,Fort Worth,TX,76137,United States,1-817-306-0900,32.841022000000000000000000000000,-97.300564000000000000000000000000,,,0
SpringHill Suites Sarasota Bradenton,,1020 University Parkway,,Sarasota,FL,34234,United States,1-941-358-3385,27.381637000000000000000000000000,-82.548931000000000000000000000000,,,0
SpringHill Suites Fort Worth University,,3250 Lovell Avenue,,Fort Worth,TX,76107,United States,1-817-878-2554,32.731649000000000000000000000000,-97.364909000000000000000000000000,,,0
SpringHill Suites Providence West Warwick,,14 James P. Murphy Industrial Highway,,West Warwick,RI,02893,United States,1-401-822-1244,41.668515000000000000000000000000,-71.503825000000000000000000000000,,,0
SpringHill Suites Vero Beach,,5115 Indian River Blvd,,Vero Beach,FL,32967,United States,1-772-978-9292,27.686455000000000000000000000000,-80.407323000000000000000000000000,,,0
SpringHill Suites Devens Common Center,,27 Andrews Parkway,,Devens,MA,01434,United States,1-978-772-3030,42.540386000000000000000000000000,-71.611145000000000000000000000000,,,0
SpringHill Suites Old Montreal,,445 Rue Saint-Jean-Baptiste,,Montreal (Vieux Montreal),QC,H2Y 2Z7,United States,1-514-875-4333,45.506262000000000000000000000000,-73.554690000000000000000000000000,,,0
SpringHill Suites Houston The Woodlands,,16520 Interstate 45 South,,The Woodlands,TX,77384,United States,1-936-271-0051,30.213410000000000000000000000000,-95.457242000000000000000000000000,,,0
SpringHill Suites Houston Baytown,,5169 East Freeway,,Baytown,TX,77521,United States,1-281-421-1200,29.805241000000000000000000000000,-94.980563000000000000000000000000,,,0
SpringHill Suites Manchester-Boston Regional Airport,,975 North Perimeter Road,,Manchester,NH,03103,United States,1-603-668-9400,42.935273000000000000000000000000,-71.446531000000000000000000000000,,,0
SpringHill Suites Houston Intercontinental Airport,,15840 John F Kennedy Boulevard,,Houston,TX,77032,United States,1-281-310-3173,29.948655000000000000000000000000,-95.331247000000000000000000000000,,,0
SpringHill Suites Houston I-45 North,,15555 North Freeway,,Houston,TX,77090,United States,1-281-872-2000,29.992935000000000000000000000000,-95.425369000000000000000000000000,,,0
SpringHill Suites Boston Andover,,550 Minuteman Road,,Andover,MA,01810,United States,1-978-688-8200,42.693522000000000000000000000000,-71.214448000000000000000000000000,,,0
SpringHill Suites Port St. Lucie,,2000 NW Courtyard Circle,,Port St. Lucie,FL,34986,United States,1-772-871-2929,27.313085000000000000000000000000,-80.409379000000000000000000000000,,,0
SpringHill Suites Houston Northwest,,20303 Chasewood Park Drive,,Houston,TX,77070,United States,1-832-953-2220,29.985743000000000000000000000000,-95.571807000000000000000000000000,,,0
SpringHill Suites Waco Woodway,,200 Colonnade Parkway,,Woodway,TX,76712,United States,1-254-732-7979,31.503953000000000000000000000000,-97.200719000000000000000000000000,,,0
SpringHill Suites Houston NASA/Seabrook,,2120 NASA Parkway,,Seabrook,TX,77586,United States,1-281-474-3456,29.562193000000000000000000000000,-95.028345000000000000000000000000,,,0
SpringHill Suites Boston Peabody,,43 Newbury Street (US 1 North),,Peabody,MA,01960,United States,1-978-535-5000,42.524442000000000000000000000000,-70.995562000000000000000000000000,,,0
SpringHill Suites Houston Downtown/Convention Center,,914 Dallas Street,,Houston,TX,77002,United States,1-713-655-0002,29.754975000000000000000000000000,-95.366924000000000000000000000000,,,0
SpringHill Suites Houston Brookhollow,,2750 North Loop West,,Houston,TX,77092,United States,1-713-290-9242,29.806584000000000000000000000000,-95.445965000000000000000000000000,,,0
SpringHill Suites Houston Hobby Airport,,7922 Mosley Road,,Houston,TX,77061,United States,1-713-943-1713,29.654482000000000000000000000000,-95.253832000000000000000000000000,,,0
SpringHill Suites Houston Hwy. 290/NW Cypress,,20350 Northwest Freeway,,Houston,TX,77065,United States,1-281-469-6500,29.921941000000000000000000000000,-95.620924000000000000000000000000,,,0
SpringHill Suites Houston NASA/Webster,,1101 Magnolia Avenue,,Webster,TX,77598,United States,1-281-332-2999,29.524582800000000000000000000000,-95.122724200000000000000000000000,,,0
SpringHill Suites Galveston Island,,6303 Broadway St.,,Galveston,TX,77551,United States,1-409-740-9443,29.288172000000000000000000000000,-94.840373000000000000000000000000,,,0
SpringHill Suites Houston Medical Center/NRG Park,,1400 Old Spanish Trail,,Houston,TX,77054,United States,1-713-796-1000,29.693564000000000000000000000000,-95.409642000000000000000000000000,,,0
SpringHill Suites Houston Pearland,,1820 Country Place Parkway,,Pearland,TX,77584,United States,1-713-436-7377,29.579422000000000000000000000000,-95.382299000000000000000000000000,,,0
SpringHill Suites Houston Westchase,,5851 Rogerdale Road,,Houston,TX,77072,United States,1-832-300-0220,29.714778000000000000000000000000,-95.560237000000000000000000000000,,,0
SpringHill Suites Houston I-10 West/Energy Corridor,,1350 Broadfield Boulevard,,Houston,TX,77084,United States,1-281-398-3555,29.786661000000000000000000000000,-95.658146000000000000000000000000,,,0
SpringHill Suites Houston Sugar Land,,13434 Southwest Freeway,,Sugar Land,TX,77478,United States,1-713-234-7997,29.626017000000000000000000000000,-95.598327000000000000000000000000,,,0
SpringHill Suites Houston Katy Mills,,2501 Texmati Dr.,,Katy,TX,77494,United States,1-281-644-4455,29.781952000000000000000000000000,-95.810513000000000000000000000000,,,0
SpringHill Suites Fort Myers Airport,,9501 Market Place Rd,,Fort Myers,FL,33912,United States,1-239-561-1803,26.548368000000000000000000000000,-81.798386000000000000000000000000,,,0
SpringHill Suites Houston Rosenberg,,6815 Reading Road,,Rosenberg,TX,77471,United States,1-832-595-2220,29.540412000000000000000000000000,-95.749525000000000000000000000000,,,0
SpringHill Suites West Palm Beach I-95,,2437 Metrocentre Boulevard,,West Palm Beach,FL,33407,United States,1-561-689-6814,26.757223000000000000000000000000,-80.093974000000000000000000000000,,,0
SpringHill Suites Naples,,3798 White Lake Blvd.,,Naples,FL,34117,United States,1-239-352-2234,26.163021000000000000000000000000,-81.685101000000000000000000000000,,,0
SpringHill Suites Boca Raton,,5130 NW 8th Avenue,,Boca Raton,FL,33487,United States,1-561-994-2107,26.395606000000000000000000000000,-80.097915000000000000000000000000,,,0
SpringHill Suites Austin Round Rock,,2960 Hoppe Trail,,Round Rock,TX,78681,United States,1-512-733-6700,30.540399000000000000000000000000,-97.692954000000000000000000000000,,,0
SpringHill Suites Austin North/Parmer Lane,,12520 North IH-35,,Austin,TX,78753,United States,1-512-833-8100,30.406868000000000000000000000000,-97.675348000000000000000000000000,,,0
SpringHill Suites Austin Cedar Park,,1110 Discovery Boulevard,,Cedar Park,TX,78613,United States,1-512-260-1200,30.525767000000000000000000000000,-97.820917000000000000000000000000,,,0
SpringHill Suites Austin Northwest/The Domain Area,,10936 Stonelake Blvd.,,Austin,TX,78759,United States,1-512-349-0444,30.398900000000000000000000000000,-97.732443000000000000000000000000,,,0
SpringHill Suites Grand Forks,,2837 South 42nd Street,,Grand Forks,ND,58201,United States,1-701-757-4150,47.893169000000000000000000000000,-97.087587000000000000000000000000,,,0
SpringHill Suites Austin South,,4501 South IH-35,,Austin,TX,78744,United States,1-512-441-8270,30.210653000000000000000000000000,-97.754084000000000000000000000000,,,0
SpringHill Suites Fort Lauderdale Airport & Cruise Port,,151 Southwest 18th Court,,Dania Beach,FL,33004,United States,1-954-920-9696,26.048735000000000000000000000000,-80.160630000000000000000000000000,,,0
SpringHill Suites Miami Doral,,3895 NW 107th Avenue,,Miami,FL,33178,United States,1-305-477-5580,25.809806000000000000000000000000,-80.368019000000000000000000000000,,,0
SpringHill Suites Miami Airport South,,6700 NW 7th Street,,Miami,FL,33126,United States,1-305-265-0144,25.777284000000000000000000000000,-80.305522000000000000000000000000,,,0
SpringHill Suites Miami Downtown/Medical Center,,1311 NW 10th Avenue,,Miami,FL,33136,United States,1-305-575-5300,25.786633000000000000000000000000,-80.210446000000000000000000000000,,,0
SpringHill Suites Amarillo,,2301 Cinema Drive,,Amarillo,TX,79124,United States,1-806-381-3400,35.188603000000000000000000000000,-101.931825000000000000000000000000,,,0
SpringHill Suites San Antonio Airport,,514 Northeast Loop 410,,San Antonio,TX,78216,United States,1-210-804-2266,29.518688000000000000000000000000,-98.473241000000000000000000000000,,,0
SpringHill Suites San Antonio Northwest at The Rim,,18119 Talavera Ridge,,San Antonio,TX,78257,United States,1-210-543-2000,29.618471000000000000000000000000,-98.600854000000000000000000000000,,,0
SpringHill Suites San Antonio Medical Center/Six FlagsÂ®,,11426 Interstate 10 West,,San Antonio,TX,78230,United States,1-210-697-8900,29.548034000000000000000000000000,-98.585222000000000000000000000000,,,0
SpringHill Suites San Antonio Medical Center/Northwest,,3636 NW Loop 410,,San Antonio,TX,78201,United States,1-210-737-6086,29.493809000000000000000000000000,-98.554044000000000000000000000000,,,0
SpringHill Suites San Antonio Alamo Plaza/Convention Center,,411 Bowie Street,,San Antonio,TX,78205,United States,1-210-222-2121,29.425807000000000000000000000000,-98.483132000000000000000000000000,,,0
SpringHill Suites San Antonio Downtown/Riverwalk Area,,524 South Saint Mary's Street,,San Antonio,TX,78205,United States,1-210-354-1333,29.420362000000000000000000000000,-98.490527000000000000000000000000,,,0
SpringHill Suites San Antonio SeaWorldÂ®/Lackland,,138 Richland Hills Drive,,San Antonio,TX,78245,United States,1-210-520-6655,29.439929000000000000000000000000,-98.641421000000000000000000000000,,,0
SpringHill Suites San Angelo,,2544 Southwest Boulevard,,San Angelo,TX,76901-5625,United States,1-325-949-6900,31.439676000000000000000000000000,-100.496308000000000000000000000000,,,0
SpringHill Suites Corpus Christi,,4331 South Padre Island Drive,,Corpus Christi,TX,78411,United States,1-361-851-2000,27.718134000000000000000000000000,-97.392996000000000000000000000000,,,0
SpringHill Suites Midland Odessa,,5716 Deauville Boulevard,,Midland,TX,79706,United States,1-432-695-6870,31.992727000000000000000000000000,-102.160023000000000000000000000000,,,0
SpringHill Suites Deadwood,,322 Main Street,,Deadwood,SD,57732,United States,1-605-559-1600,44.385703727602959000000000000000,-103.719096779823300000000000000000,,,0
SpringHill Suites Pueblo Downtown,,150 South Santa Fe Avenue,,Pueblo,CO,81003,United States,1-719-546-1234,38.266666412353516000000000000000,-104.606559753417970000000000000000,,,0
SpringHill Suites Colorado Springs South,,1570 N Newport Road,,Colorado Springs,CO,80916,United States,1-719-637-0800,38.808185000000000000000000000000,-104.727468000000000000000000000000,,,0
SpringHill Suites Denver Airport,,18350 East 68th Avenue,,Denver,CO,80249,United States,1-303-371-9400,39.819579000000000000000000000000,-104.774028000000000000000000000000,,,0
SpringHill Suites Denver at Anschutz Medical Campus,,13400 East Colfax Avenue,,Aurora,CO,80011,United States,1-720-859-1100,39.739689000000000000000000000000,-104.832584000000000000000000000000,,,0
SpringHill Suites Cheyenne,,416 W. Fox Farm Road,,Cheyenne,WY,82007,United States,1-307-635-0006,41.117563000000000000000000000000,-104.808675000000000000000000000000,,,0
SpringHill Suites Denver Downtown,,1190 Auraria Parkway,,Denver,CO,80204,United States,1-303-705-7300,39.747420000000000000000000000000,-105.004417000000000000000000000000,,,0
SpringHill Suites Denver North/Westminster,,6845 W. 103rd Avenue,,Westminster,CO,80021,United States,1-303-464-1999,39.883203000000000000000000000000,-105.072664000000000000000000000000,,,0
SpringHill Suites Boulder Longmont,,1470 Dry Creek Drive,,Longmont,CO,80503,United States,1-303-682-2894,40.139915000000000000000000000000,-105.133735000000000000000000000000,,,0
SpringHill Suites Laredo,,5940 San Bernardo Ave.,,Laredo,TX,78041,United States,1-956-717-0800,27.556166000000000000000000000000,-99.504218000000000000000000000000,,,0
SpringHill Suites McAllen,,1800 South Ware Road,,McAllen,TX,78503,United States,1-956-682-6336,26.191446000000000000000000000000,-98.264272000000000000000000000000,,,0
SpringHill Suites Grand Junction Downtown/Historic Main Street,,236 Main Street,,Grand Junction,CO,81501,United States,1-970-424-5777,39.067302000000000000000000000000,-108.568500000000000000000000000000,,,0
SpringHill Suites Las Cruces,,1611 Hickory Loop,,Las Cruces,NM,88005,United States,1-575-541-8887,32.291679000000000000000000000000,-106.790585000000000000000000000000,,,0
SpringHill Suites El Paso,,7518 Remcon Circle,,El Paso,TX,79912,United States,1-915-845-7400,31.835816000000000000000000000000,-106.567043000000000000000000000000,,,0
SpringHill Suites Billings,,1818 King Avenue West,,Billings,MT,59102,United States,1-406-652-9313,45.755260000000000000000000000000,-108.561841000000000000000000000000,,,0
SpringHill Suites Vernal,,1205 West Highway 40,,Vernal,UT,84078,United States,1-435-781-9000,40.448858000000000000000000000000,-109.551872000000000000000000000000,,,0
SpringHill Suites Gallup,,1105 West Lincoln Avenue,,Gallup,NM,87301,United States,1-505-722-2040,35.532211000000000000000000000000,-108.757233000000000000000000000000,,,0
SpringHill Suites Moab,,1865 North Highway 191,,Moab,UT,84532,United States,1-435-355-0042,38.605389000000000000000000000000,-109.582494000000000000000000000000,,,0
SpringHill Suites Jackson Hole,,150 West Simpson Avenue,,Jackson,WY,83001,United States,1-307-201-5320,43.477428000000000000000000000000,-110.764414000000000000000000000000,,,0
SpringHill Suites Provo,,1580 North Freedom Boulevard,,Provo,UT,84604,United States,1-801-373-0073,40.255175000000000000000000000000,-111.661705000000000000000000000000,,,0
SpringHill Suites Bozeman,,1601 Baxter Lane,,Bozeman,MT,59715,United States,1-406-586-5200,45.698783000000000000000000000000,-111.054200000000000000000000000000,,,0
SpringHill Suites Thatcher,,2855 West US Highway 70,,Thatcher,AZ,85552,United States,1-928-428 6900,32.848518000000000000000000000000,-109.749064000000000000000000000000,,,0
SpringHill Suites Logan,,635 South Riverwoods Parkway,,Logan,UT,84321,United States,1-435-750-5180,41.720431000000000000000000000000,-111.835075000000000000000000000000,,,0
SpringHill Suites Salt Lake City Downtown,,625 South 300 West,,Salt Lake City,UT,84101,United States,1-801-238-3000,40.755745000000000000000000000000,-111.899699000000000000000000000000,,,0
SpringHill Suites Salt Lake City Draper,,12111 South State Street,,Draper,UT,84020,United States,1-801-572-1800,40.531033000000000000000000000000,-111.890852000000000000000000000000,,,0
SpringHill Suites Lehi at Thanksgiving Point,,2447 West Executive Parkway,,Lehi,UT,84043,United States,1-801-341-6970,40.427657000000000000000000000000,-111.888757000000000000000000000000,,,0
SpringHill Suites Rexburg,,1177 South Yellowstone Hwy,,Rexburg,ID,83440,United States,1-208-356-3003,43.803750000000000000000000000000,-111.808905000000000000000000000000,,,0
SpringHill Suites Salt Lake City-South Jordan,,11280 South River Heights Drive,,South Jordan,UT,84095,United States,1-385-770-7200,40.546306000000000000000000000000,-111.982517000000000000000000000000,,,0
SpringHill Suites Salt Lake City Airport,,4955 Wiley Post Way,,Salt Lake City,UT,84116,United States,1-801-532-6633,40.773118000000000000000000000000,-112.008983000000000000000000000000,,,0
SpringHill Suites Idaho Falls,,665 Riverwalk Drive,,Idaho Falls,ID,83402,United States,1-208-227-0505,43.492184000000000000000000000000,-112.046577000000000000000000000000,,,0
SpringHill Suites Great Falls,,421 3rd Street NW,,Great Falls,MT,59404,United States,1-406-952-4444,47.512472000000000000000000000000,-111.314328000000000000000000000000,,,0
SpringHill Suites Flagstaff,,2455 S. Beulah Blvd.,,Flagstaff,AZ,86001,United States,1-928-774-8042,35.177612000000000000000000000000,-111.663109000000000000000000000000,,,0
SpringHill Suites Cedar City,,1477 South Old Hwy 91,,Cedar City,UT,84720,United States,1-435-586-1685,37.651440000000000000000000000000,-113.082136000000000000000000000000,,,0
SpringHill Suites Springdale Zion National Park,,1141 Canyon Springs Drive,,Springdale,UT,84767,United States,1-435-619-8220,37.184314000000000000000000000000,-113.001786000000000000000000000000,,,0
SpringHill Suites Scottsdale North,,17020 N Scottsdale Rd,,Scottsdale,AZ,85255,United States,1-480-922-8700,33.640837000000000000000000000000,-111.925402000000000000000000000000,,,0
SpringHill Suites Phoenix Chandler/Fashion Center,,225 N. Metro Boulevard,,Chandler,AZ,85226,United States,1-480-726-7666,33.306441000000000000000000000000,-111.898081000000000000000000000000,,,0
SpringHill Suites Phoenix Tempe/Airport,,1601 West Rio Salado Parkway,,Tempe,AZ,85281,United States,1-480-968-8222,33.430327000000000000000000000000,-111.964129000000000000000000000000,,,0
SpringHill Suites Tempe at Arizona Mills Mall,,5211 South Priest Drive,,Tempe,AZ,85283,United States,1-480-752-7979,33.377114000000000000000000000000,-111.962961000000000000000000000000,,,0
SpringHill Suites Prescott,,200 East Sheldon Street,,Prescott,AZ,86301,United States,1-928-776-0998,34.545396000000000000000000000000,-112.467124000000000000000000000000,,,0
SpringHill Suites Phoenix Downtown,,802 East Van Buren Street,,Phoenix,AZ,85006,United States,1-602-307-9929,33.451336000000000000000000000000,-112.063255000000000000000000000000,,,0
SpringHill Suites Phoenix North,,9425 N. Black Canyon Highway,,Phoenix,AZ,85021,United States,1-602-943-0010,33.571672000000000000000000000000,-112.116812000000000000000000000000,,,0
SpringHill Suites Phoenix Glendale/Peoria,,7810 West Bell Road,,Glendale,AZ,85308,United States,1-623-878-6666,33.639030000000000000000000000000,-112.228577000000000000000000000000,,,0
SpringHill Suites Phoenix Glendale Sports & Entertainment District,,7370 N. Zanjero (Janjero) Boulevard,,Glendale,AZ,85305,United States,1-623-772-9200,33.541804000000000000000000000000,-112.259728000000000000000000000000,,,0
SpringHill Suites Kingman Route 66,,3101 East Andy Devine Avenue,,Kingman,AZ,86401,United States,1-928-753-8766,35.214772000000000000000000000000,-114.013267000000000000000000000000,,,0
SpringHill Suites Kalispell,,250 Old Reserve Drive,,Kalispell,MT,59901,United States,1-406-314-6600,48.232468000000000000000000000000,-114.333437000000000000000000000000,,,0
SpringHill Suites Las Vegas North Speedway,,2910 East Craig Road,,North Las Vegas,NV,89030,United States,1-702-522-9200,36.240147000000000000000000000000,-115.110503000000000000000000000000,,,0
SpringHill Suites Las Vegas Henderson,,1481 Paseo Verde Parkway,,Henderson,NV,89012,United States,1-702-270-0995,36.026312000000000000000000000000,-115.048771000000000000000000000000,,,0
SpringHill Suites Las Vegas Convention Center,,2989 Paradise Road,,Las Vegas,NV,89109,United States,1-702-433-5880,36.134368000000000000000000000000,-115.154790000000000000000000000000,,,0
SpringHill Suites Boise ParkCenter,,424 East ParkCenter Blvd,,Boise,ID,83706,United States,1-208-342-1044,43.594707000000000000000000000000,-116.177663000000000000000000000000,,,0
SpringHill Suites Boise,,6325 North Cloverdale,,Boise,ID,83713,United States,1-208-939-8266,43.662268000000000000000000000000,-116.334446000000000000000000000000,,,0
SpringHill Suites Yuma,,1825 E. 18th Street,,Yuma,AZ,85365,United States,1-928-783-7853,32.695448000000000000000000000000,-114.603114000000000000000000000000,,,0
SpringHill Suites Coeur d'Alene,,2250 W Seltice Way,,Coeur d'Alene,ID,83814,United States,1-208-667-2212,47.697860000000000000000000000000,-116.808196000000000000000000000000,,,0
SpringHill Suites Ridgecrest,,113 E. Sydnor Avenue,,Ridgecrest,CA,93555,United States,1-760-446 -1630,35.640460000000000000000000000000,-117.669817000000000000000000000000,,,0
SpringHill Suites Victorville Hesperia,,9625 Mariposa Road,,Hesperia,CA,92345,United States,1-760-948-8982,34.425680000000000000000000000000,-117.377537000000000000000000000000,,,0
SpringHill Suites Temecula Valley Wine Country,,28220 Jefferson Avenue,,Temecula,CA,92590,United States,1-951-699-4477,33.501758000000000000000000000000,-117.154222000000000000000000000000,,,0
SpringHill Suites Kennewick Tri-Cities,,7048 West Grandridge Boulevard,,Kennewick,WA,99336,United States,1-509-820-3026,46.217750000000000000000000000000,-119.217289000000000000000000000000,,,0
SpringHill Suites San Diego Rancho Bernardo/Scripps Poway,,12032 Scripps Highlands Drive,,San Diego,CA,92131,United States,1-858-635-5723,32.937014000000000000000000000000,-117.107759000000000000000000000000,,,0
SpringHill Suites Corona Riverside,,2025 Compton Ave,,Corona,CA,92881,United States,1-951-520-0984,33.850267000000000000000000000000,-117.536070000000000000000000000000,,,0
SpringHill Suites San Diego Mission Valley,,2401 Camino Del Rio North,,San Diego,CA,92108,United States,1-619-582-2838,32.771861000000000000000000000000,-117.137988000000000000000000000000,,,0
SpringHill Suites San Diego Oceanside/Downtown,,110 North Myers Street,,Oceanside,CA,92054,United States,1-760-722-1003,33.193872000000000000000000000000,-117.381815000000000000000000000000,,,0
SpringHill Suites San Diego Downtown/Bayfront,,900 Bayfront Court,,San Diego,CA,92101,United States,1-619-831-0224,32.716763000000000000000000000000,-117.172012000000000000000000000000,,,0
SpringHill Suites Lancaster Palmdale,,1811 West Avenue J-12,,Lancaster,CA,93534,United States,1-661-729-2390,34.678707000000000000000000000000,-118.163645000000000000000000000000,,,0
SpringHill Suites Pasadena Arcadia,,99 N 2nd Avenue,,Arcadia,CA,91006,United States,1-626-821-5400,34.141196000000000000000000000000,-118.025122000000000000000000000000,,,0
SpringHill Suites Irvine John Wayne Airport/Orange County,,17601 Fitch,,Irvine,CA,92614,United States,1-949-757-0500,33.696356000000000000000000000000,-117.858357000000000000000000000000,,,0
SpringHill Suites at Anaheim Resort/Convention Center,,1801 South Harbor Boulevard,,Anaheim,CA,92802,United States,1-714-333-9068,33.802921000000000000000000000000,-117.916207000000000000000000000000,,,0
SpringHill Suites Anaheim Maingate,,1160 West Ball Road,,Anaheim,CA,92802,United States,1-714-215-4000,33.817213000000000000000000000000,-117.928255000000000000000000000000,,,0
SpringHill Suites Huntington Beach Orange County,,7872 Edinger Avenue,,Huntington Beach,CA,92647,United States,1-657-200-7500,33.729839000000000000000000000000,-117.991339000000000000000000000000,,,0
SpringHill Suites Los Angeles Burbank/Downtown,,549 South San Fernando Boulevard,,Burbank,CA,91502,United States,1-818-524-2730,34.177239000000000000000000000000,-118.304110000000000000000000000000,,,0
SpringHill Suites Los Angeles LAX/Manhattan Beach,,14620 Aviation Boulevard,,Hawthorne,CA,90250,United States,1-310-727-9595,33.899407000000000000000000000000,-118.378694000000000000000000000000,,,0
SpringHill Suites Bakersfield,,3801 Marriott Drive,,Bakersfield,CA,93308,United States,1-661-377-4000,35.380499000000000000000000000000,-119.049132000000000000000000000000,,,0
SpringHill Suites Wenatchee,,1730 N Wenatchee Ave,,Wenatchee,WA,98801,United States,1-509-667-2775,47.449410000000000000000000000000,-120.331678000000000000000000000000,,,0
SpringHill Suites Fresno,,6844 North Fresno Street,,Fresno,CA,93710,United States,1-559-431-0004,36.836942000000000000000000000000,-119.778364000000000000000000000000,,,0
SpringHill Suites Madera,,1219 East Almond Avenue,,Madera,CA,93637,United States,1-559-664-9800,36.945422000000000000000000000000,-120.045793000000000000000000000000,,,0
SpringHill Suites Bend,,551 SW Industrial Way,,Bend,OR,97702,United States,1-541-382-5075,44.050344000000000000000000000000,-121.315219000000000000000000000000,,,0
SpringHill Suites Sacramento Roseville,,10593 Fairway Drive,,Roseville,CA,95678,United States,1-916-782-2989,38.795397000000000000000000000000,-121.291843000000000000000000000000,,,0
SpringHill Suites Modesto,,1901 W Orangeburg Ave,,Modesto,CA,95350,United States,1-209-526-2157,37.664071000000000000000000000000,-121.025707000000000000000000000000,,,0
SpringHill Suites Sacramento Airport Natomas,,2555 Venture Oaks Way,,Sacramento,CA,95833,United States,1-916-925-2280,38.610979000000000000000000000000,-121.514304000000000000000000000000,,,0
SpringHill Suites Seattle Issaquah,,1185 NW Maple Street,,Issaquah,WA,98027,United States,1-425-427-6000,47.543183000000000000000000000000,-122.056575000000000000000000000000,,,0
SpringHill Suites Paso Robles Atascadero,,900 El Camino Real,,Atascadero,CA,93422,United States,1-805-462-3500,35.527427000000000000000000000000,-120.703106000000000000000000000000,,,0
SpringHill Suites Seattle South/Renton,,200 SW 19th Street,,Renton,WA,98057,United States,1-425-226-4100,47.462793000000000000000000000000,-122.220074000000000000000000000000,,,0
SpringHill Suites Seattle Bothell,,3850 Monte Villa Parkway,,Bothell,WA,98021,United States,1-425-398-9700,47.778058000000000000000000000000,-122.181019000000000000000000000000,,,0
SpringHill Suites Portland Vancouver,,1421 SE Tech Center Dr,,Vancouver,WA,98683,United States,1-360-260-1000,45.611330000000000000000000000000,-122.502300000000000000000000000000,,,0
SpringHill Suites Seattle Downtown/South Lake Union,,1800 Yale Avenue,,Seattle,WA,98101,United States,1-206-254-0500,47.617681000000000000000000000000,-122.329713000000000000000000000000,,,0
SpringHill Suites Portland Airport,,11922 NE Airport Way,,Portland,OR,97220,United States,1-503-253-4095,45.566806000000000000000000000000,-122.540919000000000000000000000000,,,0
SpringHill Suites Bellingham,,4040 Northwest Avenue,,Bellingham,WA,98226,United States,1-360-714-9600,48.788409000000000000000000000000,-122.506024000000000000000000000000,,,0
SpringHill Suites Portland Hillsboro,,7351 NE Butler Street,,Hillsboro,OR,97124,United States,1-503-547-0202,45.537821000000000000000000000000,-122.901711000000000000000000000000,,,0
SpringHill Suites Medford,,1389 Center Drive,,Medford,OR,97501,United States,1-541-842-8080,42.309825000000000000000000000000,-122.853095000000000000000000000000,,,0
SpringHill Suites San Jose Airport,,10 Skyport Drive,,San Jose,CA,95110,United States,1-408-650-0590,37.366094000000000000000000000000,-121.913386000000000000000000000000,,,0
SpringHill Suites The Dunes On Monterey Bay,,215 10th Street,,Marina,CA,93933,United States,1-831-718-8540,36.665089000000000000000000000000,-121.808392000000000000000000000000,,,0
SpringHill Suites Napa Valley,,101 Gateway Road East,,Napa,CA,94558,United States,1-707-253-1900,38.224433000000000000000000000000,-122.262695000000000000000000000000,,,0
SpringHill Suites Belmont Redwood Shores,,1401 Shoreway Road,,Belmont,CA,94002,United States,1-650-622-9004,37.520767000000000000000000000000,-122.262317000000000000000000000000,,,0
SpringHill Suites Fairbanks,,575 1st Avenue,,Fairbanks,AK,99701,United States,1-907-451-6552,64.843739000000000000000000000000,-147.720669000000000000000000000000,,,0
SpringHill Suites Anchorage University Lake,,4050 University Lake Drive,,Anchorage,AK,99508,United States,1-907-751-6300,61.187171000000000000000000000000,-149.805296000000000000000000000000,,,0
SpringHill Suites Anchorage Midtown,,3401 A Street,,Anchorage,AK,99503,United States,1-907-562-3247,61.189277000000000000000000000000,-149.883047000000000000000000000000,,,0
