store_name,store_number,address,address2,city,state,zip_code,country,phone_number,latitude,longitude,store_hours,other_fields,coming_soon
Under Armour Brand House,478360207,610 State Street,,Madison,WI,53703,US,608.250.1972,43.0748951,-89.3957176,,,0
Monterrey Fashion Drive,977115645,"Batallón de Sn Patricio # 1000, Col. San Agustín, San Pedro Garza García, Nuevo León LC F-018",,MONTERREY,Nuevo León,66260,MX,N/A,25.64938,-100.34184,,,0
Mundo E,977115642,"Blvd. Manuel Ávila Camacho 1007
Hab Jardines de Santa Monica
54050 Tlalnepantla, Méx.",,TLALNEPANTLA,Estado de México,54050,MX,N/A,19.5258124,-99.2277106,,,0
Polanco,977115635,"Av Horacio 232, Miguel Hidalgo, Polanco, Polanco V Secc, 11570 Ciudad de México, D.F.",,DISTRITO FEDERAL,Distrito Federal,11570,MX,52 03 9915 / 52 03 8912,19.432922,-99.1850659,,,0
Coyoacán,977115627,"Av. Coyoacán 2000, lc. 601 y 602, Col. Xoco, Del Benito Juárez, México, D.F. C.p. 03330",,DISTRITO FEDERAL,Distrito Federal,03330,MX,91319355,19.359979,-99.1701514,,,0
Arcos Bosques,977115660,"Av. Paseo de los tamarindos No. 90 Local PB-14, Colonia Bosques de las lomas.",,CIUDAD DE MEXICO,Delegacion Cuajimalpa de Morelos,05120,MX,N/A,19.3904162,-99.2550003,,,0
Santa Fe,977115653,"Av. Vasco de Quiroga #3850 Loc. 1140, Cuajimalpa de Morelos, Edo. De Mexico",,ESTADO DE MEXICO,Estado de México,05130,MX,015521678324,19.36385,-99.27189,,,0
Under Armour Brand House,434972598,185 Greenwich St.,Space LL4302,New York,NY,10007,US,212.964.0480,40.713359,-74.0116828,,,0
Under Armour Brand House,-1838497832,583 Broadway,,New York,NY,10012,US,646-863-7389,40.7246747368421,-73.9974005263158,,,0
Under Armour Brand House,-502140920,125 Westchester Ave.,Space 2005C,White Plains,NY,10601,US,914-750-4421,41.03248,-73.75976,,,0
Under Armour Brand House,434972798,1529 Walnut Street,,Philadelphia,PA,19102,US,215.607.3440,39.9499307,-75.1672878,,,0
Under Armour Brand House,1889703236,700 S. President Street,,Baltimore,MD,21202,US,410-528-5304,39.28298,-76.60148,,,0
Under Armour Brand House,1546936264,2575 Annapolis Mall Rd.,,Annapolis,MD,21401,US,410-571-9331,38.9890684339315,-76.5422294290375,,,0
Under Armour Brand House,634108300,800 Boylston Street,Suite #049,Boston,MA,21658,US,617-236-1723,42.34871,-71.08238,,,0
Under Armour Brand House,1546936267,7101 Democracy Blvd.,,Bethesda,MD,20817,US,301-469-0237,39.02207,-77.14678,,,0
Under Armour Brand House,-1904696512,7977 Tysons Corner,,Tysons Corner,VA,22102,US,703-356-0954,38.9192738778568,-77.2207423620402,,,0
Under Armour Brand House,993530496,1201 Woodward Ave.,,Detroit,MI,48226,US,313-335-3162,42.3329485,-83.0482626,,,0
Under Armour Brand House,-574165268,8702 Keystone Crossing,Suite 25C,Indianapolis,IN,46240,US,317-660-9407,39.9143021235102,-86.1095835571624,,,0
Under Armour Brand House,-719420186,600 N. Michigan Ave.,,Chicago,IL,60611,US,312-690-5094,41.89254,-87.62417,,,0
Under Armour Brand House,-502141034,4200 Conroy Road,Space E131,Orlando,FL,32839,US,321-319-1293,28.4893876344086,-81.4294667741936,,,0
Under Armour Brand House,275295600,1668 E. Buena Vista Drive,Suite #1L,Lake Buena Vista,FL,32830,US,407-828-6405,28.3707831781803,-81.5134666229259,,,0
Under Armour Brand House,-642122536,60 East Broadway W240,,Bloomington,MN,55425,US,612-235-4190,44.8537733919598,-93.2404314572864,,,0
Under Armour Brand House,260955092,8687 North Central Expressway,Space E1-730,Dallas,TX,75225,US,469-680-3984,32.8697964516129,-96.77071,,,0
Under Armour,-88660825,"Blvd. Kukulcán km 12.5.  Local E- 9 - 13   Zona Hotelera, Cancún, Quintana Roo",Municipio de Benito Juárez,Cancun,,77500,MX,,21.1591424,-86.8053312,,,0
BRAND HOUSE,-1037387926,Av. Vasco de Quiroga # 3850 Loc. 1140,Cuajimalpa de Morelos,DISTRITO FEDERAL,DISTRITO FEDERAL,5130,MX,,19.3634374,-99.2403546,,,0
Under Armour,-88660627,"Blvd. Juan Alonso De Torres 2002,  Valle del Campestre, 37150 León, Gto.",Valle del Campestre,Leon,,37150,MX,,21.15585,-101.63277,,,0
Under Armour Brand House,154990110,3200 Las Vegas Blvd. S.,Space 1040,Las Vegas,NV,89109,US,702-267-6033,36.12773,-115.16795,,,0
Under Armour Brand House,175231872,837 Americana Way,Space D10/11,Glendale,CA,91204,US,747-221-7832,34.1443761342393,-118.25574175701,,,0
Puebla,977115657,"Autopista México –Puebla Km. 115, Local- U-2    San Francisco Ocotlán, Coronango, Puebla.",,PUEBLA,Puebla,72680,MX,02222105907,19.126203,-98.2814747,,,0
Queretaro,977115659,"Prolongacion Ignacio Zaragoza 80, Local 39-40, Col. El Rosario",,QUERETARO,Santiago de Queretaro,76177,MX,014423253281,20.633,-100.44591,,,0
Punta Norte,977115649,Av. Hacienda Sierra Vieja No. 2 Lote-14 Local-1101 Colonia Hacienda del Parque. Cuatitlan Izcalli,,ESTADO DE MEXICO,Estado de México,54769,MX,015520750225,19.59522,-99.19519,,,0
Lerma,977115651,Autipista Mexico-Toluca Km. 50 Loc AL 21 Col: La Isla,,ESTADO DE MEXICO,Estado de México,52000,MX,017282845269,19.32823,-99.48623,,,0
Leon,977115654,"Boulevard Aeropuerto #841 Local G1-B Santa Anita, León, México.",,LEON,Guanajuato,37295,MX,014771947687,21.0914546,-101.6029795,,,0
Guadalajara,977115650,Carretera Guadalajara- Morelia Km. 12.5 Local R-01 Municipio: Tlajomulco de Zuñiga,,GUADALAJARA,Tlajomulco de Zuñiga,45645,MX,013332716381,20.54338,-103.45248,,,0
Under Armour Factory House,-2040692437,651 Kapowski Rd,Space 1250,Elizabeth,NJ,07201,US,908-351-5251,40.6600434,-74.171557,,,0
Under Armour Factory House,1546936192,4001 Route 66,Suite 101,Tinton Falls,NJ,07753,US,732-493-2411,40.214342,-74.103053,,,0
Under Armour Factory House,633577607,152 The Arches Circle,Suite 425,Deer Park,NY,11729,US,631-667-2650,40.76509,-73.303344,,,0
Under Armour Factory House,1546936183,185 Marigold Court,Suite Q101,Central Valley,NY,10917,US,845-928-3013,41.3169833333333,-74.12965,,,0
Under Armour Factory House,1546936179,537 Monmouth Road,Suite 0128,Jackson,NJ,08527,US,732-928-9300,40.16294,-74.42018,,,0
Under Armour Factory House,1546936178,1513 Tanger Mall Dr.,Suite 1513,Riverhead,NY,11901,US,631-208-3147,40.9195944779798,-72.7148609048351,,,0
Under Armour Factory House,1546936257,77 Sands Blvd.,Suite 213,Bethlehem,PA,18015,US,610-865-0317,40.6134420633626,-75.3568065069008,,,0
Under Armour Factory House,1546936177,1000 Rte. 611 North,Suite C-12,Tannersville,PA,18372,US,570-629-3610,41.0511944068955,-75.3132271826928,,,0
Under Armour Factory House,-128752494,100 S Premium Outlets Drive,Suite 110,Blackwood,NJ,08012,US,856-302-4559,39.7848791,-75.0528183,,,0
Under Armour Factory House,1546936181,20-A Killingworth Turnpike,Suite 140,Clinton,CT,06413,US,860-664-9229,41.2924519769005,-72.530640864894,,,0
Under Armour Factory House,1546936180,18 Light Cap Road,Suite 397,Limerick,PA,19464,US,610-326-6205,40.2294766225015,-75.5585530457491,,,0
Under Armour Factory House,1546936209,11 North Michigan Ave,Suite 430,Atlantic City,NJ,08401,US,609-887-1482,39.3592240816327,-74.4356840816327,,,0
Under Armour Factory House,1546936195,320 Premium Outlets Blvd,,Lee,MA,01238,US,413-243-8191,42.2956708,-73.2333838,,,0
Under Armour Factory House,119274607,455 Trolley Line Blvd,Suite 760,Mashantucket,CT,06338,US,860-237-6031,41.46904,-71.95293,,,0
Under Armour Factory House,1546936193,35 South Willowdale,Suite 207,Lancaster,PA,17602,US,717-393-7671,40.0221479843421,-76.1974559368914,,,0
Under Armour Factory House,1546936242,33 Outlet Square,,Hershey,PA,17033-2750,US,717-533-2091,40.2948939822253,-76.6491940710988,,,0
Under Armour Factory House,1546936205,36698 Bayside Outlet Dr.,Suite 610,Rehoboth Beach,DE,19971,US,302-227-7188,38.7156036363636,-75.110002020202,,,0
Under Armour Factory House,1546936210,413 Outlet Center Drive,Suite A006,Queenstown,MD,21658,US,410-827-5439,38.9839986,-76.1589884,,,0
Under Armour Factory House,1546936176,One Premium Outlets Blvd.,Suite 305,Wrentham,MA,02093,US,508-384-1180,42.03617,-71.34698,,,0
Under Armour Factory House,1546936173,6611-A Cabot Dr.,,Curtis Bay,MD,21226,US,410-255-2468,39.1972073836866,-76.5542929365441,,,0
Under Armour Factory House,1578950362,12741 Ocean Gateway,Suite 870,Ocean City,MD,21842,US,410-213-1016,38.33691,-75.10778,,,0
Under Armour Factory House,1546936245,1863 Gettysburg Village Drive,Suite 820,Gettysburg,PA,17325,US,717-334-3649,39.79595,-77.19938,,,0
Under Armour Factory House,1546936258,1454 State Route 9,Space 4,Lake George,NY,12845,US,518-761-6787,43.366219002913,-73.6995908736649,,,0
Under Armour Factory House,1546936261,80 Premium Outlets Blvd,Suite 507,Merrimack,NH,03054,US,603-424-7387,42.8258621,-71.5009616,,,0
Under Armour Factory House,621801146,22705 Clarksburg Road,Suite 600,Clarksburg,MD,20871,US,301-515-3107,39.2295575,-77.2863462,,,0
Under Armour Factory House,-833454444,6800 Oxon Hill,Suite 518,National Harbor,MD,20745,US,301-839-0719,38.7976554052008,-77.0030159732622,,,0
Under Armour Youth Factory House,1546936217,365 Premium Outlets Blvd.,Space 365,Hagerstown,MD,21740,US,301-665-2812,39.606875,-77.733728,,,0
Under Armour Factory House,1546936216,450 Premium Outlets Blvd.,Space 450,Hagerstown,MD,21740,US,301-714-1450,39.607235,-77.734069,,,0
Under Armour Factory House,1546936182,655 Route 318,Suite A003,Waterloo,NY,13165,US,315-539-0680,42.95422,-76.92127,,,0
Under Armour Factory House,1546936174,241 Fort Evans Road N.E.,Suite 369,Leesburg,VA,20176,US,703-297-4950,39.1092894549101,-77.5357480642624,,,0
Under Armour Factory House,1546936221,2700 Potomac Mills Circle,Unit 518,Woodbridge,VA,22192,US,703-490-5750,38.6451412230796,-77.2995593884602,,,0
Under Armour Factory House,1546936240,120 Laconia Rd.,Suite #310,Tilton,NH,03276-5238,US,603-286-3675,43.458830295743,-71.5590059026638,,,0
Under Armour Factory House,1546936203,336 US Route 1,Suite 3,Kittery,ME,03904,US,207-438-9012,43.1145486690313,-70.7304593339088,,,0
Under Armour Factory House,1546936198,2 Common Court,Space H-35,North Conway,NH,03860,US,603-356-0131,44.0231776401956,-71.1146890942902,,,0
Under Armour Factory House,1546936175,5715-62A Richmond Road,Suite B027,Williamsburg,VA,23188,US,757-259-0166,37.3210839,-76.7375873,,,0
Under Armour Factory House,1546936194,1946 Military Road,Space 67,Niagara,NY,14304,US,716-297-1510,43.0983897260274,-78.9761043835616,,,0
Under Armour Factory House,989175078,300 Taylor Road,Space 739A,Niagara-On-The-Lake,ON,L0S 1J0,CA,905-988-5478,43.1559189,-79.1744876,,,0
Under Armour Factory House,1546936234,1911 Leesburg Grove City Rd.,Suite 935,Grove City,PA,16127,US,724-748-4214,41.1434288888889,-80.15826,,,0
Under Armour Factory House,1546936254,2200 Tanger Blvd.,Suite 480,Washington,PA,15301,US,724-222-2408,40.21528,-80.20911,,,0
Under Armour Factory House,-886846107,8555 Campeau Drive,Suite 310,Ottawa,ON,K2T 1B7,CA,613-831-2040,45.30964,-75.91774,,,0
Under Armour Factory House,-125212928,19001 Chemin Notre-Dame,Suite 512,Mirabel,QC,J7J 0T1,CA,450-430-5678,45.67489,-73.9147,,,0
Under Armour Factory House,1642542091,5950 Rodeo Dr. - Unit 3,,Mississauga,ON,L5R 3V6,CA,905-507-2220,43.6136645039719,-79.690289847897,,,0
Under Armour Factory House,-886847126,3311 Simcoe Road,Suite D60,Cookstown,ON,L0L 1L0,CA,705-458-2929,44.45517,-79.4961,,,0
Under Armour Factory House,1546936260,549 South Chillicothe Rd.,Suite 0355,Aurora,OH,44202,US,330-995-9557,41.3024690344799,-81.3455940956005,,,0
Under Armour Clearance House,-833454441,9911 Avon Lake Rd.,Suite 545,Burbank,OH,44214,US,330-948-0279,41.0026206219852,-81.9962620447419,,,0
Under Armour Factory House,-833454442,4000 Arrowhead Blvd,Suite 810/824,Mebane,NC,27302,US,919-563-0756,36.07451,-79.26864,,,0
Under Armour Factory House,1546936201,1025 Industrial Park Drive,Space 870,Smithfield,NC,27577,US,919-209-0466,35.5082776981973,-78.3137070642334,,,0
Under Armour Factory House,365021584,400 South Wilson Road,Suite 500,Sunbury,OH,43074,US,740-965-3738,40.26619,-82.92193,,,0
Under Armour Factory House,1546936185,8000 Factory Shops Blvd.,,Jeffersonville,OH,43128,US,740-948-9002,39.62061,-83.60365,,,0
Under Armour Factory House,1546936191,12150  Beyer Road,,Birch Run,MI,48415,US,989-624-9005,43.2482734805533,-83.7821000475071,,,0
Under Armour Factory House,1546936225,1475 N. Burkart Rd.,Suite D-120,Howell,MI,48855,US,517-552-3865,42.6211355882353,-83.9934438235294,,,0
Under Armour Factory House,-833454443,5524 New Fashion Way,Suite 400,Charlotte,NC,28278,US,704-594-8862,35.1708474,-80.9707484,,,0
Under Armour Factory House,1546936206,10843 Kings Road,Suite 380,Myrtle Beach,SC,29572,US,843-497-5170,33.784212,-78.773346,,,0
Under Armour Factory House,1546936229,4633 Factory Stores Blvd.,Suite C140,Myrtle Beach,SC,29579,US,843-903-7241,33.7514349980584,-78.9601223177261,,,0
Under Armour Factory House,1546936215,400 Premium Outlets Drive,Space 701-A,Monroe,OH,45050,US,513-539-8422,39.43266,-84.33671,,,0
Under Armour Factory House,1546936230,1 Factory Shops Blvd.,"""Bldg. #6, Space #630""",Gaffney,SC,29341,US,864-489-6259,35.08209,-81.70955,,,0
Under Armour Factory House,1662681447,6245 N. Old 27,Space A-115,Fremont,IN,46737,US,260-833-0267,41.7332674273791,-85.0024148057367,,,0
Under Armour Factory House,-451493038,800 Brevard Road,,Asheville,NC,28806,US,828-667-5816,35.53307,-82.60427,,,0
Under Armour Factory House,-128749891,350 84th Street SW,Suite 100,Byron Center,MI,49315,US,616-226-5092,42.8117805549189,-85.6715839394731,,,0
Under Armour Factory House,1546936207,1645 Parkway,Suite 490,Sevierville,TN,37862,US,865-428-6962,35.8330360137281,-83.5728343161561,,,0
Under Armour Factory House,-833454438,1155 Buck Creek Road,Suite C300,Simpsonville,KY,40067,US,502-722-8654,38.2004410311208,-85.3481191517907,,,0
Under Armour Factory House,1546936253,4840 Tanger Outlets Blvd.,Suite 1050,N. Charleston,SC,29418,US,843-554-2113,32.8743469255344,-80.01630092051,,,0
Under Armour Factory House,1546936213,3026 Outlet Dr,,Edinburgh,IN,46124,US,812-526-2078,39.3108362288361,-85.9602153617255,,,0
Under Armour Factory House,1546936223,601 Wabash Street,Space 103,Michigan City,IN,46360,US,219-879-3271,41.7153,-86.90425,,,0
Under Armour Factory House,1546936249,800 Steven B. Tanger Blvd,Suites 405/406,Commerce,GA,30529,US,706-335-7078,34.2510134608753,-83.471211337815,,,0
Under Armour Factory House,1546936235,"""Hilton Head I, 1254 Fording Island Rd.""",Suite 295,Bluffton,SC,29910,US,843-706-9707,32.2479,-80.83327,,,0
Under Armour Factory House,1546936189,800 Highway 400 South,Suite 900,Dawsonville,GA,30534,US,706-265-0038,34.35644,-84.04577,,,0
Under Armour Factory House,-451493062,200 Tanger Outlet Blvd.,Ste 495,Pooler,GA,31322,US,912-330-2156,32.1343987,-81.2433679,,,0
Under Armour Factory House,-2065461343,5220 Fashion Outlet Way,Suite 1135,Rosemont,IL,60018,US,847-678-7759,41.9754926,-87.8659742,,,0
Under Armour Factory House,1546936188,11211 120th Ave.,Suite 504,Pleasant Prairie,WI,53158,US,262-891-4400,42.5141585719482,-87.9511711774055,,,0
Under Armour Factory House,-1968051297,915 Ridgewalk Parkway,Ste A-180,Woodstock,GA,30188,US,770-592-5852,34.12104,-84.52197,,,0
Under Armour Factory House,1546936247,1650 Premium Outlets Blvd.,Space 1223,Aurora,IL,60502-2910,US,630-978-3821,41.8011,-88.27782,,,0
Under Armour Factory House,1546936255,471 Opry Mills Dr.,Suite 471,Nashville,TN,37214,US,615-800-3788,36.2063763575917,-86.6968463575917,,,0
Under Armour Factory House,1697152190,E100 Tuscola Blvd.,Box 4060,Tuscola,IL,61953,US,217-253-1068,39.79046,-88.26722,,,0
Under Armour Factory House,1546936256,1000 Tanger Dr.,Suite 700,Locust Grove,GA,30248,US,770-898-8588,33.351732554528,-84.1223424719359,,,0
Under Armour Factory House,1546936226,612 West Linmar Lane,Suite C050B,Johnson Creek,WI,53038,US,920-699-3331,43.0898521355486,-88.7621522378677,,,0
Under Armour Factory House,1546936218,3001 S. Washburn Street,Suite&#x86;A70,Oshkosh,WI,54904,US,920-303-2018,43.9833675801315,-88.583304511185,,,0
Under Armour Factory House,1546936237,210 Gasser Rd,Suite #1035,Baraboo,WI,53913,US,608-253-7130,43.57566,-89.78528,,,0
Under Armour Factory House,1546936197,2700 State Road 16,Ste 304,St. Augustine,FL,32092,US,904-819-9667,29.9226517442525,-81.4179326327191,,,0
Under Armour Factory House,669350915,1100 Cornerstone Blvd.,Suite 300,Daytona Beach,FL,32117,US,386-274-2461,29.2198083,-81.0958518,,,0
Under Armour Factory House,-2008139709,18517 Outlet Blvd.,Suite 218,Chesterfield,MO,63005,US,636-778-1457,38.6766995,-90.6602258,,,0
Under Armour Factory House,1546936239,124 Tanger Dr.,Suite #124,Williamsburg,IA,52361-9653,US,319-668-2899,41.6898608026756,-92.0058993645485,,,0
Under Armour Factory House,1546936204,4975 International Dr.,Suite 3C01,Orlando,FL,32819,US,407-355-3177,28.4743257388924,-81.4493272304501,,,0
Under Armour Clearance House,1036266087,5225 International Drive,Space #D1,Orlando,FL,32819,US,407-965-2804,28.4688057,-81.4525018,,,0
Under Armour Factory House,-1393858145,8200 Vineland ave,Suite 1248,Orlando,FL,32837,US,407-465-0516,28.3859492789634,-81.496157648933,,,0
Under Armour Factory House,1546936236,15729 Apopka Vineland Rd.,Space # 15729,Orlando,FL,32821,US,407-238-2025,28.3481114255614,-81.4885055765066,,,0
Under Armour Factory House,47434876,5205 Airways Blvd.,Suite 700,Southaven,MS,38671,US,662-298-5269,34.93358,-89.98829,,,0
Under Armour Factory House,-42564347,2244 Grand Cypress Drive,Suite 601,Lutz,FL,33559,US,813-563-4426,28.1891896,-82.3903137,,,0
Under Armour Factory House,1546936186,10676 Emerald Cost Parkway West,Suite 132,Destin,FL,32550,US,850-351-0120,30.38287,-86.35164,,,0
Under Armour Factory House,1546936232,4540 Osage Beach Parkway,Suite B-2,Osage Beach,MO,65065,US,573-302-7800,38.146505,-92.62511,,,0
Under Armour Factory House,-833454440,3995 Eagan Outlets Pkwy,Suite 100,Eagan,MN,55122,US,651-796-3867,44.815155,-93.2156193,,,0
Under Armour Factory House,-1393858127,1791 Palm Beach Lakes Blvd,Suite W115,West Palm Beach,FL,33401,US,561-693-0000,26.7228546762486,-80.0861983626016,,,0
Under Armour Factory House,1546936184,5111 Factory Shops Blvd,,Ellenton,FL,34222,US,941-729-6705,27.5362872361809,-82.5066394974874,,,0
Under Armour Factory House,1546936196,6415 Laveaux Ave NE,Space# A070,Albertville,MN,55301,US,763-497-0420,45.24444,-93.66339,,,0
Under Armour Factory House,2093190509,2601 S. McKenzie St,Suite 404,Foley,AL,36535,US,251-943-9357,30.37627,-87.68314,,,0
Under Armour Factory House,-1865696419,200 Bass Pro Drive,Suite 480,Pearl,MS,39208,US,601-939-7348,32.27191,-90.14974,,,0
Under Armour Factory House,2132499618,12801 W. Sunrise Blvd.,Suite 429,Sunrise,FL,33323,US,954-845-0184,26.1450252081012,-80.3244699559492,,,0
Under Armour Factory House,1546936219,300 Tanger Blvd.,Space 210,Branson,MO,65616,US,417-337-8284,36.64343,-93.26443,,,0
Under Armour Factory House,1546936202,10801 Corkscrew Rd.,Space 138,Estero,FL,33928,US,239-390-9008,26.43518,-81.7723,,,0
Under Armour Factory House,1715507800,20350 Summerlin Rd,Suite 2140,Fort Myers,FL,33908,US,239-437-3634,26.49367,-81.97186,,,0
Under Armour Factory House,-77622090,11201 Bass Pro Parkway,Suite #G-W102,Little Rock,AR,72210,US,501-455-0019,34.6609511,-92.4079485,,,0
Under Armour Factory House,1546936212,10110 Factory Shops Blvd.,Space 110,Gulfport,MS,39501,US,228-864-2791,30.4276,-89.0964740168888,,,0
Under Armour Factory House,1546936246,1843 Village West Pkwy,Suite C109,Kansas City,KS,66111,US,913-788-8867,39.125523756498,-94.829203756498,,,0
Under Armour Clearance House,339785655,250 East Palm Drive,Suite #300,Florida City,FL,33034,US,786-465-4954,25.44799,-80.47262,,,0
Under Armour Factory House,-1865727211,21209 Nebraska Crossing Dr,C100,Gretna,NE,68028,US,402-332-3896,41.0987053,-96.2501675,,,0
Under Armour Factory House,1913863787,2410 Tanger Blvd.,Suite 320,Gonzales,LA,70737,US,225-644-0029,30.21305,-90.95057,,,0
Under Armour Factory House,-596849190,305 Boardwalk Blvd,,Bossier City,LA,71111,US,318-219-5140,32.5181917481397,-93.7400048662244,,,0
Under Armour Factory House,1036266156,555 Sterling Lyon Parkway,Suite 315,Winnipeg,MB,,CA,204-453-8123,49.8451046,-97.2136359,,,0
Under Armour Factory House,1546936248,7630 W. Reno Ave.,Suite 210,Oklahoma City,OK,73128-9702,US,405-789-5452,35.4641603508772,-97.6503394736842,,,0
Under Armour Factory House,1546936241,820 West Stacy Rd.,Suite # 163,Allen,TX,75013-4805,US,972-678-4010,33.1299381818182,-96.6617109090909,,,0
Under Armour Factory House,1546936259,3000 Grapevine Mills Pkwy,R002,Grapevine,TX,76051,US,972-539-0541,32.96797,-97.03708,,,0
Under Armour Factory House,1631887235,2950 West Interstate 20,Suite 926,Grand Prairie,TX,75052,US,972-602-6744,32.6777020682614,-97.0555443372226,,,0
Under Armour Clearance House,-2102141663,104 Interstate Hwy 35 NE,"Suite 194, EXIT 368",Hillsboro,TX,76645,US,254-580-9667,32.0155843,-97.094555,,,0
Under Armour Factory House,1697152381,5885 Gulf Freeway,Suite 920,Texas City,TX,77591,US,281-337-4363,29.40839,-95.0369,,,0
Under Armour Factory House,1546936190,29300 Hempstead Road,Suite 849,Cypress,TX,77433,US,281-256-6118,29.9945326749593,-95.7564895217682,,,0
Under Armour Factory House,633577211,4401N Interstate 35,Suite 0437 and 0435,Round Rock,TX,78664,US,512-763-1569,30.5672518,-97.6898331,,,0
Under Armour Factory House,1546936187,3939 IH-35 South,Suite 650,San Marcos,TX,78666,US,512-392-3001,29.83628,-97.97661,,,0
FACTORY OUTLET,-1037387928,"Av. Andrés Quintana Roo.  No. 4 SM.39, MZA. 10  LOTE 1-1  LOCAL  28",Municipio de Benito Juárez,Cancun,QUINTANAROO,77507,MX,,21.15295,-86.85171,,,0
Under Armour Factory House,1546936228,5833 McWhinney Blvd.,Space B030,Loveland,CO,80538,US,970-635-4247,40.4110147721263,-104.993845013221,,,0
Under Armour Factory House,1546936200,5050 Factory Shops Boulevard,Space 550,Castle Rock,CO,80108,US,303-814-1004,39.4134030860895,-104.875021637317,,,0
Under Armour Factory House,1546936227,246-O Rainbow Dr.,Space G710,Silverthorne,CO,80498,US,970-468-7453,39.6308539393939,-106.070896666667,,,0
Under Armour Factory House,186122313,5001 East Expressway 83,Suite 307,Mercedes,TX,78570,US,956-565-7751,26.1604278,-97.8888406,,,0
Under Armour Factory House,927192221,1600 Water Street,Suite A510,Laredo,TX,78040,US,956-413-5000,27.502148,-99.512563,,,0
Under Armour Factory House,1546936243,8380 Carrillos Rd,Space 100,Santa Fe,NM,87507-4416,US,505-473-2949,35.6139143189995,-106.032670423734,,,0
Under Armour,-88661142,"Av. Manuel Barragán, 220,  Local-110","Colonia San Juan,",Monterrey,,66054,MX,,25.7205,-100.36223,,,0
Under Armour Factory House,1546936262,1612 Pleasonton Rd.,Suite C101,Fort Bliss,TX,79906,US,915-566-0976,31.81246,-106.41675,,,0
Under Armour Factory House,-833454437,6699 N. Landmark Dr.,Suite J100,Park City,UT,84098,US,435-602-4546,40.73018,-111.55015,,,0
Under Armour Factory House,1697152567,3700 Cabelas Blvd,Suite 319,Lehi,UT,84043,US,801- 901-1252,40.43465,-111.89299,,,0
Under Armour,-88661774,"Autopista México –Puebla Km. 115, Local- U-2.  Centro comercial Outlet Puebla Premier",Colonia San Francisco Ocotlán,Puebla,,72680,MX,0122 22 10 61 29,18.95599,-98.22089,,,0
FACTORY OUTLET,-1037387930,Av. Hacienda sierra Vieja no 2 lote-14  local,1101 Colonia Hacienda del parque.,Cuautitlán Izcalli,ESTADO DE MEXICO,54769,MX,,19.6358286,-99.2455558,,,0
Under Armour,-88682024,Blvd.  Aeropuerto No. 841 Factory Outlet León  Local- GB-01,,Leon,,37295,MX,0147 71 94 76 87,21.08096,-101.60895,,,0
FACTORY OUTLET,-1037387927,Autopista México-Toluca km 50 Loc. AL 21,Col: La Isla,TOLUCA,ESTADO DE MEXICO,52000,MX,,19.3230175,-99.6408249,,,0
Under Armour Factory House,-128756392,6401 West Marana Center Blvd.,Suite 504,Marana,AZ,85742,US,520-988-3915,32.3757317,-111.1012313,,,0
Under Armour Factory House,1546936199,4250 West Anthem Way,Space 690,Anthem,AZ,85086,US,623-465-4707,33.8712183221476,-112.151136442953,,,0
Under Armour Factory House,1946856169,4976 Premium Outlets Way,Suite 416,Chandler,AZ,85226,US,480-639-1761,33.2875981,-111.9732968,,,0
Under Armour Factory House,1697152566,6800 N 95 Ave,Suite 890,Glendale,AZ,85305,US,623-772-5559,33.5346719230769,-112.264993076923,,,0
FACTORY OUTLET,-1037387929,Carretera Guadalajara-Morelia km. 12.5  Local- R-01,Tlajomulco de Zúñiga,,JALISCO,45645,MX,,20.54338,-103.45248,,,0
Under Armour Factory House,-451493023,875 South Grand Central Parkway,Suite 3351,Las Vegas,NV,89106,US,702-470-1022,36.1637373913043,-115.156673043478,,,0
Under Armour Factory House,1546936233,7400 Las Vegas Blvd. South,Space 0318,Las Vegas,NV,89123,US,702-260-6855,36.0551182352941,-115.172342941176,,,0
Under Armour Factory House,1546936244,48750 Seminole Drive,#110,Cabazon,CA,92230-2142,US,951-849-5240,33.92544,-116.81205,,,0
Under Armour Factory House,1546936231,461 South Fork Ave. SW,Space 561C,North Bend,WA,98045,US,425-831-1240,47.492,-121.793533333333,,,0
Under Armour Factory House,1546936220,10600 Quil Ceda Blvd.,Suite 0357,Tulalip,WA,98271,US,360-657-3324,48.09168,-122.18563,,,0
Under Armour Factory House,1546936250,1 Mills Circle,Suite 328A,Ontario,CA,91764,US,909-484-4276,34.07447,-117.55638,,,0
Under Armour Factory House,-128760767,5620 Paseo Del Norte,Suite 100B,Carlsbad,CA,92008,US,442-232-2216,33.1268537911841,-117.323138671382,,,0
Under Armour Factory House,1546936214,4191 Camino de la Plaza,Suite #LL01,San Ysidro,CA,92173,US,619-271-3811,32.54543,-117.042703673469,,,0
Under Armour Factory House,-128754556,7899 Templeton Station Road,Suite 93,Richmond,BC,V7B 0B7,CA,604-295-8511,49.19684,-123.15014,,,0
Under Armour Factory House,23230656,101 West Avenida Vista Hermosa,Suite 572,San Clemente,CA,92672,US,949-361-0029,33.44316,-117.60668,,,0
Under Armour Factory House,654731423,20 City Blvd. West,Suite 1500,Orange,CA,92868,US,714-941-1556,33.7848294,-117.8935314,,,0
Under Armour Factory House,1546936252,1303 Lum Rd.,,Centralia,WA,98531,US,360-736-0162,46.7308966666667,-122.977644848485,,,0
Under Armour Factory House,1546936224,100 Citadel Drive,Space 648,Commerce,CA,90040,US,323-728-1520,34.00487,-118.15308,,,0
Under Armour Factory House,1546936208,1001 Arney Rd.,Suite 610,Woodburn,OR,97071,US,503-981-2138,45.1541812082711,-122.878148791729,,,0
Under Armour Factory House,993533905,13000 Folsom Blvd.,Space 1555,Folsom,CA,95630,US,916-365-9408,38.6431647,-121.1865656,,,0
Under Armour Factory House,1631887204,610 Ventura Blvd,Suite 1334,Camarillo,CA,93010,US,805-445-1238,34.2158174770586,-119.068931957257,,,0
Under Armour Factory House,1546936222,1500 SE East Devils Lake Rd.,Space 217,Lincoln City,OR,97367,US,541-994-4650,44.95969,-124.01138,,,0
Under Armour Factory House,1546936211,321 Nut Tree Road,Suite 232,Vacaville,CA,95687,US,707-451-4736,38.3664166532189,-121.955037135653,,,0
Under Armour Factory House,1697152574,3190 Paragon Outlets Drive,Suite 450,Livermore,CA,94551,US,925-455-1976,37.6952579,-121.7450592,,,0
Under Armour Factory House,1546936238,8300 Arroyo Circle,Suite 220,Gilroy,CA,95020,US,408-848-2765,37.0229794736842,-121.562774736842,,,0
Under Armour Factory House,1650064452,629 Factory Stores Drive,Suite 653,Napa,CA,94558,US,707-254-9523,38.2957087794722,-122.303701097434,,,0
Centauro,-1452791528,"Av. Visconde de Souza Franco, 776 loja 352/353/354",,Belém - PA,PA,66053-000,US,(91) 3224-2143,40.6847296,-75.3813666,,,0
CANEX CFB KINGSTON,1480964991,29 Niagara Park,,Kingston,ON,K7K 7B4,CA,613-541-5010,44.2376269230769,-76.4552669230769,,,0
Fancy That Group,1480965254,48-50 Princess Street,,Kingston,ON,K7L 1A4,CA,613-549-4489,44.2312543478261,-76.4806473913043,,,0
Smith Army Surplus,1480965121,86 Princess St,,Kingston,ON,K7L 1A5,CA,613-530-2087,44.2314642105263,-76.4819926315789,,,0
KINGSTON SOURCE FOR SPORTS,1480965715,121 PRINCESS STREET,,KINGSTON,ON,K7L 1A8,CA,(613)542-2892,44.2316525,-76.4831975,,,0
RUNNING ROOM #051 LANGLEY,1480964474,277 PRINCESS STREET,,KINGSTON,ON,K7L 1B4,CA,410-317-4218,44.2324316666667,-76.4882525,,,0
Cataraqui G & CC,1480965215,961 King Street West,,Kingston,ON,K7L 4V6,CA,613-546-1753,44.220096,-76.532736,,,0
CANEX CFB KINGSTON,1480966205,PO BOX 17000,,Kingston,ON,K7K 7B4,CA,#,44.257229,-76.4894799,,,0
SPORT MART KINGSTON,-671998822,"656 Gardiners Rd., Unit 18",,Kingston,ON,K7M 3X9,CA,410-317-4218,44.2445775814778,-76.5679248972085,,,0
GOLF TOWN STORE 046 AURORA,1480964617,"690 GARDINER'S ROAD, UNIT B003",,KINGSTON,ON,K7M 3X9,CA,#,44.2461985869482,-76.5680423613731,,,0
Sport Chek,-1196550670,"Unit Y-006, 945 Gardiners Road",,Kingston,ON,K7M 7H4,CA,(613) 634-0798,44.2564347058824,-76.5687373529412,,,0
SPORT CHEK SASKATOON,-671998686,"945 Gardiners Road, Unit Y-006",,Kingston,ON,K7M 7H4,CA,613-634-0798,44.2564347058824,-76.5687373529412,,,0
Amherstview Golf Course Ltd,1480966230,PO Box 20059,,Kingston,ON,K7P 2T6,CA,#,44.2508875,-76.5900604,,,0
2M SPORTS,1480965714,815 OVERLEA ST.,,KINGSTON,ON,K7M 6Z8,CA,(613)531-8400,44.2497014118629,-76.6022710998509,,,0
Multideas Promotions,1480964882,670 Norris Ct,,Kingston,ON,K7P 2R9,CA,613-634-2437,44.26336,-76.5683972787696,,,0
Amherstview Golf Course Ltd,1480965183,477 Golf Course Rd,,Kingston,ON,K7N 1W6,CA,613-389-5923,44.2289083642198,-76.6559272736997,,,0
Soccer Plus International-Kingston,1480966136,2780 Princess St.,,Kingston,ON,K7P 1W9,CA,#,44.2593975798853,-76.5817476676449,,,0
Seeley's Clothing and Accessories,1480965351,7-151 Main Street,,Picton,ON,K0K 2T0,CA,613-476-6617,44.00204,-77.15549,,,0
Brockville Country Club,1480965173,1548 Hwy # 2,,Brockville,ON,K6V 5T7,CA,613-342-2468,44.5739642718447,-75.7109742718447,,,0
Limestone & Ivy,1480966134,39 King Street W,,Brockville,ON,K1V 3P7,CA,613-549-4489,44.5897609523809,-75.6840447619048,,,0
SPORTS EXPERTS #794,1480965777,220 CROCKER CRESCENT,,BROCKVILLE,ON,K6V 0A4,CA,410-317-4218,44.6164164593892,-75.6904485106705,,,0
1787370 Ontario Corp (Bay of Quinte,1480965176,1830 Old Highway #2,,Belleville,ON,K8N 4Z9,CA,613-968-7404,44.13357,-77.44207,,,0
SPORT CHEK INTERCITY,-671998666,"90 North Front Street , Unit 200",,Belleville,ON,K8P 3E1,CA,6139625611,44.1741118792506,-77.3891675749711,,,0
DOUG & TOM REID'S SOURCE FOR SPORTS,1480965860,241 GARRISON RD.,,FORT ERIE,ON,L2A 1M9,CA,(905)871-2381,42.9055986527267,-78.9234721836727,,,0
Belleville Sports & Entertainment,1480965323,265 Cannifton Rd,,Belleville,ON,K8N 4V8,CA,613-966-8338,44.1865454031758,-77.3836015602498,,,0
Sport Chek,-1196550435,"Unit 200, 390 North Front Street",,Belleville,ON,K8P 3E1,CA,(613) 962 5611,44.1887469,-77.3997438,,,0
RUNNING ROOM #044 PETERBOROUGH,1480964551,"190 Bell Blvd, Unit AA12",,Belleville,ON,K8P 5L2,CA,410-317-4218,44.18638,-77.4044,,,0
PLAY IT AGAIN - BELLEVILLE,1480965739,274 MILLENIUM DR.,,BELLEVILLE,ON,K8N 4Z5,CA,(613)966-4401,44.1963873913043,-77.3980995652174,,,0
TRI & RUN SPORTS,1480965711,255 GLEN MILLER RD.,,TRENTON,ON,K8V 5P8,CA,(613)392-7752,44.1372698924387,-77.5851470176972,,,0
INTERSPORT #748,1480965712,1 WATER ST. E,,CORNWALL,ON,K6H 6M2,CA,(613)397-4199,45.01526,-74.72701,,,0
Tweed & Hickory,1480964876,27 First Street East,,Cornwall,ON,K6H 1K5,CA,613-933-7110,45.0171077,-74.7268024,,,0
PLAY IT AGAIN -CORNWALL,1480965738,37 9TH ST. E,,CORNWALL,ON,K6H 6R3,CA,(613)936-2020,45.029094,-74.73339,,,0
CANEX CFB Trenton,1480966201,PO BOX 1000,,Astra,ON,K0K 3W0,CA,#,44.20832,-77.51899,,,0
CANEX CFB Trenton,1480964986,"8 Wing Trenton, RCAF Road BLDG 241",,Astra,ON,K0K 3W0,CA,705-424-1801,44.20832,-77.51899,,,0
Nathar Wearhouse,1480966003,1800 Vincent Massey Drive,,Cornwall,ON,K6H 5A6,CA,#,45.0316,-74.77528,,,0
Sport Chek,-1196550997,"Unit 2, 501 Tollgate Road West",,Cornwall,ON,K6H 5R6,CA,(613) 938-0017,45.0409639,-74.7621517,,,0
Bennett's Bait & Tackle,1480964942,158 Lombard Street,,Smith Falls,ON,K7A 5B8,CA,613-283-0683,44.8883922969223,-76.0328799251659,,,0
Sport X,1480965099,11 Chambers Street,,Smith Falls,ON,K7A 2Y2,CA,613-284-1632,44.8987677777778,-76.0205577777778,,,0
CUPOLO'S SPORTS,1480965827,5510 FERRY STREET,,NIAGARA FALLS,ON,L2G 1S4,CA,(905)356-4850,43.08953,-79.08519,,,0
The Legends on Niagara Golf Club,1480965292,"Po Box 150, 7400 Portage Rd South",,Niagara Falls,ON,L2E 6T2,CA,905-356-2241,43.0959801,-79.0910468,,,0
SOMMERVILLE SPORTS,1480965829,84 KING ST. WEST,,COBOURG,ON,K9A 2M3,CA,(905)372-7031,43.9594923076923,-78.1688915384615,,,0
Velo Evasion Inc,1480964888,797 Route 202 Quest,,Bedford,QC,J0J 1A0,CA,450-248-7188,45.1229,-72.97842,,,0
SPORT CHEK REGINA,-671998688,"7555 Montrose Road, Unit A-30",,Niagara Falls,ON,L2H 2E9,CA,905-354-6239,43.0668374891616,-79.122780922764,,,0
Sport Chek,-1196550676,"Unit A-30, 7555 Montrose Road",,Niagara Falls,ON,L2H 2E9,CA,(905) 354-6239,43.0668374891616,-79.122780922764,,,0
Erie Tracker Outfitters Ltd,1480965085,111 Killaly St W,,Port Colborne,ON,L3K 3L7,CA,905-834-9218,42.89166,-79.254649,,,0
FS #3219 TORONTO,1480964631,"111 lgin Street West, Unit #M7",,Cobourg,ON,K9A 5H7,CA,#,43.9764694,-78.1766896,,,0
BUCKNER SOURCE FOR SPORTS,1480965855,3681 PORTAGE RD.,,NIAGARA FALLS,ON,L2J 2K8,CA,(905)835-5665,43.1198725,-79.0995171875,,,0
RUNNING ROOM #073 SARNIA,1480964550,"7190 Morrison Street, Unit C2",,Niagara Falls,ON,L2E 7K5,CA,410-317-4218,43.1041398492462,-79.1139305527638,,,0
Sport Chek,-1196550948,"Unit #M7, 1111 Elgin Street West",,Cobourg,ON,K9A 5H7,CA,(905) 372-4199,43.9711534146341,-78.2002748780488,,,0
Golf Town #49,1480964691,"1111 Elgin Street West, Unit M7",,Cobourg,ON,K9A 5H7,CA,(905) 372-4199,43.9711534146341,-78.2002748780488,,,0
Shawa Tweed & Hickory-Perth,1480966047,1 Gore,,Perth,ON,K7H 1H4,CA,#,44.90127,-76.2511,,,0
Good Sports Excellence,1480965233,17 Southworth Street N,,Wellend,ON,L3B 1X8,CA,905-835-5618,42.98331,-79.23601,,,0
Sport Chek,-1196550091,"Unit R1-11, 800 Niagara Street North",,Welland,ON,L3C 5Z4,CA,905-732-9715,43.01479,-79.24987,,,0
SPORTS EXPERTS #454,1480965616,277 RUE VICTORIA,,VALLEYFIELD,QC,J6T 1A9,CA,(514)735-4751,45.2563892857143,-74.1333764285714,,,0
SPORTS EXPERTS #454,1480965558,277 RUE VICTORIA,,VALLEYFIELD,QC,J6T 1A9,CA,(450)373-4000,45.2563892857143,-74.1333764285714,,,0
FRONT ROW SPORTS,1480966271,UNIT 3 133 FRONT STREET NORTH,,THOROLD,ON,L2V 0A3,CA,#,43.1250481175455,-79.2007,,,0
FRONT ROW SPORTS,1480966219,17 Thompson Ave,,Thorold,ON,L2V 2M9,CA,#,43.1235042857143,-79.2088828571429,,,0
Blue Springs Golf Club,1480964708,343 Glendale Ave,,St Catharines,ON,L2T 0A1,CA,#,43.13679,-79.2137,,,0
SPORTS EXPERTS #479,1480965556,1777 RUE DU SUD,,COWANSVILLE,QC,J2K 3G8,CA,(450)263-7538,45.1936226,-72.7524651,,,0
Sport Chek,-1196550814,"Unit 119, 221 Glendale Avenue",,St. Catherines,ON,L2T 2K9,CA,(905) 687-4808,43.1360493,-79.2244211,,,0
SPORT CHEK DIXIE,-671998705,"221 Glendale Avenue, Unit 119",,St. Catherines,ON,L2T 2K9,CA,9056874808,43.1360493,-79.2244211,,,0
ON THE BALL,1480965839,595 CARLTON ST,,ST. CATHERINES,ON,L2M 4Y2,CA,(905)646-2527,43.186872575098,-79.2075881984984,,,0
BUCKNER SOURCE FOR SPORTS,1480965851,104 WELLAND AVE.,,ST. CATHERINES,ON,L2R 2N3,CA,(905)835-5665,43.1633111111111,-79.2470333333333,,,0
BUCKNER SOURCE FOR SPORTS,1480965850,104 Welland Ave,,St Catharines,ON,L2R 2N3,CA,9056410066,43.1633111111111,-79.2470333333333,,,0
Sport Chek,-1196550867,"Unit #D6, 285 Geneva Street",,St. Catharines,ON,L2N 2G1,CA,(905) 937-4187,43.1768584615385,-79.2407346153846,,,0
SPORT CHEK MONCTON,-671998745,"285 Geneva Street, Unit #D6",,St. Catharines,ON,L2N 2G1,CA,9059374187,43.1768584615385,-79.2407346153846,,,0
CANEX CFB St-JEAN,1480964984,Garnisson St-Jean,,Richelain,QC,J0J 1R0,CA,450-358-7626,45.2914595,-73.2877733,,,0
Runner's Edge,1480964892,11-111 Fourth Ave,,St. Catherines,ON,L2S 3R5,CA,905-984-5333,43.1564822,-79.2631075,,,0
RUNNING ROOM #006 YONGE STREET,1480964435,275 FOURTH AVENUE,,ST CATHERINES,ON,L2R 6P9,CA,410-317-4218,43.1559785,-79.2679086,,,0
Londero Sports Inc,1480965031,349 Boul Du Seminaire,,Saint-Jean-sur-Richelieu,QC,J3B 8C5,CA,450-349-2332,45.29655,-73.26918,,,0
Niagara Golf,1480964946,350 Ontario Street,,St. Catherines,ON,L2R 5L8,CA,905-232-1048,43.1715617590062,-79.2650242436859,,,0
RUNNING ROOM #009 BANK STREET,1480964438,350 ONTARIO ST.,,ST. CATHERINES,ON,L2R 5L8,CA,905-984-6306,43.1715617590062,-79.2650242436859,,,0
Golf Summerlea,1480966051,1000 De Lotbiniere,,Vaudreuil-Dorion,QC,J7V 8P2,CA,#,45.3378366,-73.9817327,,,0
SPORTS AUX PUCES ST. JEAN,1480964869,532 Du Seminaire Nord,,St. Jean sur Richelieu,QC,J3B 5L6,CA,450-349-3888,45.316822,-73.264721,,,0
SPORT EXPERTS #408,1480965557,600 RUE PIERRE CAISSE,,ST-JEAN-SUR-RICHELIE,QC,J3A 1M1,CA,(450)348-0937,45.33171,-73.28135,,,0
SPORT EXPERTS #466,1480965580,298 boul. D’Anjou,,Chateauguay,QC,J6K 1C6,CA,514-365-1286,45.3583257,-73.7172007,,,0
KC'S SPORTS WORLD - BK,1480964868,2727 County Road 43,,Kemptville,ON,K0G 1J0,CA,613-258-2445,45.00355,-76.46254,,,0
Bait Casters,1480965180,7811 Hwy 15 RR2,,Carlton Place,ON,K7C 3P2,CA,613-263-3474,45.1107014945727,-76.1081146065488,,,0
Golf Town Store 040 Vaudreuil,1480964625,30 STRASBOURG,,CANDIAC,QC,J5R 0B4,CA,#,45.3686658726107,-73.5161980875433,,,0
INTERSPORT #697,1480965604,101 BOUL CARDINAL LEGER,,PINCOURT,QC,J7V 3Y3,CA,(514)425-1199,45.38393,-73.99271,,,0
Hockey Supremacy Inc,1480965120,122 Paul-Gauguin,,Candiac,QC,J5R 3X8,CA,514-299-0140,45.3751905969085,-73.5261876615141,,,0
That Hunting and Fishing Store,129510266,6179 Perth Street,,Richmond,ON,K0A 2Z0,CA,613.838.8828,45.192865,-75.84126125,,,0
SPORTS EXPERTS #757,1480965571,59C ROUTE 132,,DELSON,QC,J5B 1H1,CA,(450)638-8880,45.3860275,-73.5497125,,,0
Goalie King Inc,1480965170,5172 Rte 132,,Ste-Catherine,QC,J5C 1L8,CA,512-880-4010,45.3905119751361,-73.574242295635,,,0
INTERSPORT #838,1480965873,3218 BOULEVARD DE LA GARE,,VAUDREUIL-DORION,QC,J7V 8W5,CA,450-687-5200,45.404921,-74.0454772,,,0
Hockey Experts #3118,1480965200,3218 boul De la Gare,,Vaudreuil-Dorion,QC,J7V 8W5,CA,450-424-1911,45.404921,-74.0454772,,,0
Hatworld Div of GCO Canada Inc.,1480964806,54 Boul de la Cité des Jeunes,,Vaudreuil-Dorion,BC,J7V 9L5,CA,#,45.4054814,-74.0386259,,,0
MCDONALD'S SPORTS EXCELLENCE,1480965710,"155 HOOPER ST, UNIT 3",,CARLETON PLACE,ON,K7C 0A9,CA,613-257-1951,45.1419789055194,-76.1274076705994,,,0
FS #3207 MARKHAM,1480964633,46 Cite Des Jeunes; Unit 140,,"Vaudreuil-Dorion, PQ",QC,J7V 9L5,CA,#,45.4066946303892,-74.0369328326497,,,0
PINEGROVE COUNTRY CLUB INC,1480964824,200 AVENUE DE PINS,,SAINTE-JEAN-SUR-RICHELLEU,QC,J2W 2J6,CA,(450)658-1791,45.39447,-73.36663,,,0
La Federation des Cooperatives du N,1480965361,19950 Clark Graham,,Baie d'Urfe,QC,H9X 3A8,CA,514-457-9371,45.42199,-73.9171,,,0
JV GOLF INC-SUMMERLEA,1480964854,419 GREENWOOD,,BEACONFIELD,QC,H9W 4Z7,CA,514-708-6980,45.4215241905325,-73.8760868569869,,,0
BUCKNER SOURCE FOR SPORTS,1480965853,151 QUEEN ST.,,DUNNVILLE,ON,N1A 1H6,CA,(905)835-5665,42.9023604327545,-79.6175367967739,,,0
Team Jacques Moreau Sports,1480966262,364 Rue LaFleur,,Lasalle,QC,H8R 3H6,CA,514-363-2606,45.430786,-73.647186,,,0
JACQUES MOREAU SPORTS,1480965601,364 RUE LAFLEUR,,LASALLE,QC,H8R 3H6,CA,(514)363-2606,45.430786,-73.647186,,,0
Team Jacques Moreau Sports,1480965062,364 Rue LaFleur,,Lasalle,QC,H8R 3H6,CA,514-363-2606,45.430786,-73.647186,,,0
Team Jacques Moreau Sports,1480966092,364 RUE LAFLEUR,,LASALLE,QC,H8R 3H6,CA,(514)363-2606,45.430786,-73.647186,,,0
JOE SPORT,1480965609,1469 NOTRE-DAME,,LACHINE,QC,H8S 2E2,CA,(514)624-3444,45.43496,-73.677126122449,,,0
SPORT CHEK KANATA,-671998762,"125 Riocan Avenue, Unit #2",,Nepean,ON,K2J 5G4,CA,6138257873,45.2695900362591,-75.7413378077699,,,0
Sport Chek,-1196550911,"Unit #2, 125 Riocan Avenue",,Nepean,ON,K2J 5G4,CA,(613) 825-7873,45.2695900362591,-75.7413378077699,,,0
PLAY IT AGAIN - NEPEAN,1480965734,3161 GREEN BANK RD.,,NEPEAN,ON,K2J 4H9,CA,(613)843-9711,45.2690833333333,-75.7455133333333,,,0
PLAY IT AGAIN - NEPEAN,1480965723,3161 GREENBANK ROAD,,NEPEAN,ON,K2J 4H9,CA,(613)731-6006,45.2690833333333,-75.7455133333333,,,0
SAIL PLEIN AIR #18,1480966019,8780 Boulevard Leduc; Quartier Dix/,,Brossard,QC,J4Y 0G4,CA,450-321-1835,45.42776,-73.45805,,,0
SPORT MART KELOWNA,-671998646,350 BOUL ST. JEAN,,POINTE-CLAIRE,QC,H9R 5N8,CA,514-695-8744,45.4444427,-73.8160601,,,0
SOCCER EXPERTS INC.,1480965965,2816 ST-CHARLES BLVD.,,KIRKLAND,QC,H9H 3B6,CA,#,45.4465596171583,-73.8529971392453,,,0
Team Razor Sports Inc,1480965052,1581 Greenbank Rd,,Nepean,ON,K2J 4Y6,CA,613-823-9022,45.2739136402566,-75.7483818204386,,,0
SPORTS EXPERTS #776,1480965620,376 Avenue Dorval,,DORVAL,QC,H9S 3B8,CA,(514)636-7474,45.444353877551,-73.7409695918367,,,0
Team Razor Sports Inc,1480966252,1581 Greenbank Rd,,Nepean,ON,K2J 4Y6,CA,613-823-9022,45.2739136402566,-75.7483818204386,,,0
MOTIONWARE - BARHAVEN,1480965718,1581 GREENBANK RD,,BARRHAVEN,ON,K2J 4Y6,CA,(613)592-4065,45.2739136402566,-75.7483818204386,,,0
PLAY IT AGAIN KIRKLAND,1480965646,2973 ST. CHARLES BLVD.,,KIRKLAND,QC,H9H 3B5,CA,(514)697-1079,45.4481860142785,-73.8544008275188,,,0
Disalvo Sports Lachine,1480966138,775 1st avenue,,Lachine,QC,H8S 2S6,CA,514-634-0826,45.443788250736,-73.6640986366992,,,0
FRASERS SOURCE FOR SPORTS,1480965614,39 DONEGANI,,PTE. CLAIRE,QC,H9R 2V7,CA,(514)697-2911,45.45019,-73.78601,,,0
LE DOME WEST ISLAND INC,1480964853,3000 RUE EDMOND,,KIRKLAND,QC,H9H 5J5,CA,(514)695-4587,45.45397,-73.84167,,,0
Hockey Experts #3105,1480965168,7077 boul Newman,,Lasalle,QC,H8N 1X1,CA,1-514-365-1286,45.4479126,-73.6127113,,,0
NB #3000,1480965612,3570 BOUL ST-CHARLES,,KIRKLAND,QC,H9H 3C3,CA,(514)693-0545,45.4565461,-73.8633375,,,0
SPORT EXPERTS #405,1480965603,7077 boul. Newman local 500,,Lasalle,QC,H8N 1X1,CA,(514)365-1286,45.4491184,-73.6161887,,,0
Disalvo Sports,1480965260,685 Meloche,,Dorval,QC,H9P 2S4,CA,514-636-7373,45.4554022250778,-73.7276053164685,,,0
NB #3054-BROSSARD,1480965909,9550 LEDUC,,BROSSARD,QC,J4Y 0B3,CA,450-926-1040,45.4426012899871,-73.4359944315926,,,0
RUNNING ROOM #070 BROADMEAD VILLAGE,1480964589,7240 BOUL DU QUARTIER,,BROSSARD,QC,J4Y 0B5,CA,#,45.44351,-73.44007,,,0
SAIL PLEIN AIR #14,1480966144,"187A BOUL HYMUS, CENTRE TERRARIUM",,POINTE-CLAIRE,QC,H9R 1E9,CA,(514) 694-4259,45.4608172,-73.8201651,,,0
Magasin J. L Lacroix,1480965037,368 rue Principale Ouest,,Magog,QC,J1X 2A9,CA,819-843-3209,45.2660222641509,-72.1526981132075,,,0
SKI VELO-VINCENT RENAUD,1480964846,395 PRINCIPALE OUEST,,MAGOG,QC,J1X 2B1,CA,819-843-4277,45.2661708333333,-72.1533497916667,,,0
SPORTS EXPERTS #468,1480965806,346 PRINCIPALE OUEST,,MAGOG,QC,J1X 2A9,CA,(819)843-1331,45.2659309433962,-72.1522975471698,,,0
Ben Morin Training Inc,1480965334,3000 Frechette,,Chambly,QC,J3L 6Z6,CA,418-360-5159,45.43482,-73.29182,,,0
Buying Member #3801,1480965335,"6815 Trans-Canadienne, Unit E-010B",,Pointe Claire,QC,H9R 5J1,CA,514-694-8181,45.46191250031,-73.8304812189073,,,0
Buying Member #3801,1480966164,"6815 Trans-Canadienne, Unit Y-004B",,Pointe Claire,QC,H9R 5J1,CA,514-694-8181,45.46191250031,-73.8304812189073,,,0
Rachel Ricci,1480966248,19 Northview Road,,Montreal,QC,H4X 1C8,CA,#,45.457725,-73.655295,,,0
SPORTS EXPERTS #559,1480965613,6815 ROUTE  TRANSCANAD NE,,POINTE-CLAIRE,QC,H9R 5J1,CA,(514)694-8181,45.4642822,-73.833396,,,0
RINK-PRO SPORTS INC.,1480965731,37 MANCHESTER ST.,,STITTSVILLE,ON,K2S 1C5,CA,(613)831-2132,45.25686,-75.92527,,,0
King's Riding Golf Club,1480964729,4999 Boundary Road,,Cumberland,ON,K4B 1P5,CA,613-822-1454,45.35425,-75.44815,,,0
SPORT CHEK OSHAWA,-671998789,1068 GRAND AVENUE,,ST. PAUL,MN,55105,CA,780-439-3099,45.4637618,-73.6169658,,,0
PHL-South Edmonton Commons,1480964762,3597 Boul St-Jean,,D.D.O.,QC,H9G 1W9,CA,#,45.47079,-73.83233,,,0
Sport Verdun Inc,1480965263,3901 Wellington,,Verdun,QC,H4G 1V6,CA,514-766-2900,45.4649,-73.56683,,,0
INTERSPORT #667,1480965619,3901 RUE WELLINGTON,,VERDUN,QC,H4G 1V6,CA,(514)766-2900,45.4649,-73.56683,,,0
Dupont Sports Inc,1480965211,851 Cherner,,Ile Bizard,QC,H9E 1C3,CA,1-514-626-3992,45.47614,-73.90334,,,0
STEVE CUPPY - SALESMEN SAMPLES,1480965939,611 NEAL DRIVE,,PETERBOROUGH,ON,K9J 6X7,CA,410-317-4218,44.2760296911063,-78.3014877389381,,,0
Greg McIntyre,1480966076,611 Neil Drive,,Peterborough,ON,K9J 6X7,CA,#,44.2760296911063,-78.3014877389381,,,0
STEVE CUPPY-SALESMAN SAMPLES,1480965920,611 NEAL DRIVE,,PETERBOROUGH,ON,K9J 6X7,CA,705-749-0622,44.2760296911063,-78.3014877389381,,,0
Boutique 40/30,1480965266,8305 Cote De Liesse,,Montreal,QC,H4T 1G5,CA,514-803-3422,45.4764788938348,-73.704222557825,,,0
PLAY IT AGAIN DECARIE,1480965605,2100 DECARIE BLVD.,,MONTREAL,QC,H4A 3J3,CA,(514)484-5150,45.4736687654321,-73.607432345679,,,0
Millbrook Tactical,1480965332,"120 Lber Rd, Unit 104",,Stittsville,ON,K2S 1E9,CA,613-836-9119,45.2766769,-75.9056559,,,0
RINK-PRO SPORTS INC.,1480965730,6081 HAZELDEAN RD,,STITTSVILLE,ON,K2S 1B9,CA,(613)831-2132,45.2718119402985,-75.9310273134328,,,0
GOLF TOWN STORE 014 - HEARTLAND,1480964265,2315-A TRANSCANADIENNE,,POINTE CLAIRE,QC,H9R 5Z5,CA,514-693-0055,45.4813585,-73.7959549,,,0
JANT SPORTS,1480965610,14700 BOUL. PIERREFONDS,,PIERREFONDS,QC,H9H 4Y6,CA,(514)624-8552,45.4855502,-73.8575195,,,0
SPORT MART LANGFORD,-671998647,"4873 SHERBROOKE QUEST, WESTMOUNT",,MONTREAL,QC,H3Z 1G9,CA,410-317-4218,45.4786915,-73.6041623,,,0
SPORTS EXPERTS #411,1480965576,2151 BOUL. LAPINIERE,,BROSSARD,QC,J4W 2T5,CA,(450)671-7275,45.4734,-73.47001,,,0
PLAY IT AGAIN - COURTICE,1480965844,1414 KING ST EAST,,COURTICE,ON,L1E 3B4,CA,(905)728-8881,43.906638416111,-78.812143659909,,,0
JOE SPORT,1480965608,4798 ST. JEAN,,PIERREFONDS,QC,H9H 4B2,CA,(514)624-3444,45.489105625,-73.85023,,,0
Jack and Jill,1480965041,5330 Queen Mary Road,,Montreal,QC,H3X 1T7,CA,514-488-5841,45.4829625,-73.6296275,,,0
Hogarth Golf Inc,1480965074,25 South Ridge Rd,,L'lle Bizard,QC,H9E 1B3,CA,514-626-0826,45.4911,-73.8987863294108,,,0
Canlan Ice Sports - Les 4 Glaces,1480965324,5880 Boul Tashereau,,Brossard,QC,J4W 1M6,CA,450-462-1942,45.4759135,-73.4683218,,,0
SORICHETTI CONSTRUCTION,1480965660,1280 TERWILLEGAR AVE. -SUITE 4,,OSHAWA,ON,L1J 7A5,CA,(519)942-4891,43.8559786662637,-78.8774021043617,,,0
Canlan Ice Sports – Oshawa,1480966158,1401 Phillip Murray Ave,,Oshawa,ON,L1J 8C4,CA,#,43.8546623047346,-78.8801849959513,,,0
DAQUIN SALES & SCREENPRINTING,1480966124,159 Cleopatra Dr,,Ottawa,ON,K2G 5X4,CA,613-226-8680,45.3299420732049,-75.7274284355882,,,0
RUNNING ROOM #071 SOUTH EDMONTON,1480964456,"484 HAZELDON RD., UNIT #7",,KANATA,ON,K2L 1V4,CA,410-317-4218,45.2967992389317,-75.8903512139353,,,0
SPORTS EXPERTS #530,1480965622,1500 ATWATER,,MONTREAL,QC,H3Z 1X5,CA,(514)908-1414,45.48971,-73.5852,,,0
Country Club De Montreal,1480965311,5 Riverside,,St. Lambert,QC,J4S 1B7,CA,450-671-6181,45.486105,-73.50804,,,0
Kunstadt Sports,1480965094,462 Hazeldean Road,,Kanata,ON,K2L 1V3,CA,613-831-2059,45.29877,-75.88742,,,0
Ottawa Hunt and Golf Club,1480965069,One Hunt Club Rd,,Ottawa,ON,K1V 1B9,CA,613-736-1102,45.3442618,-75.6680717,,,0
Glencairn Golf Club,1480964704,"645 Lansdowne Street West, Unit #L0",,Peterborough,ON,K9J 7Y5,CA,(705) 742-8951,44.28491,-78.3334,,,0
Sport Chek,-1196550781,"Unit #L019A, 645 Lansdowne Street West",,Peterborough,ON,K9J 7Y5,CA,(705) 742-8951,44.28491,-78.3334,,,0
SPORT CHEK SOUTHCENTRE,-671998696,"645 Lansdowne Street West, Unit #L0",,Peterborough,ON,K9J 7Y5,CA,7057428951,44.28491,-78.3334,,,0
MOTIONWARE SOURCE FOR SPORTS,1480965716,300 EAGLESON RD.,,KANATA,ON,K2M 1C9,CA,(613)592-4065,45.30262,-75.876055,,,0
NATIONAL SPORTS CENTRE,1480964239,81 GEORGE ST. N./MARKET PLAZA,,PETERBOROUGH,ON,K9J 3G3,CA,(905)946-5533,44.29588,-78.31932,,,0
Sports Aux Puces St.-Hubert,1480964910,3919 Boul.Taschereau,,Saint-Hubert,QC,J4T 2G5,CA,450-462-5878,45.48612,-73.46798,,,0
MMAZONE,1480966042,5345 Ferrier,,Montreal,QC,H4P 1M1,CA,514-737-9663,45.496285,-73.65939,,,0
SPORTS EXPERTS #465,1480965554,3131 COTE VERTU,,SAINT LAURENT,QC,H4R 1Y8,CA,(514)745-3202,45.4978882666667,-73.7034330666667,,,0
SPORTS EXPERTS #465,1480965617,3131 3131 COTE VERTU,,VILLE ST-LAUREN,QC,H4R 1Y8,CA,(514)745-3232,45.4978882666667,-73.7034330666667,,,0
COREXCELLENCE,1480966043,5327 Ferrier,,Montreal,QC,H4P 1M1,CA,514-733-8333,45.4966009090909,-73.6589563636364,,,0
L.R.E.L.C Inc,1480964929,5327 Ferrier St,,Montreal,QC,H4P 1M1,CA,514-737-9663,45.4966009090909,-73.6589563636364,,,0
GOLF TOWN STORE 030-OTTAWA,1480964549,"950 Lansdowne St. West, Unit C2",,Peterborough,ON,K9J 1Z5,CA,410-317-4218,44.2826102564103,-78.3425964102564,,,0
SPORTS EXPERTS #410,1480965585,40-73 EVANGELINE,,GRANBY,QC,J2G 8K1,CA,(450)777-7678,45.4153251,-72.7498547,,,0
SAIL PLEIN AIR #13,1480966143,3755 BOUL. TASCHEREAU,,ST-HUBERT,QC,J4T 2G4,CA,(450) 926-8448,45.4885793877551,-73.4717228571429,,,0
BERNARD TROTTIER SPORTS,1480965925,3680 BOUL TASCHEREAU,,GREENFIELD PARK,QC,J4V 2H8,CA,(450)671-3793-32,45.4887604,-73.4737557,,,0
Team Au Grand Bazar,1480965064,1141 Rue Principale,,Quebec,QC,J2J 0M3,CA,450-378-2022,45.419416091113,-72.7701909790127,,,0
AU GRAND BAZAR,1480965559,1141 RUE PRINCIPALE,,GRANBY,QC,J2G 8C8,CA,(450)378-2022,45.419416091113,-72.7701909790127,,,0
Team Au Grand Bazar,1480966264,1141 Rue Principale,,Granby,QC,J2J 0M3,CA,450-378-2022,45.419416091113,-72.7701909790127,,,0
Team Au Grand Bazar,1480966096,1141 RUE PRINCIPALE,,GRANBY,QC,J2G 8C8,CA,(450)378-2022,45.419416091113,-72.7701909790127,,,0
PLAY IT AGAIN - PETERBOROUGH,1480965750,1135 LANSDOWNE ST. W,,PETERBOROUGH,ON,K9J 7M2,CA,(705)741-6110,44.2810953846154,-78.34867,,,0
Capital Sports &,1480965044,1000 Palladium Dr,,Kanata,ON,K2V 2A5,CA,613-599-0333,45.29633,-75.92485,,,0
PHL-Winnipeg,1480964772,2420 Bank St,,Ottawa,ON,K1V 8S1,CA,#,45.3539786044765,-75.6486565111912,,,0
DAQUIN SALES,1480965704,165 COLONNADE RD. S.,,OTTAWA,ON,K2E 7J4,CA,(613)226-8680,45.34264,-75.70813,,,0
Roy's Enterprise,1480964891,1609 McEwen Dr,,Whitby,ON,L1N 7L4,CA,905-728-1258,43.8588092315493,-78.8979562043356,,,0
Fontaine Source for Sports,1480965178,384 Queen Street,,Peterborough,ON,K9H 3J6,CA,705-742-0511,44.305525,-78.31787475,,,0
HOBIES SPORTS,1480965751,186 - 1/2 CHARLOTTE ST.,,PETERBOROUGH,ON,K9J 2T8,CA,(705)745-7770,44.3033772727273,-78.3215527272727,,,0
HOBIES SPORTS,1480964879,186 1/2 CHARLOTTE,,PETERBOROUGH,ON,K9J 2T8,CA,705-745-7770,44.3033772727273,-78.3215527272727,,,0
"MARK AHRENS GOLF, INC.",1480965951,777 CLONSILLA AVE.,,PETERBOROUGH,ON,L2J 6Z6,CA,410-317-4218,44.2828447880414,-78.3524708754312,,,0
GOLF TOWN STORE 025 - LONDON,1480964276,1231 STE-CATHERINE OUEST,,MONTREAL,QC,H3G 1P5,CA,514-848-0078,45.4984772727273,-73.5744281818182,,,0
Soccer Plus International,1480965258,203 Simcoe St.,,Peterborough,ON,K9H 2H6,CA,705-876-8181,44.3045848780488,-78.3217568292683,,,0
MULLINS SPORTS,1480965564,301 BOUL. CHURCHILL,,GREENFIELD PARK,QC,J4V 2N1,CA,(450)466-1022,45.4944564,-73.4832772,,,0
Oshawa Generals Hockey Club,1480965310,99 Athoi Street East,,Oshawa,ON,L1H 1J8,CA,905-433-0900-236,43.8973457142857,-78.8596785714286,,,0
MOMO SPORTS,1480965999,234 St-Judes Nord,,GRANBY,QC,J2J 0C2,CA,#,45.4212666666667,-72.7462433333333,,,0
PHL-Heartland (Mississauga),1480964759,3261 Boul. Taschereau,,Greenfield Park,QC,J4V 2H5,CA,#,45.4950974,-73.4815061,,,0
SAIL PLEIN AIR - #23 OSHAWA,1480966112,665 Laval Drive,,OSHAWA,ON,L1J 0B6,CA,#,43.8792587931034,-78.8815713793103,,,0
RUNNING ROOM #022 HAMILTON,1480964559,210 HUNTER STREET WEST,,PETERBOROUGH,ON,K9H 2L2,CA,#,44.3058054054054,-78.3223583783784,,,0
SPORTS EXPERTS #534,1480965621,930 STE-CATHERINE OUEST,,MONTREAL,QC,H3B 3R7,CA,(514)866-1914,45.5014246341463,-73.5715353658537,,,0
PHL-Oakville,1480964787,1 Place Ville-Marie #11326,,Montreal,QC,H3B 3Y1,CA,#,45.5017817,-73.567755,,,0
Sport Chek,-1196550429,"Unit #0580, 1642 Merivale Road",,Nepean,ON,K2G 4A1,CA,(613) 225-6674,45.3456195926914,-75.7304456845579,,,0
SPORT CHEK ST. LAURENT,-671998663,"1642 Merivale Road , Unit #0580",,Ottawa,ON,K2G 4A1,CA,6132256674,45.3456195926914,-75.7304456845579,,,0
GOLF TOWN STORE 021 - LAVAL,1480964272,1635 VICTORIA STREET E,,WHITBY,ON,L1N 9W4,CA,905-579-7486,43.8661342136261,-78.9026929119044,,,0
SPORT MART KANATA,-671998823,1-145 Roland Michener Drive,,Kanata,ON,K2T 1G7,CA,410-317-4218,45.30872,-75.91144,,,0
CREO MARKETING,1480965869,25 NORTHSIDE RD.,,OTTAWA,ON,K2H 8S1,CA,410-317-4218,45.33007,-75.81369,,,0
DAQUIN SALES,1480965867,25 NORTHSIDE ROAD,,OTTAWA,ON,K2H 8S1,CA,410-317-4218,45.33007,-75.81369,,,0
PHL-Whitby Entertainment Centrum,1480964770,140 Roland Michener Dr,,Kanata,ON,K2T 1K4,CA,#,45.3086979068757,-75.9128408398614,,,0
Sport Chek,-1196550310,"Unit 1150, 419 King Street West",,Oshawa,ON,L1J 2K5,CA,(905) 433-2012,43.8902155,-78.8796139,,,0
PLAY IT AGAIN - KANATA,1480965725,400 EARL GREY DR.,,KANATA,ON,K2T 1B6,CA,(613)731-6006,45.3104447147002,-75.9116573801589,,,0
Sports 4,1480966041,400 Earl Grey Drive,,Kanata,ON,K2T 1B6,CA,613-271-7597,45.3104447147002,-75.9116573801589,,,0
JP Tremblay,1480966145,592 3rd Rural Road West,,Roxton Pond,QC,J0E 1Z0,CA,#,45.41128,-72.63064,,,0
PLAY IT AGAIN  SPORTS ST. LAURENT,1480965598,1908 THIMENS,,ST-LAURENT,QC,H4R 2K2,CA,(514)334-7373,45.5121170588235,-73.6940888235294,,,0
GOLF TOWN STORE 022 - KING STREET W,1480964273,570 KANATA AVE.,,OTTAWA,ON,K2T 1K5,CA,613-254-7064,45.3121375657677,-75.9095178591092,,,0
PLAY IT AGAIN - KANATA,1480965705,488 Terry Fox Dr.,,KANATA,ON,K2T 1L3,CA,(613)229-1420,45.3097466887129,-75.920166248514,,,0
PLAY IT AGAIN - KANATA,1480965735,488 TERRY FOX DR.,,KANATA,ON,K2T 1L3,CA,(613)843-9711,45.3097466887129,-75.920166248514,,,0
Tweed & Hickory-Kanata,1480966046,499 Terry Fox Drive,,Kanata,ON,K2T 1H7,CA,#,45.30985,-75.92142,,,0
SPORT CHEK GUILDFORD,-671998757,"785 Kanata Avenue, Unit # Q1",,Kanata,ON,K2T 1H8,CA,6132711513,45.3119896328417,-75.9112661573254,,,0
Sport Chek,-1196550909,"Unit # Q1, 785 Kanata Avenue",,Kanata,ON,K2T 1H9,CA,(613) 271-1513,45.3119896328417,-75.9112661573254,,,0
SportChek London North #242,-671998566,419 KING STREET WEST; Unit 2065,,OSHAWA,ON,L1J 2K5,CA,#,43.8939,-78.87978,,,0
SPORT MART OXFORD,-671998610,"1651 Merivale Place, Unit A220",,Nepean,ON,K2G 3K2,CA,410-317-4218,45.3503533333333,-75.7330833333333,,,0
SPORT CHEK BURLINGTON,-671998782,"419 King Street West , Unit 1150",,Oshawa,ON,L1J 2K5,CA,905-433-2012,43.8939,-78.87978,,,0
Rolling Hills Golf Club,1480964735,7000 Campeau Drive,,Kanata,ON,K2K 1X5,CA,613-592-9417,45.3144956680042,-75.9142830469553,,,0
Running Room 95,1480964778,75 Consumers Drive,,Whitby,ON,L1N 1C4,CA,#,43.87079,-78.9130575,,,0
Peterborough Golf and Country Club,1480964960,1030 Armour Rd N,,Peterborough,ON,K9J 6Y8,CA,705-743-5010,44.3318811434872,-78.3083688104354,,,0
Sports 4,1480964925,1371B Woodroffe Avenue,,Nepean,ON,K2G 1V7,CA,613-224-2424,45.349496949549,-75.7614701904445,,,0
RUNNING ROOM #082 WINNIPEG,1480964463,1518 MERIVALE RD.,,OTTAWA,ON,K2G 3J6,CA,613-228-3100,45.35602,-75.73662,,,0
FS #3221 CALGARY,1480964606,1518 MERIVALE ROAD,,OTTAWA,ON,K2G 3J6,CA,#,45.35602,-75.73662,,,0
Delta Rocky Crest Resort,1480964734,"1199 Bord de l'Eau, Sainte-Dorothee",,Laval,QC,H7Y 1A9,CA,450-689-4130,45.523893,-73.84781,,,0
LE BARON OUTDOOR PRODUCTS-MARKHAM,1480965962,1512 MERIVALE ROAD,,OTTAWA,ON,K2G 3J6,CA,410-317-4218,45.3567922492176,-75.7370711468604,,,0
Gunn Media Group,1480965294,2100 Thurston Dr 7B,,Ottawa,ON,K1G 4K8,CA,613-737-3223,45.3796468350195,-75.6213929124511,,,0
SPORTS EXPERTS #526,1480965572,615 BOUL. LES PROMENADES,,ST-BRUNO,QC,J3V 6L9,CA,(450)653-1364,45.5052774138593,-73.3740431259572,,,0
Wod Sports,1480965322,1290 Amherst,,Montreal,QC,H2L 3K8,CA,514-996-8980,45.51693,-73.5558881818182,,,0
PLAY IT AGAIN - WHITBY,1480965843,1801 DUNDAS ST. E,,WHITBY,ON,L1N 2L3,CA,(905)728-8881,43.88851,-78.90385,,,0
RUNNING ROOM #030 REGINA,1480964574,5044 AVENUE DU PARC,,MONTREAL,QC,H2V 4G1,CA,(514)274-5888,45.5193425806452,-73.5951680645161,,,0
GOLF TOWN STORE 020 - STE CATHERINE,1480964271,1571 BOULEVARD DES PROMENADES,,ST. HUBERT,QC,J3Y 5K2,CA,450-926-0110,45.5097074,-73.3984174,,,0
L.T. PRO SPORTS,1480965863,15 MAIN ST. WEST,,GRIMSBY,ON,L3M 1R3,CA,(905)945-4522,43.1934296,-79.561146,,,0
PLAY IT AGAIN - OTTAWA,1480965722,1701 BANK ST.,,OTTAWA,ON,K1V 7Z4,CA,(613)731-6006,45.3752,-75.6658,,,0
PLAY IT AGAIN - OTTAWA,1480965736,1701 BANK STREET,,OTTAWA,ON,K1V 7Z4,CA,(613)843-9711,45.3752,-75.6658,,,0
PHL-Magasin Chicoutimi,1480964757,1701 Boul.des Promenades,,St-Hubert,QC,J3Y 5K2,CA,#,45.5097074,-73.3984174,,,0
SPORTS EXPERTS #413,1480965729,100 BAYSHORE DRIVE,,OTTAWA,ON,K2B 8C1,CA,(613)829-7680,45.34921,-75.80515,,,0
FOOT LOCKER CANADA-99010,1480964655,"100 BAYSHORE DRIVE, Space 238",,NEPEAN,ON,K2B 8C1,CA,#,45.34921,-75.80515,,,0
SPORT MART CROSSROADS,-671998813,"1397 Harmony Rd, Unit 1",,Oshawa,ON,L1H 7K5,CA,410-317-4218,43.9407506438342,-78.849963521658,,,0
SPORTS EXPERTS #433,1480965615,2305 ROCKLAND,,VILLE MONT-ROYAL,QC,H3P 3E9,CA,(514)735-4751,45.5266083838384,-73.648565959596,,,0
INTERSPORT #668,1480965586,640 DESSERTE OUEST UNIT A13,,LAVAL,QC,H7X 3S9,CA,(450)969-2000,45.5321112,-73.7878621,,,0
RUNNING ROOM #048 MONCTON,1480964473,80 THICKSON ROAD,,WHITBY,ON,L1N 7T2,CA,905-438-1600,43.8918638921557,-78.9150771989102,,,0
HOCKEY EXPERTS #3100,1480965459,2344 AUTOROUTE CHOMEDEY,,LAVAL,QC,H7X 4G8,CA,410-317-4218,45.5357318120805,-73.78946,,,0
SPORTS EXPERTS #793,1480965776,2336 AUTOROUTE CHOMEDEY,,LAVAL,QC,H7X 4G8,CA,410-317-4218,45.5356920805369,-73.78942,,,0
SPORT DEPOT,1480965607,"1153 AVE. DU MONT-ROYAL, EST",,MONTREAL,QC,H2J 1X9,CA,(514)526-3805,45.5287534,-73.5788172,,,0
NATIONAL SPORTS CENTRE,1480964244,285 TAUNTON RD.,,OSHAWA,ON,L1G 3V2,CA,(905)946-5533,43.9352904048777,-78.8684386638807,,,0
Street Fighters Boutique,1480965237,2391 Chambly Rd,,Longueuil,QC,J4L 2L6,CA,450-646-0677,45.525104,-73.4714006666667,,,0
Running Room #110 Kamploops,1480964790,1005 Marche Central,,Montreal,QC,H4N 1J8,CA,#,45.5344437426901,-73.6564094152047,,,0
GOLF TOWN STORE 015 - ST.HUBERT,1480964266,1001 RUE DE MARCHE CENTRAL,,MONTREAL,QC,H4N 1J8,CA,514-382-4666,45.5344312280702,-73.656368245614,,,0
PHL-Magasin Jules Verne,1480964754,1005 Marche Central,,Montreal,QC,H4N 1J8,CA,#,45.5344437426901,-73.6564094152047,,,0
SPORTS EXPERTS #538,1480965563,825 ST-LAURENT OUEST,,LONGUEIL,QC,J4K 2V1,CA,(450)463-3452,45.528155140229,-73.5134418224141,,,0
TOMMY AND LEFEBVRE,1480965706,2615 LANCASTER RD.,,OTTAWA,ON,K1B 4L5,CA,(613)236-4096,45.3987222076098,-75.6109692286974,,,0
BLADES CUSTOM SKATE SHOP,1480965830,135 BROCK STREET S,,WHITBY,ON,L1N 4J9,CA,(905)430-7717,43.8794669561087,-78.9420786954752,,,0
MOTIONWARE - CARLING,1480965717,2138 CARLING AVE,,OTTAWA,ON,K2A 1H2,CA,(613)592-4065,45.3707933333333,-75.768945,,,0
NATIONAL SPORTS CENTRE,1480964246,1650 VICTORIA STREET,,WHITBY,ON,L1N 9L4,CA,(905)946-5533,43.8535155394994,-78.9751258790433,,,0
LACROIX SPORTS EXCELLENCE,1480965713,2450 LANCASTER RD.,,OTTAWA,ON,K1B 5N3,CA,(613)523-5292,45.4018546189339,-75.618440939731,,,0
Golf Town Store 052 Milton,1480964645,2348 Aut. Chomedey,,Laval,QC,H7X 4G8,CA,#,45.5465079,-73.8010456,,,0
Valiquette Source For Sports,1480966151,1740 Carling Ave,,Ottawa,ON,K2A 1E1,CA,#,45.37795,-75.7526453846154,,,0
VALIQUETTE SOURCE FOR SPORTS,1480966277,1740 CARLING AVE.,,Ottawa,ON,K2A 1E1,CA,#,45.37795,-75.7526453846154,,,0
Valiquette Source For Sports,1480966149,1740 Carling Ave,,Ottawa,ON,K2A 1E1,CA,#,45.37795,-75.7526453846154,,,0
Team Valiquette Source For Sports,1480965230,1740 Carling Ave,,Ottawa,ON,K2A 1E1,CA,613-725-5352,45.37795,-75.7526453846154,,,0
VALIQUETTE SOURCE FOR SPORTS,1480965721,1740 CARLING AVE.,,OTTAWA,ON,K2A 1E1,CA,(613)725-5352,45.37795,-75.7526453846154,,,0
Prefair (Imrico Ltee),1480966226,436 Rue Pierre Laporte,,St. Bruno,QC,J3V 1J8,CA,#,45.5267037306594,-73.3598880370287,,,0
PHL-Hamilton,1480964760,5916 rue Papineau,,Montreal,QC,H2G 2W8,CA,#,45.5407167741935,-73.5913893548387,,,0
SPORTSMANIA,1480964834,9030 BOUL. ST. LAURENT,,MONTREAL,QC,H2N 1M7,CA,514-385-1555,45.5431718,-73.6472182,,,0
Sports Excellence St -Bruno,1480965033,1484 Montarville,,St. Bruno,QC,J3V 3T5,CA,450-441-1484,45.527650967446,-73.3423393165573,,,0
VETEMENT UNIQUE INC,1480964895,9455 Boul St. Laurent,,Montreal,QC,H2N 1P6,CA,514-381-9964,45.5453482,-73.653047,,,0
Lucien Laverdure Montreal,1480965008,8724 St. Denis,,Montreal,QC,H2M 1N2,CA,514-384-9040,45.5455131578947,-73.6393378947368,,,0
NB #3003-OTTAWA,1480965892,1395 CARLING AVENUE,,OTTAWA,ON,K1Z 7L6,CA,613-722-9554,45.3849227272727,-75.7402872727273,,,0
The Marshes Golf Club,1480965212,320 Terry Fox Dr,,Ottawa,ON,K2K 3L1,CA,1-613-371-3370,45.35148,-75.91081,,,0
RUNNING ROOM #024 ST. ALBERT,1480964447,901 BANK STREET,,OTTAWA,ON,K1S 3W5,CA,613-233-5617,45.40049,-75.6869,,,0
Loch March Golf & Country Club,1480965179,1755 Old Carp Rd,,Kanata,ON,K2K 1X7,CA,613-839-5401,45.34103,-75.98096,,,0
FORZANI GROUP (SPORTCHEK OUTDOOR),-671998576,800 LE CORBUSIER BOULEVARD,,LAVAL,QC,H7N 6J5,CA,#,45.5569427,-73.7252998,,,0
Milton Distribution Centre,1480964628,920 BOULEVARD LE CORBUSIER,,LAVAL,QC,H7N 0A8,CA,#,45.5571599107143,-73.7244357142857,,,0
SPORTS EXPERTS #502,1480965567,200 BOUL. SAUVE,,ST-EUSTACHE,QC,J7R 2H9,CA,(450)472-5485,45.5612351,-73.8943852,,,0
FGL Sports Ltd.,1480964809,418 Richmond Rd,,Ottawa,ON,K2A 0G2,CA,#,45.3904425,-75.75726,,,0
Mark Fitzgerald,1480966283,72 Bettina Place,,Whitby,ON,L1R 0E9,CA,#,43.92065,-78.92806,,,0
Elite Training Systems,1480965312,72 Bettina Place,,Whitby,ON,L1R 0E9,CA,289-200-5003,43.92065,-78.92806,,,0
SAIL PLEIN AIR  #21-TRAIN YARDS,1480966073,"175 TRAINYARDS DRIVE, UNIT 2",,OTTAWA,ON,K1G 3X8,CA,(613) 800-0939,45.4134543390131,-75.6441015540538,,,0
PHL-Mega magasin de Charlemagne,1480964756,4440 aut. Laval (440),,Quebec,QC,H7T 2P7,CA,#,45.5606379,-73.7869058,,,0
GOLF TOWN STORE 026 - KITCHENER,1480964277,3954 AUTOROUTE 440 OUEST,,LAVAL,QC,H7T 2P7,CA,450-680-2222,45.5613126,-73.7846605,,,0
TOMMY AND LEFEBVRE - OLYMPIC SPORTS,1480965707,680 BANK ST.,,OTTAWA,ON,K1S 3T9,CA,(613)236-4096,45.4059,-75.68997,,,0
VSP Sports,1480966195,"645 Belfast Rd, Unit 10",,Ottawa,ON,K1G 4V3,CA,#,45.4153433060034,-75.6447135469203,,,0
La Cordee Plein Air Inc.,1480964931,2777 boul. St. Martin Ouest,,Laval,QC,H7T 2Y7,CA,514-524-1326-...,45.5613841,-73.7407649,,,0
COAST MOUNTAIN SPORTS,1480964813,4855 LOUIS-B-MAYER,,LAVAL,QC,H7P 6C8,CA,450-687-5200,45.5628028571429,-73.7938091836735,,,0
Foot Locker Canada Financial Servic,1480964818,4855 LOUIS-B-MAYER,,LAVAL,QC,H7P 6C8,CA,450-687-5200,45.5628028571429,-73.7938091836735,,,0
RUNNING ROOM #018 WHITE ROCK,1480964557,500 TERMINAL AVENUE UNIT A20,,OTTAWA,ON,K1G 0Z3,CA,#,45.4149280776661,-75.6481669612159,,,0
PEGASUS #839,1480965578,1920 120 Promenades du Centropolis,,LAVAL,QC,H7T 2Z1,CA,(450)682-3885,45.5621626,-73.7445446,,,0
SPORTS EXPERTS #496,1480965579,1600 BOUL. LE CORBUSIER,,LAVAL,QC,H7S 1Y9,CA,(450)688-1021,45.5617576,-73.7321819,,,0
Pro Hockey Life,1480964171,4149 Autoroute Laval,,Laval,QC,H7P 4W6,CA,450-681-0855-228,45.5632665217391,-73.7807773913044,,,0
Trailhead Paddle Shack,1480965295,100-1960 Scott Street,,Ottawa,ON,K1Z 8L8,CA,613-839-7526,45.39869,-75.74622,,,0
CANEX Retail Store #407,1480964985,4210 Labelle Street,,Ottawa,ON,K1J 1J7,CA,613-741-4888,45.4228287592221,-75.6307214597731,,,0
Canex Labelle,1480965160,"4210 Labelle Street, Unit 101",,Ottawa,ON,K1J 1J7,CA,613-741-4888,45.4228287592221,-75.6307214597731,,,0
Sport Chek,-1196550949,"Bldg. G, 320 Taunton Road East",,Whitby,ON,L1R 0H4,CA,(905) 655-9195,43.9184340778853,-78.9437186560068,,,0
FITNESS SOURCE -FORZANI GROUP,1480964630,"320 Taunton Road East, Bldg. G",,Whitby,ON,L1R 0H4,CA,#,43.9184340778853,-78.9437186560068,,,0
Sportchek Milton Mall #288,-671998547,"320 Taunton Road East, Bldg G",,Whitby,ON,L1R 0H4,CA,(905) 655-9195,43.9184340778853,-78.9437186560068,,,0
TOMMY AND LEFEBVRE,1480965708,464 BANK ST.,,OTTAWA,ON,K2P 1Z3,CA,(613)236-4096,45.41136,-75.693146,,,0
Magasin Baseball Town,1480965083,3805 Cure Labelle,,Laval,QC,H7P 0A5,CA,450-543-2686,45.56751,-73.78049,,,0
SPORTS EXPERTS #499,1480965726,"1226 ST. LAURENT BLVD., 2nd Floor",,OTTAWA,ON,K1K 3B8,CA,(613)741-3727,45.4235288235294,-75.63702,,,0
SPORTS EXPERTS #462,1480965577,3035 BOUL. LE CARREFOUR,,LAVAL,QC,H7T 1C8,CA,(450)682-0032,45.5683372654487,-73.7499373189898,,,0
FOOT LOCKER CANADA-99012,1480964656,1200 ST LAURENT BLVD,,OTTAWA,ON,K1K 3B8,CA,#,45.42398,-75.63728,,,0
Sport Chek,-1196550586,"Unit# Y005, 1200 St. Laurent Blvd.",,Ottawa,ON,K1K 3B8,CA,(613) 741-3378,45.42398,-75.63728,,,0
SPORT CHEK SASKATOON,-671998657,"1200 St. Laurent Blvd., Unit# Y005",,Ottawa,ON,K1K 3B8,CA,613-741-3378,45.42398,-75.63728,,,0
PICKERING VILLAGE SPORTS,1480965841,18 Harwood Ave. S.,,AJAX,ON,L1S 6N2,CA,(905)683-0400,43.8524964,-79.0221023,,,0
SPORT MART LONDON,-671998609,"2280 City Park Dr., Unit 2",,Gloucester,ON,K1G 1G1,CA,410-317-4218,45.43117,-75.61213,,,0
PLACE SOCCER CANADA,1480965425,237 METCALFE STREET,,OTTAWA,ON,K2P 1R2,CA,(250)480-1944,45.41703,-75.69235,,,0
SPORT MART BELLEVILLE,-671998581,"248 Kingston Rd. E, Unit 3&4",,Ajax,ON,L1Z 1E9,CA,410-317-4218,43.8664931,-79.0164998,,,0
Sports 4,1480966040,149 Bank Street,,Ottawa,ON,K1P 5N7,CA,613-234-6562,45.41879,-75.69933,,,0
Ajax Source for Sports’,1480966078,18 Harwood Ave South,,Ajax,ON,L1S 7L8,CA,#,43.8593714,-79.0258468,,,0
Team Ajax Source For Sports’,1480966128,18 Harwood Ave South,,Ajax,ON,L1S 7L8,CA,#,43.8593714,-79.0258468,,,0
Ajax Source For Sports,1480966150,18 Harwood Ave. S.,,Ajax,ON,L1S 7L8,CA,#,43.8593714,-79.0258468,,,0
Ajax Source For Sports,1480966152,18 Harwood Ave. S.,,Ajax,ON,L1S 7L8,CA,#,43.8593714,-79.0258468,,,0
RUNNING ROOM #062 KINGSWAY VILLAGE,1480964451,160 SLATER STREET,,OTTAWA,ON,K1P 5H8,CA,613-233-5165,45.4202525,-75.697665,,,0
PLAY IT AGAIN - CUMBERLAND,1480965724,2085 10TH LINE ROAD,,CUMBERLAND,ON,K4A 4C5,CA,(613)731-6006,45.45833,-75.48638,,,0
PLAY IT AGAIN - ORLEANS,1480965737,2085 TENTH LINE,,ORLEANS,ON,K4A 4C5,CA,(613)843-9711,45.458575,-75.4846337,,,0
PLAY IT AGAIN - CUMBERLAND,1480965733,2085 10TH LINE RD.,,CUMBERLAND,ON,K4A 4C5,CA,(613)837-7529,45.45833,-75.48638,,,0
PLAY IT AGAIN  - ORLEANS,1480965732,2085 TENTH LINE,,ORLEANS,ON,K4A 4C5,CA,(613)837-7529,45.458575,-75.4846337,,,0
ELGIN SPORTS,1480965727,250 ALBERT ST,,OTTAWA,ON,K1P 6M1,CA,(613)748-1224,45.41995,-75.70032,,,0
GOLF PASSION,1480964898,1754 Bl. Levesque E,,Laval,QC,H7G 1E3,CA,450-662-0015,45.5738486,-73.6724753,,,0
Sport Chek,-1196550989,"Unit # 1, 135 Harwood Ave. N",,Ajax,ON,L1Z 1E8,CA,(905) 683-3807,43.8627299,-79.0251376,,,0
Sportchek Fairview Mall #251,-671998556,"135 Harwood Ave. N, Unit #1",,Ajax,ON,L1Z 1E8,CA,(905) 683-3807,43.8627299,-79.0251376,,,0
SPORT MART RICHMOND HILL,-671998608,"2016 Tenth Line Road, Unit 1",,Orleans,ON,K4A 4X4,CA,410-317-4218,45.4595366,-75.487147,,,0
INTERSPORT #837,1480965800,200 RUE PRINCIPALE,,GATINEAU,QC,J9H 6J4,CA,(819)682-2552,45.39552,-75.83552,,,0
SPORTS EXPERTS #486,1480965709,50 RIDEAU ST.,,OTTAWA,ON,K1N 9J7,CA,(613)237-5760,45.4259129268293,-75.6924190243902,,,0
BAY CYCLE & SPORTS,1480965856,980 BROCK ROAD S,,PICKERING,ON,L1W 2A3,CA,(905)837-1433,43.83145,-79.06669,,,0
Wild Fire Golf Club,1480966183,2349 Armstrong Lane RR2,,Lakefield,ON,K0L 2H0,CA,#,44.5479620698336,-78.093900200886,,,0
DURHAM SPORTS,1480965842,1033 TOY AVENUE,,PICKERING,ON,L1W 3N9,CA,(905)683-0400,43.8351594,-79.0661217,,,0
Footbest Sud,1480966177,910 Rue Jean Neveu,,Longueuil,QC,J4G 1G5,CA,1-450-434-3668,45.5714689,-73.4534551,,,0
Foulee Sportive,1480964901,139 Promenade du Portage,,Gatineau,QC,J8Y 2K2,CA,819-770-7449,45.42556,-75.71671,,,0
Passion Soccer Boutique,1480964954,5148 Jarry East,,St Leonard,QC,H1R 1Y4,CA,514-326-4444,45.5817925301205,-73.5935077108434,,,0
La Capsule Sportive -BK,1480966272,3154 boul Industriel,,Laval Quebec,QC,H7L 4P7,CA,-201,45.58971,-73.74172,,,0
La Capsule Sportive - BK,1480965139,3154 boul Industriel,,Laval Quebec,QC,H7L 4P7,CA,450-681-0366-201,45.58971,-73.74172,,,0
ICI SPORT SOURCE FOR SPORTS,1480965597,5746 JEAN TALON EST,,ST. LEONARD,QC,H1S 1M2,CA,(514)254-6111,45.5842310188929,-73.5807390644052,,,0
SPORTS EXPERTS #787,1480965573,582 CHEMIN DE TOURAINE,,BOUCHERVILLE,QC,J4B 5E4,CA,(450)655-2666,45.5753955138133,-73.4054220868179,,,0
LACROIX SOURCE FOR SPORTS,1480965728,2062 ST. JOSEPH BLVD.,,ORLEANS,ON,K1C 1E6,CA,(613)824-5196,45.46585,-75.53643,,,0
Sport Chek,-1196550418,"Unit 120, 1355 Kingston Road",,Pickering,ON,L1V 1B8,CA,(905) 420-1208,43.8359986,-79.0863992,,,0
VSP Sports,1480966132,9 Rue Amherst,,Gatineau,QC,J8Y 6S7,CA,#,45.43455,-75.73108,,,0
SPORTS EXPERTS #436,1480965565,600 BOUL. LAURIER,,BELOEIL,QC,J3G 4J2,CA,(450)467-7201,45.56458,-73.20502,,,0
SPORT MART NEWMARKET,-671998649,"1450 KINGSTON ROAD, UNIT 18",,PICKERING,ON,L1V 1C1,CA,410-317-4218,43.8403651020408,-79.0845120408163,,,0
SPORT CHEK KELOWNA,-671998660,"1355 Kingston Road , Unit 120",,Pickering,ON,L1V 1B8,CA,9054201208,43.8381477777778,-79.0872377777778,,,0
SPORTS EXPERTS #418,1480965600,7275 RUE SHERBROOKE EST.,,MONTREAL,QC,H1N 1E9,CA,(514)335-2330,45.5900357142857,-73.5389514285714,,,0
Brooklin Skate Shop,1480965165,"31 Bladwin Street, Unit 6",,Brooklin,ON,L1M 0A7,CA,905-655-8479,43.9554649,-78.961139,,,0
BROOKLIN SKATE SHOP,1480965876,42 BALDWIN STREET,,BROOKLIN,ON,L1M 1A2,CA,410-317-4218,43.9563733333333,-78.9610666666667,,,0
Sport Chek,-1196550102,"Unit 2400, 110 Place d'Orleans Drive",,Orleans,ON,K1C 2L9,CA,(613) 824-9933,45.4786228,-75.5163744,,,0
NB #3058-PICKERING,1480965912,699 KINGSTON ROAD,,ONTARIO,ON,L1V 3N7,CA,410-317-4218,43.81787,-79.11701,,,0
NATIONAL SPORTS CENTRE,1480964234,699 KINGSTON RD.,,PICKERING,ON,L1V 3N7,CA,(905)946-5533,43.81787,-79.11701,,,0
Canada Cross Dock,1480964641,"699 Kingston Rd., Unit 2",,Pickering,ON,L1V 3N7,CA,(905) 839-5159,43.81787,-79.11701,,,0
SPORT CHEK LIME RIDGE,-671998699,"110 Place d#Orleans Drive, Unit 240",,Orleans,ON,K1C 2L9,CA,613-824-9933,45.4794226513665,-75.5172544400444,,,0
RUNNING ROOM #054 POINTE CLAIRE,1480964476,"260 CENTRUM BLVD, UNIT 411",,ORLEANS,ON,K1E 3P4,CA,410-317-4218,45.4809,-75.50928,,,0
Play it Again Sports,1480965092,8295 Langelier,,St Leonard,QC,H1P 2B7,CA,514-259-5355,45.5963130052529,-73.5858450938941,,,0
GOLF TOWN STORE 024 - COQUITLAM,1480964275,6745 METROPOLITAINE EST.,,ST. LEONARD,QC,H1P 3K8,CA,514-329-2069,45.5958022891566,-73.5753573493976,,,0
INTERSPORT #788,1480965720,"454 Highway 17, Suite 110",,Hawkesbury,ON,K6A 2R2,CA,(613)632-0793,45.5893342857143,-74.5891628571429,,,0
SPORT EXPERTS #517,1480965574,1001 MONTARVILLE,,BOUCHERVILLE,QC,J4B 6P5,CA,(450)655-6003,45.5899317988939,-73.434486712304,,,0
Martin Giroux,1480966077,113 Rue Des IIes-Percees,,Boucherville,QC,J4B 2P3,CA,#,45.5918994,-73.4539533,,,0
SPORTS EXPERTS #755,1480965804,25 BOUL. DU PLATEAU,,HULL,QC,J9A 3G1,CA,(819)777-2222,45.436796207184,-75.7693396595561,,,0
SPORTS EXPERTS #414,1480965599,SUITE 450 7999 BOUL. GALERIES D'ANJ,,ANJOU,QC,H1M 1W9,CA,(514)353-9000,45.6005181,-73.564517,,,0
Teams Colors Canada,1480966213,8627 Rue Hochelaga,,Montreal,QC,H1L 2M5,CA,#,45.6005683333333,-73.5203833333333,,,0
INTERSPORT #691,1480965575,5080 Boul. Robert Bourassa,,LAVAL,QC,H7E 0A6,CA,(450)661-2558,45.608443209838,-73.6970425183681,,,0
Scarboro Golf and Country Club,1480965006,321 Scarborough Golf Club Rd,,Scarborough,ON,M1J 3H2,CA,416-266-4546,43.7515,-79.21141,,,0
RUNNING ROOM #021 HALIFAX,1480964445,1977 QUEEN STREET EAST,,TORONTO,ON,M4L 1J1,CA,416-693-1530,43.6698791666667,-79.3007816666667,,,0
PRO LEAGUE SPORTS COLLECTABLE,1480965511,1957 QUEEN ST. E.,,TORONTO,ON,M4L 1H7,CA,(416)699-2097,43.6695733333333,-79.3021233333333,,,0
MDH Sports,1480965188,647-A Notre Dame,,Gatineau,QC,J8P 1N3,CA,613-220-2247,45.4808476,-75.6260152,,,0
Camelot Golf & Country Club,1480965184,"906 Quigley Hill Rd, PO Box 310",,Cumberland,ON,K4C 1E7,CA,613-833-0801,45.51559,-75.42981,,,0
BM # 880,1480965796,3333 KING OUEST,,SHERBROOKE,QC,J1L 1P8,CA,(819)564-8525,45.3939597368421,-71.9519397368421,,,0
Running Room #100,1480964786,2695 Rue D'annemasse,,Boisbriand,QC,J7H 0A5,CA,#,45.6272019008264,-73.8507385950413,,,0
GOLF TOWN 043 GATINEAU,1480965998,91 BOULEVARD DE LA GRAPPE,,GATINEAU,QC,J8T 0B5,CA,#,45.467302,-75.7169813,,,0
Prefair (Imrico Ltee),1480965246,1055 Lois-Marchand,,Beloll,QC,J3G 6S4,CA,450-446-7060,45.5957636307302,-73.2164167517902,,,0
MARC SPORTS,1480965799,455 BLVD. MALONEY EST.,,GATINEAU,QC,J8P 6Z8,CA,(819)663-1069,45.4848241823822,-75.6370194445819,,,0
INTERSPORT #633,1480965562,315 BOUL. CURE-LABELLE,,ROSEMERE,QC,J7A 2H7,CA,(450)437-3773,45.6290955,-73.8123847,,,0
GOLF TOWN STORE 042 WINNIPEG #2,1480964619,3410 DES GRANDES TOURELLES,,BOISBRIAND,QC,J7H 0A2,CA,#,45.6305512,-73.8609831,,,0
SAIL PLEIN AIR # 15,1480965935,1085 BOUL DE L'INDUSTRIEL,,BELOEIL QUEBEC,QC,J3G 4S5,CA,410-317-4218,45.5959708,-73.1946207,,,0
CUPOLO'S SPORTS,1480965828,180 MAIN ST.,,TORONTO,ON,M4E 3V4,CA,(905)356-4850,43.6842089080854,-79.3002957816171,,,0
SPORTS EXPERTS #518,1480965555,401 BOUL. LABELLE,,ROSEMERE,QC,J7A 3T2,CA,(514)745-3202,45.6306724,-73.8192093,,,0
The Club at Bond Head,1480964781,3600 Blv Grande Allee,,Boisbriand,QC,J7H 1M9,CA,#,45.6314664,-73.8587039,,,0
SPORTS EXPERTS #546,1480965782,1100 BOUL MALONEY OUEST,,GATINEAU,QC,J8T 6G3,CA,(819)243-3711,45.4758559,-75.6969841,,,0
SPORT EXPERTS #518,1480965561,401 BOUL. CURE -LABELLE,,ROSEMERE,QC,J7A 3T2,CA,(450)437-1933,45.6314047,-73.8178734,,,0
Hockey Experts #3116,1480965303,"401 boul. Cure-Labelle, Place Rosem",,Rosemere,QC,J7A 3T2,CA,4504371993,45.6314047,-73.8178734,,,0
La Boutique au Service,1480966036,72 Jean Proulx,,Gatineau,QC,J8Z 1W1,CA,#,45.4685217580548,-75.7414690779467,,,0
PHL-Shepard,1480964769,Heritage Green,,Hamilton,ON,L8J 0B4,CA,#,43.21345,-79.70995,,,0
Running Room #109,1480964785,3145 Boul De Portland,,Sherbrooke,QC,J1L 2P1,CA,#,45.4035089171974,-71.950633821656,,,0
ABSOLUTE SOCCER - STONEY CREEK,1480965885,538 HIGHWAY #8,,STONEY CREEK,ON,L8G 5G2,CA,905-643-4224,43.2151768,-79.7132801,,,0
SPORTS EXPERTS #528,1480965787,3050 BOUL. PORTLAND,,SHERBROOKE,QC,J1L 1K1,CA,(819)346-5286,45.40346,-71.94884,,,0
Greg Landry AJ Ltee,1480965172,171 St-Rene Est,,Gatineau,QC,J8P 6J9,CA,819-663-2455,45.4922677777778,-75.6509402777778,,,0
ECONOSPORTS #831,1480965786,1495 KING OUEST,,SHERBROOKE,QC,J1J 2C1,CA,(819)346-4050,45.3986571428571,-71.9135171428571,,,0
EAGLE BEAVER,1480965513,780 BIRCHMOUNT RD.,,SCARBOROUGH,ON,M1K 5H4,CA,(416)759-9997,43.7265921052632,-79.2765415789474,,,0
Lake Joseph Resort,1480964731,75 de la Citadelle Avenue,,Hull,QC,J8Z 3L1,CA,819-770-5557,45.4747149,-75.759165,,,0
BUCKNER SOURCE FOR SPORTS,1480965854,367 HWY #8,,STONEY CREEK,ON,L8G 1E7,CA,(905)835-5665,43.21893,-79.72596,,,0
La Cordee Plein Air Inc.,1480966044,405 rue Marien,,Montreal,QC,H1B 4V7,CA,514-524-1326,45.6345693,-73.5090335,,,0
Jerry Nemish Pro Shops,1480964894,1355 Brawley Road,,Brooklin,ON,L1M 1B5,CA,905-428-6321-221,43.9767068493151,-79.0199053424658,,,0
Derek Jones Sports Inc,1480964927,9850 Montee Ste. Marianne,,Mirabel,QC,J7J 2A8,CA,450-435-1537,45.6502977,-73.8981334,,,0
SPORT CHEK COQUITLAM,-671998763,"1920 Eglinton Avenue East, Unit #B4",,Scarborough,ON,M1L 2L9,CA,4167579232,43.7276023,-79.2905579,,,0
Sport Chek,-1196550912,"Unit #B4, 1920 Eglinton Avenue East",,Scarborough,ON,M1L 2L9,CA,(416) 757-9232,43.7278967,-79.2908114,,,0
Team Marchant's School Sport LTD,1480965051,849 Progress Ave,,Scarborough,ON,M1H 2X4,CA,416-439-9400,43.78073,-79.23873,,,0
Team Marchant's School Sport LTD,1480966251,849 Progress Ave,,Scarborough,ON,M1H 2X4,CA,416-439-9400,43.78073,-79.23873,,,0
Team Marchant's School Sport LTD,1480966109,845 Progress Ave,,Scarborough,ON,M1H 2X4,CA,#,43.7806837101063,-79.2391620390075,,,0
Club De Golf De Lachute Canada,1480965075,355 Bethanie,,Lachute,QC,J8H 3X5,CA,514-990-5833,45.647046,-74.329454,,,0
A. ROY SPORTS,1480965611,12009 RUE NOTRE DAME EST,,MONTREAL,QC,H1B 2Y8,CA,(514)645-1071,45.6396355697983,-73.4903376838383,,,0
RUNNING ROOM #064 NAMAO CENTRE,1480964452,30 WELLINGTON STREET,,TORONTO,ON,M5L 1E8,CA,416-867-7575,43.64826,-79.375475,,,0
Hockey Hall of Fame,1480964862,30 Yonge Street,,Toronto,ON,M5E 1X8,CA,416-933-8211,43.64687,-79.37693,,,0
Royal Ashburn Golf Club,1480965378,995 Myrtle Rd W,,Ashburn,ON,L0B 1A0,CA,1-905-686-1121,43.9986952344712,-79.0097288886945,,,0
SportChek Trinity Common # 239,-671998569,300 BOROUGH DRIVE,,SCARBOROUGH,ON,M1P 4P5,CA,#,43.775466,-79.25395,,,0
SPORT CHEK SURREY,-671998684,"300 Borough Drive, Suite 755",,Scarborough,ON,M1P 4P5,CA,416-290-1222,43.775466,-79.25395,,,0
Toronto Athletic Club,1480965134,79 Wellington St W,,Toronto,ON,M5K 1J5,CA,416-865-0900,43.64689,-79.38179,,,0
Adelaide Sports,1480965034,1 First Canadian Place,,Toronto,ON,M5X 1C8,CA,416-364-2772,43.64863,-79.38023,,,0
FS #3226 Laval,1480964638,"20 Richmond St., SUITE 111",,Toronto,ON,M5C 2R9,CA,#,43.651855,-79.3780775,,,0
NB #3030-TORONTO,1480965911,20 RICHMOND STREET E,,TORONTO,ON,M5C 2R9,CA,416-368-4653,43.651855,-79.3780775,,,0
CMS TORONTO,1480966032,"2 Queen Street West, Unit #002",,Toronto,ON,M5H 3X4,CA,416-598-3785,43.6524,-79.37927,,,0
Sport Chek,-1196550098,"Unit CRU- R1, 218 Yonge Street",,Toronto,ON,M5B 2H6,CA,(416) 598-3785,43.65363,-79.37982,,,0
FOOT LOCKER CANADA-99020,1480964661,218 YONGE STREET; Box 1114,,TORONTO,ON,M5B 2H6,CA,#,43.65363,-79.37982,,,0
SPORT CHEK NIAGARA,-671998694,218 Yonge Street,,Toronto,ON,M5B 2H6,CA,415-598-3785,43.65363,-79.37982,,,0
Team Jacques Moreau Sports,1480966093,350 Terril - Suite 172,,SHERBROOKE,QC,J1E 3S7,CA,(514)363-2606,45.4131662751392,-71.8853334396362,,,0
JACQUES MOREAU SPORTS,1480965602,350 Terril - Suite 172,,SHERBROOKE,QC,J1E 3S7,CA,(514)363-2606,45.4131662751392,-71.8853334396362,,,0
Cambridge Group Inc,1480965106,100 Richmond St West 11th Floor,,Toronto,ON,M5H 3T6,CA,416-862-1077,43.65066,-79.38365,,,0
RIVER CITY SPORTS,1480965398,260 YONGE ST.,,TORONTO,ON,M5B 2L9,CA,(204)338-7455,43.65452,-79.38018,,,0
GOLF TOWN STORE 027 - NORTH CALGARY,1480964278,266 KING STREET W,,TORONTO,ON,M5V 1H8,CA,416-977-4733,43.6469773913043,-79.3880330434783,,,0
Michael Walker Advertising,1480965257,158 South Service Rd,,Stoney Creek,ON,L8E 3H6,CA,905-578-4911,43.2403895555556,-79.7346531111111,,,0
Lachance Chasse Et Peche,1480964965,1435 King East,,Sherbrooke,QC,J1G 1E8,CA,819-563-9676,45.408895,-71.85641,,,0
GOLF TOWN STORE 002 - MISSISSAUGA,1480964254,1455 MCCOWAN RD.,,SCARBOROUGH,ON,M1B 5K7,CA,(905)946-5533,43.78416,-79.25592,,,0
Hautes Plaines Golf Club,1480964723,1 Boul de Fontainebleau,,Blainville,QC,J7B 1L4,CA,450-434-7569,45.664309,-73.817587,,,0
L'AMI Sport R.B. Inc,1480964998,738 Boul LaBelle,,Blainville,QC,J7C 2K3,CA,450-430-4671,45.6656132,-73.8670854,,,0
MAISON DE SPORT,1480965990,9 BOUL. DE LA SEIGNEURIE EST LOCAL,,BLAINVILLE,QC,J7C 4G6,CA,#,45.6674134,-73.868391,,,0
Delta Grandview Resort,1480964718,2110 Concession # 7,,Pickering,ON,L1Y 1A2,CA,905-649-5991,43.9432569,-79.092859,,,0
GOLF TOWN STORE 006 - MARKHAM,1480964258,23 WILLIAM KITCHEN RD.,,SCARBOROUGH,ON,M1P 5B7,CA,(416)335-4888,43.7728060550851,-79.2810387550165,,,0
NB# 3075-TERREBONNE,1480965984,671 DE LA SABILIERE,,BOIS DE FILION,QC,J6Z 4T2,CA,#,45.66993,-73.77303,,,0
Running Room #093 St Cathrines,1480964701,"35 William Kitchen Road, Unit #K1.2",,Scarborough,ON,M1P 5B7,CA,#,43.77337,-79.28302,,,0
Footbest Inc.,1480965253,65 Seigneurie Blv,,Blainville,QC,J7C 4M9,CA,450-434-3668,45.6731865,-73.8612012,,,0
Running Room #113 Red Deer,1480964793,"61 Hanna Ave, Unit 1",,Toronto,ON,M6K 3N7,CA,#,43.6388959755292,-79.4197095642352,,,0
Skiis & Bikes,1480966157,898 Don Mills Rd,,Toronto,ON,M3V 1V6,CA,416-391-0654,43.72698,-79.340745,,,0
Fishing World,1480964940,2411 Barton St. East,,Hamilton,ON,L8E 2W9,CA,905-573-2288,43.2375722222222,-79.7633955555556,,,0
JUST HOCKEY,1480965506,900 DON MILLS RD.,,DON MILLS,ON,M3C 1V6,CA,(416)445-5700,43.72763,-79.34091,,,0
JUST HOCKEY,1480965507,900 DON MILLS RD.,,DON MILLS,ON,M3C 1V6,CA,(416)445-5700,43.72763,-79.34091,,,0
INTERSPORT #568,1480965606,671 DE LA SABLIERE,,BOIS DES FILION,QC,J6Z 4T2,CA,(514)494-7772,45.6786933,-73.7648953,,,0
NEVADA BOB'S #3075,1480965961,671 RUE DE LA SABLIERE,,BOIS DES FILION,QC,J6Z 4T2,CA,410-317-4218,45.6790108542073,-73.7642768829573,,,0
RUNNING ROOM TORONTO WAREHOUSE,1480964477,1087 YONGE STREET,,TORONTO,ON,M4W 2L5,CA,416-960-3910,43.67962125,-79.39059375,,,0
Sport Chek,-1196550993,"Unit # 300, B3 - 147 Laird Drive",,Toronto,ON,M4G 4K1,CA,(416) 421-6093,43.7090696,-79.3623851,,,0
Sport Chek #370,-671998544,147 Laird Ave unit #600,,Toronto,ON,M4G 4K1,CA,#,43.6741261538462,-79.3963415384615,,,0
Sportchek Crossiron Mills #248,-671998560,"147 Laird Drive, Unit # 300, B3",,Toronto,ON,M4G 4K1,CA,(416) 421-6093,43.70913,-79.363,,,0
LARRYS SPORTS,1480965834,2289 BARTON ST. E,,HAMILTON,ON,L8E 2W8,CA,(905)578-6555,43.23886,-79.76896,,,0
La Zone Sports Excellence-St Hyacin,1480966172,1480 des Cascades,,St Hyacinthe,QC,J2S 3H5,CA,#,45.6248971,-72.9453518,,,0
BLIER SPORTS,1480965583,3044 CHOQUETTE,,ST. HYACINTHE,QC,J2S 1H1,CA,(450)774-6606,45.6330042920259,-72.9731231041117,,,0
MOMO Sports,1480966179,3044 Choquette,,St-Hyacinthe,QC,J2S 7W9,CA,1-819-822-3077,45.6330042920259,-72.9731231041117,,,0
Station Creek Golf Club,1480964707,"1791 Stone Church RD E, Unit 4005",,Stoney Creek,ON,L8J 0B4,CA,#,43.1921244,-79.8125988,,,0
Tweed & Hickory-Port Perry,1480966048,179-182 Queen Street,,Port Perry,ON,L9L 1B8,CA,#,44.1050244285714,-78.9434718571429,,,0
Alain Ferland Sports Inc,1480965182,259 Notre Dame,,Roxton Falls,QC,J0H 1E0,CA,450-548-5777,45.5734011111111,-72.5221022222222,,,0
Greenhills Golf Club,1480964720,109 Royal Troon Lane RR#1,,Dunrobin,ON,K0A 1T0,CA,613-832-3804,45.46938,-76.03353,,,0
Broli la Source Du Sport,1480964915,3360 Laframboise,,Saint-Hyacinthe,QC,J2S 4Z4,CA,450-774-1104,45.6371924050633,-72.9681715189873,,,0
INTERSPORT #621,1480965808,444 AVE. DE BUCKINGHAM,,GATINEAU,QC,J8L 2G7,CA,(819)986-7429,45.5880083,-75.4166903,,,0
SPORTS EXPERTS #536,1480965584,"3200 boul. Laframboise, Local 1690",,St Hyacinthe,QC,J2S 4Z5,CA,(450)774-3135,45.6383319,-72.9648299,,,0
L&M TAYLOR-TORONTO,1480965986,2046 YONGE STREET,,TORONTO,ON,M4S 1Z9,CA,#,43.70151125,-79.397273125,,,0
FS #3203 PICKERING,1480964634,7655 Markham Road; Unit 1,,Markham,ON,L3S 3J9,CA,#,43.8522290570557,-79.2547163428356,,,0
RUNNING ROOM #085 SASKATOON,1480964586,808 YORK MILLS ROAD,,TORONTO,ON,M3B 1X8,CA,#,43.75336,-79.35815,,,0
Sport Chek,-1196550093,2529 Yonge Street,,Toronto,ON,M4P 2H9,CA,416-932-9604,43.7127784615385,-79.3996469230769,,,0
TORONTO HOCKEY REPAIR,1480965508,1592 BLOOR ST. W.,,TORONTO,ON,M6P 1A7,CA,(416)533-1791,43.6558576470588,-79.4546623529412,,,0
Sail #25,1480966165,162 rue North Queen,,Etobicoke,ON,M9C 1A8,CA,416-915-5002,43.6149398550725,-79.4925926086957,,,0
Granite Club,1480965362,2350 Bayview Ave,,Toronto,ON,M2L 1E4,CA,416-449-8713,43.73267,-79.38118,,,0
RUNNING ROOM #016 SLATER STREET,1480964442,2629 YONGE STREET,,TORONTO,ON,M4P 2J6,CA,416-322-7100,43.71513125,-79.400145,,,0
SPORT EXPERTS #402,1480965566,1185 boul Moody #8,,Terrebonne,QC,J6W 3Z5,CA,450-471-3688,45.7019756140351,-73.6482154385965,,,0
"SPORTING LIFE, INC.",1480963836,2665 Yonge St.,,Toronto,ON,M4P 2J6,CA,(416)485-1611,43.7163777777778,-79.4004444444444,,,0
Niko Apparel - #1090301,1480965389,61 Hempstead Dr,,Hamilton,ON,L8W 2Y6,CA,905-318-0845,43.195785769088,-79.8391743094049,,,0
Sportchek E-Comm #494,-671998549,"1800 Sheppard Ave East, Unit 2074",,Toronto,ON,M2J 5A7,CA,(416) 502-2931,43.7777578,-79.3444513,,,0
Sport Chek,-1196550960,"Unit #2074, 1800 Sheppard Ave East",,Toronto,ON,M2J 5A7,CA,(416) 502-2931,43.7778782,-79.3446538,,,0
RUNNING ROOM #020 COMMERCE COURT,1480964444,2100 BLOOR STREET WEST,,TORONTO,ON,M6S 1M7,CA,416-762-4478,43.6523820850906,-79.4705993792956,,,0
NATIONAL SPORTS CENTRE,1480964745,"450 Durham Road 21, RR #1",,Uxbridge,ON,L0C 1A0,CA,905-649-8545,44.0662422,-79.0359438,,,0
Gary Lagdon Sports Inc,1480965129,200 Rue Blainvillier,,Blainville,QC,J7C 4X6,CA,450-433-1334,45.7163903513687,-73.8702287860173,,,0
LAKESHORE CYCLE & SPORTS,1480965505,3451 LAKESHORE BLVD. W,,TORONTO,ON,M8W 1N2,CA,(416)259-3425,43.5953874074074,-79.5295507407407,,,0
Sports International CSTS Inc,1480964173,221 Evans Avenue,,Toronto,ON,M8Z 1J6,CA,416-251-2132,43.6175475,-79.5162125,,,0
RUNNING ROOM #043 ORLEANS,1480964469,156 LAKESHORE ROAD EAST,,OAKVILLE,ON,L6J 1H4,CA,905-844-2300,43.4448478947368,-79.6691657894737,,,0
L&M TAYLOR-MARKHAM,1480965987,5460 HIGHIWAY 7,,MARKHAM,ON,L3P 1B7,CA,#,43.8696994,-79.2764897,,,0
ARNPRIOR SPORTS,1480965719,39 WINNERS CIRCLE DR.,,ARNPRIOR,ON,K7S 3G9,CA,(613)623-8445,45.4221200682615,-76.3679568434674,,,0
LAWRENCE SPORTS,1480965847,282 ARGLE STREET,,CALEDONIA,ON,N3W 1K8,CA,(905)765-6552,43.0641448,-79.9589589,,,0
Berts Sports,1480965152,255 Lakeshore Rd,,Mississauga,ON,L5G 1G8,CA,905-278-4780,43.5598625,-79.5768241666667,,,0
WARD & PATCH SOURCE FOR SPORTS,1480965514,777 ANNETTE ST.,,TORONTO,ON,M6S 2E4,CA,(416)769-4137,43.65838,-79.48754,,,0
INTERSPORT #673,1480965568,20 MONTEE MASSON,,MASCOUCHE,QC,J7K 3B5,CA,(450)474-6168,45.7214628,-73.6218376,,,0
RUNNING ROOM #055 OUTREMONT,1480964566,104 LAKESHORE ROAD WEST,,MISSISSAUGA,ON,L5H 1E8,CA,#,43.5500333333333,-79.5874883333333,,,0
SPOKES AND SPORTS,1480965517,1889 AVENUE RD.,,TORONTO,ON,M5M 3Z9,CA,(416)787-6238,43.7326408,-79.4192474,,,0
HEADS UP SOURCE FOR SPORTS,1480965833,505 RYMAL RD EAST,,HAMILTON,ON,L8W 3X1,CA,(905)574-5700,43.1970030769231,-79.8707576923077,,,0
OLLY USA LLC (Canada),1480965306,582 Gordon Baker Rd,,Toronto,ON,M2H 3B4,CA,416-502-1691,43.8092288552292,-79.3451578420123,,,0
The Elliot Sports Medicine Clinic,1480965341,102-1100 Walkers Line,,Burlington,ON,L7N 2G3,CA,905-336-3340,43.3460329166667,-79.7603577083333,,,0
ABSOLUTE SOCCER - HAMILTON,1480965886,523 UPPER SHERMAN,,HAMILTON,ON,L8V 3L9,CA,905-318-4222,43.232041,-79.847327,,,0
C.L.P SPORTS INC.,1480965859,1703 LAKESHORE RD. W,,MISSISSAUGA,ON,L5J 1J4,CA,(905)855-8225,43.5181093478261,-79.6222376086957,,,0
CMS MARKVILLE,1480966009,"5000 Hwy 7 East, Unit #E006",,Markham,ON,L3R 4M9,CA,905-948-8020,43.8655657142857,-79.2913528571429,,,0
SPORT CHEK METROTOWN,-671998716,"5000 Hwy 7 East, Unit 20A",,Markham,ON,L3R 4M9,CA,905-940-6400,43.8655657142857,-79.2913528571429,,,0
Adrienne Straub Sporting LTD,1480964974,141 Wilson Avenue,,Toronto,ON,M5M 3A3,CA,416-421-1864,43.74062,-79.41818,,,0
RUNNING ROOM #058 MARKET SQUARE,1480964570,4981 HIGHWAY #7,,MARKHAM,ON,L3R 1N1,CA,#,43.8652224,-79.2924453,,,0
SPORT MART ORANGEVILLE,-671998587,"1865 Lakeshore Road, Unit 1A",,Mississauga,ON,L5J 1J6,CA,410-317-4218,43.51475,-79.6258739344262,,,0
PLAY IT AGAIN - MARKHAM,1480965846,9275 HIGHWAY 48,,MARKHAM,ON,L6E 1A2,CA,(905)763-0777,43.8927182608696,-79.2642386956522,,,0
Canlan Ice Sports - Oakville,1480965191,2300 Cornwall Rd,,Oakville,ON,L6J 7T9,CA,905-845-6989,43.48889625,-79.64956625,,,0
PHL-South Keys (Ottawa),1480964763,90 rue Emile Despins,,Charlemagne,QC,J5Z 3L6,CA,#,45.7215832,-73.4913605,,,0
SPORT CHEK TOWN N COUNTRY,-671998695,"999 Upper Wentworth Street, Unit #0",,Hamilton,ON,L9A 4X5,CA,9053835012,43.21707,-79.86449,,,0
Sport Chek,-1196550778,"Unit #0515, 999 Upper Wentworth Street",,Hamilton,ON,L9A 4X5,CA,(905) 383-5012,43.21707,-79.86449,,,0
Kiddie Kobbler,1480965007,999 Upper Wentworth,,Hamilton,ON,L9A 4X5,CA,905-388-9835,43.21707,-79.86449,,,0
NATIONAL SPORTS CENTRE,1480964251,970 UPPER WENTWORTH ST.,,HAMILTON,ON,L9A 4V8,CA,(905)946-5533,43.21863,-79.86401,,,0
CORBETT'S SKI SFS,1480965826,120 SPEERS ROAD,,OAKVILLE,ON,L6K 2E7,CA,(905)337-9381,43.4460067834401,-79.6876392761033,,,0
Precision Blades,1480965333,25 - 1200 Speers Road,,Oakville,ON,L6L 2X4,CA,289-837-4347,43.4488394136765,-79.6857448254016,,,0
SI VOUS PLAY SPORTS,1480964616,1561 THE QUEENSWAY,,TORONTO,ON,M8Z 1T8,CA,#,43.618107826087,-79.5393434782609,,,0
GOLF TOWN STORE 039-ETOBICOKE,1480964608,1561 THE QUEENSWAY,,TORONTO,ON,M8Z 1T8,CA,#,43.618107826087,-79.5393434782609,,,0
RUNNING ROOM #075 BEDFORD,1480964459,3065 BLOOR STREET WEST,,TORONTO,ON,M8X 1C6,CA,410-317-4218,43.6469029411765,-79.5135505882353,,,0
Club De Golf Le Mirage,1480964911,3737 Chemin Martin,,Terrebonne,QC,J6X 0B2,CA,450-477-7280,45.73512,-73.7217007258197,,,0
Mayfair Clubs,1480965274,50 Steelcase Rd East,,Markham,ON,L3R 1E8,CA,905-475-1150,43.8197734120111,-79.3485480242421,,,0
Club De Golf Terrebonne,1480965091,3555 Chemin Martin,,Terrebonne,QC,J6X 0B2,CA,450-477-1817,45.73512,-73.7251837974684,,,0
GOLF TOWN STORE 003 - WOODBRIDGE,1480964255,4783 YONGE ST.,,WILLOWDALE,ON,M2N 5M5,CA,(905)946-5533,43.7608433333333,-79.4107566666667,,,0
SPORT CHEK LANSDOWNE,-671998700,"1250 South Service Road, Unit 150",,Mississauga,ON,L5E 1V4,CA,9058917474,43.59511,-79.56838,,,0
EUROPE BOUND-OAKVILLE,1480965960,166 SOUTH SERVICE ROAD,,OAKVILLE,ON,L6J 2X5,CA,410-317-4218,43.4556002389262,-79.6894343747585,,,0
CANADA RUGBY SHOP,1480965858,1039 NORTH SERVICE RD. E,,OAKVILLE,ON,L6H 1A6,CA,(905)842-8530,43.4714213208888,-79.6763045808786,,,0
Stonehouse Golf Management Inc,1480965388,44 Apex Rd,,Toronto,ON,M6A 2V2,CA,1-416-780-2150,43.7157396967072,-79.4588670718819,,,0
RUNNING ROOM #087 AURORA,1480964590,4984 YONGE STREET,,TORONTO,ON,M2N 2H1,CA,#,43.7657461290323,-79.4120103225806,,,0
CORBETT'S SOURCE FOR SPORTS,1480965825,450 S. SERVICE RD. WEST,,OAKVILLE,ON,L6K 2H4,CA,(905)337-9381,43.4395992238029,-79.7073692258905,,,0
SPORT MART KAMLOOPS,-671998645,130 NORTH QUEEN STREET,,TORONTO,ON,M8Z 2E4,CA,410-317-4218,43.6200371428571,-79.5512171428571,,,0
FOOT LOCKER CANADA-99016,1480964658,25 THE WEST MALL; PO Box Suite 9,,ETOBICOKE,ON,M9C 1B8,CA,#,43.6097237044592,-79.5608082726123,,,0
SPORT MART MISSISSAUGA,-671998594,"181 Norht Queen Street, Unit C4",,Etobicoke,ON,M9C 1A7,CA,410-317-4218,43.6166098,-79.5552688,,,0
Atmosphere Banff #171,1480964363,"270 North Service Road West, Unit C",,Oakville,ON,L6M 2R8,CA,905-338-7224,43.4472108,-79.7029425,,,0
NATIONAL SPORTS CENTRE,1480964233,210 N. SERVICE RD.,,OAKVILLE,ON,L6M 2Y2,CA,(905)946-5533,43.45069,-79.70109,,,0
Sport Chek,-1196550209,3401 Dufferin Street,,Yorkdale,ON,M6A 2T9,CA,(416) 787-1641,43.72466,-79.45711,,,0
SPORT MART ST. ALBERT,-671998604,1550 Upper James Street,,Hamilton,ON,L9B 1K3,CA,410-317-4218,43.2041657142857,-79.8923228571429,,,0
SPORT CHEK SARNIA,-671998733,3401 Dufferin Street,,Toronto,ON,M6A 2T9,CA,416-255-2391,43.72466,-79.45711,,,0
SPORT CHEK CALGARY,-671998742,3401 Dufferin Street,,Toronto,ON,M6A 2T9,CA,416-787-1641,43.72466,-79.45711,,,0
SPORT MART SPRUCE GROVE,-671998819,1550 UPPER JAMES ST,,HAMILTON,ON,L9B 1K3,CA,#,43.2041657142857,-79.8923228571429,,,0
Sport Chek,-1196550990,"Unit # B1, 167 North Queen Street",,Etobicoke,ON,M9C 1A7,CA,(416) 621-6796,43.61819,-79.55765,,,0
Sportchek Lloydminster Power Centre,-671998558,"167 North Queen Street, Unit # B1",,Etobicoke,ON,M9C 1A7,CA,(416) 621-6796,43.61819,-79.55765,,,0
All Rite Inc,1480966114,10 Bertal rd.,,Toronto,ON,M6M 4M4,CA,#,43.6920262806955,-79.4893913954114,,,0
Sport Chek,-1196550994,"3465 Wye Croft Road, Unit B Bldg B3",,Oakville,ON,L6L 0B6,CA,(905) 847-9445,43.396303442623,-79.7477432786885,,,0
Sportchek Shawnessy Town Centre #24,-671998561,"3465 Wye Croft Road, Unit B Bldg B3",,Oakville,ON,L6L 0B6,CA,(905) 847-9445,43.396303442623,-79.7477432786885,,,0
Rocky Crest Golf Club,1480964795,270 North Service Rd W,,Oakville,ON,L6M 2R8,CA,#,43.4475922333711,-79.7063210153497,,,0
Mississauga Golf & CC,1480965386,1725 Mississauga Rd,,Mississauga,ON,L5H 2K4,CA,1-905-278-4857,43.54955,-79.62011,,,0
Bayview Golf & Country Club,1480965300,25 Fairway Heights Drive,,Thornhill,ON,L3T 3X1,CA,905-889-4833-345,43.80969,-79.37633,,,0
ABSOLUTE SOCCER,1480965837,4104 FAIRVIEW ST,,BURLINGTON,ON,L7L 4Y8,CA,(905)639-9866,43.3627974924144,-79.7764599678456,,,0
AL'S SOURCE FOR SPORTS,1480965836,3485 FAIRVIEW STREET,,BURLINGTON,ON,L7N 2R4,CA,(905)634-8888,43.3578369005239,-79.7817924102466,,,0
DUKE'S SOURCE FOR SPORTS,1480965504,3876 BLOOR ST W.,,ETOBICOKE,ON,M9B 1L3,CA,(416)233-2011,43.64039,-79.54172,,,0
NB #3039-BURLINGTON,1480965895,775 WOODVIEW RD.,,BURLINGTON,ON,L7N 3S1,CA,905-632-6641,43.3561414285714,-79.7847508163265,,,0
RUNNING ROOM 208 - DES MOINES,1480964478,"3300 FAIRVIEW STREET,  UNIT 6C",,BURLINGTON,ON,L7N 3N7,CA,410-317-4218,43.353245570678,-79.7873053400193,,,0
Cherry Downs Golf & Country Club,1480964710,1333 Dorval Drive,,Oakville,ON,L6M 4G2,CA,905-844-1800,43.4490071428571,-79.7117971428571,,,0
RUNNING ROOM #084 RIVERBEND SQ,1480964584,SHERIDAN MALL,,MISSISSAUGA,ON,L5K 1T9,CA,#,43.52216,-79.65066,,,0
BIG KAHUNA SPORT COMPANY,1480965996,4129 HARVESTER RD. UNIT B,,BURLINGTON,ON,L7L 5M3,CA,#,43.3665890401112,-79.7791191678858,,,0
Sport Chek,-1196550401,777 Guelph Line,,Burlington,ON,L7R 3N2,CA,(905) 637-6868,43.3464639130435,-79.7963565217391,,,0
SPORT CHEK CONESTOGA,-671998673,777 Guelph Line,,Burlington,ON,L7R 3N2,CA,905-637-6868,43.3464639130435,-79.7963565217391,,,0
2 Brothers Clothing,1480965105,233 Kent St W,,Lindsay,ON,K9V 2Z1,CA,705-878-5111,44.3532490909091,-78.7444872727273,,,0
Running Room #100 Edmonton,1480964746,"615 Orwell Street, B-1",,Mississauga,ON,L5A 2W4,CA,#,43.589416049446,-79.5956094862138,,,0
Hatworld Div of GCO Canada Inc.,1480964172,"615 Orwell Street, B-1",,Mississauga,ON,L5A 2W4,CA,317-333-5212,43.589416049446,-79.5956094862138,,,0
Emille Shoes Ltd,1480965090,2394 Fairview St,,Burlington,ON,L7R 2C4,CA,905-632-9688,43.3446555667624,-79.8008403665395,,,0
Drury Lane Physiotherapy,1480965282,2250 Fairview Street,,Burlington,ON,L7R 4C7,CA,905-631-7779,43.3417900936416,-79.8046343812763,,,0
NB #3027-MISSISSAUGA EAST,1480965888,2050 DUNDAS STREET E.,,MISSISSAUGA,ON,L4X 1L9,CA,905-270-1107,43.6232410526316,-79.5689594736842,,,0
FOOT LOCKER CANADA-99002,1480964647,2050 Dundas Street East,,Mississauga,ON,L4X 1L9,CA,#,43.6232410526316,-79.5689594736842,,,0
Skiis LTD,1480965305,"1945 Dundas Street E, Ste 210",,Mississauga,ON,L4X 2T8,CA,905-896-1206,43.621144,-79.571159,,,0
Team Home Run Sports ON. LTD,1480965055,1911 Dundas St East,,MIssissauga,ON,L4X 1M1,CA,905-232-1048,43.6206085,-79.571717875,,,0
Team Home Run Sports ON. LTD.,1480966255,1911 Dundas St E,,Mississauga,ON,L4X 1M1,CA,905-232-1048,43.6206085,-79.571717875,,,0
Home Run Sports Ont Ltd,1480964908,1911 Dundas Street East,,Mississauga,ON,L4X 1M1,CA,905-232-1048,43.6206085,-79.571717875,,,0
SPORTS EXPERTS #529,1480965569,"100 BOUL BRIEN, LOCAL #25",,REPENTIGNY,QC,J6A 5N4,CA,(450)581-3220,45.7425868,-73.4585954,,,0
GOLF TOWN STORE 004 - CALGARY,1480964256,1770 DUNDAS ST.,,MISSISSAUGA,ON,L4X 1L8,CA,(905)946-5533,43.61743,-79.57502,,,0
LE BARON OUTDOOR PRODUCTS-MARKHAM,1480965963,1590 DUNDAS ST,,MISSISSAUGA,ON,L4X 2Z2,CA,410-317-4218,43.61408,-79.57859,,,0
GOLF TOWN STORE 011 - SURREY,1480964263,3265 HWY 7 EAST,,MARKHAM,ON,L3R 3P9,CA,905-479-6978,43.8517320481022,-79.3493732660854,,,0
PLAY IT AGAIN  - NORTH YORK,1480965503,5863 YONGE ST.,,NORTH YORK,ON,M2M 3T9,CA,(416)222-5713,43.7854367605634,-79.4169305633803,,,0
KAWARTHA LAKE SPORTS INC.,1480965754,370 KENT ST.,,LINDSAY,ON,K9V 6G8,CA,(705)878-8733,44.3506326666667,-78.7573386666667,,,0
Sport Chek,-1196551005,"401 Kent Street West, Unit 37",,Lindsay,ON,K9V 4Z1,CA,705 324 6176,44.35011,-78.7597,,,0
Pierre Demers La Source du Sport,1480965047,494 Boulevard Lachapelle,,St. Jerome,QC,J7Z 3A4,CA,450-438-3841,45.7610196,-73.9922142,,,0
FS #3224 MISSISSAUGA,1480964640,"3135 Hwy 7 E., Bldg 1A",,Markham,ON,L3R 0T9,CA,#,43.8506275,-79.3545141666667,,,0
SPORT DEVAULT,1480966187,C.P. 172,,REPENTIGNY,QC,J6A 5J1,CA,#,45.7471776,-73.4548915,,,0
Sports Aux Puces - Repentigny,1480964949,125-4 De Lafayette,,Repentigny,QC,J6A 8K3,CA,450-581-2277,45.7473395,-73.4529119,,,0
Adam Cherry Enterprises Inc,1480964916,2500 Old Carriage Road,,Mississauga,ON,L5C 1Y7,CA,905-275-2505-237,43.5526941312593,-79.6415158202172,,,0
SPORT DEVAULT,1480965570,613 NOTRE-DAME,,REPENTIGNY,QC,J6A 2V3,CA,(450)581-5844,45.7487237074187,-73.4350664351743,,,0
SAIL PLEIN AIR #24,1480966126,2208 Industrial Street,,BURLINGTON,ON,L7P 0N6,CA,514-623-9432,43.3463957777706,-79.818327833336,,,0
Camco Sports Distributors Ltd,1480966184,12555 Tenth Line North,,Stouffville,ON,L4A 7Z6,CA,#,43.9780459,-79.2319504,,,0
Frank Marando Golf,1480965035,245 Markland Road,,Etobicoke,ON,M9C 1R1,CA,416-621-3400,43.6299033333333,-79.5810577777778,,,0
SPORT MART CONVENTRY,-671998580,"1200 Brant Street, Unit 4",,Burlington,ON,L7P 5C6,CA,410-317-4218,43.34264,-79.82367,,,0
ANGUS GLEN GOLF CLUB LIMITED,1480965948,10080 KENNEDY ROAD,,MARKHAM,ON,L6C 1N9,CA,410-317-4218,43.89958,-79.31937,,,0
"Disalvo Sports, Repentigny",1480966160,623 Blvd Iberville,,Repentigny,QC,J6A 2C5,CA,#,45.7536166666667,-73.4398466666667,,,0
GOLF TOWN CANADA,1480963839,90 Allstate Parkway,,MARKHAM,ON,L3R 6H3,CA,9054790343-223,43.85403625,-79.36797,,,0
Team I.L.A Sports,1480966250,3201 RR 6 2nd Line,,Hagersville,ON,N0A 1H0,CA,905-768-9199,43.0084131,-80.0613856,,,0
Team I.L.A Sports,1480965050,3201 RR 6 2nd Line,,Hagersville,ON,N0A 1H0,CA,905-768-9199,43.0084131,-80.0613856,,,0
Sport Chek,-1196550708,"Unit 2, 2460 Winston Churchill Blvd E",,Oakville,ON,L6H 6J5,CA,(905) 829-4721,43.521212,-79.6813119,,,0
Sports Distributors of Canada Limit,1480965029,1187 King Rd,,Burlington,ON,L7R 3X5,CA,905-637-3431,43.3265507536142,-79.839236455212,,,0
Hockey Experts #8812,1480964694,"2460 Winston Churchill Blvd, Unit 2",,Oakville,ON,L6H 6J5,CA,(905) 829-4721,43.52236625,-79.6810634375,,,0
CMS OAKVILLE,1480966016,"2460 Winston Churchill Blvd, Unit #",,Oakville,ON,L6J 4Z2,CA,905-829-4721,43.52236625,-79.6810634375,,,0
SPORT CHEK LYNDEN,-671998718,"2460 Winston Churchill Blvd,  Unit",,Oakville,ON,L6J 4Z2,CA,905-829-4721,43.52236625,-79.6810634375,,,0
SPORTCHEK WINSTON POWER CENTRE,-671998828,2460 WINSTON CHURCHILL BLVD.,,OAKVILLE,ON,L6J 4Z2,CA,(403)717-1480,43.52236625,-79.6810634375,,,0
SPORT CHEK WINSTON,-671998830,"2460 Winston Churchill Blvd,  Unit",,Oakville,ON,L6J 4Z2,CA,(403)717-1480,43.52236625,-79.6810634375,,,0
GOLF TOWN STORE 007 - RICHMOND,1480964259,3050 VEGA BLVD,,MISSISSAUGA,ON,L5L 5X8,CA,905-569-2088,43.5162079591837,-79.6904340816327,,,0
Mill Run Golf Club,1480965223,269 Durham Road 8,,Uxbridge,ON,L9P 1R1,CA,905-852-6212,44.1040183,-79.0999976,,,0
TETRAGON-TASSE,1480965849,2422 DUNWIN DR.; Unit 5,,MISSISSAUGA,ON,L5L 1J9,CA,(905)828-9803,43.531406848124,-79.6790521430414,,,0
NATIONAL SPORTS CENTRE,1480964229,9255 WOODBINE AVE.,,MARKHAM,ON,L6C 1Y9,CA,(905)946-5533,43.86803,-79.36278375,,,0
Sport Chek,-1196551033,9255 Woodbine Avenue,,Markham,ON,L6C 1Y9,CA,905-887-6012,43.86803,-79.36278375,,,0
SPORT MART COURTNEY,-671998588,"261 Oakwalk Drive, Unit 1",,Oakville,ON,L6H 6M3,CA,410-317-4218,43.4842253061224,-79.7204575510204,,,0
CHESSWOOD ARENA,1480965510,4000 CHESSWOOD DRIVE,,DOWNSVIEW,ON,M3J 2B9,CA,(416)675-7604,43.75721,-79.47506,,,0
Absolute Soccer - Oakville,1480965071,2015 Kingsridge Dr #6,,Oakville,ON,L6M 4Y7,CA,905-464-6386,43.4449929032258,-79.7578235483871,,,0
8th Orchard Golf Inc,1480965380,50 St Phillips,,Etobicoke,ON,M9P 2N6,CA,1-416-241-8538,43.7030746429961,-79.5319149194114,,,0
SPORT MART PETERBOROUGH,-671998585,"3900 Grand Park  Bld E, E1",,Mississauga,ON,L5B 4M6,CA,410-317-4218,43.5799699780896,-79.6463297621273,,,0
SPORT MART SUDBURY,-671998641,4141 DIXIE ROAD,,MISSISSAUGA,ON,L4W 1V5,CA,410-317-4218,43.6254612467473,-79.6065350291245,,,0
Wooden Sticks Golf Inc,1480965004,40 Elgin Park Drive,,Uxbridge,ON,L9P 1N2,CA,905-852-4379,44.0971,-79.12191,,,0
FOOT LOCKER CANADA-99025,1480964665,100 CITY CENTRE DRIVE; Space 2-940B,,MISSISSAUGA,ON,L5B 2C9,CA,#,43.59224,-79.63909,,,0
KENNY GOLF,1480964856,2388 JANE STREET,,DOWNSVIEW,ON,M3M 1A8,CA,(416)245-7361,43.73238,-79.51139,,,0
Granite Golf Club,1480965381,2699 Durham Rd 30,,Stouffville,ON,L4A 7X4,CA,1-905-6423-4416,44.002281,-79.2329922,,,0
BOYD'S SOURCE FOR SPORTS,1480965838,21 RINGWOOD DR.,,STOUFFVILLE,ON,L4A 8C1,CA,(905)640-6657,43.964840947222,-79.2744751146723,,,0
Silverstar Sports,1480965371,55 West Beaver Creek #4041,,Richmond Hills,ON,L4B 1K5,CA,1-905-882-0356,43.855634940652,-79.3912577589202,,,0
Todd McGrath Golf Enterprises,1480965357,7994 Yonge Street,,Thornhill,ON,L4S 1W3,CA,905-881-3000,43.8221089361702,-79.4258387234043,,,0
NB #3064-WESTON RD,1480965916,2625 WESTON ROAD,,NORTH YORK,ON,M6N 5H2,CA,410-317-4218,43.7117642857143,-79.5353742857143,,,0
SPORT MART ST. THOMAS,-671998812,"2625 Weston Rd., Unit 26",,North York,ON,M9N 3W2,CA,410-317-4218,43.7117642857143,-79.5353742857143,,,0
Golf Town 051 Sudbury,1480964642,2626 Weston Rd.,,North York,ON,M9N 3W2,CA,#,43.7118084615385,-79.5353953846154,,,0
GOLF TOWN STORE 039,1480964600,55 SQUARE ONE DRIVE,,MISSISSAUGA,ON,T6E 5P3,CA,#,43.5968867346939,-79.6415106122449,,,0
GOLF TOWN STORE 018 - WINNIPEG,1480964269,1100 GOLF LINKS ROAD,,HAMILTON,ON,L9K 1J8,CA,905-304-7405,43.228063392101,-79.9381525297229,,,0
BUCKEYE SOURCE FOR SPORTS,1480965749,12 BOLTON ST.,,BOBCAYGEON,ON,K0M 1A0,CA,(705)738-9283,44.5375288396212,-78.544650826114,,,0
Camco Sports Distributors,1480966200,"10800 Concession 5, RR1",,Uxbridge,ON,L9P 1R1,CA,#,44.21174,-78.99459,,,0
Sport Chek,-1196550941,"Unit #A03, 2445 Appleby Line",,Burlington,ON,L7L 0B6,CA,(905) 331-2560,43.40518,-79.80601,,,0
SPORT CHEK MEDICINE HAT,-671998772,"2445 Appleby Line, Unit #A03",,Burlington,ON,L7L 0B6,CA,9053312560,43.40518,-79.80601,,,0
Sport Chek,-1196550363,199 Rathburn Road W,,Mississauga,ON,L5B 4C1,CA,(905) 281-8422,43.5931635294118,-79.6484676470588,,,0
SPORT CHEK ERIN MILLS,-671998668,199 Rathburn Road,,Mississauga,ON,L5B 4C1,CA,905-281-8422,43.5931635294118,-79.6484676470588,,,0
CMS MISSISSAUGA,1480966017,199 Rathburn Road,,Mississauga,ON,L5B 4C1,CA,905-281-8422,43.5931635294118,-79.6484676470588,,,0
FORZANI GROUP LTD. (SPORTCHEK),-671998829,199 RATHBURN ROAD,,MISSISSAUGA,ON,L5B 4C1,CA,(403)717-1480,43.5931635294118,-79.6484676470588,,,0
NB #3026-MISSISSAUGA,1480965887,4500 DIXIE ROAD,,MISSISSAUGA,ON,L4W 1V7,CA,905-624-5077,43.63183,-79.61549,,,0
DiamondBack Golf Club,1480964702,"4500 Dixie Road, Unit 12A",,Mississauga,ON,L4W 1N2,CA,(905) 896-1340,43.63183,-79.61549,,,0
Wooden Sticks Golf Inc,1480966208,PO Box 848,,Uxbridge,ON,L9P 1N2,CA,#,44.1087384,-79.1237177,,,0
Sport Chek,-1196550113,"Unit 2, 14 Martindale Cres",,Ancaster,ON,L9K 1J9,CA,(905) 304-9234,43.22704,-79.94467,,,0
SPORT CHEK ORION GATE,-671998715,"14 Martindale Cres, Unit 2",,Ancaster,ON,L9K 1J9,CA,905-304-9234,43.2275069565217,-79.9447873913043,,,0
RUNNING ROOM #077 LANGFORD,1480964567,1457 MAIN STREET WEST,,HAMILTON,ON,L8S 1C9,CA,#,43.25763,-79.92381,,,0
SPORT MART AURORA,-671998586,"2181 Steeles Ave. West, Unit B1",,Toronto,ON,M3J 3N2,CA,410-317-4218,43.7847828,-79.4762258,,,0
Sport Chek,-1196550391,"Unit 117-8, 1 Promenade Circle",,Thornhill,ON,L4J 4P8,CA,(905) 707-0557,43.8070144405015,-79.4544620497332,,,0
Running Room #98,1480964784,3019 Appleby Line,,Burlington,ON,L7R 3X4,CA,#,43.4081342567568,-79.8100833108108,,,0
SPORTS EXPERTS #457,1480965560,900 BOUL. GRIGNON,,ST-JEROME,QC,J7Y 3S7,CA,(450)432-9400,45.7939258,-74.0181148,,,0
SPORT CHEK HYLAND#S,-671998670,"1 Promenade Circle , Unit 117-8",,Thornhill,ON,L4J 4P8,CA,905-707-0557,43.8092847218672,-79.4530416914421,,,0
Play It Again Sports Inc,1480965153,3450 Dundas Street,,Burlington,ON,L7M 4B8,CA,905-466-2624,43.38849,-79.82805,,,0
Icon Depot,1480966116,"40 Viceroy Rd, Unit 5",,Vaughan,ON,L4K 2L8,CA,#,43.7867159036145,-79.4799862650602,,,0
RUNNING ROOM #026 MERIVALE RD.,1480964455,"UNIT 130, 31 DISERA DR",,THORNHILL,ON,L4J 0A7,CA,905-764-7255,43.813433065234,-79.4538141470291,,,0
Canlan Ice Sports - Etobicoke,1480965189,1120 Martin Grove Rd,,Etobicoke,ON,M9W 4W1,CA,416-247-5742,43.70053,-79.57492,,,0
KAWARTHA LAKES OUTDOORS,1480964851,38 TAYLOR STREET,,BOBCAYGAEAN,ON,K0M 1A1,CA,(705)738-2248,44.3363898648649,-78.8634777027027,,,0
NATIONAL SPORTS CENTRE,1480964241,RR #1 CONCESSION #5,,UXBRIDGE,ON,L9P 1R1,CA,(905)946-5533,44.2026,-79.03724,,,0
CMS ERIN MILLS TOWN CENTRE,1480966007,"5100 Erin Mills Parkway, Unit #Y003",,Mississauga,ON,L5M 4Z5,CA,905-828-8341,43.55879,-79.70681,,,0
Sport Chek,-1196550344,"Unit D, 5100 Erin Mills Parkway",,Mississauga,ON,L5M 4Z5,CA,(905) 828-8341,43.55879,-79.70681,,,0
SPORT CHEK PARK ROYAL,-671998662,"5100 Erin Mills Parkway , Unit D",,Mississauga,ON,L5M 4Z5,CA,905-828-8341,43.55879,-79.70681,,,0
Canada Cross Dock,1480964643,105 Iron Street,,Toronto,ON,M9W 5L9,CA,#,43.6996041080589,-79.5806837017921,,,0
PLAY IT AGAIN - RICHMOND HILL,1480965845,9251 YONGE STREET,,RICHMOND HILL,ON,L4C 9T3,CA,(905)763-0777,43.852365,-79.4328491666667,,,0
SPORT MART CHURCHILL,-671998600,"9325 Younge Street, Unit 27",,Richmond Hill,ON,L4C 0A8,CA,410-317-4218,43.8537254545455,-79.4331827272727,,,0
NATIONAL SPORTS CENTRE,1480964242,2921 EGLINTON AVE W,,MISSISSAUGA,ON,L5M 6J3,CA,(905)946-5533,43.5510277,-79.7161249,,,0
Sport Chek,-1196550104,"Unit Y-2, 9350 Yonge Street",,Richmond Hill,ON,L4C 5G2,CA,(905) 508-1917,43.8544788636364,-79.4333481818182,,,0
SPORT CHEK BARRIE,-671998702,"9350 Yonge Street, Unit Y-2",,Richmond Hill,ON,L4C 5G2,CA,905-508-1917,43.8544788636364,-79.4333481818182,,,0
Canlan Ice Sports - York University,1480965190,989 Murray Ross Parkway,,North York,ON,M3J 3M4,CA,416-661-5900,43.7738305886521,-79.5151961247422,,,0
HAMILTON GOLF & COUNTRY CLUB,1480965840,232 GOLF LINKS ROAD,,ANCASTER,ON,L9G 2N5,CA,(905)648-2294,43.22147,-79.97713,,,0
NATIONAL SPORTS CENTRE,1480964236,2160 HIGHWAY #7 WEST,,CONCORD,ON,L4K 1W6,CA,(905)946-5533,43.8025563,-79.4962535,,,0
NB #3032-MISSISSAUGA GOLF DOME,1480965889,5750 DATSUN ROAD,,MISSISSAUGA,ON,L4W 1H2,CA,905-564-4800,43.6483379111341,-79.6439934950711,,,0
Sport Chek #235,-671998540,300 des Cedres,,Ste. Sophie,QC,J5J 2T6,CA,450-476-9001,45.8171998,-73.9520446,,,0
SPORT MART NOTHGATE,-671998606,"600 Matheson Blvd. W., Unit 4",,Mississauga,ON,L5R 4B8,CA,410-317-4218,43.6116605712436,-79.6862511280791,,,0
CHAMPS CANADA,1480963842,230 BARMAC ROAD,,TORONTO,ON,M9L 2Z3,CA,416-748-4226,43.7642154432823,-79.5473435862699,,,0
Hockey Experts #8814,1480964695,"850 Matheson Blvd West, Unit 4",,Mississauga,ON,L5V 0B4,CA,#,43.6054,-79.69338,,,0
FOOT LOCKER CANADA INC.,1480964169,230 BARMAC ROAD,,TORONTO,ON,M9L 2Z3,CA,#,43.7642154432823,-79.5473435862699,,,0
RUNNING ROOM #015 CALLINGWOOD,1480964556,55 Interchange Way Unit 4,,Vaughan,ON,L4K 5W3,CA,905-886-8971,43.7894050567207,-79.5262467892737,,,0
Accolade Promotion Group,1480964174,"55 Interchange Way, Unit 4",,Vaughan,ON,L4K 5W3,CA,905-761-1241,43.7894050567207,-79.5262467892737,,,0
Sport Chek,-1196550791,"Unit # 1, 785 Britannia Road West",,Mississauga,ON,L5V 2Y1,CA,(905) 542-9595,43.6263,-79.67949,,,0
Sport Chek,-1196550643,"Unit #A22A, 500 Rexdale Blvd",,Toronto,ON,M9W 6K5,CA,(416) 746-5073,43.71758,-79.59669,,,0
SPORT CHEK SOUTHLAND,-671998682,"500 Rexdale Blvd, Unit #A22A",,Toronto,ON,M9W 6K5,CA,416-746-5073,43.71758,-79.59669,,,0
SPORTSWEAR SHACK,1480965512,200 QUEENS PLATE DRIVE,,TORONTO,ON,M9W 6Y9,CA,(416)744-4000,43.72047,-79.59451,,,0
PHL-CrossIron Mills,1480964768,5945 Latimer Dr,,Mississauga,ON,L5V 0B7,CA,#,43.60822571721,-79.6976871469062,,,0
Golf Town #54,1480964742,12808 Warden Avenue,,Stouffville,ON,L4A 7X5,CA,905-888-1955,43.9615113513514,-79.3557986486486,,,0
GOLF TOWN STORE 019 - ST.LEONARD,1480964270,785 BRITANNIA ROAD WEST,,MISSISSAUGA,ON,L5V 2Y1,CA,905-567-9647,43.6116972727273,-79.6961372727273,,,0
SPORT CHEK SAINT JOHN,-671998701,"785 Britannia Road West, Unit # 1",,Mississauga,ON,L5V 2Y1,CA,9055429595,43.6116972727273,-79.6961372727273,,,0
GOLF TOWN STORE 008 - POINTE CLAIRE,1480964260,55 COLOSSUS DR.,,WOODBRIDGE,ON,L4L 9J8,CA,905-264-8809,43.7870086459673,-79.5427363188193,,,0
Eagle Ridge Golf Club,1480964714,5407 Regional Road 25,,Milton,ON,L9T 2X5,CA,905-878-6222,43.4762991,-79.8196116,,,0
SPORT MART-VAUGHN,-671998820,139-30 FAMOUS AVE,,WOODBRIDGE,ON,L4L 9M3,CA,410-317-4218,43.7867,-79.54412,,,0
SPORT MART MILLWOODS,-671998605,"30 Famous Ave, Unit 139",,Woodbridge,ON,L4L 9M3,CA,410-317-4218,43.7875867840124,-79.5444917849655,,,0
Emerald Hills Golf Club,1480964715,12657 Woodbine Avenue,,Gormley,ON,L0H 1G0,CA,905-888-1219,43.9519254766182,-79.3807226466398,,,0
SAIL PLEIN AIR - #22 VAUGHAN,1480966111,"137 Chrislea Road, Unit 1",,VAUGHAN,ON,L4L 8N6,CA,#,43.7938408209325,-79.5442913058036,,,0
SPORT CHEK ANCASTER,-671998719,"7850 Weston Road, Building B",,Vaughan,ON,L4L 9N8,CA,9052642848,43.7920573340947,-79.5481546668325,,,0
Sport Chek,-1196550836,"Building B, 7850 Weston Road",,Vaughan,ON,L4L 9N8,CA,(905) 264-2848,43.7920573340947,-79.5481546668325,,,0
SPORT CHEK WOODBRIDGE,-671998831,"7850 Weston Road, Building B",,Vaughan,ON,L4L 9N8,CA,(403)717-1480,43.7920573340947,-79.5481546668325,,,0
T LITZENS SPORTS,1480965835,433 OFIELD ROAD S.,,DUNDAS,ON,L9H 5E2,CA,(905)628-3344,43.2877974065763,-79.9765887979459,,,0
Sport Chek,-1196550082,636 Marcove Road,,Mississauga,ON,L5T 2R7,CA,902-742-3110,43.6509224489796,-79.6859089795918,,,0
NATIONAL SPORTS CENTRE,1480964245,636 MARCOVE RD,,MISSISSAUGA,ON,L5T 2R7,CA,(905)946-5533,43.6509224489796,-79.6859089795918,,,0
FOOT LOCKER CANADA-99001,1480964646,636 MARCOVE RD.,,MISSISSAUGA,ON,L5T 2R7,CA,#,43.6509224489796,-79.6859089795918,,,0
FORZANI GROUP LTD,1480964175,636 MARCOVE RD.,,MISSISSAUGA,ON,L5T 2R7,CA,(403)717-1480,43.6509224489796,-79.6859089795918,,,0
FGL Sports Ltd.,1480963835,636 MARCOVE RD.,,MISSISSAUGA,ON,L5T 2R7,CA,403-717-1400,43.6509224489796,-79.6859089795918,,,0
Running Room #098 Charlottetown,1480964748,636 MARCOVE RD.,,MISSISSAUGA,ON,L5T 2R7,CA,#,43.6509224489796,-79.6859089795918,,,0
Running Room #108 Montreal,1480964747,636 MARCOVE RD.,,MISSISSAUGA,ON,L5T 2R7,CA,#,43.6509224489796,-79.6859089795918,,,0
RUNNING ROOM #005 BROADWAY,1480964434,636 MARCOVE ROAD,,MISSISSAUGA,ON,L5T 2R7,CA,410-317-4218,43.6509224489796,-79.6859089795918,,,0
SPORT MART - ST. THOMAS,-671998571,636 MARCOVE RD.,,MISSISSAUGA,ON,L5T 2R7,CA,#,43.6509224489796,-79.6859089795918,,,0
GOLF TOWN STORE 005 - S. EDMONTON,1480964257,636 MARCOVE RD.,,MISSISSAUGA,ON,L5T 2R7,CA,410-317-4218,43.6509224489796,-79.6859089795918,,,0
GOLF TOWN STORE 038-KINGSTON,1480964609,363 MARCOVE RD,,MISSISSAUGA,ON,L5T 2R7,CA,#,43.64978,-79.68718,,,0
WESTWOOD ARENA PRO SHOP,1480965509,90 WOODBINE DOWNS BLVD.,,REXDALE,ON,M9W 5S6,CA,(416)675-7604,43.7393443835616,-79.6078905479452,,,0
WYLDEWOOD GOLF AND COUNTRY CLUB,1480965949,6198 TRAFALGAR RD,,HORNBY,ON,L0P 1E0,CA,410-317-4218,43.53945,-79.78646,,,0
TORONTO PRO,1480965824,27 ROYTEC RD. BLDG.,,VAUGHAN,ON,L4L 8E3,CA,(905)264-4333,43.8032758333333,-79.5496266666667,,,0
Greystone Golf Club,1480964722,14001 Concession #5,,Stouffville,ON,L4A 7X5,CA,905-888-1100,44.02689,-79.31933,,,0
PHL-Mayfield,1480964766,1 Bass Pro Mills Dr,,Vaughan,ON,L4K 5W4,CA,#,43.82275,-79.53323,,,0
SPORT CHEK COBOURG,-671998574,946 EDGELEY BLVD,,VAUGHN,ON,L4K 4V4,CA,#,43.8174076470588,-79.5392179411765,,,0
FRASERS CLOTHES SHOPS,1480966206,PO BOX 550,,Renfrew,ON,K7V 2B1,CA,613-432-2211,45.47012,-76.68743,,,0
RUNNING ROOM #032 OAKVILLE,1480964462,"3300 RUTHERFORD ROAD, HIGHLAND CENT",,VAUGHAN,ON,L4K 5Z2,CA,410-317-4218,43.8300361,-79.5410251,,,0
Caledon Woods Golf Club,1480964709,13300 Leslie Street,,Richmond Hill,ON,L4E 1A2,CA,905-888-9612,43.96346,-79.4082,,,0
Mystic Country Club,1480966106,1707 Jerseyville Rd West,,Ancaster,ON,L0R 1R0,CA,905-304-3344,43.20693,-80.06476,,,0
Sport Chek,-1196550818,"J2,  1150 Steeles Avenue East",,Milton,ON,L9T 2M3,CA,(905) 693-8546,43.50431,-79.84123,,,0
Grandview Golf Club,1480964719,20 Lloyd Street,,Woodbridge,ON,L4L 2B9,CA,905-856-4317,43.7919577452144,-79.5884820704328,,,0
Le Maitre Golf Club,1480964732,2787 Dunmark Road,,Alberton,ON,L0R 1A0,CA,905-304-0313,43.18349,-80.08884,,,0
BURNSVILLE RUNNING ROOM,1480964224,109-7455 CURREL BLVD,,WOODBURY,MN,55125,CA,(780)439-3099,43.783333,-79.6,,,0
Brampton Battalion Hockey Club,1480965320,7575 Kennedy Rd,,Brampton,ON,L6W 4T2,CA,905-874-2393,43.6660730816371,-79.7091424818241,,,0
FRASERS CLOTHES SHOPS,1480964992,254-258 Raglan St,,Renfrew,ON,K7V 4B1,CA,613-432-2211,45.4792581538462,-76.6932753846154,,,0
The National Golf Club of Canada,1480964880,134 Clubhouse Road,,Woodbridge,ON,L4L 2W2,CA,416-798-4900-228,43.8124454729989,-79.5763230743558,,,0
Camco Sports Distributors,1480964943,10800 5th Conc RR1,,Uxbridge,ON,L9P 1R1,CA,905-852-7400-225,44.1706971543086,-79.2003447895792,,,0
Milton Distribution Centre,1480964629,"2969 Argentia Road, unit 1",,Mississauga,ON,L5N 0A2,CA,#,43.5986752083026,-79.7826592468492,,,0
SPORT MART SARINA,-671998593,"3135 Argentia Rd., Unit 3G",,Mississauga,ON,L5N 8E1,CA,410-317-4218,43.5963713979355,-79.7852560497046,,,0
Sport Chek #367,-671998546,"547 Steeles Avenue, Unit 1B",,Brampton,ON,L6W 4P9,CA,(905) 456-7161,43.6769392,-79.7186085,,,0
SPORT CHEK PEN CENTRE,-671998710,"547 Steeles Avenue,  Unit 1B",,Brampton,ON,L6W 4P9,CA,9054567161,43.6769392,-79.7186085,,,0
Sport Chek,-1196550823,"Unit 1B, 547 Steeles Avenue",,Brampton,ON,L6W 4P9,CA,(905) 456-7161,43.6769392,-79.7186085,,,0
WARD & PATCH,1480965515,13270 YONGE ST. LOWER UNIT,,RICHMOND HILL,ON,L4E 3L6,CA,(416)769-4137,43.951238,-79.45624,,,0
RUNNING ROOM #068 FREDERICTON,1480964585,TEN/STEELES PLAZA,,BRAMPTON,ON,L6W 4J4,CA,#,43.6666914,-79.7325835,,,0
SPORT MART DURHAM,-671998592,"499 Main Street S, Unit 138",,Brampton,ON,L6Y 1N7,CA,410-317-4218,43.66753,-79.73547,,,0
SPORT CHEK CHATHAM,-671998709,"55 ON Street South,  Unit D18/19",,Milton,ON,L9T 2M3,CA,9056938546,43.5095746,-79.8722482,,,0
Sport Chek #298,-671998545,"55 Ontario Street South, Unit D18/1",,Milton,ON,L9T 2M3,CA,(905) 693-8546,43.51734625,-79.876235,,,0
RUNNING ROOM #026 MERIVALE RD.,1480964598,"25 FIRST COMMERCE DRIVE, UNIT 1",,AURORA,ON,L4G 0G2,CA,#,44.0125053044056,-79.4146421473188,,,0
SPORT CHEK BOLTON,-671998573,52 FIRST COMMERCE DRIVE,,AURORA,ON,L4G 0H5,CA,#,44.0130832446007,-79.415047286451,,,0
FOOT LOCKER CANADA-99009,1480964654,1215 Maple Avenue,,Milton,ON,L9T 0A5,CA,#,43.5385906703732,-79.8667389385757,,,0
Sport Chek,-1196550513,"Unit 0124A and Kiosk 0702K, 25 Peel Centre Drive",,Brampton,ON,L6T 3R5,CA,(905) 789 8965,43.7155387,-79.7220217,,,0
RUNNING ROOM #004 DENMAN,1480964433,"25 Peel Centre Drive , Unit 169",,Brampton,ON,L6T 3R5,CA,410-317-4218,43.7174266666667,-79.7234633333333,,,0
FOOT LOCKER CANADA-99023,1480964664,25 PEEL CENTRE DRIVE; Space 231A,,BRAMPTON,ON,L6T 3R5,CA,#,43.7174266666667,-79.7234633333333,,,0
Running Room #14 Kinsmen,1480964800,"48 Peel Centre Dr, Unit B",,Brampton,ON,L6T 0E2,CA,#,43.71669,-79.72429,,,0
NATIONAL SPORTS CENTRE,1480964238,295 QUEEN ST. E.,,BRAMPTON,ON,L6W 3R1,CA,(905)946-5533,43.7026571,-79.7382729,,,0
SPORTS UNLIMITED BRAMPTON,1480965831,12 RUTHERFORD ROAD S.,,BRAMPTON,ON,L6W 3J1,CA,(905)455-5566,43.70096,-79.74146,,,0
GOLF TOWN STORE 033-DARTMOUTH,1480964612,9145 AIRPORT ROAD,,BRAMPTON,ON,L6S 0B8,CA,#,43.7470975065161,-79.7004383058211,,,0
NB #3036-BRAMPTON,1480965891,4 KENNEDY RD. S.,,BRAMPTON,ON,L6W 3E1,CA,905-452-6360,43.69547,-79.749305,,,0
FORZANI GROUP LTD,1480964639,4 KENNEDY RD. S.,,BRAMPTON,ON,L6W 3E1,CA,#,43.69547,-79.749305,,,0
FS #3223 NORTH YORK,1480964635,505 Industrial Drive,,Milton,ON,L9T 5A5,CA,#,43.5166332634238,-79.9031120022453,,,0
FOOT LOCKER CANADA-99006,1480964651,505 Industrial Drive,,Milton,ON,L9T 5A5,CA,#,43.5166332634238,-79.9031120022453,,,0
FOOT LOCKER CANADA-99003,1480964648,505 Industrial Drive,,Milton,ON,L9T 5A5,CA,#,43.5166332634238,-79.9031120022453,,,0
Sport-Chek International 2000 LTD,-671998572,505 Industrial Drive,,Milton,ON,L9T 5A5,CA,#,43.5166332634238,-79.9031120022453,,,0
GOLF TOWN STORE 013 ECOM,1480964548,"15340 Bayview Ave, Unit 1",,Aurora,ON,L4G 7J1,CA,410-317-4218,44.0078246575343,-79.4444417808219,,,0
National Pines Golf Club,1480964733,21 Golf Links Drive,,Aurora,ON,L4G 7Y4,CA,905-713-6400,43.9908,-79.46725,,,0
Option Tennis Inc,1480965259,895 des Laurentides,,Piedmont,QC,J0R 1K0,CA,438-822-2811,45.911251,-74.146701,,,0
SOCCER NATION,1480964833,38 WELLINGTON STREET EAST; UNIT #1,,AURORA,ON,L4G 1H5,CA,905-726-3222,44.00007,-79.46577,,,0
Delta Sherwood Inn,1480964736,14700 Bathurst Street,,King City,ON,L7B 1K5,CA,905-713-6875,43.980548035467,-79.4913189285145,,,0
REC CYCLE SPORTS,1480965857,15483 YOUNGE STREET,,AURORA,ON,L4G 1P8,CA,(905)841-5757,44.0054909090909,-79.4689790909091,,,0
Lake Chesdin,1480964730,9689 Dublin Line,,Milton,ON,L9T 2X7,CA,905-875-3808,43.52555,-79.92606,,,0
Running Room #091 Crossiron Mills,1480964699,9689 Dublin Line,,Milton,ON,L9T 2X7,CA,905-875-3808,43.52555,-79.92606,,,0
SPORT MART BRAMPTON,-671998821,"70 Great Lakes Drive, Unit 147",,BRAMPTON,ON,L6R 2K7,CA,410-317-4218,43.7317818478261,-79.7624351086957,,,0
SportChek Big Bend Crossing #246,-671998562,80 Great Lakes Drive; Unit 112,,Brampton,ON,L6R 2K7,CA,905-792-1830,43.7318802173913,-79.7626041304348,,,0
Sport Chek,-1196550995,"Unit 112, 80 Great Lakes Drive",,Brampton,ON,L6R 2K7,CA,905-792-1830,43.732195,-79.763145,,,0
FORZANI GROUP LTD,1480964252,1111 DAVIS DR.,,NEWMARKET,ON,L3T 7V1,CA,(905)946-5533,44.0661042857143,-79.4305711428571,,,0
SPORTS BRAMPTON,1480965959,10086 HURONTARIO ST #10,,BRAMPTON,ON,L7A 1E5,CA,410-317-4218,43.7077831881962,-79.789493992543,,,0
RICHARD SICARD-SALESMAN SAMPLES,1480965924,955 ST GABRIEL,,STE-ADELE,QC,J8B 1J3,CA,450-229-4912,45.9381865306122,-74.1190583673469,,,0
Clublink Corporation,1480964930,15675 Dufferin Street,,King City,ON,L7B 1K5,CA,905-841-3730-...,43.9989739178998,-79.5202349301448,,,0
Eagle Creek Golf Club,1480964713,15675 Dufferin Street,,King City,ON,L7B 1K5,CA,905-841-9262,43.9989739178998,-79.5202349301448,,,0
Country Club,1480964712,9807 Regional Road 25,,Halton Hills,ON,L9T 2X7,CA,905-876-3666,43.5561444,-79.9428634,,,0
ALL PRO SPORTS,1480965862,38 PARKSIDE DRIVE,,NEWMARKET,ON,L3Y 4R6,CA,(905)898-5481,44.0551829411765,-79.4725794117647,,,0
COLLEGE SOURCE FOR SPORTS,1480965652,324 COLBORNE ST. E.,,BRANTFORD,ON,N3S 3M9,CA,(519)752-4150,43.1388799480821,-80.2575010902757,,,0
FGL Sports Ltd.,1480964816,PO Box 2663,,Harrisburg,PA,17105-2663,CA,#,43.22644,-80.19946,,,0
Champs Canadian Financial Services,1480964817,PO Box 2663,,Harrisburg,PA,17105-2663,CA,#,43.22644,-80.19946,,,0
Sport Chek,-1196550947,"Unit #HH4, 17600 Yonge Street",,Newmarket,ON,L3Y 4Z1,CA,(905) 952-0160,44.0570030769231,-79.4809084615385,,,0
SPORT CHEK GUELPH,-671998779,"17600 Yonge Street, Unit #HH4",,Newmarket,ON,L3Y 4Z1,CA,410-317-4218,44.0570030769231,-79.4809084615385,,,0
RUNNING ROOM #046 BURLINGTON,1480964471,17725 YONGE STREET NORTH,,NEWMARKET,ON,L3Y 7C1,CA,905-898-8110,44.0597743283582,-79.4815856716418,,,0
Sport Chek,-1196550110,84 Lynden Road,,Brantford,ON,N3R 6B8,CA,(519) 750-0101,43.1733746666667,-80.242096,,,0
SPORT CHEK MILTON,-671998714,84 Lynden Road,,Brantford,ON,N3R 6B8,CA,519-750-0101,43.1733746666667,-80.242096,,,0
SPORT MART VICTORIA,-671998643,"17940 Yonge Street, Unit 2",,Newmarket,ON,L3Y 8S4,CA,410-317-4218,44.06436,-79.48272,,,0
Brant Sports Excellence,1480966141,415 Fairview Drive,,Brantford,ON,N3R 7H3,CA,#,43.17202,-80.25066,,,0
SPORTS ZONE,1480965648,71 CHARNING CROSS,,BRANTFORD,ON,N3R 2H4,CA,(519)725-8643,43.16058,-80.268308,,,0
M&M SPORTS,1480965861,10 MOUNTAINVIEW RD. S,,GEORGETOWN,ON,L7G 4J9,CA,(905)877-8889,43.649380042628,-79.9023726385411,,,0
Sport Chek,-1196550954,"Unit #1, 12730 Highway 50",,Bolton,ON,L7E 4G1,CA,(905) 857-2090,43.8621281355932,-79.7139022033898,,,0
Sportchek Orion Gate #287,-671998548,"12730 Highway 50, Unit 1",,Bolton,ON,L7E 4G1,CA,(905) 857-2090,43.8621281355932,-79.7139022033898,,,0
FS #3222 BRAMPTON,1480964632,"12730 Highway 50, Unit 1",,Bolton,ON,L7E 4G1,CA,#,43.8621281355932,-79.7139022033898,,,0
SPORTS UNLIMITED-GEORGETOWN,1480965832,170 GUELPH ST,,GEORGETOWN,ON,L7G 4A7,CA,(905)455-5566,43.65053,-79.90824,,,0
Al's Shoe Factory,1480965089,135 King George Rd,,Brantford,ON,N3R 5K7,CA,519-759-3900,43.170931,-80.277013,,,0
Nobleton Lakes Golf Course Ltd,1480965236,125 Nobleton Lakes Drive,,Nobleton,ON,L0G 1N0,CA,905-859-4050,43.9351739034471,-79.6529202413822,,,0
Sports Experts #443,1480965793,2090 JOSEPH ST-CYR,,DRUMMONDVILLE,QC,J2C 8V6,CA,(819)477-4533,45.8786904697987,-72.5300011409396,,,0
INTERSPORT #689,1480965792,2090 Joseph St.-Cyr,,DRUMMONDVILLE,QC,J2C 8V6,CA,(819)474-8520,45.8786904697987,-72.5300011409396,,,0
Greyhawk Golf Club,1480964721,"11742 Tenth Line, RR#4",,Georgetown,ON,L7G 4S7,CA,905-877-8468,43.6709532,-79.9072765,,,0
La Zone Sports Excellence,1480965248,1340 Hebert,,Drummondville,QC,J2C 1Z8,CA,450-230-7291,45.8855674018845,-72.5005792150757,,,0
Blier Sport,1480966002,1340 AVE HEBERT,,Drummonville,QC,J2C 1Z8,CA,#,45.8855674018845,-72.5005792150757,,,0
SPORT ST. BO,1480966018,532 St. Joseph,,Drummondville,QC,J2C 2B9,CA,819-850-043,45.8936094594595,-72.5150872972973,,,0
CENTRE ICE SPORTS - BRADFORD,1480965848,152 HOLLAND ST. E,,BRADFORD,ON,L3Z 2B5,CA,(905)775-5777,44.1155755555556,-79.55919,,,0
Mercerie Caprice Inc,1480965321,453 Rue Notre Dame,,Joliette,QC,J6E 3H6,CA,450-756-6334,46.02395,-73.43913,,,0
JOLIETTE SPORT,1480965582,17 GAUTHIER SUD,,JOILIETTE,QC,J6E 4J3,CA,(450)759-1615,46.0329138873988,-73.433257766332,,,0
SPORT EXPERTS #492,1480965618,"1075 BOUL. FIRESTONE, Local 1649",,JOLIETTE,QC,J6E 6X6,CA,(450)756-1645,46.0327605,-73.4246143,,,0
Sports Experts #492,1480965331,1075 Boul Firestone,,Joliette,QC,J6E 6X6,CA,450-756-1645,46.0339740481213,-73.4260442694245,,,0
Club de Golf Fontainebleau,1480964716,"13448 Dublin Lane, RR#1",,Acton,ON,L7J 2L7,CA,519-853-4434,43.61937,-80.05064,,,0
INT 628,1480964969,74 Rue St. Vincent,,Ste-Agathe-Des-Monts,QC,J8C 2A6,CA,819-326-3480,46.0484669,-74.2884314,,,0
SPORTS EXPERTS #409,1480965581,450 BOUL. POLIQUIN,,SOREL,QC,J3P 7R5,CA,(450)746-1213,46.0232795,-73.1035262,,,0
Paris Sports Centre Inc,1480965283,19 Broadway Street West,,Paris,ON,N3L 2S3,CA,519-442-0766,43.1933736363636,-80.3855763636364,,,0
Paris Grand Golf Club Limited,1480966107,150 Paris Links Rd,,Paris,ON,N3L 3E2,CA,888-833-8787,43.2091818465844,-80.37559,,,0
Inn Course At Grandview,1480964717,15608 Regional Road 50,,Bolton,ON,L7E 3E5,CA,905-880-1400,43.9228598,-79.8013066,,,0
CAMBRIDGE SOURCE FOR SPORTS,1480965641,620 MAIN ST.,,CAMBRIDGE,ON,N1R 5S7,CA,(519)621-0265,43.3583662487061,-80.2863579763875,,,0
NORTH END SPORTS,1480965626,48 WOODSLEE,,PARIS,ON,N3L 4A5,CA,(519)252-5705,43.2147119309434,-80.3978105367828,,,0
SCOTT KERR,1480965661,210 GLEN VALLEY DRIVE,,CAMBRIDGE,ON,N1T 1R2,CA,(519)942-4891,43.3954442589232,-80.2776496430724,,,0
INTERSPORT #694,1480965797,3560 RUE LAVAL,,LAC MEGANTIC,QC,G6B 2X4,CA,(819)583-6734,45.5890862337662,-70.9046450649351,,,0
Running Room #111,1480964789,4805 7th Line,,Bond Head,ON,L0G 1B0,CA,#,44.08356390625,-79.70411625,,,0
RUNNING ROOM #038 SHERWOOD PARK,1480964603,HORTSLAN MARKET SQUARE EAST,,GUELPH,ON,N1G 4W2,CA,#,43.51385,-80.22049,,,0
FORZANNI GROUP LTD,1480964604,HORTSLAN MARKET SQUARE EAST,,GUELPH,ON,N1G 4W2,CA,#,43.51385,-80.22049,,,0
Otter Creek Golf Club,1480965045,275 James St. R.R. #1,,Otterville,ON,N0J 1R0,CA,519-879-9800,42.9174048484848,-80.6157618181818,,,0
BM #664,1480964996,971 Notre Dame,,Berthierville,QC,J0K 1A0,CA,450-836-7058,46.0790936716059,-73.1858757939692,,,0
Sport Chek,-1196550861,"Unit # 330, 355 Hespeler Road",,Cambridge,ON,N1R 6B3,CA,(519) 740-8574,43.3913107480432,-80.3228586917056,,,0
SPORT CHEK LOUGHEED MALL,-671998741,"355 Hespeler Road, Unit # 330",,Cambridge,ON,N1R 6B3,CA,5197408574,43.3917103505692,-80.3227625725806,,,0
North By Northwest,1480966171,"543 Conestoga Blvd, Unit 28",,Cambridge,ON,N1R 6T4,CA,#,43.402638759386,-80.319393092759,,,0
North By Northwest (913675 Ont Inc),1480965370,"543 Conestoga Blvd, Unit 27",,Cambridge,ON,N1R 6T4,CA,1-519-921-4492,43.402638759386,-80.319393092759,,,0
Sport Chek,-1196550931,"CRU#R1, 435 Stone Road West",,Guelph,ON,N1G 2X6,CA,(519) 824-4352,43.5168533333333,-80.2378733333333,,,0
Hockey Experts #8813,1480964307,"435 Stone Road West, Unit #R1",,Guelph,ON,N1G 2X6,CA,5198244352,43.5168533333333,-80.2378733333333,,,0
SPORT MART BURLINGTON,-671998591,"492 Edinburgh Rd. S, Unit B4",,Guelph,ON,N1G 4Z1,CA,410-317-4218,43.5217072,-80.2352855,,,0
NB #3076- CAMBRIDGE,1480965977,561 HESPLER ROAD,,CAMBRIDGE,ON,N1R 6J4,CA,#,43.4022207692308,-80.3261630769231,,,0
NATIONAL SPORTS CENTRE,1480964247,600 HESPELER RD.,,CAMBRIDGE,ON,N1R 8H2,CA,(905)946-5533,43.4044316833598,-80.32702483497,,,0
Cambridge Golf & Fashions,1480965319,611 Hespeler Rd,,Cambridge,ON,N1R 6J3,CA,519-622-3010,43.4048746153846,-80.3270284615385,,,0
VTR UNIFORMS,1480965655,199 VICTORIA RD. SOUTH,,GUELPH,ON,N1E 6T9,CA,(519)837-1272,43.55191,-80.22382,,,0
7806698 Canada Inc.,1480966282,"302, Route 117",,Mount Tremblant,QC,J8E 2X3,CA,#,46.117002037037,-74.5639890740741,,,0
Passion Sports,1480966037,302 rte 117,,Mt-Tremblant,QC,J8E 2X3,CA,#,46.117002037037,-74.5639890740741,,,0
Chasse et Peche Tremblant,1480965307,302 Route 117,,Mont Tremblant,QC,J8E 2X3,CA,819-425-0010,46.117002037037,-74.5639890740741,,,0
INTERSPORT #671,1480965791,348 RUE DE SAINT-JOVITE,,MONT-TREMBLANT,QC,J8E 2Z9,CA,(819)425-3421,46.1187857,-74.5693499,,,0
INTERSPORT #620,1480965783,1293 PRINCIPALE SUD,,L'ANNONCIATION,QC,J0T 1T0,CA,(819)275-3332,46.1241410526316,-74.4749484210526,,,0
Team L'Ame Du Sport,1480966256,504 Rue De Saint-Jovite,,Mt. Tremblant,QC,J8E 2Z9,CA,905-768-9199,46.119752,-74.577117,,,0
Team L'Ame Du Sport,1480965056,504 Rue De Saint-Jovite,,Mt. Tremblant,QC,J8E 2Z9,CA,905-768-9199,46.119752,-74.577117,,,0
T & T HOCKEY SHOP SOURCE FOR SPORTS,1480965654,8 CARDEN ST.,,GUELPH,ON,N1H 3A2,CA,(519)836-8631,43.5435590909091,-80.2492709090909,,,0
THE SOCCER FANATIC,1480964847,49 CORK STREET EAST,,GUELPH,ON,N1H 2W7,CA,(519)837-3372,43.5448424489796,-80.2499091836735,,,0
Team L'Ame Du Sport,1480966087,600 DES PASSE-TEMPS,,MT. TREMBLANT,QC,J8E 2T8,CA,410-317-4218,46.1265584319072,-74.5803722713628,,,0
L'AME DU SPORT,1480965947,600 DES PASSE-TEMPS,,MT. TREMBLANT,QC,J8E 2T8,CA,410-317-4218,46.1265584319072,-74.5803722713628,,,0
WHISTLE BEAR GOLF CLUB,1480965967,1850 WHISTLE BEAR GOLF CLUB,,CAMBRIDGE ONTARIO,ON,N1R 5S3,CA,#,43.3627399100278,-80.4047980645757,,,0
Sharpley Source for Sports,1480964909,206 Highland Street,,Haliburton,ON,K0M 1S0,CA,705-457-3933,45.0462253774485,-78.5091506557579,,,0
Play It Again Guelph,1480965081,218 Silver Creek Pkwy N,,Guelph,ON,N1H 7P8,CA,519-822-0990,43.5430822222222,-80.2847377777778,,,0
Hatworld Div of GCO Canada Inc.,1480964739,650 Rue Grande Allee,,Ville de Mont-Tremblant,QC,J8E 2L8,CA,819-425-9888,46.1437576,-74.5875629,,,0
SPORT MART MASONVILLE,-671998607,"4500 King Street, Unit 6",,Kitchener,ON,N2P 2G4,CA,410-317-4218,43.40534,-80.38933,,,0
OXFORD SOURCE FOR SPORTS,1480965639,102 - B TILLSON AVE,,TILLSONBURG,ON,N4G 3A1,CA,(519)539-7801,42.8666245,-80.723234,,,0
PHL-Boisbriand,1480964773,100 Sportsworld Dr,,Kitchener,ON,N2P 2J1,CA,#,43.4085617948718,-80.3930548717949,,,0