store_name,store_number,address,address2,city,state,zip_code,country,phone_number,latitude,longitude,store_hours,other_fields,coming_soon
American Signature Furniture - Alpharetta,,7461 N. Point Parkway,,Alpharetta,GA,30022,United States,(770) 336-8322,,,11:00 AM - 7:00 PM;,,0
American Signature Furniture - Altamonte Springs,,150 S SR 434 #1080,,Altamonte Springs,FL,32714,United States,(407) 571-0529,,,11:00 AM - 7:00 PM;,,0
American Signature Furniture - Bear,,301 Governors Place,,Bear,DE,19701,United States,(302) 838-5188,,,11:00 AM - 7:00 PM;,,0
American Signature Furniture - Brandon,,161 Brandon Town Center Drive,,Brandon,FL,33511,United States,(813) 315-1120,,,11:00 AM - 7:00 PM;,,0
American Signature Furniture - Buford,,3205 Woodward Crossing Blvd,,Buford,GA,30519,United States,(678) 318-1580,,,11:00 AM - 7:00 PM;,,0
American Signature Furniture - Camp Creek,,3755 Carmia Drive Suite 1000,,Atlanta,GA,30331,United States,(404) 344-3287,,,11:00 AM - 7:00 PM;,,0
American Signature Furniture - Daytona Beach,,1924 W Int'l Speedway  Blvd,,Daytona Beach,FL,32114,United States,(386) 944-0240,,,11:00 AM - 7:00 PM;,,0
American Signature Furniture - Duluth,,3900 Venture Drive,,Duluth,GA,30096,United States,(678) 718-1400,,,11:00 AM - 7:00 PM;,,0
American Signature Furniture - Fort Myers,,13711-2 South Tamiami Trail,,Fort Myers,FL,33912,United States,(239) 425-3699,,,11:00 AM - 7:00 PM;,,0
American Signature Furniture - Franklin,,1777 Galleria Blvd,,Franklin,TN,37067,United States,(615) 778-9557,,,11:00 AM - 7:00 PM;,,0
American Signature Furniture - Jacksonville,,"9400 Atlantic Blvd, Suite 100A",,Jacksonville,FL,32225,United States,(904) 421-0950,,,11:00 AM - 7:00 PM;,,0
American Signature Furniture - Kennesaw,,"840 Barrett Pkwy NW, Suite 250",,Kennesaw,GA,30144,United States,(678) 460-0290,,,11:00 AM - 7:00 PM;,,0
American Signature Furniture - Lithonia,,3001 Stonecrest Promenade,,Lithonia,GA,30038,United States,(678) 987-0360,,,11:00 AM - 7:00 PM;,,0
American Signature Furniture - Madison,,2130 Gallatin Pike North,,Madison,TN,37115,United States,(615) 859-2006,,,11:00 AM - 7:00 PM;,,0
American Signature Furniture - Miami,,7775 SW 40th Street,,Miami,FL,33155,United States,(305) 728-2800,,,11:00 AM - 7:00 PM;,,0
American Signature Furniture - Morrow,,1972 Mt. Zion Road,,Morrow,GA,30260,United States,(770) 282-2168,,,11:00 AM - 7:00 PM;,,0
American Signature Furniture - Orlando,,7463 West Colonial Drive,,Orlando,FL,32818,United States,(407) 581-0949,,,11:00 AM - 7:00 PM;,,0
American Signature Furniture - Orlando,,"730 Sand Lake Road, Suite #100",,Orlando,FL,32809,United States,(407) 581-5320,,,11:00 AM - 7:00 PM;,,0
American Signature Furniture - Pinellas Park,,7230 US 19,,Pinellas Park,FL,33781,United States,(727) 456-5420,,,11:00 AM - 7:00 PM;,,0
American Signature Furniture - Smyrna,,2540 Cumberland Blvd,,Smyrna,GA,30080,United States,(770) 250-1033,,,11:00 AM - 7:00 PM;,,0
American Signature Furniture - Tampa,,15020 North Dale-Mabry Highway,,Tampa,FL,33618,United States,(813) 769-0700,,,11:00 AM - 7:00 PM;,,0
American Signature Furniture - University Park,,5455 University Parkway,,University Park,FL,34201,United States,(941) 552-0830,,,11:00 AM - 7:00 PM;,,0
Value City Furniture - Altoona,,3010 Pleasant Valley Blvd,,Altoona,PA,16602,United States,(814) 946-1661,,,11:00 AM - 7:00 PM;,,0
Value City Furniture - Amherst,,4220 Maple Road,,Amherst,NY,14226,United States,(716) 833-5794,,,11:00 AM - 7:00 PM;,,0
Value City Furniture - Arlington Heights,,40 West Rand Road,,Arlington Heights,IL,60004,United States,(847) 463-1048,,,11:00 AM - 7:00 PM;,,0
Value City Furniture - Aurora,,4380 East New York Street,,Aurora,IL,60504,United States,(630) 236-6600,,,11:00 AM - 7:00 PM;,,0
Value City Furniture - Ballwin,,13961 Manchester Rd,,Ballwin,MO,63011,United States,(636) 717-7019,,,11:00 AM - 7:00 PM;,,0
Value City Furniture - Baltimore,,7735 Eastern Avenue,,Baltimore,MD,21224,United States,(410) 282-8295,,,11:00 AM - 7:00 PM;,,0
Value City Furniture - Baltimore,,5840 Baltimore National Pike,,Baltimore,MD,21228,United States,(410) 744-6784,,,11:00 AM - 7:00 PM;,,0
Value City Furniture - Beavercreek,,2675 Fairfield Commons Blvd,,Beavercreek,OH,45431,United States,(937) 431-2570,,,11:00 AM - 7:00 PM;,,0
Value City Furniture - Boardman,,443 Boardman-Poland Road,,Boardman,OH,44512,United States,(330) 965-7410,,,11:00 AM - 7:00 PM;,,0
Value City Furniture - Brooklyn,,7500 Brookpark Road,,Brooklyn,OH,44129,United States,(216) 749-2711,,,11:00 AM - 7:00 PM;,,0
Value City Furniture - Burbank,,8310 South Cicero Avenue,,Burbank,IL,60459,United States,(708) 422-2900,,,11:00 AM - 7:00 PM;,,0
Value City Furniture - Calumet City,,2100 159th Street,,Calumet City,IL,60409,United States,(708) 862-0021,,,11:00 AM - 7:00 PM;,,0
Value City Furniture - Canton,,5577 Dressler Road NW,,Canton,OH,44720,United States,(330) 305-0300,,,11:00 AM - 7:00 PM;,,0
Value City Furniture - Centerville,,2070 Miamisburg-Centerville Rd,,Centerville,OH,45459,United States,(937) 436-9545,,,11:00 AM - 7:00 PM;,,0
Value City Furniture - Charlotte,,2320 Sardis Road North,,Charlotte,NC,28227,United States,(704) 841-4111,,,11:00 AM - 7:00 PM;,,0
Value City Furniture - Charlotte,,9527 South Boulevard,,Charlotte,NC,28273,United States,(704) 571-4200,,,11:00 AM - 7:00 PM;,,0
Value City Furniture - Charlotte,,8101 N. University City Blvd,,Charlotte,NC,28213,United States,(704) 227-0170,,,11:00 AM - 7:00 PM;,,0
Value City Furniture - Cheektowaga,,800 Thruway Plaza Drive,,Cheektowaga,NY,14225,United States,(716) 894-0305,,,11:00 AM - 7:00 PM;,,0
Value City Furniture - Chesapeake,,"1412 Greenbrier Pkwy, Unit 100",,Chesapeake,VA,23320,United States,(757) 361-6664,,,11:00 AM - 7:00 PM;,,0
Value City Furniture - Chicago,,2536 N. Elston Ave,,Chicago,IL,60647,United States,(872) 210-3042,,,11:00 AM - 7:00 PM;,,0
Value City Furniture - Cincinnati,,650 Eastgate Dr. S Suite A,,Cincinnati,OH,45245,United States,(513) 943-1110,,,11:00 AM - 7:00 PM;,,0
Value City Furniture - Clarksville,,945 E Lewis and Clark Pkwy Suite 200,,Clarksville,IN,47129,United States,(812) 283-4487,,,11:00 AM - 7:00 PM;,,0
Value City Furniture - Columbia,,"201 Columbia Mall Blvd, Suite 91",,Columbia,SC,29223,United States,(803) 865-5600,,,11:00 AM - 7:00 PM;,,0
Value City Furniture - Columbia,,240 Forum Dr,,Columbia,SC,29229,United States,(803) 767-4091,,,11:00 AM - 7:00 PM;,,0
Value City Furniture - Columbus,,5600 Britton Parkway,,Columbus,OH,43016,United States,(614) 943-7833,,,11:00 AM - 7:00 PM;,,0
Value City Furniture - Columbus,,3740 Easton Market,,Columbus,OH,43219,United States,(614) 943-7832,,,11:00 AM - 7:00 PM;,,0
Value City Furniture - Columbus,,6067 East Main Street,,Columbus,OH,43213,United States,(614) 866-8888,,,11:00 AM - 7:00 PM;,,0
Value City Furniture - Columbus,,1780 Morse Road,,Columbus,OH,43229,United States,(614) 431-1400,,,11:00 AM - 7:00 PM;,,0
Value City Furniture - Columbus,,4300 W. Broad St.,,Columbus,OH,43228,United States,(614) 276-5157,,,11:00 AM - 7:00 PM;,,0
Value City Furniture - Columbus,,3700 West Dublin Granville Rd,,Columbus,OH,43235,United States,(614) 923-1033,,,11:00 AM - 7:00 PM;,,0
Value City Furniture - Columbus,,1091 Gemini Place,,Columbus,OH,43240,United States,(614) 379-7056,,,11:00 AM - 7:00 PM;,,0
Value City Furniture - Columbus Pick-up Center,,3232 Alum Creek Dr,,Columbus,OH,43207,United States,(614) 449-4495,,,Closed;,,0
Value City Furniture - Cuyahoga Falls,,790 Howe Ave,,Cuyahoga Falls,OH,44221,United States,(330) 929-2111,,,11:00 AM - 7:00 PM;,,0
Value City Furniture - Dearborn,,5701 Mercury Drive,,Dearborn,MI,48126,United States,(313) 271-0100,,,11:00 AM - 7:00 PM;,,0
Value City Furniture - Evansville,,5330 East Indiana Street,,Evansville,IN,47715,United States,(812) 479-5500,,,11:00 AM - 7:00 PM;,,0
Value City Furniture - Fairview Heights,,10705 Lincoln Trail,,Fairview Heights,IL,62208,United States,(618) 398-7100,,,11:00 AM - 7:00 PM;,,0
Value City Furniture - Falls Church,,5516 Leesburg Pike,,Falls Church,VA,22041,United States,(703) 998-8667,,,11:00 AM - 7:00 PM;,,0
Value City Furniture - Florence,,8032 Burlington Pike,,Florence,KY,41042,United States,(859) 568-1711,,,11:00 AM - 7:00 PM;,,0
Value City Furniture - Frederick,,"5500 Buckeystown Pike, Ste 800",,Frederick,MD,21703,United States,(301) 712-9182,,,11:00 AM - 7:00 PM;,,0
Value City Furniture - Fredericksburg,,3545 Plank Road,,Fredericksburg,VA,22407,United States,(540) 735-0148,,,11:00 AM - 7:00 PM;,,0
Value City Furniture - Ft. Wayne,,811 Northcrest Shopping Center,,Ft. Wayne,IN,46805,United States,(260) 482-9641,,,11:00 AM - 7:00 PM;,,0
Value City Furniture - Glen Burnie,,22 Mountain Road,,Glen Burnie,MD,21060,United States,(410) 787-1500,,,11:00 AM - 7:00 PM;,,0
Value City Furniture - Grand Rapids,,4110 28th Street SE,,Kentwood,MI,49512,United States,(616) 285-0262,,,11:00 AM - 7:00 PM;,,0
Value City Furniture - Greenwood,,1218 US 31 North,,Greenwood,IN,46142,United States,(317) 882-7452,,,11:00 AM - 7:00 PM;,,0
Value City Furniture - Gurnee,,6116 Grand Ave,,Gurnee,IL,60031,United States,(847) 596-3029,,,11:00 AM - 7:00 PM;,,0
Value City Furniture - Hagerstown,,1581 Wesel Blvd,,Hagerstown,MD,21740,United States,(301) 745-4045,,,11:00 AM - 7:00 PM;,,0
Value City Furniture - Harrisburg,,5047 Jonestown Road,,Harrisburg,PA,17112,United States,(717) 395-9000,,,11:00 AM - 7:00 PM;,,0
Value City Furniture - Henrietta,,1000 Hylan Drive Suite 206,,Henrietta,NY,14623,United States,(585) 424-6650,,,11:00 AM - 7:00 PM;,,0
Value City Furniture - Huntington,,"1423 Roby Road, Route 60",,Huntington,WV,25705,United States,(304) 523-8700,,,11:00 AM - 7:00 PM;,,0
Value City Furniture - Indianapolis,,5450 East 82nd Street,,Indianapolis,IN,46250,United States,(317) 585-3000,,,11:00 AM - 7:00 PM;,,0
Value City Furniture - Joliet,,3355 Mall Loop Drive,,Joliet,IL,60431,United States,(815) 267-8641,,,11:00 AM - 7:00 PM;,,0
Value City Furniture - Kalamazoo,,5022 West Main Street,,Kalamazoo,MI,49009,United States,(269) 349-2939,,,11:00 AM - 7:00 PM;,,0
Value City Furniture - Lexington,,3220 Nicholasville Road,,Lexington,KY,40503,United States,(859) 271-1188,,,11:00 AM - 7:00 PM;,,0
Value City Furniture - Lexington,,"2321 Sir Barton Way, Suite 170",,Lexington,KY,40509,United States,(859) 519-1620,,,11:00 AM - 7:00 PM;,,0
Value City Furniture - Liverpool,,3965 State Route 31,,Liverpool,NY,13090,United States,(315) 622-2505,,,11:00 AM - 7:00 PM;,,0
Value City Furniture - Louisville,,9070 Dixie Highway,,Louisville,KY,40258,United States,(502) 933-2520,,,11:00 AM - 7:00 PM;,,0
Value City Furniture - Louisville,,3426 Preston Highway,,Louisville,KY,40213,United States,(502) 367-2281,,,11:00 AM - 7:00 PM;,,0
Value City Furniture - Mechanicsburg,,"6520 Carlisle Pike, Suite 400",,Mechanicsburg,PA,17050,United States,(717) 766-2700,,,11:00 AM - 7:00 PM;,,0
Value City Furniture - Memphis,,6393 Winchester Road,,Memphis,TN,38115,United States,(901) 362-3200,,,11:00 AM - 7:00 PM;,,0
Value City Furniture - Memphis,,8044 Giacosa Place,,Memphis,TN,38133,United States,(901) 381-1660,,,11:00 AM - 7:00 PM;,,0
Value City Furniture - Mentor,,7767 Mentor Avenue,,Mentor,OH,44060,United States,(440) 918-9300,,,11:00 AM - 7:00 PM;,,0
Value City Furniture - Merrillville,,2580 East 79th Avenue,,Merrillville,IN,46410,United States,(219) 942-3006,,,11:00 AM - 7:00 PM;,,0
Value City Furniture - Midlothian,,1250 Huguenot Rd.,,Midlothian,VA,23113,United States,(804) 379-3156,,,11:00 AM - 7:00 PM;,,0
Value City Furniture - Mishawaka,,5865 Grape Road,,Mishawaka,IN,46545,United States,(574) 271-3950,,,11:00 AM - 7:00 PM;,,0
Value City Furniture - Monroeville,,3801 William Penn Highway,,Monroeville,PA,15146,United States,(412) 373-6660,,,11:00 AM - 7:00 PM;,,0
Value City Furniture - New Carrollton,,8301 Annapolis Road,,New Carrollton,MD,20784,United States,(301) 731-5090,,,11:00 AM - 7:00 PM;,,0
Value City Furniture - Newport News,,12149 Jefferson Blvd,,Newport News,VA,23602,United States,(757) 249-1800,,,11:00 AM - 7:00 PM;,,0
Value City Furniture - Niles,,500 Golf Mill Center,,Niles,IL,60714,United States,(847) 768-9714,,,11:00 AM - 7:00 PM;,,0
Value City Furniture - North Olmstead,,4700 Great Northern Blvd,,North Olmsted,OH,44070,United States,(440) 716-9014,,,11:00 AM - 7:00 PM;,,0
Value City Furniture - Northlake,,49 West North Avenue,,Northlake,IL,60164,United States,(708) 562-1700,,,11:00 AM - 7:00 PM;,,0
Value City Furniture - Novi,,43620 West Oaks Drive,,Novi,MI,48377,United States,(248) 347-8100,,,11:00 AM - 7:00 PM;,,0
Value City Furniture - Orland Park,,15770 South La Grange Road,,Orland Park,IL,60462,United States,(708) 226-8121,,,11:00 AM - 7:00 PM;,,0
Value City Furniture - Parkersburg,,400 Lakeview Center,,Parkersburg,WV,26101,United States,(304) 422-6495,,,11:00 AM - 7:00 PM;,,0
Value City Furniture - Pittsburgh,,451 Clairton Blvd,,Pittsburgh,PA,15236,United States,(412) 653-7450,,,11:00 AM - 7:00 PM;,,0
Value City Furniture - Pittsburgh,,1400 Park Manor Blvd,,Pittsburgh,PA,15205,United States,(412) 809-0977,,,11:00 AM - 7:00 PM;,,0
Value City Furniture - Plainfield,,2437 East Main Street,,Plainfield,IN,46168,United States,(317) 837-7294,,,11:00 AM - 7:00 PM;,,0
Value City Furniture - Richmond,,9110 West Broad Street,,Richmond,VA,23294,United States,(804) 935-0699,,,11:00 AM - 7:00 PM;,,0
Value City Furniture - Rochester,,3160 West Ridge Road,,Greece,NY,14626,United States,(585) 453-0760,,,11:00 AM - 7:00 PM;,,0
Value City Furniture - Rockville,,12055 Rockville Pike,,Rockville,MD,20852,United States,(240) 503-7047,,,11:00 AM - 7:00 PM;,,0
Value City Furniture - Sandusky,,202-24 East Market Street,,Sandusky,OH,44870,United States,(419) 626-4131,,,11:00 AM - 7:00 PM;,,0
Value City Furniture - Springdale,,94 West Kemper Road,,Springdale,OH,45246,United States,(513) 671-2600,,,11:00 AM - 7:00 PM;,,0
Value City Furniture - St. Ann,,3715 North Lindbergh Blvd,,St. Ann,MO,63074,United States,(314) 344-5050,,,11:00 AM - 7:00 PM;,,0
Value City Furniture - St. Clairsville,,50471 Valley Plaza Drive,,St. Clairsville,OH,43950,United States,(740) 695-0952,,,11:00 AM - 7:00 PM;,,0
Value City Furniture - St. Louis,,7077 Chippewa Street,,St. Louis,MO,63119,United States,(314) 645-1550,,,11:00 AM - 7:00 PM;,,0
Value City Furniture - St. Peters,,202 Mid Rivers Mall Drive,,St. Peters,MO,63376,United States,(636) 397-9002,,,11:00 AM - 7:00 PM;,,0
Value City Furniture - Sterling,,45633 Dulles Eastern Plaza,,Sterling,VA,20166,United States,(571) 262-2100,,,11:00 AM - 7:00 PM;,,0
Value City Furniture - Sterling Heights,,33377 Van Dyke Avenue,,Sterling Heights,MI,48312,United States,(586) 558-7880,,,11:00 AM - 7:00 PM;,,0
Value City Furniture - Streamwood,,960 South Barrington Road,,Streamwood,IL,60107,United States,(630) 483-7171,,,11:00 AM - 7:00 PM;,,0
Value City Furniture - Suffolk,,"4300 Portsmouth Blvd, Suite 200",,Chesapeake,VA,23321,United States,(757) 292-4152,,,11:00 AM - 7:00 PM;,,0
Value City Furniture - Taylor,,23859 Eureka Road,,Taylor,MI,48180,United States,(734) 287-0401,,,11:00 AM - 7:00 PM;,,0
Value City Furniture - Toledo,,4475 Monroe Street,,Toledo,OH,43613,United States,(419) 473-2405,,,11:00 AM - 7:00 PM;,,0
Value City Furniture - Utica,,45350 Utica Park Blvd,,Utica,MI,48315,United States,(586) 997-0577,,,11:00 AM - 7:00 PM;,,0
Value City Furniture - Virginia Beach,,2720 North Mall Drive,,Virginia Beach,VA,23452,United States,(757) 306-8500,,,11:00 AM - 7:00 PM;,,0
Value City Furniture - Waldorf,,1260 Smallwood Drive,,Waldorf,MD,20603,United States,(301) 705-9992,,,11:00 AM - 7:00 PM;,,0
Value City Furniture - Warrensville Heights,,4095 Richmond Road,,Warrensville Heights,OH,44122,United States,(216) 910-0422,,,11:00 AM - 7:00 PM;,,0
Value City Furniture - Westland,,37001 Warren Road,,Westland,MI,48185,United States,(734) 729-6666,,,11:00 AM - 7:00 PM;,,0
Value City Furniture - White Marsh,,5240 Campbell Blvd Suite E,,White Marsh,MD,21236,United States,(410) 931-4100,,,11:00 AM - 7:00 PM;,,0
Value City Furniture - Woodbridge,,2500 Prince William Parkway,,Woodbridge,VA,22192,United States,(703) 492-4500,,,11:00 AM - 7:00 PM;,,0
