store_name,store_number,address,address2,city,state,zip_code,country,phone_number,latitude,longitude,store_hours,other_fields,coming_soon
Albertsons,120,2678 Johnston St,,Lafayette,LA,70503,United States,337-233-2940,30.2088,-92.0387,Daily 6:00 am - 11:00 pm,,0
Albertsons,3750,4857 Government St,,Baton Rouge,LA,70806,United States,225-216-7226,30.4451,-91.1405,Daily 6:00 am - 11:00 pm,,0
Albertsons,709,2950 College Dr,,Baton Rouge,LA,70808,United States,225-924-6084,30.422,-91.14130631,Daily 6:00 am - 11:00 pm,,0
Albertsons,775,2863 Ambassador Caffery,,Lafayette,LA,70506,United States,337-406-8887,30.1983,-92.0738,Daily 6:00 am - 11:00 pm,,0
Albertsons,2756,1210 Albertson Pkwy,,Broussard,LA,70518,United States,337-839-1717,30.14,-91.94864906,Daily 6:00 am - 11:00 pm,,0
Albertsons,719,4400 Ambassador Caffery,,Lafayette,LA,70508,United States,337-984-4587,30.1563,-92.051,Sun-Thu 6:00 am - 11:00 pm ;Fri-Sat 6:00 am - 12:00 am,,0
Albertsons,1311,7515 Perkins Rd,,Baton Rouge,LA,70808,United States,225-769-6100,30.3969,-91.1098,Daily 6:00 am - 12:00 am,,0
Albertsons,712,9650 Airline Hwy,,Baton Rouge,LA,70815,United States,225-926-9304,30.4321,-91.0833,Daily 6:00 am - 11:00 pm,,0
Albertsons,3792,9960 Bluebonnet Blvd,,Baton Rouge,LA,70810,United States,225-768-7775,30.3555,-91.11112707,Daily 6:00 am - 11:00 pm,,0
Albertsons,3713,15232 George O'Neal Rd,,Baton Rouge,LA,70817,United States,225-753-0700,30.4062,-91.01506601,Daily 6:00 am - 11:00 pm,,0
Albertsons,4038,402 S Range Ave,,Denham Springs,LA,70726,United States,225-667-8907,30.4803,-90.95519157,Daily 6:00 am - 11:00 pm,,0
Albertsons,3747,15128 Airline Hwy,,Baton Rouge,LA,70817,United States,225-751-2808,30.3572,-91.0084,Daily 6:00 am - 10:00 pm,,0
Albertsons,3215,2265 S Macarthur Dr,,Alexandria,LA,71301,United States,318-487-9395,31.2742,-92.46332395,Daily 6:00 am - 11:00 pm,,0
Albertsons,714,1801 W Thomas St,,Hammond,LA,70401,United States,985-542-9720,30.4991,-90.4799,Daily 6:00 am - 10:00 pm,,0
Albertsons,717,4060 Ryan St S,,Lake Charles,LA,70605,United States,337-478-8995,30.1852,-93.22,Daily 6:00 am - 11:00 pm,,0
Albertsons,2798,2750 Country Club Rd,,Lake Charles,LA,70605,United States,337-480-0424,30.1705,-93.2655,Daily 6:00 am - 11:00 pm,,0
Albertsons,218,105 E Southfield Rd,,Shreveport,LA,71105,United States,318-869-1646,32.4553,-93.70939093,Daily 6:00 am - 10:00 pm,,0
Albertsons,4220,3121 E Texas St,,Bossier City,LA,71111,United States,318-742-9971,32.5307,-93.69903835,Daily 6:00 am - 12:00 am,,0
,,2931 Central City Blvd,,Galveston,TX,77551,United States,409-744-0413,29.2696,-94.83,Open daily 6:00 am-12:00 am,,0
,,4540 Kingwood Dr,,Kingwood,TX,77345,United States,281-360-5100,30.0482,-95.1822,Open daily 6:00 am-1:00 am,,0
,,600 Kingwood Dr,,Kingwood,TX,77339,United States,281-312-5000,30.0507,-95.245,Open daily 6:00 am-1:00 am,,0
,,"2951 Marina Bay Dr, Suite B",,League City,TX,77573,United States,281-538-2500,29.5387,-95.0631,Open daily 6:00 am-1:00 am,,0
,,2323 Clear Lake City Blvd,,Houston,TX,77062,United States,281-280-3100,29.593,-95.1406,Open daily 6:00 am-1:00 am,,0
Albertsons,4112,3603 McCann Rd,,Longview,TX,75605,United States,903-663-2082,32.5432,-94.7551,Daily 6:00 am - 10:00 pm,,0
,,2250 Buckthorne Place,,Spring,TX,77380,United States,281-367-5734,30.1411,-95.4707,Open daily 6:00 am-1:00 am,,0
,,2225 Louisiana St,,Houston,TX,77002,United States,713-331-1042,29.749,-95.3743,Open daily 6:00 am-1:00 am,,0
,,9420 College Park Dr #100,,The Woodlands,TX,77384,United States,936-321-2322,30.2289,-95.5087,Open daily 6:00 am-1:00 am,,0
,,4775 W Panther Creek Dr,,The Woodlands,TX,77381,United States,281-363-5100,30.1687,-95.5039,Open daily 6:00 am-1:00 am,,0
,,2075 Westheimer Rd,,Houston,TX,77098,United States,713-284-1200,29.7411,-95.4097,Open daily 6:00 am-1:00 am,,0
,,5219 FM 1960 W,,Houston,TX,77069,United States,281-440-1402,29.9796,-95.5088,Open daily 6:00 am-1:00 am,,0
,,5264 W 34th St,,Houston,TX,77092,United States,713-684-0520,29.8207,-95.4653,Open daily 6:00 am-midnight,,0
,,3131 W Holcombe Blvd,,Houston,TX,77025,United States,713-349-2150,29.7048,-95.426,Open daily 6:00 am-1:00 am,,0
,,5586 Weslayan St,,Houston,TX,77005,United States,713-668-4778,29.7218,-95.4424,Open daily 6:00 am-1:00 am,,0
,,10228 W Broadway ST,,Pearland,TX,77584,United States,713-436-4346,29.5545338,-95.3784538,Fuel Only,,0
,,10228 W Broadway St,,Pearland,TX,77584,United States,281-504-0273,29.5544,-95.3794,Open daily 6:00 am-1:00 am,,0
,,5161 San Felipe St,,Houston,TX,77056,United States,713-964-3150,29.7488,-95.4656,Open daily 6:00 am-1:00 am,,0
,,5130 Bellaire Blvd,,Bellaire,TX,77401,United States,713-667-1167,29.7063,-95.4698,Open daily 6:00 am-12:00 am,,0
,,4800 W Bellfort,,Houston,TX,77035,United States,713-721-0011,29.6728,-95.4588,Open daily 6:00 am-1:00 am,,0
Albertsons,135,4415 W 7th St,,Texarkana,TX,75501,United States,903-831-7226,33.417,-94.09917317,Sun-Thu 6:00 am - 10:00pm ;Fri-Sat 6:00 am - 11:00 pm,,0
Albertsons,611,3710 State Line Ave,,Texarkana,AR,71854,United States,870-774-3146,33.4592,-94.0419,Daily 6:00 am - 11:00 pm,,0
Albertsons,4243,2315 Richmond Rd,,Texarkana,TX,75503,United States,903-832-2561,33.453,-94.08535225,Daily 6:00 am - 11:00 pm,,0
,,9660 Westheimer Rd,,Houston,TX,77063,United States,713-782-0982,29.7386,-95.5371,Open daily 6:00 am-1:00 am,,0
,,12850 Memorial Dr,,Houston,TX,77024,United States,713-365-6700,29.7738,-95.5593,Open daily 6:00 am-1:00 am,,0
,,14610 Memorial Dr,,Houston,TX,77079,United States,281-497-0630,29.7718,-95.6072,Open daily 6:00 am-1:00 am,,0
,,12312 Barker Cypress Rd,,Cypress,TX,77429,United States,281-373-2500,29.956,-95.6707,Open daily 6:00 am-1:00 am,,0
,,12220 Barker Cypress,,Cypress,TX,77429,United States,281-213-9308,29.9556300473085,-95.6721885498018,Fuel Only,,0
,,11711 W Bellfort,,Stafford,TX,77477,United States,281-568-0415,29.6563,-95.5853,Open daily 6:00 am-1:00 am,,0
,,18322 Clay Rd,,Houston,TX,77084,United States,281-855-9774,29.8328,-95.6837,Open daily 6:00 am-midnight,,0
,,3346 Hwy 6 S,,Sugar Land,TX,77478,United States,281-980-1800,29.5901,-95.6031,Open daily 6:00 am-1:00 am,,0
,,3050 N Fry Rd,,Katy,TX,77449,United States,281-578-3888,29.8135,-95.7188,Open daily 6:00 am-1:00 am,,0
,,525 S Fry Rd,,Katy,TX,77450,United States,281-579-3890,29.7794,-95.717,Open daily 6:00 am-1:00 am,,0
,,5800 New Territory Blvd,,Sugar Land,TX,77479,United States,281-634-0600,29.589,-95.6758,Open daily 6:00 am-1:00 am,,0
,,1890 FM 359 Rd,,Richmond,TX,77406,United States,281-238-8231,29.6219,-95.7422,Open daily 6:00 am-1:00 am,,0
,,1509 Pioneer Rd,,Mesquite,TX,75149,United States,972-216-5187,32.7461873913043,-96.58351,,,0
,,1501 Pioneer Rd,,Mesquite,TX,75149,United States,972-290-3350,32.746,-96.5862,Open daily 6:00 am-midnight,,0
,,3070 N Goliad St,,Rockwall,TX,75087,United States,972-961-9330,32.9644,-96.4624,Open daily 6:00 am-1:00 am,,0
Albertsons,4187,1500 S Beltline Rd,,Mesquite,TX,75149,United States,972-285-0226,32.7453,-96.5952729,Daily 6:00 am - 12:00 am,,0
,,8805 Lakeview Pkwy,,Rowlett,TX,75089,United States,214-607-0218,32.9205,-96.5164,Open daily 6:00 am-1:00 am,,0
Albertsons,4265,5710 Broadway Blvd,,Garland,TX,75043,United States,972-240-7339,32.8461,-96.59399385,Daily 6:00 am - 12:00 am,,0
Albertsons,4129,2828 Motley Dr,,Mesquite,TX,75150,United States,972-270-2406,32.8037,-96.6456,Daily 6:00 am - 12:00 am,,0
,,921 Westgate Way,,Wylie,TX,75098,United States,972-429-7840,33.0065,-96.55206955,Daily 6:00 am - 12:00 am,,0
,,925 N West Hwy,,Garland,TX,75041,United States,972-271-0582,32.8628,-96.6416,Open daily 6:00 am-midnight,,0
,,2535 Firewheel Pkwy,,Garland,TX,75040,United States,972-675-8661,32.9373,-96.6054,Open daily 6:00 am-1:00 am,,0
Albertsons,4289,320 Casa Linda Plaza,,Dallas,TX,75218,United States,214-319-8220,32.834,-96.69968987,Daily 6:00 am - 12:00 am,,0
,,7331 Gaston Ave,,Dallas,TX,75214,United States,972-201-2500,32.813139,-96.730026,Daily 6:00 am - 11:00 am,,0
,,210 E Pleasant Run Rd,,Desoto,TX,75115,United States,972-274-7000,32.6029,-96.8557,Open daily 6:00 am-1:00 am,,0
Albertsons,4260,2165 E Buckingham Dr,,Richardson,TX,75081,United States,972-680-1711,32.9324,-96.6838,Daily 6:00 am - 12:00 am,,0
,,2645 Arapaho,,Garland,TX,75044,United States,972-495-9807,32.9608,-96.6669,Open daily 6:00 am-1:00 am,,0
,,8698 Skillman St,,Dallas,TX,75243,United States,214-340-1266,32.8961,-96.7204,Open daily 6:00 am-midnight,,0
,,6333 E Mockingbird Ln,,Dallas,TX,75214,United States,214-824-1265,32.8376,-96.7544,Open daily 6:00 am-1:00 am,,0
Albertsons,4166,1300 W Beltline Rd,,Desoto,TX,75115,United States,972-223-1998,32.5884,-96.89208328,Daily 6:00 am - 12:00 am,,0
,,5809 E Lovers Lane,,Dallas,TX,75206,United States,214-750-3200,32.8522,-96.767,Open 24 hours,,0
,,3878 Oaklawn Ave #180,,Dallas,TX,75219,United States,972-560-0233,32.815837,-96.80097,Daily 6:00 am - 12:00 am,,0
,,2200 E 14th St,,Plano,TX,75074,United States,972-423-4105,33.0167,-96.6835,Open daily 6:00 am-1:00 am,,0
,,7700 N West Hwy,,Dallas,TX,75225,United States,214-346-1020,32.8641,-96.775,Open daily 6:00 am-1:00 am,,0
,,7000 Snider Plaza,,University Park,TX,75205,United States,214-346-4580,32.8505,-96.7872,Open daily 6:00 am-midnight,,0
,,10455 N Central Expwy,,Dallas,TX,75231,United States,214-369-9694,32.889,-96.7719,Open daily 6:00 am-midnight,,0
,,315 S Hampton Rd,,Dallas,TX,75208,United States,214-331-0160,32.7426,-96.8584,Open daily 6:00 am-1:00 am,,0
Albertsons,4133,427 E FM 1382,,Cedar Hill,TX,75104,United States,972-291-9863,32.5931,-96.9352,Daily 6:00 am - 12:00 am,,0
,,4000 Villanova Dr,,Dallas,TX,75225,United States,214-368-8636,32.8636,-96.8021,Open daily 6:00 am-11:00 pm,,0
,,39 Arapaho Village Rd,,Richardson,TX,75080,United States,972-235-3917,32.9612,-96.7497,Open daily 6:00 am-1:00 am,,0
,,3411 Custer Pkwy,,Richardson,TX,75080,United States,972-470-1360,32.9966,-96.7295,Open daily 6:00 am-1:00 am,,0
,,633 W Wheatland Rd,,Duncanville,TX,75116,United States,972-780-0792,32.6482,-96.9227,Open daily 6:00 am-1:00 am,,0
,,7117 Inwood Rd,,Dallas,TX,75209,United States,214-350-3883,32.8445,-96.8226,Open daily 6:00 am-12:00 pm,,0
,,522 Preston Royal Ctr,,Dallas,TX,75230,United States,214-363-7685,32.8963,-96.8049,Open daily 6:00 am-1:00 am,,0
Albertsons,4234,3001 S Central Expressway,,McKinney,TX,75069,United States,972-548-1003,33.1707,-96.63690418,Daily 6:00 am - 12:00 am,,0
,,900 W Mcdermott Dr,,Allen,TX,75013,United States,214-495-3710,33.1031,-96.683,Open daily 6:00 am-1:00 am,,0
,,11920 Preston Rd,,Dallas,TX,75230,United States,972-392-2501,32.9111,-96.8019,Open daily 6:00 am-1:00 am,,0
,,1380 W Campbell Rd,,Richardson,TX,75080,United States,972-680-6010,32.9799,-96.7671,Open daily 6:00 am-1:00 am,,0
,,7801 Alma Dr,,Plano,TX,75025,United States,972-527-0961,33.0833,-96.7138,Open daily 6:00 am-1:00 am,,0
McKinney,,3001 Hardin Blvd,,McKinney,TX,75070,United States,,33.16771,-96.6647,Open Daily 6:00 am - 1:00 am,,1
,,3100 Independence Pkwy,,Plano,TX,75075,United States,972-596-4420,33.039,-96.7523,Open daily 6:00 am-1:00 am,,0
,,14999 Preston Rd,,Dallas,TX,75254,United States,972-789-6950,32.9523,-96.8058,Open daily 6:00 am-1:00 am,,0
,,18212 Preston Rd,,Dallas,TX,75252,United States,972-985-2240,32.9998,-96.7936,Open daily 6:00 am-1:00 am,,0
,,3757 Forest Ln,,Dallas,TX,75244,United States,972-241-4426,32.9107,-96.85304165,Open daily 6:00 am-1:00 am,,0
,,3945 Legacy Dr,,Plano,TX,75023,United States,972-491-2200,33.074,-96.7706,Open daily 6:00 am-1:00 am,,0
,,14280 Marsh Ln,,Addison,TX,75001,United States,972-241-4485,32.9386,-96.8535,Open daily 6:00 am-1:00 am,,0
,,4215 S Carrier Pkwy,,Grand Prairie,TX,75052,United States,972-266-7050,32.6712,-97.0034,Open daily 6:00 am-1:00 am,,0
Albertsons,4105,4625 Frankford Rd,,Dallas,TX,75287,United States,972-732-6291,32.9994,-96.82742491,Daily 6:00 am - 12:00 am,,0
Albertsons,4278,4126 S Carrier Pkwy,,Grand Prairie,TX,75052,United States,972-642-2692,32.6724,-97.0081,Daily 6:00 am - 12:00 am,,0
Tom Thumb,,6800 W Virginia Pkwy,,McKinney,TX,75071,United States,972-542-8083,33.2005,-96.7063,Daily 6:00 am - 12:00 am,,0
,,5968 W Parker Rd,,Plano,TX,75093,United States,972-473-3300,33.043,-96.8285,Open daily 6:00 am-1:00 am,,0
Albertsons,269,2150 N Josey Lane,,Carrollton,TX,75006,United States,972-446-8226,32.9747,-96.8885,Daily 6:00 am - 12:00 am,,0
,,4848 Preston Rd,,Frisco,TX,75034,United States,972-377-1800,33.1188,-96.8037,Open daily 6:00 am-1:00 am,,0
,,4010 N Macarthur Blvd,,Irving,TX,75038,United States,972-717-9727,32.8598,-96.9572,Open daily 6:00 am-1:00 am,,0
Albertsons,4231,215 N Carrier Pkwy,,Grand Prairie,TX,75050,United States,972-642-6555,32.7441,-97.0182,Daily 6:00 am - 11:00 pm,,0
,,4112 N Josey,,Carrollton,TX,75007,United States,972-394-4127,33.0235,-96.8833,Open daily 6:00 am-1:00 am,,0
,,3535 Belt Line Rd,,Irving,TX,75062,United States,972-257-3420,32.8548,-96.9936,Open daily 6:00 am-1:00 am,,0
,,980 Hwy N 287,,Mansfield,TX,76063,United States,817-453-6770,32.5824,-97.1287,Open daily 6:00 am-1:00 am,,0
,,820 S Macarthur Blvd,,Coppell,TX,75019,United States,972-393-0411,32.9513,-96.9557,Open daily 6:00 am-1:00 am,,0
Albertsons,4163,5950 S Cooper,,Arlington,TX,76017,United States,817-557-0185,32.6493,-97.1371609,Daily 6:00 am - 12:00 am,,0
,,5550 FM 423,,Frisco,TX,75034,United States,214-494-6213,33.1251,-96.8897,Open daily 6:00 am-1:00 am,,0
,,106 N Denton Tap Rd,,Coppell,TX,75019,United States,972-304-3223,32.9706,-96.9918,Open daily 6:00 am-1:00 am,,0
,,2755 N Collins,,Arlington,TX,76006,United States,817-276-5360,32.7833,-97.0934,Open daily 6:00 am-1am,,0
,,2775 N. Collins,,Arlington,TX,76006,United States,817-801-3054,32.7837,-97.0954,,,0
,,1701 Randol Mill Rd,,Arlington,TX,76012,United States,817-460-8551,32.7518,-97.1336,Open daily 6:00 am-midnight,,0
Albertsons,3042,6220 US Hwy 287,,Arlington,TX,76017,United States,817-478-8901,32.6441,-97.1864,Daily 6:00 am - 12:00 am,,0
Albertsons,4106,1155 N Main St,,Euless,TX,76039,United States,817-354-9195,32.8533,-97.08361011,Daily 6:00 am - 12:00 am,,0
,,2611 W Park Row,,Arlington,TX,76013,United States,817-462-0151,32.7226,-97.1503,Open daily 6:00 am-1:00 am,,0
,,1075 W FM 3040,,Lewisville,TX,75067,United States,214-488-3060,33.0068,-97.0168887,Open daily 6:00 am-1:00 am,,0
Albertsons,4142,301 SW Plaza Shopping Ctr,,Arlington,TX,76016,United States,817-478-4291,32.677,-97.2,Daily 6:00 am - 12:00 am,,0
Albertsons,70,4000 Glade Rd,,Colleyville,TX,76034,United States,817-354-0505,32.8826,-97.10139401,Daily 6:00 am - 12:00 am,,0
Tom Thumb,,4000 William D. Tate,,Grapevine,TX,76051,United States,817-785-1004,32.89334,-97.09978,Open Daily 6:00 am - 1:00 am,,1
,,745 Cross Timbers Rd,,Flower Mound,TX,75028,United States,972-539-6828,33.0411,-97.0381,Open daily 6:00 am-1:00 am,,0
Albertsons,1262,1300 Airport Freeway,,Bedford,TX,76022,United States,817-354-0622,32.837,-97.15042878,Daily 6:00 am - 12:00 am,,0
,,302 S Park Blvd,,Grapevine,TX,76051,United States,817-481-5669,32.9388,-97.0972,Open daily 6:00 am-1:00 am,,0
Albertsons,226,100 E Taylor St,,Sherman,TX,75090,United States,903-868-9686,33.6534,-96.61384184,Daily 6:00 am - 12:00 am,,0
Albertsons,716,200 W Crawford St,,Denison,TX,75020,United States,903-463-6076,33.7521,-96.5377305,Daily 6:00 am - 11:00 pm,,0
,,2600 Flower Mound Rd,,Flower Mound,TX,75028,United States,972-355-5750,33.0152,-97.0685,Open daily 6:00 am-1:00 am,,0
,,2051 Gattis School Rd,,Round Rock,TX,78664,United States,512-246-0390,30.4949,-97.654,Open daily 6:00 am-1:00 am,,0
Albertsons,4272,850 E Loop 820,,Fort Worth,TX,76112,United States,817-451-0306,32.7675,-97.2152,Daily 6:00 am - 12:00 am,,0
,,2301 Justin Rd,,Flower Mound,TX,75028,United States,972-539-2366,33.0715,-97.0639,Open daily 6:00 am-1:00 am,,0
Albertsons,4294,210 W Katherine P Raines,,Cleburne,TX,76033,United States,817-641-2002,32.3848,-97.39454132,Daily 6:00 am - 12:00 am,,0
,,612 Grapevine Hwy,,Hurst,TX,76054,United States,817-428-0383,32.864,-97.1795,Open daily 6:00 am-1:00 am,,0
Albertsons,4279,833 NE Alsbury Blvd,,Burleson,TX,76028,United States,817-447-9106,32.565,-97.32214899,Daily 6:00 am - 12:00 am,,0
Albertsons,4191,4351 FM 2181,,Corinth,TX,76210,United States,940-321-4540,33.1316,-97.04325999,Daily 6:00 am - 12:00 am,,0
,,100 W SLake Blvd,,Southlake,TX,76092,United States,817-416-5464,32.9431,-97.152,Open daily 6:00 am-1:00 am,,0
,,4301 Cross Timbers Rd,,Flower Mound,TX,75028,United States,972-691-2084,33.0397,-97.0977,Open daily 6:00 am-1:00 am,,0
Albertsons,4267,6249 Rufe Snow Dr,,Watauga,TX,76148,United States,817-428-0541,32.8588,-97.2401,Daily 6:00 am - 12:00 am,,0
Albertsons,4277,3525 Sycamore School Rd,,Fort Worth,TX,76133,United States,817-346-6497,32.6334,-97.3715,Daily 6:00 am - 12:00 am,,0
,,1000 Keller Pkwy,,Keller,TX,76248,United States,817-337-8030,32.9322,-97.2281,Open daily 6:00 am-1:00 am,,0
,,10900 Research Blvd,,Austin,TX,78759,United States,512-342-4250,30.4021,-97.7472,Open daily 6:00 am-1:00 am,,0
,,101 Trophy Lake Dr,,Trophy Club,TX,76262,United States,817-490-6960,33,-97.2052,Open daily 6:00 am-1:00 am,,0
Albertsons,232,3563 Alton Rd,,Fort Worth,TX,76109,United States,817-548-1415,32.6978,-97.36949697,Daily 6:00 am - 12:00 am,,0
Albertsons,4151,4400 Western Center Blvd,,Fort Worth,TX,76137,United States,817-232-2180,32.8593,-97.2915,Daily 6:00 am - 12:00 am,,0
,,1500 W 35th St,,Austin,TX,78703,United States,512-453-8406,30.3065,-97.749,Open daily 6:00 am-1:00 am,,0
,,8040 Mesa Dr,,Austin,TX,78731,United States,512-345-1825,30.3714,-97.7584,Open daily 6:00 am-1:00 am,,0
,,1751 River Run #101,,Fort Worth,TX,76107,United States,682-316-7720,32.726665,-97.36219,Daily 6:00 am - 12:00 am,,0
Tom Thumb,,2400 W 7th Street,,Fort Worth,TX,76107,United States,817-302-1400,32.751036,-97.350974,Sun-Thu 6:00 am-12:00 am;Fri 6:00 am-1:00 am;Sat 6:00 am-1:00 am,,0
,,5311 Balcones Dr,,Austin,TX,78731,United States,512-302-2500,30.3352,-97.758,Open daily 6:00 am-1:00 am,,0
,,2727 Exposition Blvd,,Austin,TX,78703,United States,512-477-7196,30.3042,-97.7639,Open daily 6:00 am-midnight,,0
,,3000 S Hulen,,Fort Worth,TX,76109,United States,817-570-2950,32.7058,-97.3901,Open daily 6:00 am-1:00 am,,0
Albertsons,4198,10800 N Beach St,,Fort Worth,TX,76248,United States,817-431-8912,32.9295,-97.28745945,Daily 6:00 am - 11:00 pm,,0
,,715 S Exposition Blvd,,Austin,TX,78703,United States,512-477-5713,30.2837,-97.7757,Open daily 6:00 am-1:00 am,,0
Albertsons,4124,7400 Oakmont,,Fort Worth,TX,76132,United States,817-423-9556,32.663,-97.4198,Daily 6:00 am - 12:00 am,,0
,,2025 W Ben White Blvd,,Austin,TX,78704,United States,512-443-3083,30.2292,-97.7901,Open daily 6:00 am-1:00 am,,0
,,3300 Bee Caves Rd,,West Lake Hills,TX,78746,United States,512-327-1881,30.2753,-97.7987,Open daily 6:00 am-1:00 am,,0
,,6377 Camp Bowie Blvd,,Fort Worth,TX,76116,United States,817-377-5980,32.725,-97.4202,Open daily 6:00 am-1:00 am,,0
,,1400 Cypress Creek Rd,,Cedar Park,TX,78613,United States,512-506-9118,30.4827,-97.8295,Open daily 6:00 am-1:00 am,,0
Albertsons,4152,2321 W University Dr,,Denton,TX,76201,United States,940-383-2391,33.2284,-97.16287079,Daily 6:00 am - 12:00 am,,0
Albertsons,4286,6700 W Freeway,,Fort Worth,TX,76116,United States,817-377-8074,32.737,-97.43300376,Daily 6:00 am - 12:00 am,,0
Albertsons,4102,1201 N Saginaw Blvd,,Saginaw,TX,76179,United States,817-232-2777,32.8794,-97.38227443,6am - 12am Sun - Sat,,0
,,3441 N Lakeline Blvd,,Leander,TX,78641,United States,737-843-3073,30.545325,-97.864495,Daily 6:00 am - 12:00 am,,0
Albertsons,4150,6308 Lake Worth Blvd,,Lake Worth,TX,76135,United States,817-237-8124,32.8119,-97.42239441,Daily 6:00 am - 12:00 am,,0
,,6600 Mopac Expressway S,,Austin,TX,78749,United States,512-891-4350,30.223,-97.8363,Open daily 6:00 am-1:00 am,,0
,,9911 Brodie Ln,,Austin,TX,78748,United States,512-282-5720,30.1841,-97.8476,Open daily 6:00 am-1:00 am,,0
,,5145 N FM 620 Rd,,Austin,TX,78732,United States,512-266-3168,30.3892,-97.8839,Open daily 6:00 am-1:00 am,,0
Albertsons,4223,9300 Clifford St,,Fort Worth,TX,76108,United States,817-246-3366,32.7669,-97.47926518,Daily 6:00 am - 12:00 am,,0
,,2301 Ranch Rd 620 S,,Lakeway,TX,78734,United States,512-263-6420,30.3414,-97.9661,Open daily 6:00 am-1:00 am,,0
Albertsons,4290,480 Northwest Pkwy,,Azle,TX,76020,United States,817-270-1116,32.902,-97.54442437,Daily 6:00 am - 12:00 am,,0
,,206 N Grand Ave,,Gainesville,TX,76240,United States,940-665-0311,33.6253,-97.1324,Open daily 6:00 am-11:00 pm,,0
Albertsons,4176,225 E Spring St,,Weatherford,TX,76086,United States,817-594-9390,32.7604,-97.79406907,Daily 6:00 am - 12:00 am,,0
,,10500 Ulmerton Rd E #800,,Largo,FL,33771,United States,727-581-2112,27.8935,-82.7807,Daily 6:00 am - midnight,,0
,,503 E Altamonte Dr,,Altamonte Springs,FL,32701,United States,407-834-7424,28.6656,-81.3732,Daily 6:00 am – 2:00 am,,0
,,950 NE 50th St,,Oakland Park,FL,33334,United States,954-491-0551,26.1879,-80.1349,Daily 6:00 am – 2:00 am,,0
,,906 E Olive,,Lamar,CO,81052,United States,719-336-2540,38.0873,-102.6082,Open daily 6:00 am-9:00 pm,,0
,,315 W 2nd St,,La Junta,CO,81050,United States,719-384-4861,37.9872,-103.5477,Open daily 6:00 am-9:00 pm,,0
,,111 18th St,,Burlington,CO,80807,United States,719-346-8862,39.3012,-102.2737,Open daily 6:00 am-9:00 pm,,0
,,457 W Main St,,Trinidad,CO,81082,United States,719-846-2246,37.1671,-104.5093,Open daily 6:00 am-10:00 pm,,0
Albertsons,1016,11320 Montwood Dr,,El Paso,TX,79936,United States,915-855-9761,31.7673,-106.3021,Daily 6:00 am - 12:00 am,,0
Albertsons,934,2200 Yarbrough Dr,,El Paso,TX,79925,United States,915-591-9477,31.7728,-106.3377,Daily 6:00 am - 12:00 am,,0
Albertsons,1006,5200 Montana Ave,,El Paso,TX,79903,United States,915-778-8996,31.7826,-106.4267,Daily 6:00 am - 12:00 am,,0
Albertsons,933,9111 Dyer St,,El Paso,TX,79924,United States,915-751-2337,31.8716,-106.4285,Daily 6:00 am - 12:00 am,,0
Albertsons,999,10765 Kenworthy,,El Paso,TX,79924,United States,915-821-2006,31.9205,-106.4383,Daily 6:00 am - 12:00 am,,0
Albertsons,936,3100 Mesa St,,El Paso,TX,79902,United States,915-351-1002,31.7809,-106.504,Daily 6:00 am - 12:00 am,,0
Albertsons,932,7022 N Mesa St,,El Paso,TX,79912,United States,915-584-9460,31.8371,-106.5515,Daily 6:00 am - 12:00 am,,0
Albertsons,994,5630 N Desert Blvd,,El Paso,TX,79912,United States,915-845-5069,31.8646,-106.575,Daily 6:00 am - 12:00 am,,0
,,222 W Seventh,,Walsenburg,CO,81089,United States,719-738-3300,37.6226,-104.7829,Open daily 7:00 am-9:00 pm,,0
Albertsons,925,2551 E Lohman,,Las Cruces,NM,88011,United States,575-521-9837,32.3174,-106.7433,Daily 6:00 am - 12:00 am,,0
Albertsons,909,1285 S El Paseo Rd,,Las Cruces,NM,88001,United States,575-523-5538,32.2983,-106.7701,Daily 6:00 am - 12:00 am,,0
Albertsons,913,2501 N Main,,Las Cruces,NM,88001,United States,575-524-1980,32.3336,-106.7831,Daily 6:00 am - 12:00 am,,0
Albertsons,1837,1545 S Prairie Ave,,Pueblo,CO,81005,United States,719-561-9101,38.2411,-104.6452,Daily 6:00 am - 11:00 pm,,0
,,1231 S Prairie,,Pueblo,CO,81005,United States,719-561-1234,38.2448,-104.6443,Open daily 6:00 am-11:00 pm,,0
Albertsons,816,1601 Hwy 50 W,,Pueblo,CO,81008,United States,719-543-5671,38.311,-104.6279,Daily 6:00 am - 11:00 pm,,0
,,1017 N Market Plaza,,Pueblo,CO,81007,United States,719-547-2108,38.3258,-104.6973,Open daily 6:00 am-11:00 pm,,0
,,611 N Spruce,,Ogallala,NE,69153,United States,308-284-4044,41.1299,-101.7196,Open Daily 6:00 am - 10:00 pm,,0
,,6925 Mesa Ridge Pkwy,,Fountain,CO,80817,United States,719-322-9351,38.7204,-104.71,Open daily 5:00 am-midnight,,0
,,7655 Mclaughlin Rd,,Falcon,CO,80831,United States,719-495-7300,38.9415,-104.6015,Open daily 5:00 am-11:00 pm,,0
,,7507 Mclaughlin Rd,,Falcon,CO,80831,United States,719-495-6609,38.9405500429601,-104.604175857424,Open daily 6:00 am-10:00 pm,,0
,,1425 S Murray Blvd,,Colorado Springs,CO,80916,United States,719-591-0880,38.8124,-104.7463,Open daily 5:00 am-11:00 pm,,0
,,2890 N Powers,,Colorado Springs,CO,80922,United States,719-573-4860,38.8739,-104.7224,Open daily 5:00 am-midnight,,0
,,6520 S Academy Blvd,,Colorado Springs,CO,80906,United States,719-527-0146,38.7674,-104.8149,Open daily 5:00 am-11:00 pm,,0
,,1121 N Circle Dr,,Colorado Springs,CO,80909,United States,719-573-6023,38.8484,-104.7723,Open daily 5:00 am-midnight,,0
,,1920 S Nevada Ave,,Colorado Springs,CO,80906,United States,719-636-5255,38.8062,-104.8234,Open daily 5:00 am-midnight,,0
Albertsons,803,7055 Austin Bluffs Pkwy,,Colorado Springs,CO,80923,United States,719-264-8650,38.9326,-104.7387,Daily 6:00 am - 11:00 pm,,0
,,5060 N Academy Blvd,,Colorado Springs,CO,80918,United States,719-593-1343,38.9035,-104.7773,Open daily 5:00 am-midnight,,0
,,2210 N Wahsatch Ave,,Colorado Springs,CO,80907,United States,719-471-7243,38.8646,-104.8173,Open daily 5:00 am-midnight,,0
Albertsons,840,8750 N Union Blvd,,Colorado Springs,CO,80920,United States,719-282-9066,38.9588,-104.767,Daily 6:00 am - 11:00 pm,,0
,,3275 W Colorado Ave,,Colorado Springs,CO,80904,United States,719-473-6307,38.8548,-104.8768,Open daily 6:00 am-12:00 am,,0
,,1301 Main St,,Alamosa,CO,81101,United States,719-587-3075,37.4698,-105.8764,Open daily 6:00 am-11:00 pm,,0
Albertsons,879,4405 Centennial Blvd,,Colorado Springs,CO,80919,United States,719-593-8805,38.8949,-104.8499,Daily 6:00 am - 12:00 am,,0
,,1414 Main St,,Canon City,CO,81212,United States,719-275-5221,38.4458,-105.228,Open daily 6:00 am-11:00 pm,,0
,,840 Village Ctr Dr,,Colorado Springs,CO,80919,United States,719-548-1404,38.9238,-104.8444,Open daily 5:00 am-11:00 pm,,0
,,220 S Elizabeth St,,Elizabeth,CO,80107,United States,303-646-0336,39.3599,-104.6099,Open daily 5:00 am-11:00 pm,,0
,,624 Hwy 105,,Monument,CO,80132,United States,719-488-1187,39.0989,-104.8654,Open daily 5:00 am-midnight,,0
,,309 S Gate Shopping Ctr,,Culpeper,VA,22701,United States,540-825-8337,38.4622,-78.0025,Open daily 5:00 am-midnight,,0
,,1101 E US Hwy 24,,Woodland Park,CO,80863,United States,719-686-1836,38.9826,-105.0469,Open daily 5:00 am -11:00 pm,,0
,,620 W Platte Ave,,Fort Morgan,CO,80701,United States,970-867-3377,40.2557,-103.8167,Open daily 6:00 am-10:00 pm,,0
,,1039 Us Hwy 24,,Woodland Park,CO,80863,United States,719-686-0144,38.9815880185506,-105.067170841634,Open daily 6:00 am-10:00 pm,,0
,,1200 Second Ave,,Monte Vista,CO,81144,United States,719-852-5121,37.5782,-106.1422,Open daily 7:00 am-9:00 pm,,0
,,880 S Perry St,,Castle Rock,CO,80104,United States,303-688-5028,39.3619,-104.8608,Open daily 5:00 am-midnight,,0
,,11051 S Parker Rd,,Parker,CO,80134,United States,303-840-1604,39.516,-104.7663,Open daily 6:00 am-midnight,,0
,,6100 S Gun Club Rd,,Aurora,CO,80016,United States,303-400-4870,39.6048,-104.7147,Daily 5:00 am - 11:00 pm,,0
,,1944 Illinois St,,Sidney,NE,69162,United States,308-254-4767,41.1449,-102.9893,Mon-Sat: 6:00 am-10:00 pm;Sun: 7:00 am-9:00 pm,,0
,,20153 E Smoky Hill Rd,,Centennial,CO,80015,United States,303-690-0866,39.613,-104.7517,Open daily 5:00 am-midnight,,0
,,18730 E Hampden Ave,,Aurora,CO,80013,United States,720-876-2244,39.6512,-104.7695,Open daily 5:00 am-midnight,,0
,,9229 E Lincoln Ave,,Lone Tree,CO,80124,United States,303-649-9111,39.5378,-104.8832,Open daily 5:00 am-midnight,,0
,,1200 S Buckley Rd,,Aurora,CO,80017,United States,303-750-6802,39.6948,-104.7888,Daily 5:00 am - 11:00 pm,,0
,,7375 E Arapahoe Rd,,Englewood,CO,80112,United States,303-771-8707,39.5964,-104.9034,Open daily 5:00 am-midnight,,0
,,189 W Lee Hwy,,Warrenton,VA,20186,United States,540-347-7909,38.7306,-77.797,Open daily 5:00 am-midnight,,0
,,12200 E Mississippi Ave,,Aurora,CO,80012,United States,303-751-6603,39.6959,-104.8453,Open daily 6:00 am-11:00 pm,,0
,,9255 S Broadway,,Highlands Ranch,CO,80129,United States,303-683-1983,39.5478,-104.9942,Open daily 5:00 am-12:00 am,,0
,,1677 S Havana,,Aurora,CO,80012,United States,303-481-2279,39.6862,-104.8683,Open daily 5:00 am-midnight,,0
,,181 W Mineral Ave,,Littleton,CO,80120,United States,303-218-2100,39.5748,-104.9919,Open daily 5:00 am-midnight,,0
,,8355 N Rampart Range Rd,,Littleton,CO,80125,United States,303-242-3563,39.4833,-105.0754,Open daily 5:00 am-11:00 pm,,0
,,6440 E Yale Ave,,Denver,CO,80222,United States,303-691-8870,39.6664,-104.9148,Open daily 5:00 am - 11:00 pm,,0
,,200 Quebec St #400,,Denver,CO,80230,United States,303-340-4455,39.7205,-104.9009,Daily 6:00 am - 12:00 am,,0
,,1653 S Colorado Blvd,,Denver,CO,80222,United States,303-691-2960,39.6869,-104.9423,Open daily 6:00 am-11:00 pm,,0
,,201 E Jefferson Ave,,Englewood,CO,80113,United States,303-781-0463,39.6518,-104.9846,Open daily 5:00 am-midnight,,0
,,6220 E 14th Ave,,Denver,CO,80220,United States,303-242-3523,39.7371,-104.9155,Open daily 5:30 am-midnight,,0
,,2150 S Downing St,,Denver,CO,80210,United States,303-722-6117,39.6775,-104.9721,Open daily 5:00AM-12:00AM,,0
,,3110 E First Ave,,Denver,CO,80206,United States,303-355-5486,39.7171,-104.9511,Open daily 6:00 am-midnight,,0
,,8434 S Kipling Pkwy,,Littleton,CO,80128,United States,720-922-0305,39.5634,-105.1075,Daily 6:00 am - 11:00 pm,,0
,,560 Corona St,,Denver,CO,80218,United States,303-777-1231,39.725,-104.9733,Open daily 5:00 am-midnight,,0
,,323 S Broadway,,Denver,CO,80209,United States,303-744-8531,39.7107,-104.9889,Daily 5:00 am - 12:00 am,,0
,,12442 W Ken Caryl Ave,,Littleton,CO,80127,United States,303-978-1859,39.579,-105.1346,Open daily 5:00 am-11:00 pm,,0
,,757 E 20th Ave,,Denver,CO,80205,United States,303-861-8169,39.749,-104.9775,Open daily 6:00 am-midnight,,0
,,232 G St,,Salida,CO,81201,United States,719-539-3513,38.5361,-105.9944,Open daily 6:00 am-10:00 pm,,0
,,5025 S Kipling St,,Littleton,CO,80127,United States,303-973-6770,39.6256,-105.1112,Open daily 5:00 am-midnight,,0
,,2660 N Federal Blvd,,Denver,CO,80211,United States,303-477-5091,39.7557,-105.0244,Open daily 6:00 am-11:00 pm,,0
,,1605 Bridge St,,Brighton,CO,80601,United States,303-659-6461,39.9879,-104.8012,Open daily 6:00 am-midnight,,0
,,12821 Braemar Village Plaza,,Bristow,VA,20136,United States,703-257-0153,38.7499,-77.5711,Open daily 5:00 am-1:00 am,,0
,,12 W Washington St,,Middleburg,VA,20117,United States,540-687-6401,38.9689,-77.7361,Open daily 5:00 am-midnight,,0
,,11088 W Jewell,,Lakewood,CO,80232,United States,303-989-8810,39.6814,-105.1226,Open daily 5:00 am-midnight,,0
,,3800 W 44th Ave,,Denver,CO,80211,United States,303-458-8418,39.7761,-105.0369,Open daily 5:00 am-midnight,,0
,,3840 E 104th Ave,,Thornton,CO,80233,United States,303-255-7347,39.8833,-104.9427,Daily 5:00 am - 12:00 am,,0
,,9160 W Colfax,,Lakewood,CO,80215,United States,303-232-4989,39.7391,-105.0987,Open daily 6:00 am-midnight,,0
,,771 Thornton Pkwy,,Thornton,CO,80229,United States,303-280-2245,39.8724,-104.9759,Open daily 5:00 am-midnight,,0
,,13111 W Alameda Pkwy,,Lakewood,CO,80228,United States,303-980-9343,39.6984,-105.1459,Open daily 6:00 am-11:00 pm,,0
,,3900 Wadsworth Blvd,,Wheat Ridge,CO,80033,United States,303-456-2670,39.7712,-105.0796,Open daily 5:00 am-midnight,,0
,,27152 Main St,,Conifer,CO,80433,United States,303-838-4375,39.5273,-105.3033,Open daily 5:00 am-midnight,,0
,,7353 Federal Blvd,,Westminster,CO,80030,United States,303-412-2126,39.8297,-105.0274,Open daily 5:00 am-midnight,,0
,,1300 Dexter St,,Fort Lupton,CO,80621,United States,303-857-0136,40.0789,-104.8022,Open daily 6:00 am-11:00 pm,,0
,,500 E 120th Ave,,Northglenn,CO,80233,United States,303-450-2462,39.9123,-104.9809,Daily 6:00 am - 12:00 am,,0
,,10300 Federal Blvd,,Federal Heights,CO,80260,United States,303-469-0990,39.8836,-105.0226,Open daily 6:00 am-midnight,,0
Albertsons,914,1956 Hwy 180 E,,Silver City,NM,88061,United States,5753881909,32.7863,-108.2514,Daily 7:00 am - 11:00 pm,,0
,,7561 W 80th Ave,,Arvada,CO,80003,United States,303-420-0318,39.8436,-105.0809,Open daily 5:30 am-midnight,,0
,,4215 Cheshire Station Plaza,,Dale City,VA,22193,United States,703-590-5530,38.6454,-77.333,Open daily 5:00 am-12:00 am,,0
,,1701 Jackson St,,Golden,CO,80401,United States,303-278-1861,39.7521,-105.2154,Open daily 5:00 am-11:00 pm,,0
,,4240 Merchant Plaza,,Woodbridge,VA,22192,United States,703-590-1057,38.6729,-77.3348,Open daily 5:00 am-midnight,,0
,,3602 W 144th Ave,,Broomfield,CO,80023,United States,303-209-2405,39.9565,-105.0354,Open daily 5:00 am-midnight,,0
,,3851 S Hwy 74,,Evergreen,CO,80439,United States,303-674-6625,39.6458,-105.3402,Open Daily 5:00 am-11:00 pm,,0
,,8134 County Rd 13,,Firestone,CO,80504,United States,303-833-2844,40.119,-104.9397,Open daily 6:00 am-midnight,,0
,,2205 Old Bridge Rd,,Woodbridge,VA,22192,United States,703-494-8858,38.6775,-77.2792,Open daily 5:00 am-midnight,,0
,,8206 County Rd 13,,Firestone,CO,80520,United States,303-833-2844,40.1190908826081,-104.942066997785,Open daily 6:00 am-midnight,,0
,,1601 Coalton Rd,,Superior,CO,80027,United States,303-543-1153,39.9304,-105.149,Open daily 5:00 am-11:00 pm,,0
,,437 S King St,,Leesburg,VA,20175,United States,703-777-5833,39.1089,-77.5687,Open daily 5:00 am-midnight,,0
,,5727 Burke Centre Pkwy,,Burke,VA,22015,United States,703-323-8784,38.7998,-77.3212,Open daily 5:00 am-midnight,,0
,,12200 W Ox Rd,,Fairfax,VA,22033,United States,703-359-0523,38.8671,-77.3668,Open 24 hours,,0
,,3333 Arapahoe Rd N B,,Erie,CO,80516,United States,720-890-0959,40.0169,-105.1008,Open daily 6:00 am-12:00 am,,0
,,910 W Cherry Ave,,Louisville,CO,80027,United States,303-6668-950,39.9637,-105.1601,Daily 6:00 am - 11:00 pm,,0
,,9596 Old Keene Mill Rd,,Burke,VA,22015,United States,703-440-1341,38.7783,-77.2751,Open daily 5:00 am-midnight,,0
,,4548 Centerplace Dr,,Greeley,CO,80634,United States,970-330-9956,40.3942,-104.7526,Open daily 6:00 am-midnight,,0
,,3526 W Tenth St,,Greeley,CO,80634,United States,970-351-8350,40.4211,-104.7364,Open daily 6:00 am-midnight,,0
,,10350 Willard Way,,Fairfax,VA,22030,United States,703-591-8473,38.8487,-77.3026,Mon-Sat 6:00 am-midnight ;Sun 7:00 am-11:00 pm,,0
,,9525 Braddock Rd,,Fairfax,VA,22032,United States,703-978-4604,38.8165,-77.2753,Open daily 5:00 am-midnight,,0
,,2304 Hunter'S Woods Plaza,,Reston,VA,20191,United States,703-716-4193,38.9355,-77.3623,Open daily 5:00 am-12:00 am,,0
,,22350 S Sterling Blvd,,Sterling,VA,20164,United States,703-948-1080,38.9975,-77.409,Open daily 5:30 am-midnight,,0
,,413 Elden St,,Herndon,VA,20170,United States,571-262-2968,38.9668,-77.3765,Open daily 5:00 am-12:00 am,,0
,,30 Pidgeon Hill Dr,,Sterling,VA,20165,United States,703-430-1192,39.0373,-77.4122,Open daily 5:00 am-midnight,,0
,,11120 S Lakes Dr,,Reston,VA,20191,United States,703-620-3400,38.9398,-77.3298,Open daily 5:00 am-1:00 am,,0
,,4800 E Baseline Rd,,Boulder,CO,80303,United States,303-494-5373,39.9981,-105.2343,Open daily 6:00 am-11:00 pm,,0
,,3043 Nutley St,,Fairfax,VA,22031,United States,703-269-2241,38.8713,-77.2609,Open 24 hours,,0
,,3129 Marshall Hall Rd,,Bryans Road,MD,20616,United States,301-283-6074,38.6293,-77.0754,Open daily 6:00 am-midnight,,0
,,1630 Pace,,Longmont,CO,80504,United States,303-485-9500,40.1872,-105.0719,Open daily 6:00 am-midnight,,0
,,1050 Ken Pratt Bvd,,Longmont,CO,80501,United States,303-651-7952,40.1537,-105.1094,Open daily 6:00 am-midnight,,0
,,2425 Miner St,,Idaho Springs,CO,80452,United States,303-567-4471,39.741,-105.5062,Open daily 5:00 am-10:00 pm,,0
,,7414 Little River Turnpike,,Annandale,VA,22003,United States,703-941-3874,38.8323,-77.2007,Open daily 5:00 am-midnight,,0
,,8646 Richmond Hwy,,Alexandria,VA,22309,United States,703-780-3646,38.7238,-77.1201,Open daily 5:00 am-midnight,,0
,,2798 Arapahoe,,Boulder,CO,80302,United States,303-443-5888,40.0133,-105.2594,Open daily 6:30 am-midnight,,0
,,40 Shining Willow Way,,La Plata,MD,20646,United States,301-392-1875,38.5423,-76.9821,Open Daily 5:00 AM - 1:00 AM,,0
,,5980 Kingstowne Towne Ctr,,Alexandria,VA,22315,United States,703-921-3125,38.77,-77.1413,Open daily 5:00 am-midnight,,0
,,3325 28th St,,Boulder,CO,80302,United States,303-938-1271,40.0353,-105.2601,Open daily 5:00 am-1:00 am,,0
,,7397 Lee Hwy,,Falls Church,VA,22042,United States,703-573-2057,38.875,-77.1986,Open daily 5:00 am-midnight,,0
,,9881 Georgetown Pike,,Great Falls,VA,22066,United States,703-759-3802,38.996,-77.2876,Open daily 5:00 am-11:00 pm,,0
,,1632 Hover Rd,,Longmont,CO,80501,United States,303-776-0506,40.1878,-105.1294,Open daily 6:00 am-midnight,,0
,,6130 Rose Hill Dr,,Alexandria,VA,22310,United States,703-313-8800,38.7843,-77.123,Open daily 5:00 am-midnight,,0
,,299 S Van Dorn St,,Alexandria,VA,22304,United States,703-751-4827,38.81,-77.1336,Open daily 5:00 am-midnight,,0
,,1688 Anderson Rd,,Mclean,VA,22102,United States,703-343-1000,38.9225,-77.2021,Open 24 hours,,0
,,7900 Ft Hunt Rd,,Alexandria,VA,22308,United States,703-765-0924,38.7431,-77.0573,Open daily 5:00 am-midnight,,0
,,6118 Arlington Blvd,,Falls Church,VA,22044,United States,703-531-0030,38.8697,-77.1445,Open daily 5:00 am-1:00 am,,0
,,5821 Crossroads Ctr Way,,Falls Church,VA,22041,United States,703-533-3800,38.8534,-77.1287,Open daily 5:00 am-midnight,,0
,,500 E Third St,,Alliance,NE,69301,United States,308-762-4661,42.0978,-102.8646,Open daily 6:00 am-10:00 pm,,0
,,1624 Belle View,,Alexandria,VA,22307,United States,703-765-3434,38.7764,-77.0608,Open 24 hours,,0
,,1330 Chain Bridge Rd,,Mclean,VA,22101,United States,703-356-6118,38.9395,-77.1758,Open daily 5:00 am-midnight,,0
,,3526 King St,,Alexandria,VA,22302,United States,571-312-0029,38.8278,-77.0897,Open 24 hours,,0
,,2500 N Harrison St,,Arlington,VA,22207,United States,703-538-6700,38.8968,-77.1393,Open daily 5:00 am-midnight,,0
,,5101 Wilson Blvd,,Arlington,VA,22205,United States,703-524-1528,38.8779,-77.1235,Open daily 5:00 am-midnight,,0
,,6244 Old Dominion Dr,,Mclean,VA,22101,United States,703-538-6539,38.9208,-77.1503,Open daily 5:00 am-midnight,,0
,,1535 Main St,,Windsor,CO,80550,United States,970-674-1177,40.4779,-104.9278,Open daily 6:00 am-midnight,,0
,,10104 River Rd,,Potomac,MD,20854,United States,301-983-2150,39.0164,-77.2086,Open daily 5:00 am-midnight,,0
,,500 S Royal St,,Alexandria,VA,22314,United States,703-836-0380,38.7979,-77.0445,Open daily 5:00 am - 10:00 pm,,0
,,10 King St,,Waldorf,MD,20602,United States,301-843-2825,38.6018,-76.9036,Open daily 5:00 am-midnight,,0
,,990 E Swan Creek Rd,,Fort Washington,MD,20744,United States,301-965-6000,38.7269,-76.9919,Open 24 hours,,0
,,3051 Waldorf Pazza Dr,,Waldorf,MD,20603,United States,301-632-5680,38.6269,-76.917,Open daily 5:00 am-midnight,,0
,,3713 Lee Hwy,,Arlington,VA,22207,United States,703-841-1155,38.8967,-77.1057,Open daily 6:00 am-12:00 am,,0
,,815 E Main St,,Middletown,MD,21769,United States,301-371-3126,39.4388,-77.5256,Open daily 5:00 am-12:00 am,,0
,,12251 Darnestown Rd,,Gaithersburg,MD,20878,United States,301-417-0866,39.1187,-77.2536,Open daily 5:00 am-midnight,,0
,,4865 Macarthur Blvd NW,,Washington,DC,20007,United States,202-337-5649,38.9174,-77.0959,Open daily 5:00 am-midnight,,0
,,4701 Sangamore Rd,,Bethesda,MD,20816,United States,301-320-1770,38.9501,-77.1194,Open daily 5:30 am-midnight,,0
,,1525 Wilson Blvd,,Arlington,VA,22209,United States,703-276-9315,38.8952,-77.0752,Open daily 6:00 am-10:00 pm,,0
,,860 Cleveland,,Loveland,CO,80537,United States,970-669-3440,40.4007,-105.0738,Open daily 6:00 am-10:00 pm,,0
,,6235 Oxon Hill Rd,,Oxon Hill,MD,20745,United States,301-839-0718,38.8045,-76.9855,Open daily 5:00 am-midnight,,0
,,1855 Wisconsin Ave NW,,Washington,DC,20007,United States,202-333-3223,38.9161,-77.0672,Open 24 hours,,0
,,19718 Germantown Rd,,Germantown,MD,20874,United States,301-916-8584,39.1806,-77.2663,Open daily 5:00 am-midnight,,0
,,14939 Shady Grove Rd,,Rockville,MD,20850,United States,301-944-1584,39.0979,-77.192,Open daily 5:00 am-midnight,,0
,,1451 W Eisenhower Blvd,,Loveland,CO,80538,United States,970-593-9779,40.4085,-105.0981,Daily 6:00 am - 11:00 pm,,0
,,5000 Bradley Blvd,,Bethesda,MD,20815,United States,301-215-4148,38.9775,-77.0991,Open 24 hours,,0
,,15916 S Crain Hwy,,Brandywine,MD,20613,United States,301-242-9260,38.6743,-76.8723,Open daily 5:00 am-midnight,,0
,,1100 4th St SW,,Washington,DC,20024,United States,202-554-9155,38.8774,-77.0173,Open daily 5:00 am-midnight,,0
,,7625 Old Georgetown Rd,,Bethesda,MD,20814,United States,301-907-0700,38.9861,-77.0961,Open daily 5:00 am-midnight,,0
,,2321 W Eisenhower,,Loveland,CO,80537,United States,970-669-1342,40.4087,-105.1095,Open daily 6:00 am-11:00 pm,,0
,,1701 Corcoran St NW,,Washington,DC,20009,United States,202-667-6825,38.9121,-77.039,Open daily 5:00 am-midnight,,0
,,5545 Connecticut Ave NW,,Washington,DC,20015,United States,202-244-6097,38.9647,-77.075,Open daily 5:00 am-midnight,,0
,,1747 Columbia Rd NW,,Washington,DC,20009,United States,202-667-0774,38.9241,-77.0411,Open daily 5:00 am-midnight,,0
,,490 L St NW,,Washington,DC,20001,United States,202-719-2435,38.9032,-77.0181,Open 24 hours,,0
,,403 Redland Blvd,,Rockville,MD,20850,United States,301-990-3150,39.1132,-77.1716,Open daily 5:00 am-midnight,,0
,,927 W 7th St,,Frederick,MD,21701,United States,301-695-2833,39.4276,-77.4153,Open daily 5:00 am-10:00 pm,,0
,,1800 Rockville Pike,,Rockville,MD,20852,United States,301-945-3608,39.0601,-77.1213,Open 24 hours,,0
,,415 14th St SE,,Washington,DC,20003,United States,202-547-4333,38.8836,-76.9866,Open daily 5:00 am-midnight,,0
,,3830 Georgia Ave NW,,Washington,DC,20011,United States,202-722-4023,38.9391,-77.0258,Open 24 hours,,0
,,2845 Alabama Ave SE,,Washington,DC,20020,United States,202-575-7525,38.859,-76.9663,Open daily 5:00 am-midnight,,0
,,8785 Branch Ave,,Clinton,MD,20735,United States,301-856-7850,38.7723,-76.8894,Open daily 5:00 am-12 Midnight,,0
,,10541 Connecticut Ave,,Kensington,MD,20895,United States,301-945-4273,39.0277,-77.0752,Open 24 hours,,0
,,1601 Maryland Ave NE,,Washington,DC,20002,United States,202-398-6903,38.9004,-76.9798,Open daily 6:00 am-midnight,,0
,,1426 E Harmony Rd,,Fort Collins,CO,80525,United States,970-223-6335,40.5251,-105.052,Open daily 6:00 am-midnight,,0
,,6500 Piney Branch Rd NW,,Washington,DC,20012,United States,202-723-5644,38.9696,-77.0266,Open daily 5:00 am-midnight,,0
,,20211 Goshen Rd,,Gaithersburg,MD,20879,United States,301-670-1626,39.1884,-77.1848,Open daily 5:00 am-midnight,,0
,,5510 Norbeck Rd,,Rockville,MD,20853,United States,301-438-4020,39.0944,-77.11,Open daily 5:00 am-midnight,,0
,,909 Thayer Ave,,Silver Spring,MD,20910,United States,301-565-0686,38.9933,-77.0246,Open daily 5:00 am-1:00 am,,0
,,322 40th St NE,,Washington,DC,20019,United States,202-397-2802,38.8944,-76.9493,Open daily 6:00 am-10:00 pm,,0
,,11201 Georgia Ave,,Wheaton,MD,20902,United States,301-933-0436,39.0397,-77.0505,Open 24 hours,,0
Mason,,3660 S Mason St,,Fort Collins,CO,80525,United States,970-223-3221,40.5366,-105.0779,Daily 6:00 am - 12:00 am,,0
,,116 University Blvd,,Silver Spring,MD,20901,United States,301-593-7526,39.0207,-77.0152,Open daily 5:00 am-midnight,,0
Lemay,,731 S Lemay,,Fort Collins,CO,80524,United States,970-221-5845,40.5774,-105.0598,Daily 6:00 am - 12:00 am,,0
,,26300 Ridge Road,,Damascus,MD,20872,United States,301-253-3857,39.28849,-77.20436,Open 24 hrs,,0
,,9807 Main St,,Damascus,MD,20872,United States,301-391-6146,39.2902,-77.2021,Open daily 5:00 am-midnight,,0
,,3702 East-West Hwy,,Hyattsville,MD,20782,United States,301-955-1941,38.9665,-76.9542,Open 24 hours,,0
,,2160 W Drake Rd Unit 6,,Fort Collins,CO,80526,United States,970-484-6048,40.5545,-105.1167,Open daily 6:00 am-midnight,,0
,,151 Walkers Village Way,,Walkersville,MD,21793,United States,301-845-2844,39.4849,-77.342,Open daily 5:00 am-midnight,,0
,,10101 New Hampshire Ave,,Silver Spring,MD,20903,United States,301-445-6190,39.0214,-76.975,Open daily 5:00 am-midnight,,0
,,1900 N Poplar Way,,Leadville,CO,80461,United States,719-486-0795,39.2604,-106.2928,Open daily 6:00 am-11:00 pm,,0
,,3333 Spartan Rd,,Olney,MD,20832,United States,301-774-8153,39.1505,-77.0647,Open daily 5:00 am-midnight,,0
,,7605 Crain Hwy,,Upper Marlboro,MD,20872,United States,301-574-1351,38.7853,-76.7947,Open daily 5:00 am- 12:00,,0
,,15411 New Hampshire Ave,,Cloverly,MD,20905,United States,301-476-8300,39.1083,-76.9961,Open daily 5:00 am-midnight,,0
,,80 W Dares Beach Rd,,Prince Frederick,MD,20678,United States,410-414-7400,38.5454,-76.5901,Open daily 5:00 am-1:00 am,,0
,,601 Broadway,,Scottsbluff,NE,69361,United States,308-635-1232,41.8542,-103.6611,Open daily 6:00 am-10:00 pm,,0
,,1008 Summit Blvd,,Frisco,CO,80443,United States,970-668-5144,39.5898,-106.0968,Open daily 6:00 am-11:00 pm,,0
,,7595 Greenbelt Rd,,Greenbelt,MD,20770,United States,301-345-0150,38.9922,-76.8772,Open daily 5:00 am-midnight,,0
,,337 E Ridgeville Blvd,,Mount Airy,MD,21771,United States,301-829-6517,39.366,-77.1605,Open daily 5:00 am-midnight,,0
,,40 County Rd 804,,Fraser,CO,80442,United States,970-726-9484,39.9456,-105.8111,Open daily 6:00 am-11:00 pm,,0
,,10276 Southern Maryland Blvd,,Dunkirk,MD,20754,United States,301-855-3765,38.7187,-76.6628,Open daily 5:00 am-midnight,,0
,,112 S Spruce St,,Gunnison,CO,81230,United States,970-641-0787,38.5437,-106.9299,Open daily 6:00 am-10:00 pm,,0
,,12410 Fairwood Pkwy,,Bowie,MD,20720,United States,301-867-0340,38.9652,-76.7891,Open daily 5:00 am-midnight,,0
,,4101 N View Dr,,Bowie,MD,20716,United States,301-262-7992,38.9459,-76.7368,Open daily 5:00 am-midnight,,0
,,451 E Wonderview Ave,,Estes Park,CO,80517,United States,970-586-4447,40.3803,-105.5167,Open daily 6:00 am-11:00 pm,,0
,,5485 Harpers Farm Rd,,Columbia,MD,21044,United States,410-740-4501,39.2233,-76.8893,Open daily 5:00 am-midnight,,0
,,415 N Main St,,Aztec,NM,87410,United States,505-334-7334,36.8249,-107.9947,Open daily 5:00 am-midnight,,0
,,700 S Greeley Hwy,,Cheyenne,WY,82007,United States,307-635-7877,41.111,-104.8026,Open daily 5:00 am-12:00 am,,0
Pershing,,3355 E Pershing Blvd,,Cheyenne,WY,82001,United States,307-635-1151,41.1441,-104.7693,Daily 6:00 am - 11:00 pm,,0
,,2466 Chapel Lake Dr,,Gambrills,MD,21054,United States,410-451-4750,39.0404,-76.6803,Open 24 hours,,0
,,10000 Baltimore National Pike,,Ellicott City,MD,21042,United States,410-750-3000,39.2801,-76.858,Open daily 5:00 am-midnight,,0
,,1313 Londontowne Blvd,,Eldersburg,MD,21784,United States,410-552-1021,39.4071,-76.9489,Open daily 5:00 am-midnight,,0
Yellowstone,,5800 Yellowstone Rd,,Cheyenne,WY,82009,United States,307-637-8171,41.1727,-104.8299,Daily 5:00 am - 12:00 am,,0
,,4370 Montgomery Rd,,Ellicott City,MD,21043,United States,410-203-1210,39.2531,-76.8202,Open daily 5:00 am-midnight,,0
,,52 W Central Ave,,Edgewater,MD,21037,United States,410-919-1156,38.9282,-76.5722,Open daily 5:00 am-midnight,,0
,,7643 Arundel Mills Blvd,,Hanover,MD,21076,United States,410-904-7222,39.1519,-76.7221,Open 24 hours,,0
Albertsons,801,311 W College Dr,,Durango,CO,81301,United States,970-382-2224,37.272,-107.8852,Daily 5:00 am - 12:00 am,,0
Albertsons,1824,4909 E Main,,Farmington,NM,87402,United States,505-325-1486,36.7659,-108.1464,Daily 6:00 am - 12:00 am,,0
,,3540 E Main St,,Farmington,NM,87402,United States,505-327-3349,36.7517,-108.1608,Open daily 6:00 am-midnight,,0
,,444 Wmc Dr #116,,Westminster,MD,21158,United States,410-871-1200,39.5859,-77.013,Open 24 hours,,0
,,2635 Housley Rd,,Annapolis,MD,21401,United States,410-224-8890,38.9873,-76.5549,Open daily 5:00 am-12:00 midnight,,0
,,2131 N Frontage Rd W,,Vail,CO,81657,United States,970-476-3561,39.6311,-106.418,Open daily 6:00 am-11:00 pm,,0
,,1781 Forest Dr,,Annapolis,MD,21401,United States,410-626-2710,38.9699,-76.5228,Open daily 5:00 am-midnight,,0
,,540 Benfield Rd,,Severna Park,MD,21146,United States,410-647-9487,39.0833,-76.5834,Open daily 5:00 am-midnight,,0
,,5660 Baltimore National Pike,,Baltimore,MD,21228,United States,410-869-8220,39.2897,-76.7305,Open daily 5:00 am-midnight,,0
,,730 W Main St,,Farmington,NM,87401,United States,505-325-8732,36.7295,-108.2169,Open daily 7:00 am-11:00 pm,,0
,,1451 S Ritchie Hwy,,Arnold,MD,21012,United States,410-919-1000,39.0303,-76.504,Open 24 hours,,0
,,10335 Reisterstown Rd,,Owings Mills,MD,21117,United States,410-998-3820,39.4182,-76.7763,Open daily 5:00 am-midnight,,0
Albertsons,902,1702 E 66th Ave Zecca Plaza,,Gallup,NM,87301,United States,505-722-4457,35.5292,-108.717,Daily 7:00 am - 11:00 pm,,0
,,4211 Mountain Rd,,Pasadena,MD,21122,United States,410-439-4560,39.1204,-76.5143,Open daily 5:00 am-midnight,,0
,,980 N Hwy 666,,Gallup,NM,87301,United States,505-722-7620,35.5356,-108.7564,Open daily 6:00 am-10:00 pm,,0
,,2401 N Charles St,,Baltimore,MD,21218,United States,410-261-6110,39.3167,-76.6163,Open daily 6:00 am-midnight,,0
,,2610 Boston St,,Baltimore,MD,21224,United States,410-675-3704,39.2805,-76.5787,Open 24 hours,,0
,,4401 Harford Rd,,Baltimore,MD,21214,United States,410-319-8591,39.3393,-76.5712,Open Daily 6:00 am - 11:00 pm,,0
,,230 Morehead St,,Chadron,NE,69337,United States,308-432-4428,42.8304,-103.0026,Mon-Sat: 7:00 am-10:00 pm;Sun: 8:00 am-9:00 pm,,0
,,1017 York Rd,,Towson,MD,21204,United States,410-296-2267,39.4118,-76.6088,Open daily 5:00 am-midnight,,0
,,1925 Main St,,Chester,MD,21619,United States,410-604-0656,38.974,-76.2741,Open 24 hours,,0
,,8858 Waltham Woods Rd,,Carney,MD,21234,United States,410-882-8822,39.4003,-76.5441,Open daily 5:00 am-midnight,,0
,,139 N Washington St,,Easton,MD,21601,United States,410-822-5055,38.7761,-76.0773,Open daily 6:00 am-11:00 pm,,0
,,3499 Sweet Air Rd,,Phoenix,MD,21131,United States,410-666-0787,39.5152,-76.5575,Open daily 5:00 am-midnight,,0
,,203 S Mountain Ave,,Springerville,AZ,85938,United States,928-333-4165,34.1304,-109.2895,Open daily 6:00 am-10:00 pm,,0
,,9645 Belair Rd,,Nottingham,MD,21128,United States,410-256-3021,39.4135,-76.4604,Open daily 5:00 am-midnight,,0
,,225 Brierhill Dr,,Bel Air,MD,21015,United States,410-420-2050,39.5417,-76.324,Daily 5:00 am - 12:00 am,,0
,,1329 S Townsend Ave,,Montrose,CO,81401,United States,970-249-8822,38.4693,-107.8652,Open daily 6:00 am-11:00 pm,,0
,,554 N Third St,,Laramie,WY,82072,United States,307-721-5107,41.317,-105.5947,Open daily 6:00 am-11:00 pm,,0
,,1580 E Main St,,Cortez,CO,81321,United States,970-564-9590,37.3504,-108.5656,Open daily 6:00 am-10:00 pm,,0
,,2125 W Hwy 70,,Thatcher,AZ,85552,United States,928-428-2771,32.8352,-109.7345,Open daily 5:00 am-midnight,,0
,,2001 Grand,,Glenwood Springs,CO,81601,United States,970-945-2002,39.5318,-107.3266,Open daily 5:00 am-11:00 pm,,0
,,650 N Bisbee Ave,,Willcox,AZ,85643,United States,520-384-3952,32.2617,-109.8429,Open daily 6:00 am-midnight,,0
,,1307 16th St,,Wheatland,WY,82201,United States,307-322-4530,42.0608,-104.9645,Open daily 6:00 am-10:00 pm,,0
,,101 Naco Rd,,Bisbee,AZ,85603,United States,520-432-3038,31.4011,-109.9172,Open daily 6:00 am-midnight,,0
,,1550 Hwy 92,,Delta,CO,81416,United States,970-874-9032,38.7509,-108.0518,Open Daily 5:00 am-11:00 pm,,0
,,37500 E US Hwy 40,,Steamboat Springs,CO,80487,United States,970-879-3766,40.4659,-106.8241,Open daily 6:00 am-11:00 pm,,0
,,190 John Hunn Brown Rd,,Dover,DE,19901,United States,302-730-9100,39.1589,-75.5086,Open 24 hours,,0
,,20 W White Mountain Blvd,,Lakeside,AZ,85929,United States,928-367-6677,34.143,-109.9543,Open daily 5:00 am-midnight,,0
,,2400 Peoples Plaza,,Newark,DE,19702,United States,(302) 832-8290,39.603,-75.7484,Mon-Sat 5:00 am-midnight ;Sun 5:00 am - 10:00 pm,,0
,,19266 Coastal Hwy,,Rehoboth Beach,DE,19971,United States,302-226-3073,38.7241,-75.1267,Open daily 5:00 am-midnight,,0
,,900 W Deuce Of Clubs,,Show Low,AZ,85901,United States,928-532-5656,34.2468,-110.0522,Open daily 5:00 am-11:00 pm,,0
,,2190 E Fry Blvd,,Sierra Vista,AZ,85635,United States,520-459-4204,31.5529,-110.2759,Open daily 5:00 am-midnight,,0
,,599 W 4th St,,Benson,AZ,85602,United States,520-586-9094,31.9689,-110.3065,Open daily 6:00 am-midnight,,0
,,702 W Hopi Dr,,Holbrook,AZ,86025,United States,928-524-3313,34.9034,-110.1671,Open daily 6:00 am-10:00 pm,,0
,,2522 Foulk Rd,,Wilmington,DE,19810,United States,302-475-8803,39.8259,-75.4991,Mon-Sat 5:00 am-12:00 am;Sun 5:00 am-10:00 pm,,0
,,2901 F Rd,,Grand Junction,CO,81504,United States,970-248-9869,39.0905,-108.5136,Open daily 5:00 am-midnight,,0
,,681 Horizon Dr,,Grand Junction,CO,81506,United States,970-254-0227,39.1041,-108.5513,Open daily 5:00 am-midnight,,0
Safeway,897,2512 Broadway,,Grand Junction,CO,81507,United States,970-257-0072,39.0669,-108.5886,Daily 6:00 am - 11:00 pm,,0
,,2120 Mt. Rushmore Rd,,Rapid City,SD,57701,United States,605-348-5125,44.065,-103.2309,Open daily 6:00 am-10:00 pm,,0
,,730 Mountain View Rd,,Rapid City,SD,57702,United States,605-342-8455,44.0801,-103.2508,Open daily 6:00 am-midnight,,0
,,1900 E Richards,,Douglas,WY,82633,United States,307-358-3446,42.7439,-105.3607,Open daily 6:00 am-10:00 pm,,0
,,10380 E Broadway Blvd,,Tucson,AZ,85748,United States,520-885-7777,32.2195,-110.7713,Daily 5:00 am – 11:00 pm,,0
Albertsons,964,9595 E Broadway,,Tucson,AZ,85748,United States,520-751-7699,32.2216,-110.7877,Daily 6:00 am - 12:00 am,,0
,,9460 E Golf Links,,Tucson,AZ,85730,United States,520-296-0042,32.1901,-110.791,Open daily 5:00 am-midnight,,0
,,9125 E Tanque Verde,,Tucson,AZ,85749,United States,520-760-6087,32.259,-110.797,Open daily 6:00 am-midnight,,0
,,9050 E Valencia Rd,,Tucson,AZ,85747,United States,520-663-0009,32.1178,-110.7989,Open daily 5:00 am-midnight,,0
,,7177 E Tanque Verde,,Tucson,AZ,85715,United States,520-731-0117,32.252,-110.8391,Open daily 5:00 am-midnight,,0
,,240 S Hill St,,Globe,AZ,85501,United States,928-425-5390,33.3947,-110.7856,Open daily 5:00 am-11:00 pm,,0
Albertsons,963,6600 E Grant Rd,,Tucson,AZ,85715,United States,520-885-6109,32.2477,-110.852,Daily 6:00 am - 12:00 am,,0
Albertsons,959,6363 E 22nd St,,Tucson,AZ,85710,United States,520-571-9091,32.2078,-110.8558,Daily 6:00 am - 12:00 am,,0
,,6360 E Golf Links,,Tucson,AZ,85730,United States,520-514-2008,32.1902,-110.8559,Open daily 5:00 am-midnight,,0
,,4752 E Sunrise Dr,,Tucson,AZ,85718,United States,520-299-3534,32.3072,-110.8913,Open daily 5:00 am-midnight,,0
Albertsons,961,2854 N Campbell,,Tucson,AZ,85719,United States,520-321-1212,32.2588,-110.9425,Daily 6:00 am - 1:00 am,,0
,,1940 E Broadway Blvd,,Tucson,AZ,85719,United States,520-206-9047,32.2199,-110.943,Daily 4:00 am - 2:00 am,,0
,,1767 E Prince Rd,,Tucson,AZ,85719,United States,520-327-2287,32.2736,-110.9452,Open daily 6:00 am-midnight,,0
,,12122 N Rancho Vistoso Blvd,,Oro Valley,AZ,85755,United States,520-297-4344,32.4268,-110.9594,Open daily 5:00 am - 11:00 pm,,0
,,465 W Mariposa Rd,,Nogales,AZ,85621,United States,520-281-4929,31.3643,-110.9404,Open daily 5:00 am-1:00 am,,0
,,7110 N Oracle,,Tucson,AZ,85704,United States,520-575-0949,32.3358,-110.9747,Open daily 5:00 am-midnight,,0
,,1301 W Duval Mine Rd,,Sahuarita,AZ,85614,United States,520-648-2847,31.9009,-110.9924,Open daily 5:00 am- 11:00 pm,,0
Albertsons,988,5085 N La Canada Dr,,Tucson,AZ,85704,United States,520-696-0325,32.299,-110.9965,Daily 5:00 am - 12:00 am,,0
,,1551 W St Marys Rd,,Tucson,AZ,85745,United States,520-624-8442,32.2276,-110.998,Open daily 6:00 am-midnight,,0
,,1601 N Park Dr,,Winslow,AZ,86047,United States,928-289-3126,35.0367,-110.6996,Open daily 5:00 am-10:00 pm,,0
,,260 W Continental,,Green Valley,AZ,85614,United States,520-625-7283,31.8527,-110.9966,Open daily 5:00 am-11:00 pm,,0
Silverbell and Speedway,,1350 N Silverbell Rd,,Tucson,AZ,85745,United States,520-623-7449,32.2388,-111.0041,Daily 5:00 am - 12:00 am,,0
Albertsons,960,7300 N La Cholla Blvd,,Tucson,AZ,85741,United States,520-575-0993,32.3394,-111.0113,Daily 6:00 am - 12:00 am,,0
,,2140 W Grant,,Tucson,AZ,85745,United States,520-792-0083,32.2523,-111.0126,Open daily 6:00 am-midnight,,0
,,2940 W Valencia,,Tucson,AZ,85746,United States,520-578-0144,32.1351,-111.0298,Open daily 5:00 am-midnight,,0
,,9705 N Thornydale Rd,,Tucson,AZ,85742,United States,520-579-1083,32.3823,-111.0487,Open daily 6:00 am-11:00 pm,,0
,,9100 N Silverbell Rd,,Tucson,AZ,85743,United States,520-579-8365,32.3724,-111.1367,Open daily 5:00 am-11:00 pm,,0
,,1606 North Ave,,Spearfish,SD,57783,United States,605-642-5728,44.5002,-103.8581,Open daily 6:00 am-11:00 pm,,0
Hilltop,,2625 E 2nd St,,Casper,WY,82609,United States,307-237-9361,42.8481,-106.2924,Daily 6:00 am - 11:00 pm,,0
Westridge,,1076 CY Ave,,Casper,WY,82604,United States,307-266-0136,42.835,-106.3391,Daily 6:00 am - 11:00 pm,,0
,,401 E Hwy 260,,Payson,AZ,85541,United States,928-472-8208,34.2396,-111.3176,Open daily 5:00 am-midnight,,0
,,3325 N Hunt Hwy,,Florence,AZ,85132,United States,520-723-0179,33.0626,-111.4837,Open daily 5:00 am-10:00 pm,,0
,,1449 N Arizona Blvd,,Coolidge,AZ,85128,United States,520-723-5300,32.9938,-111.5214,Open daily 6:00 am-11:00 pm,,0
,,3185 W Apache Trail,,Apache Junction,AZ,85120,United States,480-982-6120,33.4137,-111.5797,Open daily 5:00 am-midnight,,0
Albertsons,1002,9243 E Baseline,,Mesa,AZ,85209,United States,480-986-3060,33.3777,-111.6336,Daily 6:00 am - 12:00 am,,0
,,9101 E Baseline,,Mesa,AZ,85209,United States,480-281-0161,33.3772,-111.6382,Open daily 5:00 am-midnight,,0
,,18495 E Queen Creek Rd,,Queen Creek,AZ,85142,United States,480-279-2733,33.2648,-111.684,Open daily 5:00 am-midnight,,0
Albertsons,929,8454 S Power Rd,,Gilbert,AZ,85297,United States,480-988-7280,33.2655,-111.6879,Daily 5:00 am - 12:00 am,,0
Albertsons,958,325 S Power Rd,,Mesa,AZ,85206,United States,480-924-9001,33.4096,-111.6824,Daily 6:00 am - 12:00 am,,0
,,1855 N Power Rd,,Mesa,AZ,85207,United States,480-281-2972,33.4498,-111.6821,Open daily 5:00 am-midnight,,0
Albertsons,989,2727 N Power Rd,,Mesa,AZ,85215,United States,480-396-9282,33.4651,-111.6818,Daily 6:00 am - 12:00 am,,0
,,1637 N Trekell Rd,,Casa Grande,AZ,85122,United States,520-421-7447,32.8953,-111.7415,Open daily 5:00 am-midnight,,0
,,5137 E Baseline Rd,,Gilbert,AZ,85234,United States,480-325-5807,33.3774,-111.7237,Open daily 5:00 am-midnight,,0
,,13733 Fountain Hills Blvd,,Fountain Hills,AZ,85268,United States,480-837-0287,33.6097,-111.728,Open daily 5:00 am-midnight,,0
,,3622 E Southern Ave,,Mesa,AZ,85206,United States,480-807-0447,33.3952,-111.7522,Open daily 5:00 am-11:00 pm,,0
,,90 S Val Vista Dr,,Gilbert,AZ,85296,United States,480-545-7555,33.3486,-111.7573,Open daily 5:00 am-midnight,,0
Albertsons,948,441 N Val Vista,,Mesa,AZ,85213,United States,480-830-5132,33.4239,-111.752,Daily 6:00 am - 12:00 am,,0
Albertsons,1023,861 E Warner Rd,,Gilbert,AZ,85296,United States,480-558-0105,33.3337,-111.7715,Daily 5:00 am - 12:00 am,,0
,,2740 E University Dr,,Mesa,AZ,85213,United States,480-833-9338,33.4241,-111.7719,Open daily 6:00 am-11:00 pm,,0
Albertsons,1021,2935 E Riggs Rd,,Chandler,AZ,85249,United States,480-802-1970,33.2177,-111.7908,Daily 5:00 am - 12:00 am,,0
,,1060 E Ray Rd,,Chandler,AZ,85225,United States,480-855-5005,33.3222,-111.8222,Open daily 5:00 am-midnight,,0
,,4910 N Hwy 89,,Flagstaff,AZ,86004,United States,928-526-6116,35.2259,-111.5785,Open daily 5:00 am-midnight,,0
Albertsons,981,3145 S Alma School Rd,,Chandler,AZ,85248,United States,480-899-7102,33.2608,-111.8569,Daily 6:00 am - 12:00 am,,0
Scottsdale,,11475 E Via Linda,,Scottsdale,AZ,85259,United States,(480) 767-0819,33.589,-111.8338,Daily 5:00 am - 12:00 am,,0
,,4970 S Alma School Rd,,Chandler,AZ,85248,United States,480-883-0255,33.2337,-111.8604,Open daily 5:00 am-midnight,,0
,,11275 E Via Linda,,Scottsdale,AZ,85259,United States,480-451-0006,33.5867,-111.8377,Open daily 5:00 am-midnight,,0
,,1159 W Chandler Blvd,,Chandler,AZ,85224,United States,480-726-7776,33.3038,-111.8615,Open daily 5:00 am-midnight,,0
,,1225 W Guadalupe,,Mesa,AZ,85202,United States,480-838-7452,33.3631,-111.8597,Open daily 5:00 am-midnight,,0
,,1960 W Main St,,Mesa,AZ,85201,United States,480-644-9448,33.4166,-111.8731,Open daily 5:00 am-midnight,,0
Albertsons,980,1951 W Baseline,,Mesa,AZ,85202,United States,480-456-4373,33.3774,-111.8761,Daily 6:00 am - 1:00 am,,0
,,1500 E Cedar Ave,,Flagstaff,AZ,86004,United States,928-774-3774,35.22,-111.6219,Open daily 5:00 am-midnight,,0
,,14696 N Frank Lloyd Wright Blvd,,Scottsdale,AZ,85260,United States,480-391-1090,33.6194,-111.8751,Open daily 5:00 am-midnight,,0
Albertsons,997,4060 W Ray Rd,,Chandler,AZ,85226,United States,480-491-1026,33.3222,-111.9128,Daily 6:00 am - 12:00 am,,0
,,1201 S Plaza Way,,Flagstaff,AZ,86001,United States,928-779-3401,35.1894,-111.6636,Open daily 5:00 am-midnight,,0
,,1515 E Elliot Rd,,Tempe,AZ,85284,United States,480-755-1844,33.3482,-111.9137,Open daily 5:00 am-midnight,,0
,,20901 N Pima Rd,,Scottsdale,AZ,85255,United States,480-585-3552,33.6758,-111.8881,Open daily 6:00 am-11:00 pm,,0
Albertsons,966,6965 N Hayden Rd,,Scottsdale,AZ,85250,United States,480-991-9707,33.5375,-111.9061,Daily 6:00 am - 12:00 am,,0
,,7920 E Chaparral,,Scottsdale,AZ,85250,United States,480-994-5653,33.5106,-111.9104,Open daily 5:00 am-midnight,,0
,,926 E Broadway Rd,,Tempe,AZ,85282,United States,480-829-6824,33.4089,-111.9251,Open daily 5:00 am-1:00 am,,0
Albertsons,940,750 E Guadalupe,,Tempe,AZ,85283,United States,480-820-8166,33.365,-111.9298,Daily 5:00 am - 12:00 am,,0
Albertsons,955,2785 N Scottsdale Rd,,Scottsdale,AZ,85257,United States,480-947-6977,33.479,-111.9241,Daily 6:00 am - 12:00 am,,0
,,10773 N Scottsdale Rd,,Scottsdale,AZ,85254,United States,480-948-6446,33.5831,-111.9242,Open daily 5:00 am-midnight,,0
,,23565 N Scottsdale Rd,,Scottsdale,AZ,85255,United States,480-585-9366,33.7,-111.9229,Open daily 5:00 am-11:00 pm,,0
,,32551 N Scottsdale Rd,,Scottsdale,AZ,85266,United States,480-595-9844,33.781,-111.9223,Open daily 6:00 am-11:00 pm,,0
,,6501 E Greenway Pkwy Bldg 4,,Scottsdale,AZ,85254,United States,480-991-3317,33.624,-111.9416,Open daily 5:00 am-midnight,,0
,,4747 E Elliot Rd,,Phoenix,AZ,85044,United States,480-496-0076,33.3477,-111.9818,Open daily 5:00 am-midnight,,0
,,2300 W Hwy 89A,,Sedona,AZ,86336,United States,928-282-0118,34.8648,-111.8013,Open daily 5:00 am-11:00 pm,,0
,,4750 E Indian School Rd,,Phoenix,AZ,85018,United States,602-840-2161,33.4959,-111.9792,Open daily 5:00 am-midnight,,0
Albertsons,970,10665 N Tatum Blvd,,Phoenix,AZ,85028,United States,480-443-3098,33.584,-111.9742,Daily 6:00 am - 12:00 am,,0
,,4005 E Chandler Blvd,,Phoenix,AZ,85048,United States,480-759-9611,33.303,-111.9962,Open daily 5:00 am-midnight,,0
,,4747 E Greenway Rd,,Phoenix,AZ,85032,United States,602-996-5635,33.6244,-111.979,Daily 5:00 am - 12:00 am,,0
Albertsons,1025,21001 N Tatum Blvd  Ste 76,,Phoenix,AZ,85050,United States,480-342-8231,33.6787,-111.9746,Daily 5:00 am - 12:00 am,,0
Gillette,,2610 S Douglas Hwy,,Gillette,WY,82718,United States,307-686-7352,44.2705,-105.495,Daily 5:00 am - 11:00 pm,,0
,,29834 N Cave Creek Rd,,Cave Creek,AZ,85331,United States,480-563-9335,33.7579,-111.9918,Open daily 5:00 am-midnight,,0
,,3132 E Camelback Rd,,Phoenix,AZ,85016,United States,602-955-6455,33.5113,-112.0147,Open daily 5:00 am-midnight,,0
,,3131 E Thunderbird Rd,,Phoenix,AZ,85032,United States,602-971-2137,33.6105,-112.0149,Open daily 5:00 am-midnight,,0
,,1334 E Chandler Blvd,,Phoenix,AZ,85048,United States,480-283-0032,33.3069,-112.0538,Open daily 5:00 am-midnight,,0
,,6202 S 16th St,,Phoenix,AZ,85042,United States,602-268-0022,33.3904,-112.0493,Open daily 6:00 am-10:00 pm,,0
Albertsons,985,18411 N Cave Creek Rd,,Phoenix,AZ,85032,United States,602-494-7388,33.6536,-112.0292,Daily 6:00 am - 12:00 am,,0
,,340 E Mcdowell,,Phoenix,AZ,85004,United States,602-252-4538,33.4662,-112.0675,Open daily 5:00 am-midnight,,0
,,810 E Glendale Ave,,Phoenix,AZ,85020,United States,602-331-0134,33.5394,-112.0623,Open daily 5:00 am-1:00 am,,0
,,13440 N 7th St,,Phoenix,AZ,85022,United States,602-547-1288,33.6089,-112.067,Open daily 5:00 am-midnight,,0
,,550 E Bell Rd,,Phoenix,AZ,85022,United States,602-863-4194,33.6417,-112.0671,Open daily 5:00 am-midnight,,0
,,520 W Osborn Rd,,Phoenix,AZ,85013,United States,602-274-7422,33.4885,-112.0817,Open daily 5:00 am-midnight,,0
Albertsons,952,8035 N 19th Ave,,Phoenix,AZ,85021,United States,602-678-0895,33.5545,-112.0982,Daily 5:00 am - 1:00 am,,0
,,8021 N 35th Ave,,Phoenix,AZ,85051,United States,602-841-0117,33.5539,-112.1318,Open daily 5:00 am-11:00 pm,,0
,,3450 W Bell Rd,,Phoenix,AZ,85053,United States,602-863-1431,33.6407,-112.1333,Open daily 5:00 am-11:00 pm,,0
,,650 Elm St,,Page,AZ,86040,United States,928-645-8155,36.9158,-111.4577,Open daily 5:00 am-11:00 pm,,0
Albertsons,1004,3130 W Carefree Hwy,,Phoenix,AZ,85086,United States,623-582-4985,33.8,-112.1269,Daily 5:00 am - 12:00 am,,0
,,1635 E Cottonwood Ln,,Cottonwood,AZ,86326,United States,928-634-3711,34.7274,-112.0078,Open daily 5:00 am-midnight,,0
,,5035 W Baseline Rd,,Phoenix,AZ,85339,United States,602-567-7561,33.3763,-112.1662,Open daily 5:00 am-midnight,,0
,,3800 W Happy Valley Rd,,Phoenix,AZ,85310,United States,623-518-1946,33.7144,-112.1409,Open daily 5:00 am-midnight,,0
,,3655 W Anthem Way,,Anthem,AZ,85086,United States,623-745-3800,33.865217,-112.139039,Daily 5:00 am - 12:00 am,,0
Albertsons,941,5040 W Cactus,,Glendale,AZ,85304,United States,602-843-1871,33.5978,-112.1671,Daily 5:00 am - 12:00 am,,0
,,5860 W Thunderbird,,Glendale,AZ,85306,United States,602-863-9700,33.6128,-112.1842,Open daily 5:00 am-11:00 pm,,0
,,20205 N 67th Ave N 100,,Glendale,AZ,85308,United States,623-572-8814,33.6694,-112.2002,Open daily 5:00 am-midnight,,0
,,4811 N 83rd Ave,,Phoenix,AZ,85033,United States,623-247-4447,33.5076,-112.2357,Open daily 5:00 am-midnight,,0
,,12320 N 83rd Ave,,Peoria,AZ,85381,United States,623-773-1109,33.5966,-112.2397,Open daily 6:00 am-11:00 pm,,0
Albertsons,991,8240 W Deer Valley Rd,,Peoria,AZ,85382,United States,623-572-5744,33.6832,-112.2364,Daily 5:00 am - 12:00 am,,0
Albertsons,971,8950 W Bell Rd,,Peoria,AZ,85382,United States,623-876-8103,33.6398,-112.2517,Daily 6:00 am - 12:00 am,,0
,,10641 W Olive Ave,,Peoria,AZ,85345,United States,623-583-7227,33.5639,-112.2885,Open daily 5:00 am-midnight,,0
,,10926 W Bell Rd,,Sun City,AZ,85373,United States,623-972-1350,33.6386,-112.2923,Open daily 5:00 am-11:00 pm,,0
Albertsons,926,12970  W Indian School Rd,,Litchfield Park,AZ,85340,United States,623-535-7991,33.4947,-112.338,Daily 6:00 am - 12:00 am,,0
,,28455 N Vistancia Blvd,,Peoria,AZ,85383,United States,623-243-9204,33.7408,-112.3205,Open daily 5:00 am-midnight,,0
,,13503 Camino Del Sol,,Sun City West,AZ,85375,United States,623-975-2304,33.655,-112.3499,Open daily 5:00 am-11:00 pm,,0
,,14175 W Indian School Rd,,Goodyear,AZ,85395,United States,623-935-3228,33.4839,-112.364,Open daily 5:00 am-midnight,,0
,,13828 W Waddell Rd,,Surprise,AZ,85379,United States,623-476-1810,33.6106,-112.3575,Open daily 5:00 am-11:00 pm,,0
,,14505 W Grand Ave,,Surprise,AZ,85374,United States,623-975-4022,33.6536,-112.3723,Open daily 6:00 am-11:00 pm,,0
Albertsons,977,14551 W Grand Ave,,Surprise,AZ,85374,United States,623-546-8038,33.6561,-112.3762,Daily 5:00 am - 11:00 am,,0
,,440 N Estrella Pkwy,,Goodyear,AZ,85338,United States,623-476-1708,33.4515,-112.3945,Open daily 5:00 am-11:00 pm,,0
,,9890 S Estrella Pkwy,,Goodyear,AZ,85338,United States,623-691-6417,33.3578,-112.4283,Open daily 5:00 am-11:00 pm,,0
,,637 W Route 66,,Williams,AZ,86046,United States,928-635-0500,35.248,-112.1941,Open daily 5:00 am-midnight,,0
,,17049 W Bell Rd,,Surprise,AZ,85374,United States,623-518-1059,33.6373,-112.4253,Open daily 5:00 am-midnight,,0
,,7720 E Hwy 69,,Prescott Valley,AZ,86314,United States,928-772-6126,34.5873,-112.3298,Open daily 5:00 am-midnight,,0
Rock Springs,,1323 Dewar Dr,,Rock Springs,WY,82901,United States,307-362-8386,41.5757,-109.2362,Daily 6:00 am - 11:00 pm,,0
,,450 White Spar Rd,,Prescott,AZ,86303,United States,928-778-3086,34.5311,-112.4748,Open daily 6:00 am-11:00 pm,,0
,,1031 N US Hwy 89,,Chino Valley,AZ,86323,United States,928-636-8358,34.761,-112.4517,Open daily 5:00 am-midnight,,0
,,1044 Willow Creek Rd,,Prescott,AZ,86301,United States,928-445-4550,34.5615,-112.4845,Open daily 5:00 am-midnight,,0
,,1999 W Wickenburg Way,,Wickenburg,AZ,85390,United States,928-684-2999,33.961,-112.7708,Open daily 5:00 am-11:00 pm,,0
,,709 N Federal Blvd,,Riverton,WY,82501,United States,307-856-6524,43.0311,-108.382,Open daily 6:00 am-11:00 pm,,0
,,1165 Main St,,Lander,WY,82520,United States,307-332-3636,42.8377,-108.7466,Open daily 6:00 am-11:00 pm,,0
Sheridan,,1865 Coffeen Ave,,Sheridan,WY,82801,United States,307-672-8909,44.7777,-106.9414,Daily 6:00 am - 11:00 pm,,0
Miles City,,519 S Haynes Ave,,Miles City,MT,59301,United States,406-232-2580,46.4032,-105.8245,Daily 7:00 am - 10:00 pm,,0
Washington,,915 Redcliffs Dr,,Washington,UT,84780,United States,435-628-0424,37.1254,-113.5246,Daily 6:00 am - 12:00 am,,0
,,1585 W 3500 S,,West Valley City,UT,84119,United States,801-908-6710,40.696710119708,-111.936059367258,Daily 6:00 am - 12:00 am,,0
,,729 N Redwood Rd,,Salt Lake City,UT,84116,United States,801-364-7390,40.7854042857143,-111.93938,Daily 6:00 am - 12:00 am,,0
,,3125 Stockton Hill,,Kingman,AZ,86401,United States,928-753-2943,35.2146,-114.0368,Open daily 5:00 am-midnight,,0
,,3970 Stockton Hill Rd,,Kingman,AZ,86409,United States,928-681-4900,35.2383,-114.0357,Open daily 5:00 am-midnight,,0
Santa Clara,,745 N Dixie Dr,,Saint George,UT,84770,United States,435-688-7156,37.1209,-113.6246,Daily 6:00 am - 12:00 am,,0
Glendive,,307 N Harmon,,Glendive,MT,59330,United States,406-365-3324,47.1086,-104.7277,Daily 7:00 am - 10:00 pm,,0
,,121 W Riverside Dr,,Parker,AZ,85344,United States,928-669-2243,34.1536,-114.2777,Open daily 5:00 am-11:00 pm,,0
Tooele,,740 N Main,,Tooele,UT,84074,United States,435-882-8240,40.5445,-112.2963,Daily 6:00 am - 11:00 pm,,0
Lake Havasu City,,1980 Mcculloch Blvd,,Lake Havasu City,AZ,86403,United States,928-854-5300,34.4762,-114.3345,Daily 6:00 am - 12:00 am,,0
,,1650 Mcculloch Blvd N,,Lake Havasu,AZ,86403,United States,928-855-7760,34.4742,-114.3419,Open daily 5:00 am-midnight,,0
Cody,,1825 17th St,,Cody,WY,82414,United States,307-527-7007,44.5179,-109.0554,Daily 6:00 am - 11:00 pm,,0
Blythe,,840 E Hobson Way,,Blythe,CA,92225,United States,760-922-4099,33.6092,-114.5872,Daily 6:00 am - 12:00 am,,0
Albertsons,951,252 W 32nd St,,Yuma,AZ,85364,United States,928-726-9500,32.6714,-114.6209,Daily 6:00 am - 12:00 am,,0
Albertsons,931,2378 W 24th St,,Yuma,AZ,85364,United States,928-343-2330,32.6852,-114.6482,Daily 5:00 am - 12:00 am,,0
,,4823 S Hwy 95,,Fort Mohave,AZ,86426,United States,928-704-4433.,35.0166,-114.5994,Open daily 5:00 am-1:00 am,,0
,,1751 Hwy 95,,Bullhead City,AZ,86442,United States,928-763-3555,35.1219,-114.5885,Open daily 5:00 am-1:00 am,,0
Williston,,20 26th St E,,Williston,ND,58801,United States,701-572-1097,48.1677,-103.6224,Daily 6:00 am - 12:00 am,,0
Jackson,,105 Buffalo Way,,Jackson,WY,83001,United States,307-733-5950,43.4727,-110.7891,Daily 6:00 am - 12:00 am,,0
Billings Heights,,670 Main,,Billings,MT,59105,United States,406-245-8792,45.8102,-108.4735,Daily 6:00 am - 11:00 pm,,0
6th & Central,,511 Central Ave,,Billings,MT,59102,United States,406-245-0115,45.7707,-108.5285,Daily 6:00 am - 12:00 am,,0
27th Street,,611 N 27th St,,Billings,MT,59101,United States,406-248-7474,45.7879,-108.5084,Daily 6:00 am - 11:00 pm,,0
Boulder City,,1008 Nevada Hwy,,Boulder City,NV,89005,United States,702-293-7611,35.9761,-114.8451,Daily 5:00 am - 12:00 am,,0
13th & Grand,,1212 Grand Ave,,Billings,MT,59102,United States,406-245-4118,45.7826,-108.5478,Daily 6:00 am - 12:00 am,,0
24th Central,,2334 Central Ave,,Billings,MT,59102,United States,406-656-8160,45.7682,-108.5753,Daily 6:00 am - 11:00 pm,,0
Grand & Rehberg,,3137 Grand Ave,,Billings,MT,59102,United States,406-652-8370,45.7853,-108.5929,Daily 6:00 am - 12:00 am,,0
College & Horizon,,575 College Dr,,Henderson,NV,89015,United States,702-568-0115,36.0138,-114.965,Daily 5:00 am - 12:00 am,,0
Henderson,,190 N Boulder Hwy,,Henderson,NV,89015,United States,702-565-3068,36.0418,-114.9812,Daily 5:00 am - 12:00 am,,0
,,45 E Horizon Ridge Pkwy,,Henderson,NV,89002,United States,702-558-3966,36.009,-114.9933,Open Daily 5:00 am - 12:00 am,,0
Stephanie & Horizon,,201 S Stephanie St,,Henderson,NV,89012,United States,702-269-1502,36.0204,-115.0495,Daily 6:00 am - 12:00 am,,0
E Lake Mead,,6885 E Lake Mead Blvd,,Las Vegas,NV,89156,United States,702-453-0845,36.1947,-115.0238,Daily 6:00 am - 11:00 pm,,0
Boulder Hwy,,5500 Boulder Hwy,,Las Vegas,NV,89122,United States,702-435-6777,36.1018,-115.0546,Daily 6:00 am - 12:00 am,,0
Sloan & Charleston,,5881 E Charleston Blvd,,Las Vegas,NV,89142,United States,702-457-1400,36.1584,-115.0452,Daily 24 Hours,,0
Vegas Valley & Nellis,,2835 S Nellis Blvd,,Las Vegas,NV,89121,United States,702-457-1491,36.1385,-115.0672,Daily 7:00 am - 11:00 pm,,0
,,2511 Anthem Village,,Henderson,NV,89052,United States,702-617-2505,35.9784,-115.0999,5am-12am daily,,0
Anthem & Bicentennial,,2910 Bicentennial Pkwy,,Henderson,NV,89044,United States,702-567-1023,35.9424,-115.1175,Daily 5:00 am - 12:00 am,,0
,,2667 E Windmill Pkwy,,Henderson,NV,89074,United States,702-361-0099,36.0414,-115.1028,Open Daily 5:00 am - 12:00 am,,0
Eastern & Warm Springs,,7271 S Eastern Ave,,Las Vegas,NV,89119,United States,702-269-7166,36.058,-115.1204,Daily 6:00 am - 12:00 am,,0
Desert Inn & Pecos,,2885 E Desert Inn Rd,,Las Vegas,NV,89121,United States,702-792-7156,36.1283,-115.111,Open Daily 5:00 am - 12:00 am,,0
Silverado & Maryland,,9725 S Maryland Pkwy,,Las Vegas,NV,89183,United States,702-616-1946,36.0122,-115.1383,Daily 5:00 am - 1:00 am,,0
Charleston & Burnham,,1760 E Charelston Blvd,,Las Vegas,NV,89104,United States,702-366-1550,36.1569,-115.1255,Daily 7:00 am - 10:00 pm,,0
,,1131 E Tropicana Ave,,Las Vegas,NV,89119,United States,702-798-8697,36.1,-115.1376,Open 24 hours,,0
Flamingo & Maryland,,1300 E Flamingo Rd,,Las Vegas,NV,89109,United States,702-733-2947,36.1158,-115.136,Daily 24 Hours,,0
,,475 E Windmill Ln,,Las Vegas,NV,89123,United States,702-896-7544,36.0412,-115.1525,Open Daily 5:00 am - 12:00 am,,0
,,1185 E. Twain Ave,,Las Vegas,NV,89169,United States,702-696-0906,36.12217,-115.137837058824,Open 24 Hours,,0
,,1155 E Twain Ave,,Las Vegas,NV,89169,United States,702-696-0906,36.1209,-115.139,Open 24 hours,,0
Blue Diamond and Decatur,,4800 Blue Diamond Rd,,Las Vegas,NV,89139,United States,702-260-0318,36.0354,-115.2067,Daily 6:00 am - 1:00 am,,0
Ann & Simmons,,3010 W Ann Rd,,North Las Vegas,NV,89031,United States,702-656-3103,36.2632,-115.1812,Daily 6:00 am - 10:00 pm,,0
Tropicana & Jones,,5975 W Tropicana Ave,,Las Vegas,NV,89103,United States,702-889-2000,36.0986,-115.2239,Daily 24 Hours,,0
Rainbow & Warm Springs,,7350 S Rainbow Blvd,,Las Vegas,NV,89139,United States,702-739-1033,36.0548,-115.2413,Open Daily 5:00 am - 12:00 am,,0
Craig & Decatur,,4850 W Craig Rd,,Las Vegas,NV,89032,United States,702-515-1455,36.2405,-115.2091,Daily 6:00 am - 11:00 pm,,0
,,7975 Blue Diamond Rd.,,Las Vegas,NV,89178,United States,702-614-4221,36.018418,-115.264881,Open Daily 5:00 am - 1:00 am,,0
Rainbow & Charleston,,1001 S Rainbow Blvd,,Las Vegas,NV,89145,United States,702-877-3338,36.1602,-115.2455,Daily 6:00 am - 12:00 am,,0
,,475 W Main St,,Brawley,CA,92227,United States,760-351-3002,32.9801,-115.5484,Open daily 5:00 am-1:00 am,,0
,,351 Wake Ave,,El Centro,CA,92244,United States,760-352-9970,32.7703,-115.5504,Daily 7:00 am - 10:00 pm,,0
,,7405 S Durango Dr,,Las Vegas,NV,89113,United States,702-263-4568,36.0539,-115.2813,Open 24 hours,,0
Vegas & Buffalo,,1650 N Buffalo Dr,,Las Vegas,NV,89128,United States,702-562-6079,36.1899,-115.2585,Daily 24 Hours,,0
Tenaya & Craig,,7151 W Craig Rd,,Las Vegas,NV,89129,United States,702-839-9034,36.2382,-115.2503,Daily 6:00 am - 12:00 am,,0
Ann & Drexel,,7075 W Ann Rd,,Las Vegas,NV,89130,United States,702-839-2727,36.2608,-115.2478,Daily 6:00 am - 12:00 am,,0
,,8540 W Desert Inn Rd,,Las Vegas,NV,89117,United States,702-240-0293,36.1316,-115.2773,Open 24 hours,,0
Flamingo & Durango,,4055 S Durango Dr,,Las Vegas,NV,89147,United States,702-869-1474,36.116,-115.2806,Daily 6:00 am - 11:00 pm,,0
,,750 N Imperial Ave,,El Centro,CA,92243,United States,760-353-4603,32.7989,-115.5717,Open daily 5:00 am-1:00 am,,0
,,6450 Sky Pointe Dr,,Las Vegas,NV,89131,United States,702-515-1815,36.2803,-115.2614,Open Daily 5:00 am - 12:00 am,,0
W Cheyenne & Soaring Gulls Dr,,8350 W Cheyenne Ave,,Las Vegas,NV,89129,United States,702-395-2700,36.2202,-115.2753,Daily 24 Hours,,0
Fort Apache & Sahara,,2550 S Fort Apache Rd,,Las Vegas,NV,89117,United States,702-242-1138,36.1433,-115.2957,Daily 7:00 am - 12:00 am,,0
Hualapai & Flamingo,,10140 W Flamingo Rd,,Las Vegas,NV,89147,United States,702-562-1745,36.1167,-115.3136,Daily 6:00 am - 12:00 am,,0
El Capitan & Farm,,8410 Farm Rd,,Las Vegas,NV,89131,United States,702-658-2030,36.3005,-115.2794,Daily 6:00 am - 12:00 am,,0
Village Center Circle,,1940 Village Center Circle,,Las Vegas,NV,89134,United States,702-341-0308,36.1936,-115.3059,Daily 5:00 am - 12:00 am,,0
Charleston & Town Center,,10250 W Charleston Blvd,,Las Vegas,NV,89135,United States,702-838-4322,36.161,-115.3196,Daily 6:00 am - 1:00 am,,0
Wolf Point,,415 Blaine St,,Wolf Point,MT,59201,United States,406-653-1700,48.0924,-105.6436,Daily 7:00 am - 10:00 pm,,0
Desert Foothills & Charleston Blvd,,11720 W Charleston Blvd,,Las Vegas,NV,89135,United States,702-363-1153,36.1609,-115.3506,Daily 5:00 am - 12:00 am,,0
4th & Benton,,330 E Benton St,,Pocatello,ID,83201,United States,208-233-0455,42.8625,-112.4431,Daily 6:00 am - 12:00 am,,0
Hitt & 17th,,1901 S 25th E,,Ammon,ID,83406,United States,208-524-8100,43.4804,-111.9823,Daily 6:00 am - 12:00 am,,0
17th Street,,590 E 17th St,,Idaho Falls,ID,83404,United States,208-523-0950,43.4811,-112.0217,Daily 6:00 am - 12:00 am,,0
Skyline,,1705 W Broadway St,,Idaho Falls,ID,83402,United States,208-522-3392,43.4958,-112.0649,Daily 5:30 am - 12:00 am,,0
Rexburg,,490 N 2nd E,,Rexburg,ID,83440,United States,208-356-0555,43.8364,-111.7755,Daily 6:00 am - 12:00 am,,0
Glasgow,,54181 US Hwy 2,,Glasgow,MT,59230,United States,406-228-8252,48.1975,-106.6367,Daily 7:00 am - 10:00 pm,,0
S Hwy 160 & Basin,,200 S Hwy 160,,Pahrump,NV,89048,United States,775-751-0160,36.2169,-115.995,Daily 6:00 am - 10:00 pm,,0
Livingston,,2120 W Park St,,Livingston,MT,59047,United States,406-222-1177,45.6422,-110.5757,Daily 6:00 am - 11:00 pm,,0
,,78-271 State Hwy 111,,La Quinta,CA,92253,United States,760-564-2001,33.7149,-116.2983,Open daily 5:00 am-11:00 pm,,0
Washington & 42nd Streets,,42095 Washington St,,Palm Desert,CA,92211,United States,760-360-6322,33.7428,-116.3055,Daily 6:00 am - 11:00 pm,,0
Highway 111 & Deep Canyon Rd,,74590 Hwy 111,,Palm Desert,CA,92260,United States,760-346-2566,33.7229,-116.3639,Daily 6:00 am - 11:00 pm,,0
Monterey & Country Club,,40101 Monterey Ave,,Rancho Mirage,CA,92270,United States,760-674-4769,33.7562,-116.393,Daily 6:00 am - 12:00 am,,0
,,57590 29 Palms Hwy,,Yucca Valley,CA,92284,United States,760-365-8998,34.1268,-116.4082,Open daily 6:00 am-12:00 am,,0
,,4733 E Palm Canyon Dr,,Palm Springs,CA,92264,United States,760-324-4502,33.7919,-116.4946,Open daily 6:00 am-midnight,,0
,,14200 Palm Dr,,Desert Hot Springs,CA,92240,United States,760-251-1636,33.9453,-116.5,Open daily 6:00 am-midnight,,0
Sunrise & Vista Chino,,1751 N Sunrise Way (#1),,Palm Springs,CA,92262,United States,760-778-6576,33.8472,-116.5297,Daily 6:00 am - 12:00 am,,0
,,1735 W Main St,,Bozeman,MT,59715,United States,406-587-9017,45.6802,-111.0603,Open daily 6:00 am-midnight,,0
West Bozeman,,200 S 23rd Ave,,Bozeman,MT,59718,United States,406-586-4785,45.6765,-111.0651,Daily 6:00 am - 12:00 am,,0
Lewistown,,117 W Janeaux St,,Lewistown,MT,59457,United States,406-538-5454,47.0654,-109.4228,Daily 6:00 am - 12:00 am,,0
Alpine Blvd & S Grade Rd,,2955 Alpine Blvd,,Alpine,CA,91901,United States,619-445-0231,32.833,-116.7502,Daily 6:00 am - 11:00 pm,,0
Belgrade,,6999 Jackrabbit Ln,,Belgrade,MT,59714,United States,406-388-0901,45.7717,-111.1872,Daily 5:00 am - 12:00 am,,0
Main & 14th St,,1459 Main St,,Ramona,CA,92065,United States,760-789-0023,33.0395,-116.8772,Daily 5:00 am - 11:00 pm,,0
,,42170 Big Bear Blvd,,Big Bear Lake,CA,92315,United States,909-866-8459,34.2524,-116.8852,Open daily 6:00 am-midnight,,0
3202 El Cajon,,1608 Broadway St,,El Cajon,CA,92021,United States,619-579-3127,32.809,-116.9201,Daily 6:00 am - 12:00 am,,0
Winter Gardens & Winter Crest,,9560 Winter Gardens Blvd,,Lakeside,CA,92040,United States,619-561-5521,32.8515,-116.9326,Daily 6:00 am - 11:00 pm,,0
,,950 N Second St,,El Cajon,CA,92021,United States,619-444-6888,32.8084,-116.9365,Open daily 6:00 am-11:00 pm,,0
Jamacha Rd & Campo Rd,,2899 Jamacha Rd,,El Cajon,CA,92019,United States,619-660-9717,32.7392,-116.9375,Daily 6:00 am - 11:00 pm,,0
Banning,,300 S Highland Springs #7,,Banning,CA,92220,United States,951-769-1779,33.9248,-116.9449,Daily 6:00 am - 10:00 pm,,0
,,1201 Avocado Blvd,,El Cajon,CA,92020,United States,619-440-0881,32.7789,-116.9562,Open daily 6:00 am-1:00 am,,0
,,1745 Eastlake Pkwy,,Chula Vista,CA,91915,United States,619-397-3467,32.6196,-116.9609,Open daily 6:00 am-midnight,,0
Malta,,30 S 3rd St E,,Malta,MT,59538,United States,406-654-2041,48.3571,-107.8734,Daily 7:00 am - 10:00 pm,,0
,,2250 Otay Lakes,,Chula Vista,CA,91915,United States,619-656-0406,32.6458,-116.9663,Open daily 5:00 am-midnight,,0
Campo & Bonita,,9831 Campo Rd,,Spring Valley,CA,91977,United States,619-462-6290,32.7469,-116.9841,Daily 6:00 am - 10:00 pm,,0
,,9643 Mission Gorge Rd,,Santee,CA,92071,United States,619-596-5930,32.8373,-116.987,Open daily 5:00 am-1:00 am,,0
Fletcher Parkway,,8920 Fletcher Pkwy,,La Mesa,CA,91942,United States,619-667-4343,32.7862,-117.0054,Daily 6:00 am - 11:00 pm,,0
Sweetwater Rd & Hwy 54,,543 Sweetwater Rd,,Spring Valley,CA,91977,United States,619-461-5700,32.7082,-117.0085,Daily 6:00 am - 11:00 pm,,0
Lake Murray & Navajo,,8650 Lake Murray Blvd,,San Diego,CA,92119,United States,619-697-8896,32.8016,-117.0132,Daily 6:00 am - 11:00 pm,,0
,,8011 University Ave,,La Mesa,CA,91942,United States,619-464-1011,32.7654,-117.0238,Open daily 5:00 am-midnight,,0
,,5630 Lake Murray Blvd,,La Mesa,CA,91942,United States,619-589-0342,32.7824,-117.0323,Daily 6:00 am - midnight,,0
,,13438 Poway Rd,,Poway,CA,92064,United States,858-748-8833,32.9579,-117.0396,Open daily 6:00 am-midnight,,0
,,4404 Bonita Rd,,Bonita,CA,91902,United States,619-512-0125,32.6599,-117.0322,Open daily 5:00 am-1:00 am,,0
,,2345 E Valley Pkwy,,Escondido,CA,92027,United States,760-489-5950,33.1391,-117.0444,Open daily 6:00 am-midnight,,0
,,620 Dennery Rd,,San Diego,CA,92154,United States,619-428-3302,32.583,-117.0346,Open daily 6:00 am-midnight,,0
Broadway & Massachusetts,,7090 Broadway,,Lemon Grove,CA,91945,United States,619-463-4418,32.7438,-117.0454,Daily 6:00 am - 11:00 pm,,0
East Valley Parkway & Rose,,1509 E Valley Pkwy,,Escondido,CA,92027,United States,760-735-5131,33.1315,-117.0595,Daily 6:00 am - 11:00 pm,,0
Rancho Bernardo & Pomerado,,12475 Rancho Bernardo Rd,,San Diego,CA,92128,United States,858-385-9223,33.0175,-117.0617,Daily 6:00 am - 12:00 am,,0
,,6155 El Cajon Blvd,,San Diego,CA,92115,United States,619-583-4142,32.7609,-117.0649,Open daily 6:00 am-1:00 am,,0
,,11986 Bernardo Plaza Dr,,San Diego,CA,92128,United States,858-487-8221,33.021,-117.0722,Open daily 5:00 am-1:00 am,,0
,,351 W Felicita Ave,,Escondido,CA,92025,United States,760-743-8860,33.103,-117.0731,Open daily 5:00 am-midnight,,0
,,1270 E Main St,,Barstow,CA,92311,United States,760-256-8105,34.8957,-117.0085,Open daily 6:00 am-11:00 pm,,0
,,33644 Yucaipa Blvd,,Yucaipa,CA,92399,United States,909-797-7052,34.0354,-117.07,Open daily 5:00 am-midnight,,0
3rd & J Street,,720 3rd Ave,,Chula Vista,CA,91910,United States,619-498-5160,32.6265,-117.0758,Daily 6:00 am - 11:00 pm,,0
,,330 W El Norte Pkwy,,Escondido,CA,92026,United States,760-741-0928,33.1433,-117.094,Open daily 5:00 am-midnight,,0
Hwy 79 & Margarita Rd,,31960 Temecula Pkwy,,Temecula,CA,92592,United States,951-303-1133,33.4822,-117.1005,Daily 6:00 am - 11:00 pm,,0
,,10675 Scrpps Poway Pkwy,,San Diego,CA,92131,United States,858-693-0638,32.9354,-117.0985,Open daily 5:00 am-1:00 am,,0
,,6555 Mission Gorge Rd,,San Diego,CA,92120,United States,619-284-1355,32.79,-117.0958,Open daily 5:00 am-1:00 am,,0
,,665 Saturn Blvd,,San Diego,CA,92154,United States,619-575-2200,32.5847,-117.0901,Open daily 6:00 am-midnight,,0
,,10016 Scripps Ranch Blvd,,San Diego,CA,92131,United States,858-271-5350,32.9031,-117.1004,Open daily 5:00 am-1:00 am,,0
9th & Valley,,1570 W Valley Pkwy,,Escondido,CA,92029,United States,760-738-1669,33.1087,-117.1058,Daily 6:00 am - 11:00 pm,,0
,,1000 W El Norte Pkwy,,Escondido,CA,92026,United States,760-747-5920,33.1487,-117.1063,Open daily 5:00 am-midnight,,0
,,10460 Clairemont Mesa Blvd,,San Diego,CA,92124,United States,858-560-4565,32.8305,-117.1041,Open daily 6:00 am-midnight,,0
,,3610 Adams Ave,,San Diego,CA,92116,United States,619-280-7634,32.7628,-117.1144,Open daily 5:00 am-1:00 am,,0
,,3550 Murphy Canyon Dr,,San Diego,CA,92123,United States,858-292-5007,32.8072,-117.1165,Open daily 5:00 am-1:00 am,,0
Rancho Calif Rd & Margarita,,30530 Rancho California Rd,,Temecula,CA,92591,United States,951-694-0244,33.5102,-117.1272,Daily 5:00 am - 11:00 pm,,0
,,13255 Black Mountain Rd,,San Diego,CA,92129,United States,858-484-7234,32.9579,-117.1249,Open daily 5:00 am-1:00 am,,0
,,4145 30th St,,San Diego,CA,92104,United States,619-284-6672,32.753,-117.1295,Open daily 5:00 am-1:00 am,,0
Woodland & Mission,,151 Woodland Pkwy,,San Marcos,CA,92069,United States,760-736-8880,33.14,-117.1383,Daily 6:00 am - 11:00 pm,,0
,,38995 Sky Canyon Dr,,Murrieta,CA,92563,United States,951-600-9583,33.5542,-117.1385,Open daily 5:00 am-midnight,,0
Hwy 79 & Murrieta,,39140 Winchester Rd,,Murrieta,CA,92563,United States,951-600-4461,33.5512,-117.1386,Daily 6:00 am - 12:00 am,,0
Twin Falls,,1221 Addison Ave E,,Twin Falls,ID,83301,United States,208-733-3573,42.5641,-114.4585,Daily 6:00 am - 12:00 am,,0
,,8310 Mira Mesa Blvd,,San Diego,CA,92126,United States,858-271-4830,32.9152,-117.1447,Open daily 5:00 am-1:00 am,,0
,,29530 Rancho California Rd,,Temecula,CA,92591,United States,951-695-6773,33.5052,-117.1478,Open daily 6:00 am-midnight,,0
,,7895 Highland Village Place,,San Diego,CA,92129,United States,858-780-9026,32.961,-117.1537,Daily 5:00 am – 12:00 am,,0
14th & Market,,655 14th St,,San Diego,CA,92101,United States,619-237-1247,32.7121,-117.1515,Daily 6:00 am - 12:00 am,,0
,,"330 Lewis St , 2nd Floor",,San Diego,CA,92103,United States,,32.7518511764706,-117.161727058824,,,0
I,,28047 Scott Rd,,Murrieta,CA,92563,United States,951-246-1586,33.6393,-117.1698,Daily 6:00 am - 12:00 am,,0
,,515 W Washington St,,San Diego,CA,92103,United States,619-220-0195,32.7494,-117.1681,Open daily 5:00 am-1:00 am,,0
Cypress & Redlands Blvd,,450 E Cypress Ave,,Redlands,CA,92373,United States,909-792-1114,34.0485,-117.1714,Daily 6:00 am - 10:00 pm,,0
,,5555 Balboa Ave,,San Diego,CA,92111,United States,858-279-4661,32.8183,-117.179,Open daily 5:00 am-1:00 am,,0
,,868 Orange St,,Coronado,CA,92118,United States,619-435-6811,32.6879,-117.179,Open daily 5:00 am-12:00 am,,0
,,522 N Orange St,,Redlands,CA,92374,United States,909-793-0447,34.0601,-117.181,Open daily 5:00 am-midnight,,0
,,27220 Sun City Blvd,,Sun City,CA,92586,United States,951-679-0127,33.7128,-117.1931,Open daily 6:00 am-10:00 pm,,0
San Elijo & Elfin Forest,,1571 San Elijo Rd S,,San Marcos,CA,92078,United States,760-798-1058,33.0969,-117.1997,Daily 6:00 am - 11:00 pm,,0
Murrieta,,41000 California Oaks Rd,,Murrieta,CA,92562,United States,951-600-1027,33.5669,-117.2037,Daily 7:00 am - 11:00 pm,,0
,,671 Rancho Santa Fe,,San Marcos,CA,92078,United States,760-591-7600,33.1323,-117.2054,Daily 6:00 am - midnight,,0
,,3993 Governor Dr,,San Diego,CA,92122,United States,858-453-1883,32.8536,-117.2031,Open daily 6:00 am-midnight,,0
Boulder & Baseline,,7201 Boulder Ave,,Highland,CA,92346,United States,909-425-9100,34.1239,-117.1935,Daily 6:00 am - 11:00 pm,,0
,,4725 Clairemont Dr,,San Diego,CA,92117,United States,858-483-4670,32.8301,-117.205,Open daily 5:00 am-1:00 am,,0
Rancho Santa Fe & San Marcos B,,1929 W San Marcos Blvd,,San Marcos,CA,92078,United States,760-598-7272,33.1319,-117.211,Daily 6:00 am - 11:00 pm,,0
,,4627 Carmel Mountain Rd,,San Diego,CA,92130,United States,858-523-1842,32.9203,-117.215,Open daily 6:00 am-midnight,,0
Vista & Foothill Bobier,,1301 E Vista Way,,Vista,CA,92084,United States,760-806-2785,33.2186,-117.2242,Daily 6:00 am - 11:00 pm,,0
,,"2495 Truxtun Rd, Suite 100",,San Diego,CA,92106,United States,619-758-1725,32.7369,-117.2161,Open daily 5:00 am-1:00 am,,0
,,3645 Midway Dr,,San Diego,CA,92110,United States,619-222-6462,32.751,-117.2174,Open daily 5:00 am-2:00 am,,0
,,9350 Campus Point Drive,,La Jolla,CA,92037,United States,,32.8797287856326,-117.2238276633,,,0
,,7788 Regents Rd,,San Diego,CA,92122,United States,858-455-6130,32.8626,-117.2235,Open daily 6:00 am-12:00 am,,0
,,940 S Santa Fe,,Vista,CA,92084,United States,760-758-0620,33.1942,-117.2326,Open daily 6:00 am-11:00 pm,,0
,,3439 Via Montebello,,Carlsbad,CA,92009,United States,760-633-0114,33.0822,-117.2322,Open daily 5:00 am-2:00 am,,0
,,3850 Valley Centre Dr,,San Diego,CA,92130,United States,858-793-4661,32.9392,-117.232,Open daily 5:00 am-1:00 am,,0
I,,23893 Clinton Keith Rd,,Wildomar,CA,92595,United States,951-600-4607,33.5956,-117.2415,Daily 6:00 am - 11:00 pm,,0
,,1702 Garnet Ave,,San Diego,CA,92109,United States,858-273-8340,32.8019,-117.239,Open daily 5:00 am-1:00 am,,0
,,1680 Garnet Ave,,Pacific Beach,CA,92109,United States,858-273-8340,32.8001191836735,-117.239313469388,Open daily 5:00 am-11:00 pm,,0
Melrose & Live Oak,,1601 S Melrose Dr,,Vista,CA,92081,United States,760-598-0142,33.1668,-117.2481,Daily 6:00 am - 11:00 pm,,0
,,2606 Del Mar Heights Rd,,Del Mar,CA,92014,United States,858-755-5304,32.9514,-117.2464,Open daily 6:00 am-11:00 pm,,0
Mission & Ammunition,,1133 S Mission Rd,,Fallbrook,CA,92028,United States,760-723-8177,33.3717,-117.2559,Daily 5:00 am - 12:00 am,,0
,,931 Lomas Santa Fe Dr,,Solana Beach,CA,92075,United States,858-481-1008,32.994,-117.2545,Open daily 6:00 am-midnight,,0
Hwy 18 & Thunderbird,,20261 Hwy 18,,Apple Valley,CA,92307,United States,760-242-3660,34.5251,-117.2203,Daily 6:00 am - 11:00 pm,,0
,,262 N El Camino Real,,Encinitas,CA,92024,United States,760-942-4044,33.0512,-117.2622,Open daily 5:00 am-1:00 am,,0
,,6951 El Camino Real,,Carlsbad,CA,92009,United States,760-431-0157,33.1034,-117.2687,Open daily 5:00 am-1:00 am,,0
,,7544 Girard Ave,,La Jolla,CA,92037,United States,858-454-2620,32.8417,-117.2735,Open daily 5:00 am-1:00 am,,0
,,453 Santa Fe Dr,,Encinitas,CA,92024,United States,760-633-9770,33.0348,-117.2825,Open daily 6:00 am-midnight,,0
Oceanside & College,,4150 Oceanside Blvd,,Oceanside,CA,92056,United States,760-940-8282,33.2078,-117.2874,Daily 6:00 am - 11:00 pm,,0
,,845 College Blvd,,Oceanside,CA,92057,United States,760-630-4884,33.2407,-117.2947,Open daily 6:00 am-12:00 am,,0
,,31564 Grape St,,Lake Elsinore,CA,92532,United States,951-245-2002,33.6607,-117.2935,Open daily 5:00 am-2:00 am,,0
Marron & College,,3450 Marron Rd,,Oceanside,CA,92056,United States,760-729-3468,33.1796,-117.2965,Daily 6:00 am - 11:00 pm,,0
,,12199 Hesperia Rd,,Victorville,CA,92395,United States,760-241-2288,34.4725,-117.2896,Open daily 6:00 am-midnight,,0
Mission & Douglas,,3925 Mission Ave,,Oceanside,CA,92058,United States,760-433-8107,33.2275,-117.3239,Daily 6:00 am - 11:00 pm,,0
,,2560 El Camino Real,,Carlsbad,CA,92008,United States,760-729-2771,33.1787,-117.3247,Open daily 5:00 am-1:00 am,,0
Van Buren & Trautwein,,8938 Trautwein Rd,,Riverside,CA,92508,United States,951-656-6603,33.8904,-117.3229,Daily 5:00 am - 12:00 am,,0
,,985 Tamarack Ave,,Carlsbad,CA,92008,United States,760-729-4722,33.1522,-117.334,Open daily 6:00 am-midnight,,0
North Lake Elsinore,,30901 Riverside Dr,,Lake Elsinore,CA,92530,United States,951-245-4461,33.6861,-117.367,Daily 6:00 am - 11:00 pm,,0
,,570 N Montana St,,Dillon,MT,59725,United States,406-683-5002,45.2238,-112.6276,Open daily 6:00 am-midnight,,0
,,3520 Riverside Plaza,,Riverside,CA,92506,United States,951-342-7924,33.9546,-117.3894,Open daily 5:00 am-midnight,,0
Elko,,2582 Idaho St,,Elko,NV,89801,United States,775-738-8016,40.8517,-115.7431,Daily 6:00 am - 12:00 am,,0
Van Buren & Lincoln,,2975 Van Buren Blvd,,Riverside,CA,92503,United States,951-689-2252,33.91,-117.4363,Daily 6:00 am - 12:00 am,,0
,,11800 De Palma Rd,,Corona,CA,92883,United States,951-603-0809,33.7473,-117.4532,Open daily 5:00 am-midnight,,0
,,7390 Cherry Ave,,Fontana,CA,92336,United States,909-429-3928,34.1199,-117.4904,Open daily 6:00 am-midnight,,0
,,535 N Mckinley St,,Corona,CA,92879,United States,951-278-8012,33.8914,-117.5201,Open daily 6:00 am-midnight,,0
Ontario & Rimpau,,1260 E Ontario Ave,,Corona,CA,92881,United States,951-734-8451,33.8468,-117.5423,Daily 5:00 am - 12:00 am,,0
Hailey,,911 N Main St,,Hailey,ID,83333,United States,208-788-6709,43.5273,-114.3219,Daily 6:00 am - 10:00 pm,,0
,,6170 Hamner Ave,,Eastvale,CA,91752,United States,951-360-1901,33.9765,-117.5577,Open daily 5:00 am-midnight,,0
,,369 Magnolia Ave,,Corona,CA,92879,United States,951-549-1900,33.8544,-117.5657,Open daily 6:00 am-midnight,,0
Milliken & Highland,,11358 Kenyon Way,,Rancho Cucamonga,CA,91701,United States,909-941-7166,34.1355,-117.5572,Daily 5:00 am - 12:00 am,,0
Foothill Pkwy & Main,,260 W Foothill Pkwy,,Corona,CA,92882,United States,951-340-1425,33.8435,-117.5743,Daily 6:00 am - 12:00 am,,0
,,6351 Haven Ave,,Rancho Cucamonga,CA,91737,United States,909-980-4277,34.1386,-117.574,Open daily 6:00 am-midnight,,0
,,22451 Antonio Pkwy,,Rancho Santa Margarita,CA,92688,United States,949-858-0164,33.6368,-117.5914,Open daily 5:00 am-midnight,,0
Schleisman & Archibald,,7070 Archibald Ave,,Eastvale,CA,92880,United States,951-279-0333,33.9594,-117.5916,Daily 6:00 am - 11:00 pm,,0
Ave Pico & Ave La Plata,,989 Avendia Pico,,San Clemente,CA,92673,United States,949-369-5466,33.4567,-117.6034,Daily 6:00 am - 10:00 pm,,0
Harlem,,117 Main St S,,Harlem,MT,59526,United States,406-353-2225,48.5317,-108.7848,Daily 7:00 am - 9:00 pm,,0
Avenida Pico & Presidio,,804 Avenida Pico,,San Clemente,CA,92673,United States,949-492-1755,33.4428,-117.6139,Daily 6:00 am - 11:00 pm,,0
Foothill & Vineyard,,8850 Foothill Blvd,,Rancho Cucamonga,CA,91730,United States,909-484-7237,34.1083,-117.6122,Daily 5:00 am - 12:00 am,,0
,,8778 19th St,,Rancho Cucamonga,CA,91701,United States,909-989-1000,34.1335,-117.6144,Open daily 5:00 am-midnight,,0
Alicia & Olympiad,,23072 Alicia Pkwy,,Mission Viejo,CA,92692,United States,949-583-7337,33.6275,-117.6361,Daily 6:00 am - 10:00 pm,,0
Crown Valley & Antonio,,27702 Crown Valley Pkwy Suite B,,Ladera Ranch,CA,92694,United States,949-364-2040,33.5624,-117.6461,Daily 6:00 am - 11:00 pm,,0
,,1910 N Campus Ave,,Upland,CA,91784,United States,909-291-0437,34.1307,-117.6376,Daily 5:00 am - 12:00 am,,0
,,26022 Marguerite Pkwy,,Mission Viejo,CA,92692,United States,949-582-0672,33.586,-117.6576,Open daily 5:30 am-midnight,,0
,,32401 Camino Capistrano,,San Juan Capistrano,CA,92675,United States,949-661-7594,33.4932,-117.6638,Open daily 6:00 am-midnight,,0
,,82 W Foothill Blvd,,Upland,CA,91786,United States,909-981-7709,34.1083,-117.6527,Open daily 5:00 am-midnight,,0
Del Obispo & Stonehill,,33601 Del Obispo,,Dana Point,CA,92629,United States,949-496-7900,33.4751,-117.6862,Daily 5:00 am - 11:00 pm,,0
Golden Lantern & Marina Hills,,30241 Golden Lantern,,Laguna Niguel,CA,92677,United States,949-363-0456,33.5241,-117.6878,Daily 6:00 am - 11:00 pm,,0
Central & Philadelphia,,12013 Central Ave,,Chino,CA,91710,United States,909-464-1594,34.035,-117.6878,Daily 6:00 am - 11:00 pm,,0
Los Serranos & Soquel Canyon,,15970 Los Serranos Country Club Dr,,Chino Hills,CA,91709,United States,909-606-8184,33.9615,-117.6955,Daily 6:00 am - 11:00 pm,,0
Muirlands & Ridge Route,,24251 Muirlands Blvd,,Lake Forest,CA,92630,United States,949-581-1642,33.6305,-117.7065,Daily 6:00 am - 11:00 pm,,0
,,27320 Alicia Pkwy,,Laguna Niguel,CA,92677,United States,949-448-9244,33.5662,-117.7127,Open daily 5:00 am-1:00 am,,0
Alicia & Niguel,,29941 Alicia Pkwy,,Laguna Niguel,CA,92677,United States,949-495-1891,33.5283,-117.7177,Daily 6:00 am - 10:00 pm,,0
,,550 E Baseline Rd,,Claremont,CA,91711,United States,909-621-4644,34.1206,-117.7061,Open daily 5:00 am-midnight,,0
Chino Hills,,3255 Grand Ave,,Chino Hills,CA,91709,United States,909-590-3660,34.0009,-117.7344,Daily 5:00 am - 12:00 am,,0
,,8010 E Santa Ana Canyon Rd,,Anaheim Hills,CA,92808,United States,714-282-7064,33.8672,-117.7515,Open daily 6:00 am-midnight,,0
Chapman & Jamboree,,8440 E Chapman Ave,,Orange,CA,92869,United States,714-771-6996,33.7917,-117.7637,Daily 6:00 am - 10:00 pm,,0
Jeffrey & Trabuco,,14201 Jeffrey Rd,,Irvine,CA,92620,United States,949-733-0698,33.6953,-117.7654,Daily 6:00 am - 11:00 pm,,0
Irvine & Culver Blvd,,3931 Irvine Blvd,,Irvine,CA,92602,United States,714-734-5655,33.7241,-117.7721,Daily 6:00 am - 11:00 pm,,0
Shady Oak Canyon & I,405,6601 Quail Hill Pkwy,,Irvine,CA,92603,United States,949-509-6109,33.6559,-117.7782,Daily 6:00 am - 11:00 pm,,0
,,20445 Yorba Linda Blvd,,Yorba Linda,CA,92886,United States,714-777-0781,33.8933,-117.7754,Open daily 6:00 am-midnight,,0
,,1600 Foothill Blvd,,La Verne,CA,91750,United States,909-593-2572,34.1146,-117.7731,Open daily 5:00 am-midnight,,0
,,600 N Pacific Coast Hwy,,Laguna Beach,CA,92651,United States,949-494-3020,33.5465,-117.7934,Open daily 6:00 am-11:00 pm,,0
,,5600 Santa Ana Canyon Rd,,Anaheim,CA,92807,United States,714-998-3751,33.8497,-117.7917,Open daily 5:00 am-midnight,,0
China Lake & Bowman,,927 S China Lake Blvd,,Ridgecrest,CA,93555,United States,760-384-4015,35.6057,-117.6746,Daily 6:00 am - 10:00 pm,,0
Ridgecrest,,1301 N Norma St,,Ridgecrest,CA,93555,United States,760-446-2544,35.6447,-117.6796,Daily 6:00 am - 10:00 pm,,0
Chapman & Hewes,,4550 E Chapman Ave,,Orange,CA,92869,United States,714-771-3139,33.7867,-117.8044,Daily 5:00 am - 12:00 am,,0
San Dimas,,220 E Bonita Ave,,San Dimas,CA,91773,United States,909-599-8836,34.106,-117.8034,Daily 7:00 am - 11:00 pm,,0
1st & Newport,,13270 Newport Ave,,Tustin,CA,92780,United States,714-544-8525,33.7452,-117.8128,Daily 6:00 am - 12:00 am,,0
Culver & Alton,,3825 Alton Pkwy,,Irvine,CA,92606,United States,949-476-1922,33.6837,-117.8137,Daily 6:00 am - 11:00 pm,,0
,,2500 Massachusetts Ave,,Butte,MT,59701,United States,406-494-7046,45.9876,-112.5063,Open daily 5:00 am-1:00 am,,0
Diamond Bar & Grand,,1235 S Diamond Bar Blvd,,Diamond Bar,CA,91765,United States,909-861-6207,34.0003,-117.8129,Daily 7:00 am - 11:00 pm,,0
,,21181 Newport Coast Dr,,Newport Coast,CA,92657,United States,949-718-4990,33.6067,-117.8277,Open daily 6:00 am-midnight,,0
Irvine,,4541 Campus Dr,,Irvine,CA,92612,United States,949-854-8282,33.6501,-117.8313,Daily 6:00 am - 12:00 am,,0
,,1160 Via Verde Ave,,San Dimas,CA,91773,United States,909-592-3261,34.0726,-117.8291,Open daily 6:00 am-11:00 pm,,0
17th & Tustin,,2000 E 17th St,,Santa Ana,CA,92705,United States,714-541-9100,33.7586,-117.8382,Daily 6:00 am - 12:00 am,,0
Tustin & Collins,,940 Tustin Ave,,Orange,CA,92867,United States,714-633-2570,33.8033,-117.8377,Daily 6:00 am - 11:00 pm,,0
,,2684 N Tustin Ave,,Orange,CA,92865,United States,714-637-6651,33.8334,-117.8376,Open daily 6:00 am-11:00 pm,,0
,,310 W Front St,,Butte,MT,59701,United States,406-723-5808,45.9977,-112.5372,Open daily 6:00 am-midnight,,0
,,2660 San Miguel Dr,,Newport Beach,CA,92660,United States,949-759-3880,33.6265,-117.8484,Open daily 6:00 am-midnight,,0
Kraemer & Imperial Hwy,,2500 E Imperial Hwy,,Brea,CA,92821,United States,714-671-1180,33.9098,-117.8653,Daily 5:00 am - 11:00 pm,,0
,,350 N Lemon Ave,,Walnut,CA,91789,United States,909-595-6465,34.0195,-117.8639,Open daily 6:00 am-midnight,,0
Alosta & Glendora,,133 W Route 66,,Glendora,CA,91740,United States,626-963-5358,34.1301,-117.8651,Daily 6:00 am - 11:00 pm,,0
N Placentia & Yorba Linda,,1930 N Placentia Ave,,Fullerton,CA,92831,United States,714-792-2880,33.8903,-117.8722,Daily 5:00 am - 12:00 am,,0
,,932 E Badillo,,Covina,CA,91724,United States,626-967-0072,34.0851,-117.8715,Open daily 6:00 am-midnight,,0
,,435 Foothill Blvd,,Glendora,CA,91741,United States,626-963-2913,34.1375,-117.8715,Open daily 5 am - Midnight,,0
,,3650 S Bristol St,,Santa Ana,CA,92704,United States,714-540-0510,33.6981,-117.8869,Open daily 5:00 am-2:00 am,,0
State College & South,,810 S State College Blvd,,Anaheim,CA,92806,United States,714-533-4790,33.8313,-117.8886,Daily 6:00 am - 11:00 pm,,0
,,1000 Bayside Dr,,Newport Beach,CA,92660,United States,949-760-0975,33.6113,-117.8925,Open daily 7:00 am-10:00 pm,,0
Workman & Citrus,,2630 E Workman Ave,,West Covina,CA,91791,United States,626-331-5532,34.0746,-117.8887,Daily 7:00 am - 11:00 pm,,0
,,780 N Brea Blvd,,Brea,CA,92821,United States,714-529-4941,33.9305,-117.8931,Open daily 6:00 am-midnight,,0
,,12961 W Chapman,,Garden Grove,CA,92840,United States,714-750-3663,33.7897,-117.9072,Open daily 6:00 am-midnight,,0
Harbor & Wilson,,2300-c Harbor Blvd,,Costa Mesa,CA,92626,United States,949-515-7227,33.657,-117.9169,Daily 6:00 am - 11:00 pm,,0
,,130 W Lincoln,,Anaheim,CA,92805,United States,714-535-2288,33.8351,-117.9145,Open daily 6:00 am-1:00 am,,0
,,185 E 17th St,,Costa Mesa,CA,92627,United States,949-515-3444,33.6346,-117.9204,Open daily 5:00 am-1:00 am,,0
,,2701 B Harbor Blvd,,Costa Mesa,CA,92626,United States,714-751-4270,33.6718,-117.92,Open daily 6:00 am-2:00 am,,0
Helena,,600 Fee St,,Helena,MT,59601,United States,406-442-1052,46.5905,-112.0068,Daily 6:00 am - 12:00 am,,0
,,3100 W Balboa Blvd,,Newport Beach,CA,92663,United States,949-675-2395,33.6147,-117.9311,Open Daily 6:00 am-midnight,,0
,,611 N Montana St,,Helena,MT,59601,United States,406-443-1598,46.5906,-112.0172,Open daily 6:00 am-2:00 am,,0
,,777 Glendora Ave,,West Covina,CA,91790,United States,626-337-5615,34.0625,-117.9324,Open daily 6:00 am-11:00 pm,,0
Montana & Custer,,3151 N Montana Ave,,Helena,MT,59602,United States,406-443-8557,46.6188,-112.0187,Daily 6:00 am - 12:00 am,,0
Brookhurst & Ellis,,18579 Brookhurst,,Fountain Valley,CA,92708,United States,714-963-7503,33.693,-117.9562,Daily 6:00 am - 11:00 pm,,0
Brookhurst & Edinger,,16061 Brookhurst St,,Fountain Valley,CA,92708,United States,714-531-0417,33.729,-117.9566,Daily 6:00 am - 11:00 pm,,0
Gilbert & Malvern,,2291 W Malvern Ave,,Fullerton,CA,92833,United States,714-992-6099,33.8785,-117.966,Daily 5:00 am - 11:00 pm,,0
Whittier & Beach,,1800 W Whittier Blvd,,La Habra,CA,90631,United States,562-697-6442,33.9385,-117.9664,Daily 6:00 am - 11:00 pm,,0
,,2122 S Hacienda Blvd,,Hacienda Heights,CA,91745,United States,626-330-4216,33.995,-117.9673,Open daily 6:00 am-midnight,,0
,,8891 Atlanta Ave,,Huntington Beach,CA,92646,United States,714-960-4747,33.6583,-117.9731,Open daily 5:00 am-1:00 am,,0
,,2101 W Imperial Hwy,,La Habra,CA,90631,United States,562-905-2800,33.9187,-117.9691,Open daily 6:00 am-midnight,,0
Beach & Adams,,19640 Beach Blvd,,Huntington Beach,CA,92648,United States,714-964-7979,33.6773,-117.987,Daily 5:00 am - 12:00 am,,0
,,16450 Beach Blvd,,Westminster,CA,92683,United States,714-842-8515,33.7242,-117.9876,Open daily 5:00 am-midnight,,0
,,15740 Laforge St,,Whittier,CA,90603,United States,562-943-0516,33.9408,-117.9942,Open daily 6:00 am-11:00 pm,,0
Yorktown,,7201 Yorktown Ave,,Huntington Beach,CA,92648,United States,714-536-6449,33.681,-118.0028,Daily 5:00 am - 12:00 am,,0
Westminster & Golden West,,6755 Westminster Blvd,,Westminster,CA,92683,United States,714-898-3668,33.7615,-118.0092,Daily 6:00 am - 11:00 pm,,0
Rosecrans & La Mirada Blvd,,15200 Rosecrans Ave,,La Mirada,CA,90638,United States,714-521-2310,33.8969,-118.0076,Daily 6:00 am - 11:00 pm,,0
,,130 W Foothill Blvd,,Monrovia,CA,91016,United States,626-303-4547,34.15,-118.002,Open daily 5:00 am-midnight,,0
,,5922 Edinger Ave,,Huntington Beach,CA,92649,United States,714-846-6356,33.7285,-118.0258,Open daily 6:00 am-1:00 am,,0
Lincoln & Valley View,,8880 Valley View St,,Buena Park,CA,90620,United States,714-236-8200,33.8341,-118.0272,Daily 6:00 am - 11:00 pm,,0
,,11861 Valley View St,,Garden Grove,CA,92845,United States,714-889-9955,33.7901,-118.0292,Open daily 5:00 am-2:00 am,,0
Tyler & Live Oak,,298 E Live Oak Ave,,Arcadia,CA,91006,United States,626-446-1416,34.1077,-118.023,Daily 6:00 am - 11:00 pm,,0
Bolsa Chica & Heil,,16600 Bolsa Chica St,,Huntington Beach,CA,92649,United States,714-846-9431,33.7211,-118.0407,Daily 6:00 am - 11:00 pm,,0
,,745 E Naomi Ave,,Arcadia,CA,91007,United States,626-446-9483,34.125,-118.0576,Open daily 6:00 am-midnight,,0
,,11322 Los Alamitos Blvd,,Los Alamitos,CA,90720,United States,562-493-3567,33.7978,-118.0707,Open daily 5:00 am-midnight,,0
,,1101 Pacific Coast Hwy,,Seal Beach,CA,90740,United States,562-370-1937,33.7439,-118.0999,Open daily 5:00 am - 12:00 am,,0
,,2355 E Colorado Blvd,,Pasadena,CA,91107,United States,626-744-2615,34.1472,-118.1022,Open 24 hours,,0
,,804 Beverly Blvd,,Montebello,CA,90640,United States,323-722-1706,34.0202,-118.106,Open daily 6:00 am-midnight,,0
,,4226 Woodruff Ave,,Lakewood,CA,90713,United States,562-496-4144,33.835,-118.1151,Open daily 5:00 am-midnight,,0
,,5949 E Spring St,,Long Beach,CA,90808,United States,562-496-2151,33.8119,-118.1154,Open daily 6:00 am-midnight,,0
,,5500 Woodruff Ave,,Lakewood,CA,90713,United States,562-866-3781,33.8569,-118.1154,Open daily 5:00 am-1:00 am,,0
,,1390 N Allen Ave,,Pasadena,CA,91104,United States,626-798-7603,34.17,-118.1117,Open daily 6:00 am-midnight,,0
Montebello,,2469 Via Campo St,,Montebello,CA,90640,United States,323-888-2250,34.0311,-118.1224,Daily 5:00 am - 12:00 am,,0
Del Amo & Clark,,5015 Del Amo Blvd,,Lakewood,CA,90712,United States,562-634-0405,33.8478,-118.1343,Daily 6:00 am - 11:00 pm,,0
,,1820 Ximeno Ave,,Long Beach,CA,90815,United States,562-498-2111,33.7903,-118.1373,Open daily 5:00 am-midnight,,0
,,845 E California St,,Pasadena,CA,91106,United States,626-449-3968,34.1365,-118.1332,Open daily 6:00 am-midnight,,0
,,3900 E Ocean Ave,,Long Beach,CA,90803,United States,562-987-3122,33.7598,-118.1471,Open daily 5:00 am-midnight,,0
Firestone and Rives,,7676 Firestone Blvd,,Downey,CA,90241,United States,562-869-9670,33.9456,-118.1446,Daily 6:00 am - 11:00 pm,,0
10th Avenue,,2250 10th Ave S,,Great Falls,MT,59405,United States,406-727-3700,47.493,-111.2693,Daily 5:00 am - 1:00 am,,0
Commonwealth & Fremont,,2400 W Commonwealth Ave,,Alhambra,CA,91803,United States,626-293-7100,34.0865,-118.1499,Daily 6:00 am - 11:00 pm,,0
,,1213 S Fair Oaks Ave,,South Pasadena,CA,91030,United States,626-799-2261,34.1115,-118.1515,Open daily 5:30 am-midnight,,0
,,1129 S Fair Oaks Ave,,South Pasadena,CA,91030,United States,626-441-3898,34.1128,-118.1514,Open daily 6:00 am-11:00 pm,,0
,,155 California Blvd,,Pasadena,CA,91105,United States,626-577-7149,34.1367,-118.1535,Open 24 hours,,0
Tierra Subida & Lake Elizabeth,,38727 Tierra Subida Ave,,Palmdale,CA,93551,United States,661-274-9557,34.5861,-118.149,Daily 6:00 am - 11:00 pm,,0
,,4550 Atlantic Ave,,Long Beach,CA,90807,United States,562-984-1421,33.841,-118.1827,Open daily 5:00 am-midnight,,0
,,600 E Broadway,,Long Beach,CA,90802,United States,562-491-1210,33.7689,-118.1843,Daily 5:00 am - 12:00 am,,0
,,4550-B Atlantic Ave,,Long Beach,CA,90807,United States,,33.84173,-118.18472,,,0
East Willow,,101 E Willow Blvd,,Long Beach,CA,90806,United States,562-988-8785,33.8057,-118.1924,Daily 6:00 am - 11:00 pm,,0
,,7311 N Figueroa St,,Los Angeles,CA,90041,United States,323-254-5716,34.1361,-118.1895,Open daily 5:00 am-midnight,,0
20th Street West & Ave K,,43543 20th St W,,Lancaster,CA,93536,United States,661-940-4747,34.6738,-118.1676,Daily 6:00 am - 11:00 pm,,0
,,4155 Tweedy Blvd,,South Gate,CA,90280,United States,323-569-1588,33.9443,-118.199,Daily 6:00 am - 11:00 pm,,0
3rd NW,,1414 3rd St NW,,Great Falls,MT,59404,United States,406-761-6800,47.5202,-111.3115,Daily 5:00 am - 1:00 am,,0
Anaconda,,1300 E Park Ave,,Anaconda,MT,59711,United States,406-563-5238,46.1269,-112.9353,Daily 6:00 am - 11:00 pm,,0
,,3027 Rancho Vista Blvd,,Palmdale,CA,93551,United States,661-265-9285,34.6034,-118.1841,Open daily 5:00 am-midnight,,0
Rosamond,,2547 Rosamond,,Rosamond,CA,93560,United States,661-256-0756,34.8655,-118.1767,Daily 6:00 am - 10:00 pm,,0
,,2039 Verdugo Blvd,,Montrose,CA,91020,United States,818-249-4595,34.2057,-118.2214,Open daily 6:00 am-midnight,,0
,,4033 West Ave L,,Lancaster,CA,93536,United States,661-722-7291,34.6616,-118.2024,Open daily 5:00 am-midnight,,0
,,561 N Glendale Ave,,Glendale,CA,91206,United States,818-242-5926,34.1549,-118.2448,Open daily 6:00 am-midnight,,0
,,3233 Foothill Blvd,,La Crescenta,CA,91214,United States,818-658-1018,34.2312,-118.2501,Open daily 5:00 am-midnight,,0
,,311 W Los Feliz Blvd,,Glendale,CA,91204,United States,818-246-7161,34.1293,-118.2586,Open daily 6:00 am-midnight,,0
,,201 N Main St,,Deer Lodge,MT,59722,United States,406-846-1550,46.4032,-112.7342,Open daily 7:00 am-11:00 pm,,0
,,1342 N Alvarado,,Los Angeles,CA,90026,United States,213-483-5573,34.0795,-118.2612,Open daily 6:00 am-midnight,,0
Sepulveda & Main,,200 E Sepulveda Blvd,,Carson,CA,90745,United States,310-513-1900,33.8063,-118.2727,Daily 5:00 am - 11:00 pm,,0
Carson & Main Streets,,110 E Carson St,,Carson,CA,90745,United States,310-835-6402,33.8308,-118.2767,Daily 6:00 am - 11:00 pm,,0
Foothill & Lowell,,6240 Foothill Blvd,,Tujunga,CA,91042,United States,818-248-2745,34.2409,-118.268,Daily 6:00 am - 11:00 am,,0
,,1221 S Gaffey St,,San Pedro,CA,90731,United States,310-832-7063,33.7329,-118.2936,Open daily 5:00 am-midnight,,0
,,4520 Sunset Blvd,,Los Angeles,CA,90027,United States,323-662-8107,34.097,-118.2879,Open 24 hours,,0
Hillhurst & Ambrose,,2035 Hillhurst Ave,,Los Angeles,CA,90027,United States,323-660-0687,34.1088,-118.2879,Daily 6:00 am - 12:00 am,,0
,,3461 W Third St,,Los Angeles,CA,90020,United States,213-384-6552,34.0699,-118.2908,Open 24 hours,,0
,,1260 W Redondo Beach Blvd,,Gardena,CA,90247,United States,310-767-7920,33.8909,-118.2978,Open daily 6:00 am-midnight,,0
Artesia & Western,,1735 W Artesia Blvd,,Gardena,CA,90248,United States,310-380-4620,33.8744,-118.3082,Daily 6:00 am - 11:00 pm,,0
San Pedro,,28090 S Western Ave,,San Pedro,CA,90732,United States,310-831-1323,33.7649,-118.3099,Daily 5:00 am - 11:00 pm,,0
,,1440 W 25th St,,San Pedro,CA,90732,United States,310-832-8459,33.7231,-118.3108,Open daily 5:00 am-midnight,,0
,,7789 Foothill Blvd,,Tujunga,CA,91042,United States,818-353-4917,34.2591,-118.3011,Open daily 6:00 am-midnight,,0
,,1110 W Alameda Ave,,Burbank,CA,91506,United States,818-567-0257,34.1612,-118.3136,Open daily 6:00 am-midnight,,0
,,123 Metropole Ave,,Avalon,CA,90704,United States,310-510-0280,33.3441,-118.3272,Open daily 7:00 am-10:00 pm,,0
,,24325 Crenshaw Blvd,,Torrance,CA,90505,United States,310-784-1020,33.8035,-118.3306,Open daily 5:00 am-Midnight,,0
,,727 N Vine St,,Los Angeles,CA,90038,United States,323-461-4167,34.0845,-118.3271,Mon-Sun 5:00 am-2:00 am,,0
Crenshaw & Martin Luther King,,3901 Crenshaw Blvd,,Los Angeles,CA,90008,United States,323-295-1919,34.0141,-118.3358,Daily 6:00 am - 11:00 pm,,0
,,500 E Manchester Blvd,,Inglewood,CA,90301,United States,310-677-0286,33.9602,-118.3491,Open daily 5:00 am-1:00 am,,0
,,301 N Pass Ave,,Burbank,CA,91505,United States,818-848-9542,34.1547,-118.3465,Open 24 hours,,0
,,4001 Inglewood Ave,,Redondo Beach,CA,90278,United States,310-349-0860,33.8929,-118.3624,Open daily 5:00 am-midnight,,0
,,4705 Torrance Blvd,,Torrance,CA,90503,United States,310-371-1172,33.8383,-118.3635,Open daily 6:00 am-midnight,,0
,,1430 S Fairfax Ave,,Los Angeles,CA,90019,United States,323-939-9335,34.0505,-118.3662,Open daily 6:00 am-midnight,,0
,,7 Peninsula Ctr,,Rolling Hills Estates,CA,90274,United States,310-377-1994,33.7754,-118.3779,Open daily 6:00 am-11:00 pm,,0
,,1212 Beryl St,,Redondo Beach,CA,90277,United States,310-374-7987,33.8539,-118.3801,Open daily 6:00 am-midnight,,0
,,245 Palos Verdes Blvd,,Redondo Beach,CA,90277,United States,310-378-7434,33.8163,-118.3859,Open daily 6:00 am-midnight,,0
,,8969 Santa Monica Blvd,,West Hollywood,CA,90069,United States,310-595-1730,34.0836,-118.3869,Open 24 hours,,0
,,715 Pier Ave,,Hermosa Beach,CA,90254,United States,310-374-4484,33.866,-118.3945,Mon-Sun 05:00AM-02:00AM,,0
,,11030 Jefferson Blvd,,Culver City,CA,90230,United States,310-398-1945,33.9968,-118.3938,Open daily 6:00 am-midnight,,0
,,4033 Laurel Canyon Blvd,,Studio City,CA,91604,United States,818-985-5401,34.1445,-118.3961,Mon-Sun 5:00 AM - 1:00 AM,,0
,,9467 W Olympic Blvd,,Beverly Hills,CA,90212,United States,310-553-5734,34.06,-118.3998,Open daily 5:00 am-1:00 am,,0
,,9860 National Blvd.,,Los Angeles,CA,90034,United States,310-836-4161,34.0302,-118.4014,Open daily 6:00 am-midnight,,0
,,6571 W 80th St,,Los Angeles,CA,90045,United States,310-641-9423,33.9693,-118.4055,Open daily 6:00 am-10:00 pm,,0
,,410 Manhattan Beach Blvd,,Manhattan Beach,CA,90266,United States,310-379-3051,33.8851,-118.4079,Open daily 6:00 am-10:00 pm,,0
Mountain Home,,528 N Main St,,Mountain Home,ID,83647,United States,208-587-5460,43.1346,-115.6968,Daily 6:00 am - 11:00 pm,,0
,,3118 S Sepulveda Blvd,,Los Angeles,CA,90034,United States,310-477-8717,34.0266,-118.4269,Open daily 6:00 am-1:00 am,,0
,,4030 Centinela Ave,,Los Angeles,CA,90066,United States,310-391-1503,33.9992,-118.4289,Open daily 5:00 am-midnight,,0
,,16550 W Soledad Canyon Rd,,Santa Clarita,CA,91387,United States,661-252-3838,34.426,-118.4261,Daily 6:00 am - 12:00 am,,0
,,4365 Glencoe Ave,,Marina Del Rey,CA,90292,United States,310-821-7208,33.9851,-118.4398,Open daily 5:00 am-midnight,,0
,,13730 Foothill Blvd,,Sylmar,CA,91342,United States,818-367-1849,34.3078,-118.4322,Open daily 6:00 am-11:00 pm,,0
,,14845 Ventura Blvd,,Sherman Oaks,CA,91403,United States,818-986-7213,34.1533,-118.4566,Open daily 6:00 am-midnight,,0
,,10321 Sepulveda Blvd,,Mission Hills,CA,91345,United States,818-891-1352,34.2579,-118.4683,Open daily 6:00 am-midnight,,0
,,710 Broadway,,Santa Monica,CA,90401,United States,310-260-0260,34.0172,-118.4899,Open daily 6:00 am-1:00 am,,0
,,1311 Wilshire Blvd,,Santa Monica,CA,90403,United States,310-394-1414,34.0265,-118.4898,Open daily 6:00 am-midnight,,0
,,820 Montana Ave,,Santa Monica,CA,90403,United States,310-395-1682,34.0279,-118.4999,Open daily 5:30 am-midnight,,0
,,16830 San Fernando Mission Bvd,,Granada Hills,CA,91344,United States,818-831-8511,34.2709,-118.5,Open daily 6:00 am-midnight,,0
Nordhoff & Balboa,,9022 Balboa Blvd,,Northridge,CA,91325,United States,818-894-6415,34.2343,-118.5014,Daily 6:00 am - 12:00 am,,0
Tehachapi,,775 S Tucker Rd,,Tehachapi,CA,93561,United States,661-823-7090,35.1257,-118.4695,Daily 6:00 am - 12:00 am,,0
Bouquet Cyn & Haskell Cyn,,27631 W Bouquet Canyon Rd,,Saugus,CA,91350,United States,661-296-9655,34.4441,-118.5119,Daily 6:00 am - 11:00 pm,,0
,,18439 Ventura Blvd,,Tarzana,CA,91356,United States,818-881-5527,34.1689,-118.5341,Open daily 6:00 am-midnight,,0
,,9119 Reseda Blvd,,Northridge,CA,91324,United States,818-349-2494,34.236,-118.5377,Open daily 6:00 am-midnight,,0
,,26518 Bouquet Canyon Rd,,Saugus,CA,91350,United States,661-296-0031,34.428,-118.5344,Daily 6:00 am – midnight,,0
,,17380 Sunset Blvd,,Pacific Palisades,CA,90272,United States,310-454-2502,34.0392,-118.5539,Open daily 5:00 am-1:00 am,,0
Tampa & Saticoy,,19307 Saticoy St,,Reseda,CA,91335,United States,818-772-0010,34.2097,-118.5541,Daily 6:00 am - 11:00 pm,,0
,,19333 Victory Blvd,,Reseda,CA,91335,United States,818-881-7020,34.1881,-118.5554,Open daily 6:00 am-midnight,,0
,,24160 Lyons Ave,,Newhall,CA,91321,United States,661-259-9214,34.3774,-118.557,Open daily 6:00 am-midnight,,0
Copperhill & Rancho Ave Tesoro,,23850 Copperhill Dr,,Valencia,CA,91354,United States,661-775-0163,34.4621,-118.5566,Daily 7:00 am - 11:00 pm,,0
,,5610 Lake Isabella Blvd,,Lake Isabella,CA,93240,United States,760-379-4461,35.6179,-118.476,Open daily 6:00 am-midnight,,0
,,25850 N The Old Rd,,Valencia,CA,91381,United States,661-254-3570,34.391,-118.572,Open daily 5:00 am-midnight,,0
,,20440 Devonshire St,,Chatsworth,CA,91311,United States,818-341-7151,34.2566,-118.5785,Open daily 5:00 am-midnight,,0
,,8201 Topanga Canyon Blvd,,Canoga Park,CA,91304,United States,818-703-5959,34.2183,-118.6072,Open daily 6:00 am-midnight,,0
,,6534 Platt Ave,,West Hills,CA,91307,United States,818-999-5939,34.1885,-118.6415,Open daily 6:00 am-11:00 pm,,0
,,5805 E Los Angeles,,Simi Valley,CA,93063,United States,805-522-1193,34.2733,-118.6777,Open daily 6:00 am-11:00 pm,,0
Agoura Rd & Las Virgenes,,26521 Agoura Rd,,Calabasas,CA,91302,United States,818-880-9080,34.1451,-118.6998,Daily 5:00 am - 12:00 am,,0
,,2938 Tapo Canyon Rd,,Simi Valley,CA,93063,United States,805-426-6021,34.2885,-118.7154,Open daily 5:30 am-midnight,,0
,,1190 N Main St,,Bishop,CA,93514,United States,760-872-9811,37.3734,-118.3914,Open daily 5:00 am-1:00 am,,0
,,5671 Kanan Rd,,Agoura,CA,91301,United States,818-991-2857,34.1536,-118.7591,Open daily 6:00 am-midnight,,0
,,1855 E Cochran St,,Simi Valley,CA,93065,United States,805-522-9394,34.2803,-118.7627,Open daily 6:00 am-midnight,,0
,,1135 Lindero Canyon Rd,,Thousand Oaks,CA,91362,United States,818-597-1261,34.1841,-118.7882,Open daily: 6:00 am-11:00 pm,,0
Madera & Royal,,1268 Madera Rd,,Simi Valley,CA,93065,United States,805-520-9306,34.2619,-118.7946,Daily 6:00 am - 11:00 pm,,0
,,29211 Heathercliff Rd,,Malibu,CA,90265,United States,310-457-2401,34.0211,-118.8101,Open daily 6:00 am-midnight,,0
,,2725 Agoura Rd,,Thousand Oaks,CA,91361,United States,805-497-1921,34.152,-118.8258,Open daily: 6:00 am-11:00 pm,,0
,,2048 Avenida De Los Arboles,,Thousand Oaks,CA,91362,United States,805-492-2497,34.2099,-118.8412,Mon-Sat: 6:00 am-midnight;Sun: 6:00 am-10:00 pm,,0
,,1790 Moorpark Rd,,Thousand Oaks,CA,91360,United States,805-497-1803,34.2015,-118.8667,Mon-Sat: 7:00 am-11:00 pm;Sun: 7:00 am-10:00 pm,,0
,,4241 Tierra Rejada,,Moorpark,CA,93021,United States,805-530-3770,34.2675,-118.8992,Open daily 6:00 am-10:00 pm,,0
,,636 Ventura St,,Fillmore,CA,93015,United States,805-524-1445,34.395,-118.9163,Open daily 6:00 am-midnight,,0
Newbury Park,,541 S Reino Rd,,Newbury Park,CA,91320,United States,805-499-7795,34.1695,-118.9566,Daily 6:00 am - 11:00 pm,,0
Columbia Village,,6560 S Federal Way,,Boise,ID,83716,United States,208-429-1084,43.543,-116.1534,Daily 5:00 AM - 11:00  PM,,0
,,5275 Mission Oaks Blvd,,Camarillo,CA,93012,United States,805-482-7933,34.2298,-118.9984,Open daily 6:00 am-midnight,,0
Parkcenter & Apple,,909 E Parkcenter Blvd,,Boise,ID,83706,United States,208-345-3180,43.581,-116.1722,Daily 6:00 am - 12:00 am,,0
Columbus & Mt Vernon,,2691 Mt Vernon Ave,,Bakersfield,CA,93306,United States,661-872-3511,35.3961,-118.9657,Daily 6:00 am - 11:00 pm,,0
,,820 Arneill Rd,,Camarillo,CA,93010,United States,805-482-8802,34.2249,-119.037,Open daily 6:00 am-midnight,,0
Broadway,,1219 S Broadway Ave,,Boise,ID,83706,United States,208-336-5278,43.5974,-116.1946,Daily 6:00 am - 12:00 am,,0
Vista & Overland,,1653 S Vista Ave,,Boise,ID,83705,United States,208-331-1953,43.5891,-116.2156,Daily 6:00 am - 12:00 am,,0
16th & State,,1650 W State St,,Boise,ID,83702,United States,(208) 342-5651,43.625,-116.2093,Daily 6:00 am - 1:00 am,,0
Chester & Brundage,,1520 Brundage Lane,,Bakersfield,CA,93304,United States,661-328-0818,35.3555,-119.0197,Daily 7:00 am - 10:00 pm,,0
Overland & Orchard,,5100 W Overland Rd,,Boise,ID,83705,United States,208-336-1372,43.5919,-116.2453,Daily 6:00 am - 12:00 am,,0
