store_name,store_number,address,address2,city,state,zip_code,country,phone_number,latitude,longitude,store_hours,other_fields,coming_soon
Wild Birds Unlimited,,13140 N. Dale Mabry,,Tampa,FL,33618,United States,(813) 280-9970,28.0656940,-82.5059940,,,0
Wild Birds Unlimited,,Willa Springs Shopping Center 5687 Red Bug Lake Road,,Winter Springs,FL,32708,United States,(407) 695-0526,28.6475640,-81.2694790,,,0
Wild Birds Unlimited,,2868 David Walker Drive,,Eustis,FL,32726,United States,(352) 602-4208,28.8234888,-81.7046645,,,0
Wild Birds Unlimited,,9910 West Loop 1604 North Suite 120,,San Antonio,TX,78254,United States,(210) 375-3611,29.5342286,-98.6807055,,,0
Wild Birds Unlimited,,"2800 E. Broadway, Suite L COMING SOON",,Pearland,TX,77581,United States,(281) 416-4420,29.5556681,-95.2628647,,,0
Wild Birds Unlimited,,"14602 Huebner Rd., Suite 114",,San Antonio,TX,78230,United States,(210) 479-2473,29.5729780,-98.5473210,,,0
Wild Birds Unlimited,,"3820 FM3009, Suite 152",,Schertz,TX,78154,United States,(210) 566-8808,29.5870740,-98.2682960,,,0
Wild Birds Unlimited,,4212 NW 16th Boulevard,,Gainesville,FL,32605,United States,(352) 381-1997,29.6747470,-82.3879980,,,0
Wild Birds Unlimited,,3819 Bellaire Boulevard,,Houston,TX,77025,United States,(713) 668-6440,29.7054307,-95.4376308,,,0
Wild Birds Unlimited,,"1659 SH 46 West, Suite 140",,New Braunfels,TX,78132,United States,(830) 609-9510,29.7136256,-98.1606737,,,0
Wild Birds Unlimited,,23930 Westheimer Parkway COMING SOON,,Katy,TX,77494,United States,Visit our Website,29.7371014,-95.7784628,,,0
Wild Birds Unlimited,,14032 Memorial Dr.,,Houston,TX,77079,United States,(281) 293-0959,29.7725008,-95.5908650,,,0
Wild Birds Unlimited,,12320 Barker Cypress Road Suite 500,,Cypress,TX,77429,United States,(281) 246-1200,29.9565848,-95.6714778,,,0
Wild Birds Unlimited,,"4523 Kingwood Drive, Suite 130 COMING SOON",,Kingwood,TX,77345,United States,Visit our Website,30.0501541,-95.1842317,,,0
Wild Birds Unlimited,,855 Junction Hwy.,,Kerrville,TX,78028,United States,(830) 895-7393,30.0570870,-99.1606730,,,0
Wild Birds Unlimited,,450 State Road 13 North Suite 108,,St. John,FL,32259,United States,(904) 230-3242,30.1208580,-81.6261060,,,0
Wild Birds Unlimited,,Wood Ridge Plaza 27590 I-45 North,,Conroe,TX,77385,United States,(281) 298-7900,30.1622530,-95.4490260,,,0
Wild Birds Unlimited,,2455 Martin Luther King Jr Blvd (Hwy 77),,Panama City,FL,32405,United States,(850) 640-1354,30.1926366,-85.6511947,,,0
Wild Birds Unlimited,,137 Arnould Blvd.,,Lafayette,LA,70506,United States,(337) 993-2473,30.2025100,-92.0537420,,,0
Wild Birds Unlimited,,South Beach Regional Shopping Center 4138 South Third Street,,Jacksonville Beach,FL,32250,United States,(904) 246-6832,30.2568060,-81.3903880,,,0
Wild Birds Unlimited,,3535 Bee Caves Rd STE A,,Austin,TX,78746,United States,(512) 328-9453,30.2766383,-97.8060449,,,0
Wild Birds Unlimited,,8342 Perkins Road,,Baton Rouge,LA,70810,United States,(225) 408-0600,30.3891092,-91.1052069,,,0
Wild Birds Unlimited,,2098 Thomasville Road,,Tallahassee,FL,32308,United States,(850) 576-0002,30.4711973,-84.2662738,,,0
Wild Birds Unlimited,,"14010 US 183 N., Ste. 515",,Austin,TX,78717,United States,(512) 335-1700,30.4744750,-97.8009660,,,0
Wild Birds Unlimited,,1013 W. University Avenue Suite 330,,Georgetown,TX,78628,United States,(512) 763-1081,30.6311855,-97.6939118,,,0
Wild Birds Unlimited,,6345-C Airport Blvd.,,Mobile,AL,36608,United States,(251) 380-0280,30.6774330,-88.1889940,,,0
Wild Birds Unlimited,,1507 Wooded Acres,,Waco,TX,76710,United States,(254) 741-9630,31.5344430,-97.1904740,,,0
Wild Birds Unlimited,,"8108 Abercorn Street, Ste 210",,Savannah,GA,31406,United States,(912) 961-3455,32.0027260,-81.1216740,,,0
Wild Birds Unlimited,,45 Pembroke Drive Suite 130,,Hilton Head,SC,29926,United States,Visit our Website,32.2104891,-80.7253889,,,0
Wild Birds Unlimited,,6546 E Tanque Verde Rd. #150,,Tucson,AZ,85715,United States,(520) 299-9585,32.2458350,-110.8532850,,,0
Wild Birds Unlimited,,2001 E. Lohman Ave. Suite 130,,Las Cruces,NM,88001,United States,(575) 523-5489,32.3104070,-106.7582690,,,0
Wild Birds Unlimited,,"7645 N. Oracle Rd., #110",,Tucson,AZ,85704,United States,(520) 878-9585,32.3462590,-110.9762100,,,0
Wild Birds Unlimited,,"LeFleur's Gallery near Piccadilly 4800 I-55 North, Suite 19B",,Jackson,MS,39211,United States,(601) 366-9973,32.3612530,-90.1504600,,,0
Wild Birds Unlimited,,"140 North West John Jones Drive, Suite 102 COMING SOON",,Burleson,TX,76028,United States,Visit our Website,32.5238115,-97.3488798,,,0
Wild Birds Unlimited,,1550 Opelika Road Suite #27,,Auburn,AL,36830,United States,(334) 826-9230,32.6236090,-85.4468100,,,0
Wild Birds Unlimited,,1660 W. Randol Mill Rd,,Arlington,TX,76012,United States,(817) 275-1000,32.7498364,-97.1335902,,,0
Wild Birds Unlimited,,St. Andrews Shopping Center 975 Savannah Highway,,Charleston,SC,29407,United States,(843) 571-3771,32.7831860,-79.9923830,,,0
Wild Birds Unlimited,,624 Coleman Boulevard Moultrie Plaza,,Mt. Pleasant,SC,29464,United States,(843) 216-8800,32.7911270,-79.8736790,,,0
Wild Birds Unlimited,,6333 E. Mockingbird Lane,,Dallas,TX,75214,United States,(214) 821-7400,32.8365330,-96.7544380,,,0
Wild Birds Unlimited,,5715 West Lovers Lane,,Dallas,TX,75209,United States,(214) 891-9793,32.8513720,-96.8148437,,,0
Wild Birds Unlimited,,2041 Rufe Snow Drive,,Keller,TX,76248,United States,(817) 393-3539,32.8981512,-97.2370239,,,0
Wild Birds Unlimited,,10549 Scripps Poway Parkway Suite B-3,,San Diego,CA,92131,United States,(858) 271-8457,32.9356780,-117.0996020,,,0
Wild Birds Unlimited,,2704 Cross Timbers Rd. Suite 118,,Flower Mound,TX,75028,United States,(972) 874-1111,33.0362510,-97.0708500,,,0
Wild Birds Unlimited,,3001 S. Hardin Blvd.,,McKinney,TX,75070,United States,(972) 472-2022,33.1664419,-96.6634257,,,0
Wild Birds Unlimited,,"2624 El Camino Real, Ste. F",,Carlsbad,CA,92008,United States,(760) 720-1906,33.1754780,-117.3256780,,,0
Wild Birds Unlimited,,2136 East Baseline Road Suite 2,,Mesa,AZ,85204,United States,(480) 507-2473,33.3803360,-111.7857170,,,0
Wild Birds Unlimited,,1580 Montgomery Hwy,,Birmingham,AL,35216,United States,(205) 823-6500,33.4040010,-86.8061640,,,0
Wild Birds Unlimited,,100 N. Peachtree Parkway Suite 4,,Peachtree City,GA,30269,United States,(770) 486-1599,33.4078830,-84.5691320,,,0
Wild Birds Unlimited,,3830 Washington Rd. Suite 12,,Augusta,GA,30907,United States,(706) 855-1955,33.5112720,-82.0898870,,,0
Wild Birds Unlimited,,7001 N. Scottsdale Rd Suite 174,,Scottsdale,AZ,85253,United States,(480) 306-5153,33.5394596,-111.9244784,,,0
Wild Birds Unlimited,,24451 Alicia Parkway Unit 9B,,Mission Viejo,CA,92691,United States,(949) 472-4928,33.6067900,-117.6898650,,,0
Wild Birds Unlimited,,8703 US Hwy 17 Bypass Suite E,,Surfside Beach,SC,29575,United States,(843) 748-0989,33.6404514,-78.9876179,,,0
Wild Birds Unlimited,,"7171 Warner Avenue, Suite H",,Huntington Beach,CA,92647,United States,(714) 375-1333,33.7168149,-118.0041105,,,0
Wild Birds Unlimited,,2080 N. Decatur Road,,Decatur,GA,30033,United States,Visit our Website,33.7907902,-84.3066814,,,0
Wild Birds Unlimited,,25416 Crenshaw Blvd.,,Torrance,CA,90505,United States,(310) 326-2473,33.7927900,-118.3315730,,,0
Wild Birds Unlimited,,Chastain Square Shopping Center 4279 Roswell Road,,Atlanta,GA,30342,United States,(404) 257-0084,33.8713880,-84.3810350,,,0
Wild Birds Unlimited,,4940 Seymour Highway,,Wichita Falls,TX,76310,United States,(940) 692-7100,33.8779778,-98.5606996,,,0
Wild Birds Unlimited,,2980 Cobb Pkwy Ste 103,,Atlanta,GA,30339,United States,(770) 433-2676,33.8800859,-84.4616060,,,0
Wild Birds Unlimited,,"1630 Highway 124, Suite U",,Snellville,GA,30078,United States,(770) 982-2650,33.8831350,-84.0101340,,,0
Wild Birds Unlimited,,17611 Yorba Linda Blvd.,,Yorba Linda,CA,92886,United States,(714) 985-4928,33.8884990,-117.8264980,,,0
Wild Birds Unlimited,,10456 Magnolia Avenue,,Riverside,CA,92505,United States,(951) 352-2020,33.9102170,-117.4642480,,,0
Wild Birds Unlimited,,1050 E. Piedmont Road,,Marietta,GA,30062,United States,(770) 565-9841,33.9749870,-84.4791340,,,0
Wild Birds Unlimited,,435 Columbia Ave.,,Lexington,SC,29072,United States,(803) 951-2070,33.9880100,-81.2413210,,,0
Wild Birds Unlimited,,"Dean Taylor Crossing 2133 Lawrenceville-Suwanee Rd., Ste. 9",,Suwanee,GA,30024,United States,(678) 442-9691,34.0031890,-84.0404130,,,0
Wild Birds Unlimited,,3515 South Centinela Avenue COMING SOON,,Los Angeles,CA,90066,United States,Visit our Website,34.0101254,-118.4387401,,,0
Wild Birds Unlimited,,4711 Forest Drive,,Columbia,SC,29206,United States,(803) 782-5700,34.0207240,-80.9689380,,,0
Wild Birds Unlimited,,3000 Old Alabama Road #116,,Alpharetta,GA,30022,United States,(770) 410-0799,34.0221040,-84.2706350,,,0
Wild Birds Unlimited,,80 Seven Hills Blvd. #303,,Dallas,GA,30132,United States,(770) 975-3423,34.0286200,-84.7777180,,,0
Wild Birds Unlimited,,1085 Lake Murray Blvd,,Irmo,SC,29063,United States,(803) 781-3480,34.0884240,-81.1772690,,,0
Wild Birds Unlimited,,911 W. Foothill Blvd.,,Claremont,CA,91711,United States,(909) 626-2266,34.1072026,-117.7312688,,,0
Wild Birds Unlimited,,1025 Rose Creek Drive,,Woodstock,GA,30189,United States,(770) 928-3014,34.1277690,-84.5724700,,,0
Wild Birds Unlimited,,The Village at Sandhill 130-3 Forum Drive,,Columbia,SC,29229,United States,(803) 736-4810,34.1342520,-80.8803430,,,0
Wild Birds Unlimited,,720 N. Moorpark Rd.,,Thousand Oaks,CA,91360,United States,(805) 379-3901,34.1875448,-118.8746327,,,0
Wild Birds Unlimited,,COMING SOON 4020 E. Main Street,,Ventura,CA,93003,United States,Visit our Website,34.2624742,-119.2382668,,,0
Wild Birds Unlimited,,425 Quill Dr. Suite 100,,Dawsonville,GA,30534,United States,(706) 429-0077,34.3479050,-84.0484840,,,0
Wild Birds Unlimited,,4800 Whitesburg Dr.,,Huntsville,AL,35802,United States,(256) 536-9128,34.6931440,-86.5697340,,,0
Wild Birds Unlimited,,1818 N. Taylor Street,,Little Rock,AR,72207,United States,(501) 666-4210,34.7683840,-92.3359040,,,0
Wild Birds Unlimited,,626 Congaree Road Congaree Center #4,,Greenville,SC,29607,United States,(864) 234-2150,34.8463790,-82.3250680,,,0
Wild Birds Unlimited,,"5847 Getwell Road, Suite A8 COMING SOON",,Southaven,MS,38672,United States,Visit our Website,34.9457361,-89.9372935,,,0
Wild Birds Unlimited,,468 E. Main St.,,Spartanburg,SC,29302,United States,(864) 585-0409,34.9525060,-81.9199410,,,0
Wild Birds Unlimited,,2734 Celanese Road,,Rock Hill,SC,29732,United States,(803) 981-9282,34.9760272,-81.0268394,,,0
Wild Birds Unlimited,,"6025 E. Brainerd Road, Suite 102",,Chattanooga,TN,37421,United States,(423) 892-3816,35.0177050,-85.2047470,,,0
Wild Birds Unlimited,,Crossroads Shopping Center 2029 S. Glenburnie Road,,New Bern,NC,28562,United States,(252) 637-6604,35.1001430,-77.0986600,,,0
Wild Birds Unlimited,,704 S. Mendenhall,,Memphis,TN,38117,United States,(901) 681-9837,35.1113310,-89.8959690,,,0
Wild Birds Unlimited,,7200 Montgomery N.E. #G-3,,Albuquerque,NM,87109,United States,(505) 883-0324,35.1306870,-106.5655930,,,0
Wild Birds Unlimited,,1848 Galleria Blvd. Suite F,,Charlotte,NC,28270,United States,(704) 844-8426,35.1378470,-80.7353550,,,0
Wild Birds Unlimited,,5929 Hixson Pike Shop #100,,Hixson,TN,37343,United States,(423) 847-1120,35.1406820,-85.2322510,,,0
Wild Birds Unlimited,,124 Brucewood Road,,Southern Pines,NC,28387,United States,(910) 246-0002,35.1715276,-79.4230625,,,0
Wild Birds Unlimited,,"10701 Corrales Road NW, Suite #5",,Albuquerque,NM,87114,United States,(505) 717-1385,35.2048828,-106.6475459,,,0
Wild Birds Unlimited,,Brookhaven Village 3770 W. Robinson Suite 104,,Norman,OK,73072,United States,(405) 321-8686,35.2328910,-97.4966490,,,0
Wild Birds Unlimited,,"3940 Broad St., Ste. F-6",,San Luis Obispo,CA,93401,United States,(805) 547-0242,35.2488940,-120.6433330,,,0
Wild Birds Unlimited,,3916 East Franklin Blvd Suite 150,,Gastonia,NC,28056,United States,(704) 823-1988,35.2573109,-81.1118433,,,0
Wild Birds Unlimited,,638 Spartanburg Highway Suite 60,,Hendersonville,NC,28792,United States,(828) 694-0081,35.3145390,-82.4581530,,,0
Wild Birds Unlimited,,8609 Concord Mills Blvd. (Behind Verizon Wireless),,Concord,NC,28027,United States,(704) 979-3443,35.3721660,-80.7212100,,,0
Wild Birds Unlimited,,9719-B Sam Furr Road,,Huntersville,NC,28078,United States,(704) 892-3209,35.4436710,-80.8645570,,,0
Wild Birds Unlimited,,10 Crispin Court Suite D 102,,Asheville,NC,28803,United States,(828) 687-9433,35.5029280,-82.5223340,,,0
Wild Birds Unlimited,,7501 N. May,,Oklahoma City,OK,73116,United States,(405) 842-9910,35.5460550,-97.5656960,,,0
Wild Birds Unlimited,,518 Greenville Boulevard SE Unit A,,Greenville,NC,27858,United States,(252) 493-0340,35.5820820,-77.3737910,,,0
Wild Birds Unlimited,,946 Merrimon Ave. #120,,Asheville,NC,28804,United States,(828) 687-9433,35.6307677,-82.5542549,,,0
Wild Birds Unlimited,,476 Shotwell Rd. Suite 101,,Clayton,NC,27520,United States,(919) 553-7973,35.6562650,-78.4781282,,,0
Wild Birds Unlimited,,Cordova Center 518-B Cordova Road,,Santa Fe,NM,87505,United States,(505) 989-8818,35.6730350,-105.9508820,,,0
Wild Birds Unlimited,,2040 Kildaire Farm Rd.,,Cary,NC,27518,United States,(919) 233-9370,35.7377330,-78.7800870,,,0
Wild Birds Unlimited,,3014 North Center Street,,Hickory,NC,28601,United States,(828) 441-2473,35.7719780,-81.3297060,,,0
Wild Birds Unlimited,,4412-110 Falls of Neuse Rd.,,Raleigh,NC,27609,United States,(919) 876-4498,35.8418860,-78.6122120,,,0
Wild Birds Unlimited,,4711 Hope Valley Road,,Durham,NC,27707,United States,(919) 401-4928,35.9225670,-78.9569630,,,0
Wild Birds Unlimited,,"7240 Kingston Pike, Ste. 164",,Knoxville,TN,37919,United States,(865) 337-5990,35.9290141,-84.0304304,,,0
Wild Birds Unlimited,,"Battlewood Shopping Center 2176 Hillsboro Road, Suite 110",,Franklin,TN,37064,United States,(615) 591-6962,35.9409110,-86.8797880,,,0
Wild Birds Unlimited,,1806 MLK Blvd.,,Chapel Hill,NC,27514,United States,(919) 969-6778,35.9676557,-79.0584639,,,0
Wild Birds Unlimited,,1589 Skeet Club Road Suite 134,,High Point,NC,27265,United States,(336) 841-2572,36.0329630,-79.9691390,,,0
Wild Birds Unlimited,,568 Hanes Mall Blvd.,,Winston-Salem,NC,27103,United States,(336) 774-1906,36.0631700,-80.3015930,,,0
Wild Birds Unlimited,,KingsPointe Village Shopping Center 5960 S. Yale Ave.,,Tulsa,OK,74135,United States,(918) 477-7408,36.0773710,-95.9223190,,,0
Wild Birds Unlimited,,2813 Bransford Avenue,,Nashville,TN,37204,United States,(615) 385-2426,36.1151230,-86.7665870,,,0
Wild Birds Unlimited,,2920-A Martinsville Road,,Greensboro,NC,27408,United States,(336) 282-4458,36.1168520,-79.8292890,,,0
Wild Birds Unlimited,,745 E. Joyce Boulevard,,Fayetteville,AR,72703,United States,(479) 435-6366,36.1229475,-94.1469005,,,0
Wild Birds Unlimited,,806 Meadow Lark Lane,,Goodlettsville,TN,37072,United States,(615) 859-7597,36.3026020,-86.7031050,,,0
Wild Birds Unlimited,,2011 Promenade Blvd Ste. 430,,Rogers,AR,72758,United States,(479) 246-0217,36.3111530,-94.1794180,,,0
Wild Birds Unlimited,,650 N. Branson Landing Blvd.,,Branson,MO,65616,United States,(417) 336-2473,36.6537537,-93.2197235,,,0
Wild Birds Unlimited,,Greenbrier Marketctr. - Ste 570 1244 Greenbrier Parkway,,Chesapeake,VA,23320,United States,(757) 436-4472,36.7704180,-76.2282550,,,0
Wild Birds Unlimited,,620 Hilltop West Shopping Ctr.,,Virginia Beach,VA,23451,United States,(757) 422-3215,36.8512220,-76.0208210,,,0
Wild Birds Unlimited,,3120 Kiln Creek Pkwy Unit A,,Yorktown,VA,23693,United States,(757) 875-1936,37.1188790,-76.4654610,,,0
Wild Birds Unlimited,,Parkcrest Shopping Center 3849 S. Campbell Street,,Springfield,MO,65807,United States,(417) 882-8801,37.1440540,-93.2961390,,,0
Wild Birds Unlimited,,"Settlers Market 4625 Casey Blvd, Ste 300",,Williamsburg,VA,23188,United States,(757) 253-0873,37.2774261,-76.7489909,,,0
Wild Birds Unlimited,,12631 Stone Village Way,,Midlothian,VA,23113,United States,(804) 323-0353,37.5017313,-77.6271651,,,0
Wild Birds Unlimited,,3404 Pump Road,,Henrico,VA,23233,United States,(804) 934-9200,37.6510490,-77.6121530,,,0
Wild Birds Unlimited,,692 Contra Costa Blvd.,,Pleasant Hill,CA,94523,United States,(925) 798-0303,37.9718100,-122.0637600,,,0
Wild Birds Unlimited,,5620 E. Virginia St.,,Evansville,IN,47715,United States,(812) 476-2473,37.9817030,-87.4813600,,,0
Wild Birds Unlimited,,152 N. Locust Hill Drive,,Lexington,KY,40509,United States,(859) 268-0114,38.0037380,-84.4454670,,,0
Wild Birds Unlimited,,1510 Seminole Tr. 29th Place,,Charlottesville,VA,22901,United States,(434) 973-5850,38.0778250,-78.4778950,,,0
Wild Birds Unlimited,,104 Vintage Way Ste. A-7,,Novato,CA,94945,United States,(415) 893-0500,38.0920717,-122.5541643,,,0
Wild Birds Unlimited,,1100 US 127 S Unit B3,,Frankfort,KY,40601,United States,(502) 352-2891,38.1752866,-84.8981488,,,0
Wild Birds Unlimited,,46400 Lexington Village #106,,Lexington Park,MD,20653,United States,(301) 863-2473,38.2846158,-76.4777458,,,0
Wild Birds Unlimited,,1937 Carl D. Silver Parkway,,Fredericksburg,VA,22401,United States,(540) 548-9393,38.3100031,-77.5112068,,,0
Wild Birds Unlimited,,71 Brookwood Avenue,,Santa Rosa,CA,95404,United States,(707) 576-0861,38.4433210,-122.7071520,,,0
Wild Birds Unlimited,,6074 Telegraph Road,,St. Louis,MO,63129,United States,(314) 293-1300,38.4563110,-90.3072740,,,0
Wild Birds Unlimited,,2657 N. Illinois St. (Hwy 159 - Schnucks Swansea Plaza),,Swansea,IL,62226,United States,(618) 235-3370,38.5430950,-89.9838520,,,0
Wild Birds Unlimited,,Loehmans Plaza 2561 Fair Oaks Blvd.,,Sacramento,CA,95825,United States,(916) 971-0719,38.5743440,-121.4025170,,,0
Wild Birds Unlimited,,9987 Manchester Road,,Warson Woods,MO,63122,United States,(314) 821-2266,38.6034490,-90.3843770,,,0
Wild Birds Unlimited,,1739 Clarkson Road,,Chesterfield,MO,63017,United States,(636) 537-5574,38.6412440,-90.5685850,,,0
Wild Birds Unlimited,,408 Roseville Square,,Roseville,CA,95678,United States,(916) 900-2473,38.7452273,-121.2762232,,,0
Wild Birds Unlimited,,1983 Zumbehl Road,,St. Charles,MO,63303,United States,(636) 949-9191,38.7816750,-90.5323610,,,0
Wild Birds Unlimited,,2216 Troy Rd.,,Edwardsville,IL,62025,United States,(618) 307-9604,38.7832440,-89.9511094,,,0
Wild Birds Unlimited,,Surrey Plaza 1 2644 N. Highway 67,,Florissant,MO,63033,United States,(314) 830-3533,38.8058360,-90.3052230,,,0
Wild Birds Unlimited,,3350 N. Union Blvd.,,Colorado Springs,CO,80907,United States,(719) 596-1819,38.8778710,-104.7948830,,,0
Wild Birds Unlimited,,2437 N. Harrison Street,,Arlington,VA,22207,United States,(703) 241-3988,38.8969790,-77.1376074,,,0
Wild Birds Unlimited,,11711 Roe Avenue,,Leawood,KS,66211,United States,(913) 491-4887,38.9161470,-94.6395670,,,0
Wild Birds Unlimited,,4987 Houston Road,,Florence,KY,41042,United States,(859) 283-2473,39.0140895,-84.6390781,,,0
Wild Birds Unlimited,,13222 West 62nd Terrace,,Shawnee,KS,66216,United States,(913) 962-0077,39.0150280,-94.7385460,,,0
Wild Birds Unlimited,,The Village at Waugh Chapel 1304 Main Chapel Way,,Gambrills,MD,21054,United States,(410) 451-6876,39.0382200,-76.6812446,,,0
Wild Birds Unlimited,,44110 Ashburn Shopping Plaza #174,,Ashburn,VA,20147,United States,(703) 687-4020,39.0442520,-77.4729503,,,0
Wild Birds Unlimited,,2454 Hwy 6 & 50,,Grand Junction,CO,81505,United States,(970) 242-2843,39.0906750,-108.6068720,,,0
Wild Birds Unlimited,,3103 Valley Ave. Suite 110,,Winchester,VA,22601,United States,(540) 722-9407,39.1422440,-78.1902260,,,0
Wild Birds Unlimited,,6496 Glenway Ave.,,Cincinnati,OH,45211,United States,(513) 598-4645,39.1526300,-84.6279710,,,0
Wild Birds Unlimited,,119 Neal Street,,Grass Valley,CA,95945,United States,(530) 272-7744,39.2167300,-121.0623400,,,0
Wild Birds Unlimited,,9887 Montgomery Road,,Cincinnati,OH,45242,United States,(513) 891-2199,39.2364820,-84.3502290,,,0
Wild Birds Unlimited,,8708 North Flintlock Road,,Kansas City,MO,64157,United States,(816) 415-4303,39.2497300,-94.4653430,,,0
Wild Birds Unlimited,,1192-A West Kemper Road,,Forest Park,OH,45240,United States,(513) 825-7777,39.2888600,-84.5231070,,,0
Wild Birds Unlimited,,7712 Voice of America Center Drive,,West Chester,OH,45069,United States,(513) 847-6580,39.3531936,-84.3613444,,,0
Wild Birds Unlimited,,320 W. Allen Street,,Castle Rock,CO,80108,United States,(303) 660-6334,39.4139425,-104.8660036,,,0
Wild Birds Unlimited,,11301 South Virginia Street (Moana Nursery),,Reno,NV,89511,United States,(775) 853-1319,39.4309230,-119.7649990,,,0
Wild Birds Unlimited,,7820 Wormans Mill Road Suite J,,Frederick,MD,21701,United States,(301) 360-9910,39.4457220,-77.3970190,,,0
Wild Birds Unlimited,,2438 Broad Avenue,,Timonium,MD,21093,United States,(410) 561-1215,39.4546550,-76.6348460,,,0
Wild Birds Unlimited,,3491 Merchant Boulevard Suite 104,,Abingdon,MD,21009,United States,(410) 569-2299,39.4690570,-76.3095440,,,0
Wild Birds Unlimited,,1100 West Moana Lane (Moana Nursery),,Reno,NV,89509,United States,(775) 825-0600,39.4906620,-119.8089550,,,0
Wild Birds Unlimited,,734 N. Main Street Next to Dorothy Lane Market in The Marketplace at Settlers Walk,,Springboro,OH,45066,United States,(937) 748-8979,39.5769490,-84.2303320,,,0
Wild Birds Unlimited,,"331 S State Road 135, Suite B",,Greenwood,IN,46142,United States,(317) 884 9632,39.6101001,-86.1578087,,,0
Wild Birds Unlimited,,7655 Pyramid Highway (Moana Nursery),,Sparks,NV,89436,United States,(775) 425-4300,39.6347450,-119.7152500,,,0
Wild Birds Unlimited,,1074 Suncrest Towne Center Dr,,Morgantown,WV,26505,United States,(304) 241-4370,39.6523750,-79.9410956,,,0
Wild Birds Unlimited,,18666 E. Hampden Ave,,Aurora,CO,80013,United States,(720) 519-1374,39.6526972,-104.7719017,,,0
Wild Birds Unlimited,,2720 S. Wadsworth,,Denver,CO,80227,United States,(303) 987-1065,39.6673250,-105.0809990,,,0
Wild Birds Unlimited,,4027 Far Hills Avenue,,Kettering,OH,45429,United States,(937) 299-1102,39.6891020,-84.1686390,,,0
Wild Birds Unlimited,,8100 East US 36,,Avon,IN,46123,United States,(317) 272-0780,39.7633230,-86.3817860,,,0
Wild Birds Unlimited,,1930 S. MacArthur,,Springfield,IL,62704,United States,(217) 789-6468,39.7797830,-89.6678570,,,0
Wild Birds Unlimited,,7411 Lancaster Pike PO Box 249,,Hockessin,DE,19707,United States,(302) 239-9071,39.7890429,-75.6953051,,,0
Wild Birds Unlimited,,6306 Gender Road COMING SOON,,Canal Winchester,OH,43110,United States,(614) 321-4548,39.8524909,-82.8263370,,,0
Wild Birds Unlimited,,7370 West 88th Avenue Unit A,,Arvada,CO,80021,United States,(303) 467-2644,39.8564330,-105.0742190,,,0
Wild Birds Unlimited,,"100 Evergreen Dr, Suite 109",,Glen Mills,PA,19342,United States,(484) 800-4941,39.8861350,-75.5311143,,,0
Wild Birds Unlimited,,Clearwater Crossing Shopping Plaza 3956 E 82nd Street,,Indianapolis,IN,46240,United States,(317) 578-0770,39.9093578,-86.0984188,,,0
Wild Birds Unlimited,,Classic Plaza Shopping Center 1619 N. Kings Highway,,Cherry Hill,NJ,08034,United States,(856) 428-1200,39.9156210,-75.0083910,,,0
Wild Birds Unlimited,,9830A N. Michigan Rd.,,Carmel,IN,46032,United States,(317) 334-1883,39.9293690,-86.2316790,,,0
Wild Birds Unlimited,,941 Route 37 West #2,,Toms River,NJ,08755,United States,(732) 281-BIRD (2473),39.9743870,-74.2415820,,,0
Wild Birds Unlimited,,6839 E. Broad St.,,Columbus,OH,43213,United States,(614) 860-1133,39.9809180,-82.8215070,,,0
Wild Birds Unlimited,,14753 Hazel Dell Crossing Suite 400,,Noblesville,IN,46062,United States,(317) 566-8222,40.0012219,-86.0693298,,,0
Wild Birds Unlimited,,Foxshire Plaza 1947 Fruitville Pike,,Lancaster,PA,17601,United States,(717) 208-6881,40.0751082,-76.3222317,,,0
Wild Birds Unlimited,,6654 Sawmill Road,,Columbus,OH,43235,United States,(614) 766-2103,40.1034911,-83.0910483,,,0
Wild Birds Unlimited,,720 North State Street,,Westerville,OH,43082,United States,(614) 899-9453,40.1449370,-82.9251370,,,0
Wild Birds Unlimited,,Dreshertown Plaza 1650 Limekiln Pike,,Dresher,PA,19025,United States,(215) 654-1993,40.1454300,-75.1687160,,,0
Wild Birds Unlimited,,6391 Carlisle Pike Silver Creek Plaza,,Mechanicsburg,PA,17050,United States,(717) 697-9000,40.2478707,-77.0035488,,,0
Wild Birds Unlimited,,60 Shillington Road,,Sinking Spring,PA,19608,United States,(610) 670-5508,40.3245000,-76.0146980,,,0
Wild Birds Unlimited,,PO Box 663 4920 York Rd,,Buckingham,PA,18912,United States,(215) 794-3888,40.3292070,-75.0554610,,,0
Wild Birds Unlimited,,1775 N. Highland Road,,Pittsburgh,PA,15241,United States,(412) 833-9299,40.3510250,-80.0527520,,,0
Wild Birds Unlimited,,844 Route 35,,Middletown,NJ,07748,United States,(732) 671-3155,40.3904484,-74.0991872,,,0
Wild Birds Unlimited,,3848 William Penn Hwy.,,Monroeville,PA,15146,United States,(412) 374-0678,40.4367490,-79.7813200,,,0
Wild Birds Unlimited,,1520 E. College Ave.,,Normal,IL,61761,United States,(309) 454-3455,40.5105360,-88.9589490,,,0
Wild Birds Unlimited,,3636 South College Avenue Suite C,,Ft. Collins,CO,80525,United States,(970) 225-2557,40.5370410,-105.0764390,,,0
Wild Birds Unlimited,,4251 Tilghman Street,,Allentown,PA,18104,United States,(610) 366-1725,40.5914750,-75.5502620,,,0
Wild Birds Unlimited,,12019 Perry Highway Rte. #19,,Wexford,PA,15090,United States,(724) 935-0051,40.6315621,-80.0593396,,,0
Wild Birds Unlimited,,2520 Highway 22 East,,Scotch Plains,NJ,07076,United States,(908) 233-5004,40.6647870,-74.3866900,,,0
Wild Birds Unlimited,,1967 E Murray Holladay Rd,,Salt Lake City,UT,84117,United States,(801) 878-4449,40.6662291,-111.8350673,,,0
Wild Birds Unlimited,,911 Montauk Highway,,Oakdale,NY,11769,United States,(631) 218-2473,40.7382372,-73.1189330,,,0
Wild Birds Unlimited,,7323 N Radnor Rd,,Peoria,IL,61615,United States,(309) 690-3232,40.7774010,-89.6510710,,,0
Wild Birds Unlimited,,625 Jericho Turnpike,,Syosset,NY,11791,United States,(516) 226-1780,40.8116846,-73.4934635,,,0
Wild Birds Unlimited,,189 Route 17 South,,Paramus,NJ,07652,United States,(201) 599-0099,40.9350840,-74.0713800,,,0
Wild Birds Unlimited,,90 Boardman-Canfield Rd.,,Boardman,OH,44512,United States,(330) 629-2473,41.0243820,-80.6660110,,,0
Wild Birds Unlimited,,356 Heights Road,,Darien,CT,06820,United States,(203) 202-2669,41.0694277,-73.4986293,,,0
Wild Birds Unlimited,,Coming Soon!,,Rockland County,NY,10994,United States,-,41.1049660,-74.0866660,,,0
Wild Birds Unlimited,,597 Howe Avenue,,Cuyahoga Falls,OH,44221,United States,(330) 922-4990,41.1190860,-81.4759970,,,0
Wild Birds Unlimited,,801 Northcrest Shopping Center,,Ft. Wayne,IN,46805,United States,(260) 484-3000,41.1192550,-85.1298610,,,0
Wild Birds Unlimited,,2246 Black Rock Turnpike,,Fairfield,CT,06825,United States,Visit our Website,41.1830635,-73.2527752,,,0
Wild Birds Unlimited,,551 Bedford Road,,Bedford Hills,NY,10507,United States,(914) 241-0721,41.2292820,-73.7106660,,,0
Wild Birds Unlimited,,Rockbrook Village Shopping Center 10923 Elm Street,,Omaha,NE,68144,United States,(402) 399-9976,41.2327310,-96.0827210,,,0
Wild Birds Unlimited,,14178 Pearl Road,,Strongsville,OH,44136,United States,(440) 846-6443,41.3115360,-81.8352070,,,0
Wild Birds Unlimited,,"50 1/2 Memorial Hwy, Route 309N Dallas Shopping Center",,Dallas,PA,18612,United States,(570) 675-9900,41.3326780,-75.9539630,,,0
Wild Birds Unlimited,,190 Flanders Road Unit 1,,Niantic,CT,06357,United States,(860) 739-7302,41.3513370,-72.2103220,,,0
Wild Birds Unlimited,,4428 Milan Road,,Sandusky,OH,44870,United States,(419) 626-5843,41.4149920,-82.6707720,,,0
Wild Birds Unlimited,,26791 Brookpark Extension,,North Olmsted,OH,44070,United States,(440) 777-1233,41.4195770,-81.9183350,,,0
Wild Birds Unlimited,,"317 Federal Road, Suite D1",,Brookfield (Danbury),CT,06804,United States,(203) 775-4888,41.4499474,-73.4012454,,,0
Wild Birds Unlimited,,28728 Wolf Rd.,,Bay Village,OH,44140,United States,(440) 835-9422,41.4851080,-81.9364270,,,0
Wild Birds Unlimited,,2902 Calumet Ave,,Valparaiso,IN,46383,United States,(219) 465-0508,41.4954037,-87.0448470,,,0
Wild Birds Unlimited,,138 US HWY 41,,Schererville,IN,46375,United States,(219) 319-0126,41.5199716,-87.4713219,,,0
Wild Birds Unlimited,,5736 Mayfield Road,,Mayfield Heights,OH,44124,United States,(440) 449-3324,41.5200240,-81.4728140,,,0
Wild Birds Unlimited,,1149 Essington Road,,Joliet,IL,60435,United States,(815) 744-3800,41.5423770,-88.1608500,,,0
Wild Birds Unlimited,,3616 Eastern Ave.,,Davenport,IA,52807,United States,(563) 445-3555,41.5571670,-90.5514210,,,0
Wild Birds Unlimited,,"801 73rd, Suite H",,Des Moines,IA,50324,United States,(515) 222-1234,41.5918900,-93.7135090,,,0
Wild Birds Unlimited,,"34500 Euclid Avenue, #5",,Willoughby,OH,44094,United States,(440) 918-1996,41.6239086,-81.4418847,,,0
Wild Birds Unlimited,,13012 S. LaGrange,,Palos Park,IL,60464,United States,(708) 361-8726,41.6527460,-87.8553060,,,0
Wild Birds Unlimited,,1198 Main Street (Rte.28),,South Yarmouth,MA,02664,United States,(508) 760-1996,41.6652780,-70.1949660,,,0
Wild Birds Unlimited,,5236 Monroe St Suite D,,Toledo,OH,43623,United States,(419) 841-7219,41.7021640,-83.6523910,,,0
Wild Birds Unlimited,,1000 Bald Hill Road,,Warwick,RI,02886,United States,(401) 826-0606,41.7122560,-71.4891360,,,0
Wild Birds Unlimited,,421 E. University Drive,,Granger,IN,46530,United States,(574) 247-0201,41.7198645,-86.1742202,,,0
Wild Birds Unlimited,,2848A Main Street Griswold Shopping Plaza,,Glastonbury,CT,06033,United States,(860) 633-5211,41.7205590,-72.6143950,,,0
Wild Birds Unlimited,,1462 Fall River Ave.,,Seekonk,MA,02771,United States,(508) 336-4043,41.7872380,-71.3166083,,,0
Wild Birds Unlimited,,1601 Ogden Avenue,,Lisle,IL,60532,United States,(630) 968-6332,41.8005670,-88.0823650,,,0
Wild Birds Unlimited,,"320 West Main Street, Suite 5 Westridge Shops",,Avon,CT,06001-3687,Canada,(860) 677-0181,41.8143611,-72.8566258,,,0
Wild Birds Unlimited,,"Duff Centre 213 Duff Avenue, Suite 4",,Ames,IA,50010,United States,(515) 956-3145,42.0237270,-93.6103980,,,0
Wild Birds Unlimited,,1460 Waukegan Road,,Glenview,IL,60025,United States,(847) 729-4688,42.0815630,-87.7984480,,,0
Wild Birds Unlimited,,Village West #17 3330 W. 26th Street,,Erie,PA,16506,United States,(814) 838-5145,42.0840520,-80.1486330,,,0
Wild Birds Unlimited,,Franklin Village Mall 215 Franklin Village Drive,,Franklin,MA,02038,United States,(508) 541-6800,42.0882910,-71.4230199,,,0
Wild Birds Unlimited,,"386 Columbia Rd., Rte.#53",,Hanover,MA,02339,United States,(781) 826-1640,42.1107990,-70.8130650,,,0
Wild Birds Unlimited,,321 Rand Road,,Arlington Heights,IL,60004,United States,(847) 259-7286,42.1109200,-87.9780610,,,0
Wild Birds Unlimited,,"800 Valley Plaza, Suite 7",,Johnson City,NY,13790,United States,(607) 770-4920,42.1207791,-75.9801418,,,0
Wild Birds Unlimited,,19093 West Road COMING SOON,,Woodhaven,MI,48183,United States,(313) 319-8358,42.1396838,-83.2225280,,,0
Wild Birds Unlimited,,950 County Road 64 Suite 600,,Elmira,NY,14903,United States,(607) 739-8157,42.1536880,-76.8721810,,,0
Wild Birds Unlimited,,1891 2nd St.,,Highland Park,IL,60035,United States,(847) 432-3384,42.1866810,-87.8018220,,,0
Wild Birds Unlimited,,2208 S. Main Street,,Ann Arbor,MI,48103,United States,(734) 665-7427,42.2543480,-83.7506790,,,0
Wild Birds Unlimited,,3015 Oakland Dr.,,Kalamazoo,MI,49008,United States,(269) 353-7550,42.2610899,-85.6130035,,,0
Wild Birds Unlimited,,631 South Perryville,,Rockford,IL,61108,United States,(815) 484-9281,42.2651540,-88.9807070,,,0
Wild Birds Unlimited,,41816 Ford Road,,Canton,MI,48187,United States,(734) 983-9130,42.3229210,-83.4541230,,,0
Wild Birds Unlimited,,961 Medford Center,,Medford,OR,97504,United States,(541) 772-2107,42.3333919,-122.8662190,,,0
Wild Birds Unlimited,,"Sudbury Plaza 513A Boston Post Road, Rte. 20",,Sudbury,MA,01776,United States,(978) 443-1739,42.3597810,-71.4303160,,,0
Wild Birds Unlimited,,206 South Main St.,,Galena,IL,61036,United States,(815) 777-2883,42.4155520,-90.4294730,,,0
Wild Birds Unlimited,,4902 Hononegah Road,,Roscoe,IL,61073,United States,(815) 623-1407,42.4322122,-89.0211801,,,0
Wild Birds Unlimited,,20381 Mack Avenue,,Grosse Pointe Woods,MI,48236,United States,(313) 881-1410,42.4396820,-82.9078960,,,0
Wild Birds Unlimited,,159 Sapsucker Woods Rd.,,Ithaca,NY,14850,United States,(877) 266-4928,42.4795672,-76.4508531,,,0
Wild Birds Unlimited,,47760 Grand River Avenue,,Novi,MI,48374,United States,(248) 374-4000,42.4907700,-83.5194830,,,0
Wild Birds Unlimited,,28558 Woodward Avenue,,Royal Oak,MI,48067,United States,(248) 548-2424,42.4993450,-83.1681130,,,0
Wild Birds Unlimited,,9610 Village Place Blvd,,Brighton,MI,48116,United States,(810) 522-5520,42.5075440,-83.7531990,,,0
Wild Birds Unlimited,,175 Littleton Road Unit L,,Westford,MA,01886,United States,(978) 692-7932,42.5681029,-71.4229446,,,0
Wild Birds Unlimited,,301 Newbury Street,,Danvers,MA,01923,United States,(978) 774-9819,42.5853810,-70.9651570,,,0
Wild Birds Unlimited,,20241 Hall Road,,Macomb,MI,48044,United States,(586) 229-2798,42.6295687,-82.9209505,,,0
Wild Birds Unlimited,,- 3032 Walton Blvd.,,Rochester Hills,MI,48309,United States,(248) 375-5202,42.6821510,-83.1950860,,,0
Wild Birds Unlimited,,3000 Milton Avenue #102,,Janesville,WI,53545,United States,(608) 758-2565,42.7186420,-88.9959530,,,0
Wild Birds Unlimited,,"2200 Coolidge Road, Suite 17",,East Lansing,MI,48823,United States,(517) 337-9920,42.7613810,-84.5025010,,,0
Wild Birds Unlimited,,3835 McKinley Parkway,,Blasdell,NY,14219,United States,(716) 823-7889,42.7805040,-78.8107040,,,0
Wild Birds Unlimited,,650 Amherst Street,,Nashua,NH,03063,United States,(603) 886-5091,42.8027840,-71.5405460,,,0
Wild Birds Unlimited,,"37 Plaistow Road, #10",,Plaistow,NH,03865,United States,(603) 382-3354,42.8219170,-71.1042020,,,0
Wild Birds Unlimited,,3085 Broadmoor S.E.,,Kentwood,MI,49512,United States,(616) 957-0366,42.9074580,-85.5827970,,,0
Wild Birds Unlimited,,4454 S. 108th Street,,Milwaukee,WI,53228,United States,(414) 529-4644,42.9627590,-88.0477460,,,0
Wild Birds Unlimited,,502 Springbank Drive,,London,ON,N6J 1G8,Canada,(519) 657-0745,42.9659440,-81.2882140,,,0
Wild Birds Unlimited,,8584 Transit Road COMING SOON,,East Amherst,NY,14051,United States,Visit our Website,43.0013261,-78.6977723,,,0
Wild Birds Unlimited,,G4208 Corunna Road,,Flint,MI,48532,United States,(810) 732-0100,43.0018850,-83.7580490,,,0
Wild Birds Unlimited,,314 Towne Drive,,Fayetteville,NY,13066,United States,(315) 637-0710,43.0335760,-76.0185670,,,0
Wild Birds Unlimited,,19555 W. Bluemound Road #4,,Brookfield,WI,53045,United States,(262) 789-8226,43.0360030,-88.1547310,,,0
Wild Birds Unlimited,,3173 Golf Road,,Delafield,WI,53018,United States,(262) 646-4128,43.0520890,-88.3656390,,,0
Wild Birds Unlimited,,8402 Old Sauk Road,,Middleton,WI,53562,United States,(608) 664-1414,43.0750950,-89.5269660,,,0
Wild Birds Unlimited,,"3084 Route 50, Suite 1",,Saratoga Springs,NY,12866,United States,(518) 226-0071,43.1078130,-73.7383460,,,0
Wild Birds Unlimited,,11004 N. Port Washington Road,,Mequon,WI,53092,United States,(262) 241-8483,43.2178000,-87.9239900,,,0
Wild Birds Unlimited,,250 Indian Brook Drive,,Somersworth (Dover),NH,03878,United States,(603) 743-4928,43.2245995,-70.8862366,,,0
Wild Birds Unlimited,,975 S. Main,,Frankenmuth,MI,48734,United States,(989) 652-8830,43.3231000,-83.7404500,,,0
Wild Birds Unlimited,,3350 Fairview St.,,Burlington,ON,L7N 3L5,Canada,(905) 634-7700,43.3542370,-79.7854560,,,0
Wild Birds Unlimited,,951 Gordon Street,,Guelph,ON,N1G 4S1,Canada,(519) 821-2473,43.5222500,-80.2129930,,,0
Wild Birds Unlimited,,10480 Overland Road (At Overland & 5 Mile),,Boise,ID,83709,United States,(208) 376-6862,43.5904912,-116.3135506,,,0
Wild Birds Unlimited,,400 Expedition Drive Suite F,,Scarborough,ME,04074,United States,(207) 771-2473,43.6011428,-70.3684617,,,0
Wild Birds Unlimited,,5468 Dundas Street West,,Toronto (Etobicoke),ON,M9B 6E3,Canada,(416) 233-3558,43.6321700,-79.5446730,,,0
Wild Birds Unlimited,,7690 Yonge St.,,Thornhill (Toronto),ON,L4J 1W1,Canada,(905) 709-3775,43.8150360,-79.4243070,,,0
Wild Birds Unlimited,,9348 State Highway 16 Suite 214,,Onalaska,WI,54650,United States,(608) 781-5088,43.8683376,-91.2031804,,,0
Wild Birds Unlimited,,2510 Willamette Street,,Eugene,OR,97405,United States,(541) 844-1788,44.0311920,-123.0906998,,,0
Wild Birds Unlimited,,"16655 Yonge Street, Unit #2",,Newmarket,ON,L3X1V6,Canada,(905) 868-9696,44.0347890,-79.4743900,,,0
Wild Birds Unlimited,,"Forum Center 2680 NE Hwy. 20, Ste. 310",,Bend,OR,97701,United States,(541) 617-8840,44.0552250,-121.2642150,,,0
Wild Birds Unlimited,,515 Bryne Drive Unit B,,Barrie,ON,L4N 9P7,Canada,(705) 726-7600,44.3319990,-79.6879680,,,0
Wild Birds Unlimited,,"2285 South Oneida Street, Suite D",,Green Bay,WI,54304,United States,(920) 489-2684,44.4894337,-88.0635460,,,0
Wild Birds Unlimited,,1935 NW 9th Street,,Corvallis,OR,97330,United States,(541) 757-0120,44.5874410,-123.2551000,,,0
Wild Birds Unlimited,,5805 Egan Drive,,Savage,MN,55378,United States,(952) 226-2010,44.7464670,-93.3531900,,,0
Wild Birds Unlimited,,1211 East Front Street,,Traverse City,MI,49686,United States,(231) 946-0431,44.7641810,-85.5923250,,,0
Wild Birds Unlimited,,Tower Square 582 Prairie Center Drive #220,,Eden Prairie,MN,55344,United States,(952) 944-3272,44.8517390,-93.4306200,,,0
Wild Birds Unlimited,,2020A Ford Parkway,,St. Paul,MN,55116,United States,(651) 690-9525,44.9178280,-93.1859600,,,0
Wild Birds Unlimited,,4121 Rib Mountain Drive,,Wausau,WI,54401,United States,(715) 298-3140,44.9194920,-89.6504970,,,0
Wild Birds Unlimited,,1210 Commercial Street SE,,Salem,OR,97302,United States,(503) 363-9744,44.9291160,-123.0441620,,,0
Wild Birds Unlimited,,11210 Wayzata Blvd.,,Minnetonka,MN,55305,United States,(952) 525-9365,44.9732130,-93.4211910,,,0
Wild Birds Unlimited,,Blue Heron Mall 1500 Bank Street,,Ottawa,ON,K1H 7Z1,Canada,(613) 521-7333,45.3820270,-75.6703350,,,0
Wild Birds Unlimited,,2047 West Oak Street #105,,Bozeman,MT,59718,United States,(406) 219-2066,45.6940273,-111.0642701,,,0
Wild Birds Unlimited,,Rimrock Mini Mall 111 S. 24th St. West Suite 27,,Billings,MT,59102,United States,(406) 245-1640,45.7676490,-108.5761950,,,0
Wild Birds Unlimited,,474 Keene Road COMING SOON,,Richland,WA,99352,United States,Visit our Website,46.2377650,-119.2854617,,,0
Wild Birds Unlimited,,5115 Burning Tree Rd. Unit 311,,Duluth,MN,55811,United States,(218) 722-5658,46.8087474,-92.1718906,,,0
Wild Birds Unlimited,,2727 South 3rd West,,Missoula,MT,59804,United States,(406) 543-3333,46.8663130,-114.0458013,,,0
Wild Birds Unlimited,,"Cooper Point Marketplace, Ste 304 1200 Cooper Point Rd. SW",,Olympia,WA,98502,United States,(360) 352-5458,47.0371340,-122.9391160,,,0
Wild Birds Unlimited,,4621 S. Meridian St Suite 825,,Puyallup,WA,98373,United States,(253) 845-5434,47.1492100,-122.2927450,,,0
Wild Birds Unlimited,,3120 1/2 Harborview Dr,,Gig Harbor,WA,98335,United States,(253) 851-2575,47.3295060,-122.5808900,,,0
Wild Birds Unlimited,,27177 185th AVE. SE STE D109,,Covington,WA,98042,United States,(253) 639-6378,47.3587110,-122.0991330,,,0
Wild Birds Unlimited,,15858 First Avenue South #106,,Burien,WA,98148,United States,(206) 241-3201,47.4603910,-122.3310040,,,0
Wild Birds Unlimited,,15155 NE 24th St.,,Redmond,WA,98052,United States,(425) 747-8908,47.6314970,-122.1384700,,,0
Wild Birds Unlimited,,296 W. Sunset Avenue #22,,Coeur d'Alene,ID,83815,United States,(208) 765-8787,47.7134920,-116.7902490,,,0
Wild Birds Unlimited,,"17171 Bothell Way NE, #A007",,Lake Forest Park,WA,98155,United States,(206) 367-1950,47.7526610,-122.2787590,,,0
Wild Birds Unlimited,,19677 State Rt. 2 Suite 111,,Monroe,WA,98272,United States,(360) 863-9173,47.8596700,-121.9661327,,,0
Wild Birds Unlimited,,4821 Evergreen Way,,Everett,WA,98203,United States,(425) 252-2220,47.9527800,-122.2134860,,,0
Wild Birds Unlimited,,5565 Van Barr Place Suite AB,,Freeland,WA,98249,United States,(360) 341-1404,48.0089050,-122.5268640,,,0
Wild Birds Unlimited,,275953 Highway 101,,Gardiner,WA,98382,United States,(360) 797-7100,48.0497313,-122.9214167,,,0
Wild Birds Unlimited,,3631 Shelbourne St.,,Victoria,BC,V8p 4H1,Canada,(250) 595-3595,48.4587500,-123.3328630,,,0
Wild Birds Unlimited,,2421 King George Highway,,Surrey,BC,V4P 1H8,Canada,(604) 536-4011,49.0458859,-122.7946611,,,0
Wild Birds Unlimited,,#13-33324 South Fraser Way,,Abbotsford,BC,V2S 2B4,Canada,(604) 852-1960,49.0497387,-122.3013930,,,0
Wild Birds Unlimited,,#2-6131 200th Street,,Langley,BC,V2Y 1A2,Canada,(604) 510-2035,49.1138282,-122.6700559,,,0
Wild Birds Unlimited,,8810-C Young Road,,Chilliwack,BC,V2P 4P5,Canada,(604) 792-1239,49.1619334,-121.9524766,,,0
Wild Birds Unlimited,,1302 W.Broadway (at Birch),,Vancouver,BC,V6H 1H2,Canada,(604) 736-2676,49.2634640,-123.1341650,,,0
Wild Birds Unlimited,,Modern Image Plaza 1190 Marine Drive,,North Vancouver,BC,V7P 1S8,Canada,(604) 988-2121,49.3238420,-123.1075110,,,0
Wild Birds Unlimited,,Unit 45 11 Reenders Drive,,Winnipeg,MB,R2C 5K5,Canada,(204) 667-2161,49.9034530,-97.0668270,,,0
Wild Birds Unlimited,,330-A 2600 8th Street East,,Saskatoon,SK,S7H 0V7,Canada,(306) 955-2473,52.1146953,-106.6166848,,,0
Wild Birds Unlimited,,12204 107th Ave N.W.,,Edmonton,AB,T5M4A8,Canada,(587) 521-2473,53.5510430,-113.5328440,,,0
