store_name,store_number,address,address2,city,state,zip_code,country,phone_number,latitude,longitude,store_hours,other_fields,coming_soon
VegasExpress,1598,3411 Las Vegas Boulevard South,,Las Vegas,NV,89109,United States,800-843-2728,36.12067,-115.17168,,,0
MPLS 40,1357,3240 Division Street,,St.Cloud,MN,56301,United States,800-843-2728,45.5531796,-94.1975583,Sun - Wed 7:00AM - 11:00PM;Thu - Sat 7:00AM - 12:00AM,,0
MPLS 42,1367,9480 Dunkirk Lane North,,Maple Grove,MN,55311,United States,800-843-2728,45.1258564,-93.4903633,Sun - Sat,,0
MPLS 38,1313,8011 Old Carriage Court,,Shakopee,MN,55379,United States,800-843-2728,44.777036,-93.416485,Sun - Wed 10:00AM - 11:00PM;Thu - Fri 10:00AM - 1:00AM;Saturday 10:00AM - 12:00AM,,0
MPLS 28,1070,1111 Cambridge Street,,Hopkins,MN,55343,United States,800-843-2728,44.9348862,-93.3870518,Sun - Sat,,0
MPLS 23,1065,7741 ZANE AVE N,,BROOKLYN PARK,MN,55443,United States,800-843-2728,45.0955346,-93.3569254,Sun - Sat,,0
MPLS 37,1297,3465 124th Ave North,,Coon Rapids,MN,55433,United States,800-843-2728,45.1969947,-93.3538634,Sun - Sat,,0
MPLS 22,1064,9600 LYNDALE AVE S,,BLOOMINGTON,MN,55420,United States,800-843-2728,44.8295282,-93.2892727,Sun - Sat,,0
MPLS 26,1068,100 W LAKE ST,,MINNEAPOLIS,MN,55408,United States,800-843-2728,44.9485822,-93.2800103,Sun - Sat,,0
MPLS 39,1349,15101 Cedar Avenue,,Apple Valley,MN,55124,United States,800-843-2728,44.730702,-93.218484,Sun - Sat,,0
MPLS 29,1071,608 CENTRAL AVE NE,,MINNEAPOLIS,MN,55414,United States,800-843-2728,44.9899338,-93.2520171,Sun - Sat,,0
MPLS 27,1069,5055 CENTRAL AVE NE,,COLUMBIA HEIGHTS,MN,55421,United States,800-843-2728,45.0604504,-93.2469624,Sun - Sat,,0
MPLS 34,1189,9330   BALTIMORE ST  ,,BLAINE,MN,55434,United States,800-843-2728,45.140855,-93.234215,Sun - Sat,,0
MPLS 30,1072,1120 UNIVERSITY AVE,,ST. PAUL,MN,55104,United States,800-843-2728,44.955464,-93.1471052,Sun - Sat,,0
MPLS 21,1063,505 RICE ST,,ST. PAUL,MN,55102,United States,800-843-2728,44.9563695,-93.106314,Sun - Sat,,0
MPLS 25,1067,4515 S ROBERT STREET TRL,,INVER GROVE HEIGHTS,MN,55077,United States,800-843-2728,44.8478826,-93.0706128,Sun - Sat,,0
MPLS 24,1066,1601 WHITE BEAR AVE,,ST. PAUL,MN,55109,United States,800-843-2728,44.9897411,-93.0257455,Sun - Sat,,0
MPLS 36,1247,919 West Broadway,,Forest Lake,MN,55025    ,United States,800-843-2728,45.279838,-92.9952239,Sun - Sat,,0
MPLS 41,1362,5950 Nova Scotia Avenue North,,Oak Park Heights,MN,55082,United States,800-843-2728,45.0338827,-92.8266279,Sun - Wed 7:00AM - 11:00PM;Thu - Fri 7:00AM - 1:00AM;Saturday 7:00AM - 12:00AM,,0
MPLS 33,1075,329 FIRE MONUMENT RD,,HINCKLEY,MN,55037,United States,800-843-2728,46.0111143,-92.9352449,Sun - Sat,,0
STLS 64,1355,3401 Clark Lane,,Columbia,MO,65202,United States,800-843-2728,38.964389,-92.286867,Sun - Sat,,0
STLS 58,1287,1983 Wentzville Parkway,,WENTZVILLE,MO,63385,United States,800-843-2728,38.8160278,-90.8770209,Sun - Sat,,0
STLS 51,1225,2212 HIGHWAY K,,O'FALLON,MO,63366,United States,800-843-2728,38.7776271,-90.6992722,Sun - Sat,,0
STLS 60,1317,4800 Mid Rivers Mall Drive,,Cottleville,MO,63376,United States,800-843-2728,38.7526558,-90.6357707,Sun - Wed 6:00AM - 11:00PM;Thu - Fri 6:00AM - 2:00AM;Saturday 6:00AM - 12:00AM,,0
STLS 38,1161,4201 VETERAN'S MEMORIAL PKWY,,ST. PETERS,MO,63376,United States,800-843-2728,38.795823,-90.576751,Sun - Sat,,0
STLS 50,1224,78 HILLTOP VILLAGE CENTER DR,,EUREKA,MO,63025,United States,800-843-2728,38.505011,-90.64078,Sun - Sat,,0
STLS 39,1162,2000  HIGHWAY 94,,ST. CHARLES,MO,63303-3725,United States,800-843-2728,38.7578863,-90.5396252,Sun - Sat,,0
STLS 57,1283,310 Emerson Rd,,HIGH RIDGE,MO,63049,United States,800-843-2728,38.484194,-90.504689,Sun - Sat,,0
STLS 37,1160,13600  MANCHESTER RD,,ST. LOUIS,MO,63131,United States,800-843-2728,38.5962871,-90.4742651,Sun - Sat,,0
STLS 43,1166,12025 DORSETT RD,,ST LOUIS,MO,63043,United States,800-843-2728,38.7149204,-90.43845,Sun - Sat,,0
STLS 63,1353,11979 Paul Mayer Avenue,,Bridgeton,MO,63044,United States,800-843-2728,38.7473501,-90.4227211,Sun - Sat,,0
STLS 40,1163,1789 BOWLES AVE,,FENTON,MO,63026,United States,800-843-2728,38.5410008,-90.4739847,Sun - Sat,,0
STLS 54,1258,1224 S. Kirkwood Rd.,,Kirkwood,MO,63122,United States,800-843-2728,38.561618,-90.405385,Sun - Sat,,0
STLS 36,1159,840 N  HIGHWAY 67,,FLORISSANT,MO,63031,United States,800-843-2728,38.8000248,-90.3332851,Sun - Sat,,0
STLS 29,1152,9301 NATURAL BRIDGE RD,,BERKELEY,MO,63134,United States,800-843-2728,38.7228937,-90.3360772,Sun - Sat,,0
STLS 52,1250,7380 OLIVE BLVD,,UNIVERSITY CITY,MO,63130,United States,800-843-2728,38.67094,-90.3291239,Sun - Sat,,0
STLS 33,1156,5615 S LINDBERGH BLVD,,ST. LOUIS,MO,63123,United States,800-843-2728,38.5230975,-90.3543667,Sun - Sat,,0
STLS 48,1190,1905   Richardson RD  ,,ARNOLD,MO,63010,United States,800-843-2728,38.410777,-90.382855,Sun - Sat,,0
STLS 56,1277,7945 Watson Rd.,,MARLBOROUGH,MO,63119,United States,800-843-2728,38.5687167,-90.3393061,Sunday 12:00AM - 1:00AM;Mon - Thu 6:00AM - 1:00AM;Friday 6:00AM - 12:00AM;Saturday,,0
STLS 31,1154,7485 MANCHESTER RD,,MAPLEWOOD,MO,63143,United States,800-843-2728,38.612733,-90.322611,Sun - Sat,,0
STLS 34,1157,11120 NEW HALLS FERRY RD,,ST. LOUIS,MO,66033,United States,800-843-2728,38.7713897,-90.2675452,Sun - Sat,,0
STLS 41,1164,4395 LEMAY FERRY RD,,ST. LOUIS,MO,63129,United States,800-843-2728,38.501879,-90.332503,Sun - Sat,,0
STLS 42,1165,1000  HIGHWAY 21A AT I-55,,Festus,MO,63028,United States,800-843-2728,38.219437,-90.4046873,Sun - Sat,,0
STLS 67,1591,5231 Jennings Station Road,,Jennings,MO,63136,United States,800-843-2728,38.706049,-90.270026,Sun - Sat,,0
STLS 68,1640,6059 S LAGRANGE RD,,COUNTRYSIDE,IL,60525,United States,800-843-2728,38.6517828,-90.2634795,Sun - Sat,,0
STLS 68,1650,716 N. Kingshighway Blvd.,,St. Louis,MO,63108,United States,800-843-2728,38.6517806,-90.2634613,Sun - Sat,,0
STLS 20,1148,4524 S KINGS HIGHWAY BLVD,,ST. LOUIS,MO,63109,United States,800-843-2728,38.586899,-90.275946,Sun - Sat,,0
STLS 55,1276,10720 Bellefontaine Rd.,,BELLEFONTAINE NEIGHBORS,MO,63137,United States,800-843-2728,38.767076,-90.220348,Sun - Sat,,0
STLS 23,1150,3524 N KINGS HIGHWAY BLVD,,ST. LOUIS,MO,63115,United States,800-843-2728,38.6789517,-90.2385387,Sun - Sat,,0
STLS 27,1151,1002 S VANDEVENTER,,ST. LOUIS,MO,63110,United States,800-843-2728,38.627887,-90.247587,Sun - Sat,,0
STLS 32,1155,3601 GRAVOIS AVE,,ST. LOUIS,MO,63116,United States,800-843-2728,38.592629,-90.2442559,Sun - Sat,,0
STLS 49,1221,2998 HOMER ADAMS PKY,,ALTON,IL,62002,United States,800-843-2728,38.9152964,-90.143046,Sun - Wed 6:00AM - 2:00AM;Thursday 6:00AM - 12:00AM;Fri - Sat,,0
STLS 30,1153,2009 HEBERT ST,,ST. LOUIS,MO,63107,United States,800-843-2728,38.6549603,-90.2022578,Sun - Sat,,0
STLS 53,1245,680 W Karsch Boulevard,,Farmington,MO,63640    ,United States,800-843-2728,37.7895868,-90.4307184,Sun - Wed 6:00AM - 10:00PM;Thu - Fri 6:00AM - 2:00AM;Saturday 6:00AM - 12:00AM,,0
STLS 44,1167,806 S BROADWAY ST,,ST. LOUIS,MO,63102,United States,800-843-2728,38.6183521,-90.1924542,Sun - Sat,,0
STLS 66,1368,1260 Camp Jackson Road,,Cahokia,IL,62206,United States,800-843-2728,38.560706,-90.1740521,Sun - Sat,,0
STLS 45,1168,3 E PORT PLAZA DR,,COLLINSVILLE,IL,62234,United States,800-843-2728,38.6840933,-90.0108517,Sun - Sat,,0
STLS 62,1343,5820 Belleville Crossing Street,,Belleville,IL,62226,United States,800-843-2728,38.5271393,-90.0351252,Sun - Sat,,0
STLS 35,1158,10849 LINCOLN TRL,,FAIRVIEW HEIGHTS,IL,62208,United States,800-843-2728,38.5933754,-89.9901271,Sun - Sat,,0
STLS 65,1358,1141 N.Greenmount Road,,Belleville,IL,62221,United States,800-843-2728,38.520031,-89.9292267,Sun - Sat,,0
CHIC 105,1332,1602 Sycamore Road,,DeKalb,IL,60115,United States,800-843-2728,41.944952,-88.734553,Sun - Thu 8:00AM - 11:00PM;Fri - Sat 8:00AM - 12:00AM,,0
STLS 59,1305,102 Seimers Drive,,Cape Girardeau,MO,63701,United States,800-843-2728,37.3023721,-89.5821687,Sun - Sat,,0
CHIC 94,1298,241 North Randall Road,,ALGONQUIN,IL,60156,United States,800-843-2728,42.1780726,-88.3347217,Sun - Thu 9:00AM - 1:00AM;Friday 9:00AM - 5:00AM;Saturday 9:00AM - 12:00AM,,0
CHIC 35,915,1219 LAKE ST,,AURORA,IL,60506,United States,800-843-2728,41.78178,-88.31672,Sun - Sat,,0
CHIC 106,1330,40 S.  Western Avenue,,Carpentersville,IL,60110,United States,800-843-2728,42.1069496,-88.2920325,Sun - Wed 9:00AM - 10:00PM;Thu - Fri 9:00AM - 3:00AM;Saturday 9:00AM - 12:00AM,,0
CHIC 108,1341,2340 Route 34,,Oswego,IL,60543,United States,800-843-2728,41.7052142,-88.3047567,Sun - Thu 8:00AM - 12:00AM;Friday 8:00AM - 3:00AM;Saturday 8:00AM - 12:00AM,,0
CHIC 87,1259,2231 Rt. 59,,JOLIET,IL,60435    ,United States,800-843-2728,41.5410219,-88.1995089,Sun - Thu 7:00AM - 3:00AM;Friday 7:00AM - 12:00AM;Saturday,,0
CHIC 51,930,110 W NORTH AVE,,CAROL STREAM,IL,60188,United States,800-843-2728,41.903771,-88.121347,Sun - Wed 7:00AM - 3:00AM;Thursday 7:00AM - 12:00AM;Fri - Sat,,0
CHIC 48,927,1100 W GOLF RD,,HOFFMAN ESTATES,IL,60169,United States,800-843-2728,42.0485523,-88.107083,Sun - Sat,,0
CHIC 92,1290,1265 West Normantown,,ROMEOVILLE,IL,60446,United States,800-843-2728,41.651689,-88.123302,Sun - Wed 7:00AM - 3:00AM;Thursday 7:00AM - 12:00AM;Fri - Sat,,0
CHIC 50,929,1803 W JEFFERSON AVE,,JOLIET,IL,60435,United States,800-843-2728,41.522945,-88.1251087,Sun - Sat,,0
CHIC 47,926,120 S BOLINGBROOK DR,,BOLINGBROOK,IL,60440,United States,800-843-2728,41.6980001,-88.0677728,Sun - Thu 7:00AM - 3:00AM;Friday 7:00AM - 12:00AM;Saturday,,0
CHIC 86,1249,2110 Army Trail Road,,Addison,IL,60101    ,United States,800-843-2728,41.9332686,-88.0430751,Sun - Sat,,0
CHIC 107,1334,1158 E. Dundee Road,,Palatine,IL,60074,United States,800-843-2728,42.1395829,-88.0159354,Sunday 9:00AM - 12:00AM;Mon - Thu 8:00AM - 12:00AM;Friday 8:00AM - 4:00AM;Saturday 8:00AM - 12:00AM,,0
CHIC 77,1218,4 E Roosevelt RD,,Lombard,IL,60148,United States,800-843-2728,41.860439,-88.01694,Sun - Thu 6:00AM - 2:00AM;Friday 6:00AM - 12:00AM;Saturday,,0
CHIC 52,931,1204 75TH ST,,DOWNERS GROVE,IL,60516,United States,800-843-2728,41.7527185,-88.0132782,Sun - Thu 7:00AM - 1:00AM;Friday 7:00AM - 12:00AM;Saturday,,0
CHIC 38,917,306 W NORTH AVE,,VILLA PARK,IL,60181,United States,800-843-2728,41.9056993,-87.9871745,Sunday;Mon - Thu 6:00AM - 12:00AM;Fri - Sat,,0
CHIC 62,941,6290 GRAND AVE,,GURNEE,IL,60031,United States,800-843-2728,42.3844976,-87.9571408,Sunday 9:00AM - 12:00AM;Mon - Thu 8:00AM - 12:00AM;Friday 8:00AM - 3:00AM;Saturday 8:00AM - 12:00AM,,0
CHIC 82,1237,11730 75TH ST,,KENOSHA,WI,53142,United States,800-843-2728,42.5680913,-87.9484755,Sun - Thu 7:00AM - 12:00AM;Friday 7:00AM - 3:00AM;Saturday 7:00AM - 12:00AM,,0
CHIC 111,1365,1800 Oakton Street,,Elk Grove Village,IL,60007,United States,800-843-2728,42.0229467,-87.9591304,Sunday 12:00AM - 2:00AM;Mon - Wed 7:00AM - 2:00AM;Thursday 7:00AM - 3:00AM;Friday 7:00AM - 12:00AM;Saturday,,0
CHIC 110,1359,401 E.Lincoln Highway,,New Lenox,IL,60451,United States,800-843-2728,41.5123647,-87.9575328,Sun - Wed 7:00AM - 2:00AM;Thu - Fri 7:00AM - 4:00AM;Saturday 7:00AM - 12:00AM,,0
CHIC 89,1273,12640 West 143rd Street,,Homer Glen,IL,60491,United States,800-843-2728,41.62964,-87.927192,Sun - Wed 7:00AM - 2:00AM;Thursday 7:00AM - 12:00AM;Fri - Sat,,0
CHIC 97,1301,3001 West Belvidere Road,,WAUKEGAN,IL,60085,United States,800-843-2728,42.348876,-87.874678,Sun - Thu 7:00AM - 12:00AM;Friday 7:00AM - 3:00AM;Saturday 7:00AM - 12:00AM,,0
CHIC 22,903,10339 W GRAND AVE,,FRANKLIN PARK,IL,60131,United States,800-843-2728,41.9302374,-87.8836977,Sun - Sat,,0
CHIC 36,916,6059 S LAGRANGE RD,,COUNTRYSIDE,IL,60525,United States,800-843-2728,41.7796221,-87.8676215,Sun - Sat,,0
CHIC 66,945,840 W NORTH AVE,,MELROSE PARK,IL,60160,United States,800-843-2728,41.9077901,-87.844474,Sun - Sat,,0
CHIC 83,1242,211 W. Roosevelt Rd.,,Maywood,IL,60153    ,United States,800-843-2728,41.864669,-87.835531,Sun - Sat,,0
CHIC 74,1196,9550 W 191ST ST,,MOKENA,IL,60448,United States,800-843-2728,41.5431818,-87.8505696,Sun - Sat,,0
CHIC 79,1229,7550 N HARLEM AVE,,CHICAGO,IL,60631,United States,800-843-2728,42.0182017,-87.8066334,Sun - Sat,,0
CHIC 21,902,3132 N HARLEM AVE,,CHICAGO,IL,60634,United States,800-843-2728,41.9375623,-87.8070053,Sun - Sat,,0
CHIC 40,919,15801 S HARLEM AVE,,ORLAND PARK,IL,60462,United States,800-843-2728,41.6305694,-87.8255007,Sun - Sat,,0
CHIC 71,1184,1583 N STATE ROUTE 50    ,,BRADLEY,IL,60915,United States,800-843-2728,41.172747,-87.852132,Sun - Sat,,0
CHIC 19,900,7155 W OGDEN AVE,,BERWYN,IL,60402,United States,800-843-2728,41.8240509,-87.8018163,Sun - Sat,,0
CHIC 29,910,7900 S HARLEM AVE,,BRIDGEVIEW,IL,60455,United States,800-843-2728,41.7476865,-87.8002837,Sun - Sat,,0
CHIC 91,1281,10555 Harlem,,Chicago Ridge,IL,60415,United States,800-843-2728,41.6994455,-87.7977364,Sun - Sat,,0
CHIC 25,906,5618 W NORTH AVE,,CHICAGO,IL,60639,United States,800-843-2728,41.90967,-87.766355,Sun - Sat,,0
CHIC 59,938,2209 S CICERO AVE,,CICERO,IL,60804,United States,800-843-2728,41.8502529,-87.743843,Sun - Sat,,0
CHIC 26,907,4750 W 63RD ST,,CHICAGO,IL,60629,United States,800-843-2728,41.7787795,-87.7415324,Sun - Sat,,0
CHIC 20,901,9501 S CICERO AVE,,OAK LAWN,IL,60453,United States,800-843-2728,41.7197149,-87.7401872,Sun - Sat,,0
CHIC 103,1318,12156 South Cicero Avenue,,Alsip,IL,60803,United States,800-843-2728,41.6711472,-87.7394551,Sun - Sat,,0
CHIC 75,1197,3901 W MADISON ST,,CHICAGO,IL,60624,United States,800-843-2728,41.880471,-87.7234299,Sun - Sat,,0
CHIC 33,913,14700 S CICERO AVE,,MIDLOTHIAN,IL,60445,United States,800-843-2728,41.6248069,-87.737713,Sun - Sat,,0
CHIC 24,905,7912 S PULASKI RD,,CHICAGO,IL,60652,United States,800-843-2728,41.7489682,-87.722195,Sun - Sat,,0
CHIC 23,904,3212 W ADDISON ST,,CHICAGO,IL,60618,United States,800-843-2728,41.946896,-87.708423,Sun - Sat,,0
CHIC 98,1306,21049 S Cicero Rd,,Matteson,IL,60443,United States,800-843-2728,41.5073879,-87.7323129,Sun - Sat,,0
CHIC 70,948,2356 W Roosevelt Rd.,,CHICAGO,IL,60608,United States,800-843-2728,41.8669018,-87.6856992,Sun - Sat,,0
CHIC 61,940,5940 N RIDGE AVE,,CHICAGO,IL,60626,United States,800-843-2728,41.9979535,-87.6768519,Sun - Sat,,0
CHIC 46,925,2555 W 95TH ST,,EVERGREEN PARK,IL,60805,United States,800-843-2728,41.720592,-87.6875,Sun - Sat,,0
CHIC 65,944,15902 S KEDZIE AVE,,MARKHAM,IL,60428,United States,800-843-2728,41.600477,-87.694985,Sun - Sat,,0
CHIC 57,936,6901 S. Western Ave.,,CHICAGO,IL,60636,United States,800-843-2728,41.7681441,-87.6826141,Sun - Sat,,0
CHIC 13,898,12709 S WESTERN AVE.,,BLUE ISLAND,IL,60406,United States,800-843-2728,41.66207,-87.679757,Sun - Sat,,0
CHIC 54,933,3205 S ASHLAND AVE,,CHICAGO,IL,60608,United States,800-843-2728,41.8351004,-87.6651706,Sun - Sat,,0
CHIC 76,1203,1550-58 W GARFIELD BLVD,,CHICAGO,IL,60609,United States,800-843-2728,41.79431,-87.664138,Sun - Sat,,0
CHIC 53,932,1400 W 79TH ST,,CHICAGO,IL,60620,United States,800-843-2728,41.750716,-87.65889,Sun - Sat,,0
CHIC 39,918,701 W 14TH ST,,CHICAGO HEIGHTS,IL,60411,United States,800-843-2728,41.5060804,-87.6694215,Sun - Sat,,0
CHIC 90,1280,6646 South Halsted Street,,CHICAGO,IL,60621,United States,800-843-2728,41.77291,-87.644964,Sun - Sat,,0
CHIC 49,928,11050 S HALSTED,,CHICAGO,IL,60628,United States,800-843-2728,41.6930429,-87.642478,Sun - Sat,,0
CHIC 63,942,2140 S WABASH AVE,,CHICAGO,IL,60616,United States,800-843-2728,41.8531017,-87.6259672,Sun - Sat,,0
CHIC 41,920,18250 S HALSTED ST,,HOMEWOOD,IL,60430,United States,800-843-2728,41.5583035,-87.6361733,Sun - Sat,,0
CHIC 64,943,3457 S KING DR,,CHICAGO,IL,60616,United States,800-843-2728,41.8315148,-87.6163667,Sun - Sat,,0
CHIC 58,937,10301 S MICHIGAN AVE,,CHICAGO,IL,60628,United States,800-843-2728,41.7071995,-87.6201917,Sun - Sat,,0
CHIC 55,934,9450 S JEFFERY AVE,,CHICAGO,IL,60617,United States,800-843-2728,41.7236337,-87.5753837,Sun - Sat,,0
CHIC 67,946,1400 E SIBLEY BLVD,,DOLTON,IL,60419,United States,800-843-2728,41.623015,-87.581802,Sun - Sat,,0
CHIC 44,923,1551 RIVER OAKS DR,,CALUMET CITY,IL,60409,United States,800-843-2728,41.6006178,-87.5610109,Sun - Sat,,0
CHIC 32,912,4632 CALUMET AVE,,HAMMOND,IN,46327,United States,800-843-2728,41.629169,-87.5094359,Sun - Sat,,0
CHIC 34,914,6517 CALUMET AVE,,HAMMOND,IN,46324,United States,800-843-2728,41.5949023,-87.5086241,Sun - Sat,,0
CHIC 69,947,9600 CALUMET AVE,,MUNSTER,IN,46321,United States,800-843-2728,41.5390915,-87.509748,Sun - Sat,,0
CHIC 30,911,1879 INDIANAPOLIS BLVD,,WHITING,IN,46394,United States,800-843-2728,41.5738687,-87.4801726,Sun - Sat,,0
CHIC 109,1350,7921 Indianapolis Blvd,,Hammond,IN,46324,United States,800-843-2728,41.5679495,-87.4743126,Sun - Sat,,0
CHIC 56,935,800 W LINCOLN HWY,,SCHERERVILLE,IN,46375,United States,800-843-2728,41.49115,-87.471504,Sun - Sat,,0
CHIC 78,1222,3956 GUTHRIE ST,,EAST CHICAGO,IN,46312,United States,800-843-2728,41.640837,-87.433611,Sun - Sat,,0
CHIC 43,922,440 W RIDGE RD,,GRIFFITH,IN,46319,United States,800-843-2728,41.5518151,-87.4306121,Sun - Sat,,0
CHIC 80,1234,1304 BROADWAY,,GARY,IN,46407,United States,800-843-2728,41.5898482,-87.3374096,Sun - Sat,,0
CHIC 42,921,1 E 81ST AVE,,MERRILLVILLE,IN,46410,United States,800-843-2728,41.4704755,-87.3350042,Sun - Sat,,0
CHIC 101,1312,7996 East Ridge Road,,HOBART,IN,46342,United States,800-843-2728,41.551106,-87.241182,Sun - Sat,,0
INDP 57,1344,4340 US Highway 41,,TERRE HAUTE,IN,47802,United States,800-843-2728,39.4142069,-87.4152342,Sun - Sat,,0
CHIC 88,1263,525 Indian Boundary Line Rd.,,CHESTERTON,IN,46304,United States,800-843-2728,41.6166937,-87.0821673,Sun - Thu 7:00AM - 2:00AM;Friday 7:00AM - 12:00AM;Saturday,,0
CHIC 72,1186,153   MORTHLAND DR  ,,VALPARAISO,IN,46383,United States,800-843-2728,41.4586508,-87.0608942,Sun - Wed 7:00AM - 2:00AM;Thursday 7:00AM - 12:00AM;Fri - Sat,,0
LVLE 37,1300,6840 Logan Drive,,EVANSVILLE,IN,47714,United States,800-843-2728,37.995436,-87.468169,Sun - Thu 6:00AM - 1:00AM;Friday 6:00AM - 4:00AM;Saturday 6:00AM - 12:00AM,,0
CHIC 73,1192,101 E U.S. 20,,MICHIGAN CITY,IN,46360,United States,800-843-2728,41.679912,-86.893325,Sun - Tue 7:00AM - 2:00AM;Wednesday 7:00AM - 12:00AM;Thu - Sat,,0
INDP 42,1178,4723 MEIJER CT,,LAFAYETTE,IN,47905,United States,800-843-2728,40.4168418,-86.8160664,Sun - Sat,,0
NASH 09,1220,3060 WILMA RUDOLPH BLVD,,CLARKSVILLE,TN,37040,United States,800-843-2728,36.5943099,-87.2890012,Sunday 8:00AM - 1:00AM;Mon - Thu 7:00AM - 1:00AM;Friday 7:00AM - 3:00AM;Saturday 7:00AM - 12:00AM,,0
INDP 33,1041,120 N SAM RALSTON RD,,LEBANON,IN,46052,United States,800-843-2728,40.0466644,-86.487598,Sun - Wed 6:00AM - 11:00PM;Thu - Fri 6:00AM - 1:00AM;Saturday 6:00AM - 12:00AM,,0
INDP 48,1211,3233 W JACOB DR,,BLOOMINGTON,IN,47404,United States,800-843-2728,39.1652569,-86.574503,Sunday 12:00AM - 1:00AM;Mon - Wed 6:00AM - 1:00AM;Thursday 6:00AM - 12:00AM;Fri - Sat,,0
INDP 46,1207,960 N GREEN ST,,BROWNSBURG,IN,46112,United States,800-843-2728,39.85626,-86.393337,Sunday 12:00AM - 1:00AM;Mon - Thu 6:00AM - 1:00AM;Friday 6:00AM - 12:00AM;Saturday,,0
INDP 39,1187,5070 CAMBRIDGE WAY,,PLAINFIELD,IN,46168,United States,800-843-2728,39.6779611,-86.3702139,Sun - Sat,,0
INDP 52,1289,630 Birk Road,,MARTINSVILLE,IN,46151,United States,800-843-2728,39.418132,-86.40975,Sunday;Mon - Fri 6:00AM - 11:00PM;Saturday,,0
INDP 37,1045,10705 E U.S. HIGHWAY 36,,Avon,IN,46123,United States,800-843-2728,39.763216,-86.33243,Sun - Sat,,0
INDP 51,1282,8290 Windfall Lane,,CAMBY,IN,46113,United States,800-843-2728,39.642738,-86.332919,Sun - Sat,,0
INDP 29,1037,5910 CRAWFORDSVILLE RD,,Indianapolis,IN,46224,United States,800-843-2728,39.798701,-86.264022,Sun - Sat,,0
INDP 20,1028,5501 W 38TH ST,,INDIANAPOLIS,IN,46254,United States,800-843-2728,39.823011,-86.2566219,Sun - Sat,,0
INDP 19,1027,5301 W WASHINGTON ST,,INDIANAPOLIS,IN,46241,United States,800-843-2728,39.7522586,-86.2509228,Sun - Sat,,0
INDP 45,1193,8740 N MICHIGAN RD,,INDIANAPOLIS,IN,46268,United States,800-843-2728,39.9134144,-86.2233855,Sun - Sat,,0
INDP 32,1040,2820 KENTUCKY AVE,,INDIANAPOLIS,IN,46241,United States,800-843-2728,39.724162,-86.218202,Sunday 12:00AM - 1:00AM;Mon - Thu 6:00AM - 1:00AM;Friday 6:00AM - 12:00AM;Saturday,,0
INDP 40,1174,1801 MARKLAND AVE,,KOKOMO,IN,46901,United States,800-843-2728,40.4766705,-86.1075887,Sun - Sat,,0
INDP 35,1043,1414 W THOMPSON RD,,INDIANAPOLIS,IN,46217,United States,800-843-2728,39.692918,-86.185567,Sun - Sat,,0
INDP 31,1039,15005 U.S. 31 N  ,,WESTFIELD,IN,46074,United States,800-843-2728,40.0289024,-86.1343944,Sun - Thu 6:00AM - 11:00PM;Friday 6:00AM - 3:00AM;Saturday 6:00AM - 12:00AM,,0
INDP 11,1023,102 W 16TH ST,,INDIANAPOLIS,IN,46202,United States,800-843-2728,39.78877,-86.1596409,Sun - Sat,,0
INDP 49,1227,55 W SOUTH ST,,INDIANAPOLIS,IN,46225,United States,800-843-2728,39.761126,-86.159683,Sun - Sat,,0
INDP 13,1024,3229 S East St,,INDIANAPOLIS,IN,46227,United States,800-843-2728,39.7184844,-86.1486194,Sun - Sat,,0
INDP 41,1176,2165 SHELBY ST,,INDIANAPOLIS,IN,46203,United States,800-843-2728,39.7379943,-86.1394037,Sun - Sat,,0
INDP 36,1044,2368 E 38TH ST,,INDIANAPOLIS,IN,46218,United States,800-843-2728,39.825627,-86.122438,Sun - Sat,,0
INDP 18,1026,7630 Shelby Street,,INDIANAPOLIS,IN,46227,United States,800-843-2728,39.655016,-86.1399342,Sun - Sat,,0
INDP 22,1030,3210 E WASHINGTON ST,,INDIANAPOLIS,IN,46201,United States,800-843-2728,39.7691553,-86.1098645,Sun - Sat,,0
INDP 21,1029,5440 E 82ND ST,,INDIANAPOLIS,IN,46250,United States,800-843-2728,39.9055755,-86.0763468,Sun - Sat,,0
INDP 25,1033,4520 S EMERSON AVE,,BEECH GROVE,IN,46107,United States,800-843-2728,39.7015074,-86.0832033,Sun - Sat,,0
INDP 14,1025,6901 PENDLETON PIKE,,INDIANAPOLIS,IN,46226,United States,800-843-2728,39.8260689,-86.047315,Sun - Sat,,0
INDP 28,1036,105 SHEEK RD,,GREENWOOD,IN,46143,United States,800-843-2728,39.614006,-86.076534,Sun - Sat,,0
INDP 44,1202,16286 CLOVER RD,,NOBLESVILLE,IN,46060,United States,800-843-2728,40.0303657,-85.9965131,Sun - Thu 6:00AM - 12:00AM;Friday 6:00AM - 3:00AM;Saturday 6:00AM - 12:00AM,,0
INDP 56,1336,1129 N. Morton Street,,Franklin,IN,46131,United States,800-843-2728,39.491845,-86.063684,Sun - Sat,,0
INDP 54,1319,10303 Pendleton Pike,,Indianapolis,IL,46236,United States,800-843-2728,39.856403,-85.983996,Sun - Sat,,0
NASH 02,1077,5605 CHARLOTTE AVE,,NASHVILLE,TN,37209,United States,800-843-2728,36.1502788,-86.8572598,Sunday 8:00AM - 12:00AM;Mon - Thu 7:00AM - 12:00AM;Friday 7:00AM - 1:00AM;Saturday 6:00AM - 12:00AM,,0
INDP 47,1213,10053 East Washington St,,INDIANAPOLIS,IN,46229,United States,800-843-2728,39.7748462,-85.9892013,Sun - Sat,,0
NASH 07,1183,1404   BROADWAY    ,,NASHVILLE,TN,37203,United States,800-843-2728,36.155983,-86.790282,Sun - Sat,,0
NASH 05,1080,2201 DICKERSON PIKE,,NASHVILLE,TN,37207,United States,800-843-2728,36.2062526,-86.768003,Sun - Thu 7:00AM - 1:00AM;Friday 7:00AM - 4:00AM;Saturday 7:00AM - 12:00AM,,0
NASH 03,1078,2901 NOLENSVILLE RD,,NASHVILLE,TN,37211,United States,800-843-2728,36.0724884,-86.7241613,Sun - Sat,,0
LVLE 35,1260,2430 Landmark Ave.,,Corydon,IN,471122019,United States,800-843-2728,38.2374537,-86.1256292,Sun - Thu 6:00AM - 1:00AM;Friday 6:00AM - 3:30AM;Saturday 6:00AM - 12:00AM,,0
NASH 14,1372,3179 Scottsville Road,,Bowling Green,KY,42101,United States,800-843-2728,36.9416316,-86.4213536,Sun - Sat,,0
INDP 34,1042,2283 N STATE ST,,GREENFIELD,IN,46140,United States,800-843-2728,39.818226,-85.769002,Sun - Sat,,0
NASH 10,1253,5805 Old Hickory Boulevard,,Hermitage,TN,37076,United States,800-843-2728,36.1694042,-86.6008874,Sun - Thu 8:00AM - 12:00AM;Friday 8:00AM - 2:00AM;Saturday 8:00AM - 12:00AM,,0
INDP 23,1031,1686 NATIONAL RD,,COLUMBUS,IN,47201,United States,800-843-2728,39.1821326,-85.8475275,Sun - Sat,,0
INDP 59,1351,1970 East Tipton Street,,Seymour,IN,47274,United States,800-843-2728,38.9579408,-85.8551045,Sun - Sat,,0
INDP 60,1356,1830 Marketplace Boulevard,,Shelbyville,IN,46176,United States,800-843-2728,39.5213564,-85.7457805,Sunday;Mon - Fri 6:00AM - 12:00AM;Saturday,,0
INDP 27,1035,5523 SCATTERFIELD RD,,ANDERSON,IN,46013,United States,800-843-2728,40.059209,-85.653406,Sun - Sat,,0
NASH 15,1664,300 Pleasant Grove Rd.,,Mt. Juliet,TN,37122,United States,800-843-2728,36.1790839,-86.516548,Sunday 8:00AM - 10:00PM;Mon - Thu 7:00AM - 10:00PM;Friday 7:00AM - 1:00AM;Saturday 7:00AM - 12:00AM,,0
INDP 50,1235,8801 W MARKET SQUARE DR,,DALEVILLE,IN,47334,United States,800-843-2728,40.1142685,-85.5660673,Sun - Sat,,0
LVLE 36,1266,12004 Dixie Highway,,LOUISVILLE,KY,40272,United States,800-843-2728,38.0769725,-85.8841822,Sun - Sat,,0
LVL