store_name,store_number,address,address2,city,state,zip_code,country,phone_number,latitude,longitude,store_hours,other_fields,coming_soon
44th & Indian,,"4280 E Indian School Rd, Suite 101",,Phoenix,AZ,85018,United States,(602) 314-8379,33.4954316,-111.9894653,Sun-Thu:10:30AM-9PM;Sun-Thu:10:30AM-9PM;,,0
Columbia Mall,,"10000 Town Center Ave, Suite C",,Columbia,MD,21044,United States,(240) 865-5607,39.2138389,-76.8658845,Sun-Thu:10:30AM-9PM;Sun-Thu:10:30AM-9PM;,,0
Bowie Marketplace,,"15511 Annapolis Rd, Suite 560",,Bowie,MD,20715,United States,(301) 464-0912,38.979003,-76.7361282,Sun-Thu:10:30AM-9PM;Sun-Thu:10:30AM-9PM;,,0
Tates Creek,,4101 Tates Creek Centre Dr,,Lexington,KY,40517,United States,,37.9717982,-84.4982626,,,1
Hikes Point,,3085 Breckenridge Ln,,Louisville,KY,40220,United States,(502) 915-7810,38.2157467,-85.6272386,Sun-Sat:11AM-10PM;Sun-Sat:11AM-10PM;,,0
Heartland Crossing,,"2710 Heartland Crossing Blvd, Suite C",,Owensboro,KY,42303,United States,(270) 240-2646,37.7564827,-87.0739362,Sun-Thu:11AM-10PM;Sun-Thu:11AM-10PM;,,0
Southgate,,20152 W 153rd St,,Olathe,KS,66062,United States,(913) 254-3461,38.8516029,-94.8187785,Sun-Thurs:10:30AM-10PM;Sun-Thurs:10:30AM-10PM;,,0
Hamburg,,2217 War Admiral Way,,Lexington,KY,40509,United States,(859) 263-0110,38.04094,-84.428077,Sun-Thu:11AM-10PM;Sun-Thu:11AM-10PM;,,0
Highland Grove Shopping Center,,10441B Indianapolis Blvd,,Highland,IN,46322,United States,,41.524333,-87.4704924,,,1
Evansville Pavilion,,"6401 East Lloyd Expressway, C #102",,Evansville,IN,47715,United States,,37.9750816,-87.4715816,,,1
Waukegan Road,,1494 Waukegan Rd,,Glenview,IL,60025,United States,(847) 832-5012,42.0824264,-87.7984461,Sun-Thu:11AM-8PM::;Sun-Thu:11AM-8PM::;,,0
Touhy Town Center,,5530 West Touhy Ave,,Skokie,IL,60077,United States,(847) 983-8025,42.0119794,-87.7658728,Sun-Thu:10:30AM-9PM;Sun-Thu:10:30AM-9PM;,,0
South Naperville,,"2835 Showplace Dr, Unit 10-40",,Naperville,IL,60564,United States,(630) 946-0300,41.7123839,-88.2075735,Sun-Thu:10:30AM-9PM;Sun-Thu:10:30AM-9PM;,,0
Roscoe Village,,3643 N Western Ave,,Chicago,IL,60618,United States,,41.9480057,-87.6880362,,,1
Shops at Kildeer,,"20505 N Rand Rd, Suite 520",,Kildeer,IL,60047,United States,(847) 307-4030,42.1624839,-88.0502808,Sun-Thu:10:30AM-9PM;Sun-Thu:10:30AM-9PM;,,0
Rivertree Court,,"701 N Milwaukee Ave, Unit 364",,Vernon Hills,IL,60061,United States,(847) 281-0177,42.2400002,-87.9433895,Sun-Thu:10:30AM-9PM;Sun-Thu:10:30AM-9PM;,,0
Mosaic,,4151 N Oakland Ave,,Shorewood,WI,53211,United States,,43.0934648,-87.8874288,,,1
Moorland Road,,3721 S Moorland Rd,,New Berlin,WI,53151,United States,(262) 901-2756,42.9770469,-88.1085661,Sun-Thu:10:30AM-9PM;Sun-Thu:10:30AM-9PM;,,0
Hwy 50 & 94th Ave,,"9250 76th St, Suite A",,Pleasant Prairie,WI,53158,United States,262-484-4060,42.5654911,-87.9201831,Sun-Thu:10:30AM-9PM;Sun-Thu:10:30AM-9PM;,,0
Hatchery Hill Towne Center,,"2960 Cahill Main, Suite 130",,Fitchburg,WI,53711,United States,(608) 416-5224,43.0169302,-89.4228617,Sun-Thu:10:30AM-9PM;Sun-Thu:10:30AM-9PM;,,0
Vintner Square,,2801 Queensgate Dr,,Richland,WA,99352,United States,,46.256971,-119.31326,,,1
Union Gap,,"1905 South 1st St, Suite 100",,Yakima,WA,98903,United States,(509) 759-7315,46.5747875,-120.4896229,Sun-Thu:10:30AM-9PM;Sun-Thu:10:30AM-9PM;,,0
U-District,,"1414 42nd St NE, Ste 103-B",,Seattle,WA,98105,United States,(206) 632-7111,47.6584286,-122.3123432,Sun-Thu:10:30AM-10PM;Sun-Thu:10:30AM-10PM;,,0
Town Center,,17848 Garden Way NE,,Woodinville,WA,98072,United States,(425) 471-7903,47.756976,-122.1545343,Sun-Thu:10:30AM-10PM;Sun-Thu:10:30AM-10PM;,,0
Town Center,,17171 Bothell Way NE,,Lake Forest Park,WA,98155,United States,(206) 204-7760,47.7539913,-122.2782191,Sun-Thurs:10:30AM-10PM;Sun-Thurs:10:30AM-10PM;,,0
The Y,,"9405 N. Newport Hwy, Suite 200",,Spokane,WA,99218,United States,(509) 290-5465,47.7434467,-117.4083634,Sun-Thu:10:30AM-9PM;Sun-Thu:10:30AM-9PM;,,0
The Trails at Silverdale,,"11065 Pacific Crest Pl NW, Building B, Suite 119",,Silverdale,WA,98383,United States,(360) 204-5641,47.66336315104997,-122.69638916773681,Sun-Thu:10:30AM-10PM;Sun-Thu:10:30AM-10PM;,,0
Tacoma Mall,,"4502 S Steele St, Ste 1507",,Tacoma,WA,98409,United States,(253) 274-0663,47.2164165,-122.4678568,Sun-Thu:10:30AM-10PM;Sun-Thu:10:30AM-10PM;,,0
Summerwalk,,"5128 Yelm Hwy SE, Suite A",,Lacey,WA,98503,United States,(360) 918-0023,46.9961962,-122.8122503,Sun-Thu:10:30AM-10PM;Sun-Thu:10:30AM-10PM;,,0
South Hill,,3104 E Palouse Hwy,,Spokane,WA,99223,United States,(509) 570-7060,47.6099428,-117.3651311,Sun-Thu:10:30AM-9PM;Sun-Thu:10:30AM-9PM;,,0
South Hill,,"10301 156th St E, Ste B201",,Puyallup,WA,98374,United States,(253) 864-6663,47.1150368,-122.2915929,Sun-Thu:10:30AM-10PM;Sun-Thu:10:30AM-10PM;,,0
Shadle Center,,"2503 W Wellesley Ave, Building C, Suite 104",,Spokane,WA,99205,United States,(509) 326-1650,47.7003244,-117.4480242,Sun-Thu:10:30AM-9PM;Sun-Thu:10:30AM-9PM;,,0
Seattle Center,,"305 Harrison St, Armory Building, Ste 221",,Seattle,WA,98109,United States,(206) 428-6315,47.6215512,-122.3509386,Sun-Thu:10:30AM-8PM;Sun-Thu:10:30AM-8PM;,,0
Overlake,,14309 NE 20th St,,Bellevue,WA,98007,United States,(425) 214-9903,47.627658,-122.1504469,Sun-Thu:10:30AM-10PM;Sun-Thu:10:30AM-10PM;,,0
Redmond Ridge,,23423 NE Novelty Hill Rd,,Redmond,WA,98053,United States,(425) 307-1150,47.6989809,-122.0275756,Sun-Thu:10:30AM-10PM;Sun-Thu:10:30AM-10PM;,,0
Nob Hill,,"2550 W Nob Hill Blvd, Suite 100",,Yakima,WA,98902,United States,(509) 759-7364,46.5850863,-120.5435225,Sun-Thu:10:30AM-9PM;Sun-Thu:10:30AM-9PM;,,0
Marysville Town Center,,"319 State Ave, Suite 101",,Marysville,WA,98270,United States,(360) 651-2161,48.0515632,-122.1774723,Sun-Thu:10:30AM-10PM;Sun-Thu:10:30AM-10PM;,,0
Millcreek Town Center,,"1214 SW Scotton Way, Suite 117",,Battle Ground,WA,98604,United States,(360) 342-8077,45.7701476,-122.5484786,Sun-Thu:10:30AM-10PM;Sun-Thu:10:30AM-10PM;,,0
Lynnwood Crossroads,,19718 Hwy 99,,Lynnwood,WA,98036,United States,(425) 582-5392,47.8196185,-122.3169995,Sun-Thurs:10:30AM-10PM;Sun-Thurs:10:30AM-10PM;,,0
Lake Meridian,,13030 Kent-Kangley Rd,,Kent,WA,98030,United States,(253) 216-7025,47.3581354,-122.1662068,Sun-Thu:10:30AM-10PM;Sun-Thu:10:30AM-10PM;,,0
Highlands,,"1568 Highlands Dr NE, Ste 120",,Issaquah,WA,98029,United States,(425) 313-4663,47.542968,-122.0187044,Sun-Thu:10:30AM-10PM;Sun-Thu:10:30AM-10PM;,,0
Hazel Dell,,7916 NE 6th Ave,,Vancouver,WA,98665,United States,(360) 828-5220,45.6796135,-122.6668674,Sun-Thu:10:30AM-10PM;Sun-Thu:10:30AM-10PM;,,0
Haggen Drive,,"626 Haggen Dr, Suite 116",,Burlington,WA,98233,United States,,48.4698821,-122.3357522,,,1
Frontier Village,,"513 SR 9 NE, Suite 515-A",,Lake Stevens,WA,98258,United States,(425) 903-5965,48.0003895,-122.1058592,Sun-Thu:10:30AM-10PM;Sun-Thu:10:30AM-10PM;,,0
Four Corner Square,,23916-A SE Kent-Kangley Rd Suite 100,,Maple Valley,WA,98038,United States,(425) 578-9093,47.3616512,-122.0223061,Sun-Thu:10:30AM-10PM;Sun-Thu:10:30AM-10PM;,,0
Eastlake,,22833 NE 8th St,,Sammamish,WA,98074,United States,(425) 836-7345,47.6155459,-122.0333875,Sun-Thu:10:30AM-10PM;Sun-Thu:10:30AM-10PM;,,0
Downtown,,"707 W Main Ave, Suite A-12",,Spokane,WA,99201,United States,(509) 570-0433,47.6587008,-117.4227914,Sun-Thu:10:30AM-9PM;Sun-Thu:10:30AM-9PM;,,0
Downtown,,1302 6th Ave,,Seattle,WA,98101,United States,(206) 332-0200,47.6094657,-122.3326328,Mon-Sat:10:30AM-9PM;Mon-Sat:10:30AM-9PM;,,0
Downtown,,317 Bellevue Way NE,,Bellevue,WA,98004,United States,(425) 455-0141,47.6133437,-122.2019275,Sun-Thu:10:30AM-10PM;Sun-Thu:10:30AM-10PM;,,0
Columbia Tech Center,,"19151 SE Mill Plain Blvd, Ste 100",,Vancouver,WA,98683,United States,(360) 254-4663,45.6162858,-122.4781881,Sun-Thu:10:30AM-10PM;Sun-Thu:10:30AM-10PM;,,0
City Center,,"16330 Bothell Everett Hwy, Ste. 102",,Mill Creek,WA,98012,United States,(425) 582-5901,47.8506166,-122.2185476,Sun-Thu:10:30AM-10PM;Sun-Thu:10:30AM-10PM;,,0
Cascade Park,,"305 SE Chkalov Dr, Suite 120",,Vancouver,WA,98683,United States,(360) 952-4915,45.6197897,-122.5546287,Sun-Thu:10:30AM-10PM;Sun-Thu:10:30AM-10PM;,,0
Canyon Park,,"22833 Bothell Everett Hwy, Suite 161",,Bothell,WA,98021,United States,(425) 419-5578,47.7901666,-122.2160322,Sun-Thu:10:30AM-10PM;Sun-Thu:10:30AM-10PM;,,0
Bella Bottega,,"8900 161st Ave NE, Ste 165",,Redmond,WA,98052,United States,(425) 497-5104,47.6817387,-122.1231517,Sun-Thu:10:30AM-10PM;Sun-Thu:10:30AM-10PM;,,0
Barkley Village,,"2925 Newmarket St, Suite 101",,Bellingham,WA,98226,United States,(360) 746-8563,48.7700486,-122.4438501,Sun-Thu:10:30AM-10PM;Sun-Thu:10:30AM-10PM;,,0
Ballard,,6010 15th Ave NW,,Seattle,WA,98107,United States,(206) 939-4000,47.672723,-122.375818,Sun-Thu:10:30AM-10PM;Sun-Thu:10:30AM-10PM;,,0
Alderwood,,2902 164th St. SW,,Lynnwood,WA,98087,United States,(425) 745-2209,47.8496456,-122.2730225,Sun-Thu:10:30AM-10PM;Sun-Thu:10:30AM-10PM;,,0
Vienna Shopping Center,,168 Maple Ave W,,Vienna,VA,22180,United States,(703) 679-1860,38.9000397,-77.2671115,Sun-Thu:10:30AM-9PM;Sun-Thu:10:30AM-9PM;,,0
Promenade at Virginia Gateway,,13941 Promenade Commons St,,Gainesville,VA,20155,United States,(571) 222-2088,38.7892483,-77.6069135,Sun-Thu:10:30AM-9PM;Sun-Thu:10:30AM-9PM;,,0
Plaza America,,11642 Plaza America Dr,,Reston,VA,20190,United States,(703) 674-3599,38.9513859,-77.3484747,Sun-Thu:10:30AM-9PM;Sun-Thu:10:30AM-9PM;,,0
Kamp Washington,,11048 Lee Hwy,,Fairfax,VA,22030,United States,(703) 349-3076,38.8539906,-77.3267911,Sun-Thu:10:30AM-9PM;Sun-Thu:10:30AM-9PM;,,0
Greenbriar,,"13061 Lee Jackson Memorial Hwy, Suite S",,Fairfax,VA,22033,United States,(703) 679-1825,38.8807029,-77.398419,Sun-Thu:10:30AM-9PM;Sun-Thu:10:30AM-9PM;,,0
Belmont Chase,,"19855 Belmont Chase Dr, Suite 125",,Ashburn,VA,20147,United States,(703) 554-6964,39.06711,-77.485251,Sun-Thu:10:30AM-9PM;Sun-Thu:10:30AM-9PM;,,0
Wildcat Way,,"2577 S Wildcat Way, Suite A",,Woods Cross,UT,84087,United States,,40.8616465,-111.899401,,,1
West Galleria,,5777 San Felipe St,,Houston,TX,77057,United States,(713) 343-4758,29.7494137,-95.4786099,Sun-Thu:10:30AM-10PM;Sun-Thu:10:30AM-10PM;,,0
Vintage Marketplace,,10123 Louetta Rd Suite 700,,Houston,TX,77070,United States,(281) 826-5001,29.999598,-95.5618022,Sun-Thu:10:30AM-10PM;Sun-Thu:10:30AM-10PM;,,0
Village at Westlake,,"701 S Capital of Texas Highway, Suite F-600",,West Lake Hills,TX,78746,United States,(512) 792-5423,30.2934089,-97.8263709,Sun-Thu:10:30AM-9PM;Sun-Thu:10:30AM-9PM;,,0
Towne Lake,,"9925 Barker Cypress, Suite 146",,Cypress,TX,77433,United States,(832) 220-4931,29.9222249,-95.6863873,Sun-Thu:10:30AM-10PM;Sun-Thu:10:30AM-10PM;,,0
The Forum,,"8134 Agora Pkwy, Suite 250",,Live Oak,TX,78154,United States,(210) 566-4560,29.5650617,-98.3285803,Sun-Thu:10:30AM-9PM;Sun-Thu:10:30AM-9PM;,,0
The District,,"2102 S 31st St, Suite 160",,Temple,TX,76504,United States,,31.0804995,-97.3652266,,,1
Tech Ridge,,"500 W Canyon Ridge Dr, Suite J100",,Austin,TX,78753,United States,(512) 975-7095,30.4044066,-97.6721335,Sun-Thu:10:30AM-9PM;Sun-Thu:10:30AM-9PM;,,0
Summerwood,,"14303 East Sam Houston Pkwy N, Suite 1000",,Houston,TX,77044,United States,(346) 203-4125,29.9238303,-95.2003714,Sun-Thu:10:30AM-10PM;Sun-Thu:10:30AM-10PM;,,0
Stone Oak,,"22026 N US-281, Suite 105",,San Antonio,TX,78258,United States,(210) 318-3338,29.6462033,-98.4504817,Sun-Thu:10:30AM-9PM;Sun-Thu:10:30AM-9PM;,,0
South Shore,,"1920 E Riverside Dr, Suite D-100",,Austin,TX,78741,United States,(512) 792-5554,30.2424962,-97.728178,Sun-Thu:10:30AM-9PM;Sun-Thu:10:30AM-9PM;,,0
Sawyer Heights,,"1911 Taylor St, Suite A",,Houston,TX,77007,United States,(713) 862-4157,29.7748706,-95.382619,Sun-Thu:10:30AM-10PM;Sun-Thu:10:30AM-10PM;,,0
Pearland Parkway,,"2682 Pearland Pkwy, Suite 120",,Pearland,TX,77581,United States,(281) 810-5998,29.5582714,-95.2623438,Sun-Thu:10:30AM-10PM;Sun-Thu:10:30AM-10PM;,,0
Parkway Commons,,"2875 E. League City Pkwy, Suite 100",,League City,TX,77573,United States,(281) 334-1005,29.507664,-95.037268,Sun-Thu:10:30AM-10PM;Sun-Thu:10:30AM-10PM;,,0
Oaks at Lakeway,,1900 Ranch Rd 620 S,,Lakeway,TX,78734,United States,(512) 953-4280,30.346399,-97.9663283,Sun-Thu:10:30AM-9PM;Sun-Thu:10:30AM-9PM;,,0
Mueller Market,,"1801 E. 51st St, Building D, Suite 410",,Austin,TX,78723,United States,(512) 687-2670,30.3016487,-97.6989564,Sun-Thu:10:30AM-9PM;Sun-Thu:10:30AM-9PM;,,0
Memorial,,"14555 Memorial Dr, Suite 100",,Houston,TX,77079,United States,(832) 775-0134,29.7696475,-95.605359,Sun-Thu:10:30AM-10PM;Sun-Thu:10:30AM-10PM;,,0
Kyle Crossing,,151 Evans Drive,,Kyle,TX,78640,United States,(512) 268-0319,30.01279916162382,-97.8622512584854,Sun-Thu:10:30AM-9PM;Sun-Thu:10:30AM-9PM;,,0
Killeen Marketplace,,"3007 E Central Texas Expressway, Suite 104",,Killeen,TX,76543,United States,(254) 680-5305,31.0862496,-97.7080606,Sun-Thu:10:30AM-10PM;Sun-Thu:10:30AM-10PM;,,0
Indian Springs,,"6777 Woodlands Pkwy, Suite 314",,The Woodlands,TX,77382,United States,(281) 719-0148,30.1804353,-95.5394304,Sun-Thu:10:30AM-10PM;Sun-Thu:10:30AM-10PM;,,0
Katy South,,"6825 S Fry Rd, Suite 1100",,Katy,TX,77494,United States,(832) 437-5524,29.714719,-95.7771964,Sun-Thu:10:30AM-10PM;Sun-Thu:10:30AM-10PM;,,0
HEB Shopping Center,,19820 Southwest Freeway,,Sugar Land,TX,77479,United States,(832) 449-5791,29.5636278,-95.6839512,Sun-Thu:10:30AM-10PM;Sun-Thu:10:30AM-10PM;,,0
Fulshear,,"5102 FM 1463, Suite 800",,Katy,TX,77494,United States,(346) 476-4633,29.7182493,-95.8467466,Sun-Thu:10:30AM-10PM;Sun-Thu:10:30AM-10PM;,,0
Fiesta Trails,,"5230 De Zavala Rd, Suite 234",,San Antonio,TX,78249,United States,(210) 819-2991,29.5635978,-98.5879494,Sun-Thu:10:30AM-9PM;Sun-Thu:10:30AM-9PM;,,0
Fairfield Town Center,,"28920 Hwy 290, Suite H13",,Cypress,TX,77433,United States,(832) 334-5399,29.993244,-95.75166,Sun-Thu:10:30AM-10PM;Sun-Thu:10:30AM-10PM;,,0
Creekside,,"272 FM 306, Suite 106",,New Braunfels,TX,78130,United States,(830) 609-9040,29.7316131,-98.0812599,Sun-Thu:10:30AM-9PM;Sun-Thu:10:30AM-9PM;,,0
Copperfield,,"8552 Highway 6 N, Suite 500",,Houston,TX,77095,United States,(281) 858-2911,29.9033664,-95.6333571,Sun-Thu:10:30AM-10PM;Sun-Thu:10:30AM-10PM;,,0
Clear Lake,,"3351 Clear Lake City Blvd, Suite 1000",,Houston,TX,77059,United States,(832) 284-4290,29.603282,-95.127123,Sun-Thu:10:30AM-10PM;Sun-Thu:10:30AM-10PM;,,0
Cartwright Road,,"1240 N Loop 336 W, Suite 500",,Conroe,TX,77301,United States,(936) 441-0054,30.3343771,-95.4769355,Sun-Thu:10:30AM-10PM;Sun-Thu:10:30AM-10PM;,,0
Bay Colony,,"2945 Gulf Freeway S, Suite F",,League City,TX,77573,United States,,29.4664239,-95.0944153,,,1
Beltway 8 & Crenshaw Road,,"4541 East Sam Houston Pkwy S, Suite 100",,Pasadena,TX,77505,United States,(281) 929-7483,29.6395989,-95.1599814,Sun-Thu:10:30AM-10PM;Sun-Thu:10:30AM-10PM;,,0
Anderson Mill,,"11521 N Ranch to Market 620, Suite 450",,Austin,TX,78726,United States,(512) 792-5555,30.4534509,-97.8262951,Sun-Thu:10:30AM-9PM;Sun-Thu:10:30AM-9PM;,,0
Woodhill,,"141 Pelham Dr, Suite B",,Columbia,SC,29209,United States,(803) 667-9596,33.9818937,-80.9668557,Sun-Thu:11AM-10PM;Sun-Thu:11AM-10PM;,,0
Westwood Plaza,,"1812 Sam Rittenberg Blvd, Suite 16",,Charleston,SC,29407,United States,(854) 999-1872,32.8018397,-80.0197959,Sun-Thu:11AM-9PM;Sun-Thu:11AM-9PM;,,0
South Strand Commons,,"1370 S Commons Dr, Unit 103",,Myrtle Beach,SC,29588,United States,(843) 668-2958,33.65027,-78.9840108,Sun-Thurs:11AM-9PM;Sun-Thurs:11AM-9PM;,,0
Old Highway 17,,"1400 Hwy 17 N, Unit 5",,North Myrtle Beach,SC,29582,United States,(843) 281-0686,33.8420455,-78.662029,Sun-Thu:11AM-9PM;Sun-Thu:11AM-9PM;,,0
Northeast Columbia,,10296 Two Notch Rd,,Columbia,SC,29229,United States,(803) 400-2467,34.1243009,-80.8731014,Sun-Sat:11AM-10PM;Sun-Sat:11AM-10PM;,,0
King & Calhoun,,"145 Calhoun St, Suite 100",,Charleston,SC,29401,United States,(843) 414-0500,32.7858916,-79.9355127,Sun-Thu:11-9PM;Sun-Thu:11-9PM;,,0
Ashley Phosphate Road,,"2135 Ashley Phosphate Rd, Suite 102",,North Charleston,SC,29406,United States,(854) 444-5100,32.935996,-80.040797,Sun-Thu:11AM-9PM;Sun-Thu:11AM-9PM;,,0
Willow Grove Pointe,,4025 Welsh Rd,,Willow Grove,PA,19090,United States,(267) 948-2180,40.1563715,-75.1411307,Sun-Thu:10:30AM-9PM;Sun-Thu:10:30AM-9PM;,,0
West Manchester,,370 Town Center Dr,,York,PA,17408,United States,(717) 855-2568,39.9698698,-76.7691512,Sun-Thu:10:30AM-9PM;Sun-Thu:10:30AM-9PM;,,0
Valley Square,,1528 N Main St,,Warrington,PA,18976,United States,(267) 488-2169,40.2315314,-75.1366166,Sun-Thu:10:30AM-9PM;Sun-Thu:10:30AM-9PM;,,0
Queen Street,,114 Pauline Dr,,York,PA,17402,United States,(717) 472-4060,39.9310713,-76.6859871,Sun-Thu:10:30AM-9PM;Sun-Thu:10:30AM-9PM;,,0
Madison Farms,,4763 Freemansburg Ave,,Easton,PA,18045,United States,(484) 935-0006,40.649755,-75.2950148,Sun-Thu:10:30AM-9PM;Sun-Thu:10:30AM-9PM;,,0
Gateway,,289 E Swedesford Rd,,Wayne,PA,19087,United States,(484) 581-1235,40.0738777,-75.4302107,Sun-Thu:10:30AM-9PM;Sun-Thu:10:30AM-9PM;,,0
Ellis Preserve,,"3741 West Chester Pike, Suite 100",,Newtown Square,PA,19073,United States,(484) 420-2895,39.9867494,-75.4025008,Sun-Thu:10:30AM-9PM;Sun-Thu:10:30AM-9PM;,,0
Brandywine,,"1751 Wilmington Pike, Suite F-1",,Glen Mills,PA,19342,United States,(484) 785-8145,39.874937,-75.5437892,Sun-Thu:10:30AM-9PM;Sun-Thu:10:30AM-9PM;,,0
Airport Road,,1878 Airport Rd,,Allentown,PA,18109,United States,(484) 488-3800,40.6398167,-75.4345093,Sun-Thu:10:30AM-9PM;Sun-Thu:10:30AM-9PM;,,0
Tanasbourne,,"2540 NW 188th Ave., Ste. C",,Hillsboro,OR,97124,United States,(971) 327-4379,45.5385012,-122.8698191,Sun-Thu:10:30AM-10PM;Sun-Thu:10:30AM-10PM;,,0
Sunnyside Road,,12091 SE Sunnyside Rd,,Happy Valley,OR,97015,United States,(503) 486-6309,45.4296299,-122.5393389,Sun-Thu:10:30AM-10PM;Sun-Thu:10:30AM-10PM;,,0
South Eugene,,77 E 29th Ave,,Eugene,OR,97405,United States,(541) 515-6554,44.0264704,-123.090046,Sun-Thu:10:30AM-10PM;Sun-Thu:10:30AM-10PM;,,0
PDX Airport,,"7000 NE Airport Way, #C2166",,Portland,OR,97218,United States,(971) 230-7090,45.58877484221258,-122.59652488910217,Mon-Sun:::6AM-10PM;Mon-Sun:::6AM-10PM;,,0
Parkway Village,,"21370 SW Langers Farm Pkwy, Suite 132",,Sherwood,OR,97140,United States,(503) 862-5221,45.3651871,-122.8359022,Sun-Thu:10:30AM-10PM;Sun-Thu:10:30AM-10PM;,,0
Oakway,,203 Coburg Rd,,Eugene,OR,97401,United States,(458) 205-8910,44.0639341,-123.0772935,Sun-Thu:10:30AM-10PM;Sun-Thu:10:30AM-10PM;,,0
Oak Grove,,14911 SE McLoughlin Blvd,,Milwaukie,OR,97267,United States,,45.4150584,-122.6318462,,,1
North Medford,,"171 Rossanley Dr, Suite 101",,Medford,OR,97501,United States,(541) 773-3561,42.3435962,-122.8830973,Sun-Thu:10:30AM-10PM;Sun-Thu:10:30AM-10PM;,,0
Kruse Village,,"4811 Meadows Rd, Suite 115",,Lake Oswego,OR,97035,United States,(971) 233-7103,45.4172948,-122.7257683,Sun-Thu:10:30AM-10PM;Sun-Thu:10:30AM-10PM;,,0
Hwy 30 & Gable,,"2298 Gable Rd, Suite 110",,St. Helens,OR,97051,United States,(503) 410-5218,45.8483282,-122.830937,Sun-Thu:10:30AM-10PM;Sun-Thu:10:30AM-10PM;,,0
Greenway,,12196 SW Scholls Ferry Rd,,Tigard,OR,97223,United States,(971) 230-0822,45.4431132,-122.800798,Sun-Thu:10:30AM-10PM;Sun-Thu:10:30AM-10PM;,,0
Firehouse Crossing,,4425 Commercial St SE,,Salem,OR,97302,United States,(971) 209-4198,44.8897395,-123.034754,Sun-Thu:10:30AM-10PM;Sun-Thu:10:30AM-10PM;,,0
Eastman Parkway,,1844 NW Eastman Pkwy,,Gresham,OR,97030,United States,(503) 328-3620,45.509970640288536,-122.43393982803343,Sun-Thu:10:30AM-10PM;Sun-Thu:10:30AM-10PM;,,0
Downtown,,204 SW Yamhill St,,Portland,OR,97204,United States,(971) 230-0547,45.517198,-122.6752832,Sun-Thu:10:30AM-10PM;Sun-Thu:10:30AM-10PM;,,0
Cornell Road,,4554 NE Cornell Rd,,Hillsboro,OR,97124,United States,(503)-372-5834,45.5333665,-122.934915,Sun-Thu:10:30AM-10PM;Sun-Thu:10:30AM-10PM;,,0
Colorado Crossing,,"110 NW Sisemore St, Suite 150",,Bend,OR,97701,United States,(541) 317-4151,44.0525162,-121.3114614,Sun-Thu:10:30AM-10PM;Sun-Thu:10:30AM-10PM;,,0
Cedar Hills,,"2695 SW Cedar Hills Blvd, Ste 190",,Beaverton,OR,97005,United States,(503) 596-3555,45.5005295,-122.806834,Sun-Thu:10:30AM-10PM;Sun-Thu:10:30AM-10PM;,,0
122nd and Halsey,,12311 NE Halsey St,,Portland,OR,97230,United States,(971) 230-7440,45.5340753,-122.5363276,Sun-Thu:10:30AM-10PM;Sun-Thu:10:30AM-10PM;,,0
The Shops at Rocky Fork,,333 S Hamilton Rd,,Gahanna,OH,43230,United States,(614) 914-4693,40.010387,-82.867208,Sun-Thu:10:30AM-10PM;Sun-Thu:10:30AM-10PM;,,0
Sawmill Road,,"6181 Sawmill Rd, Suite A",,Columbus,OH,43017,United States,(614) 356-9717,40.0909987,-83.0918676,,,1
Polaris,,1310 Polaris Pkwy,,Columbus,OH,43240,United States,(614) 254-6062,40.1420527,-82.9842281,Sun-Thurs:10:30AM-10PM;Sun-Thurs:10:30AM-10PM;,,0
Oakley,,3208 Vandercar Way,,Cincinnati,OH,45209,United States,(513) 351-0064,39.1583266,-84.4275809,Sun-Thurs:11AM-10PM;Sun-Thurs:11AM-10PM;,,0
North Main Street,,9196 N Main St,,Englewood,OH,45415,United States,,39.8565323,-84.2772602,,,1
Morse Road,,4784 Morse Rd,,Columbus,OH,43230,United States,(614) 369-4878,40.055911,-82.8648818,Sun-Thu:10:30AM-10PM;Sun-Thu:10:30AM-10PM;,,0
Liberty Way,,7240 Outfitters Way,,West Chester Township,OH,45069,United States,(513) 755-0678,39.341965,-84.406761,Sun-Thu:11AM-10PM;Sun-Thu:11AM-10PM;,,0
Hill Road,,1301 Hill Rd N,,Pickerington,OH,43147,United States,(614) 682-7454,39.91607,-82.780957,,,1
Cornerstone,,5225 Conerstone North Blvd,,Centerville,OH,45440,United States,,39.663365696568135,-84.10767857363282,,,1
Redfield Promenade,,"4945 S Virginia St, Suite A",,Reno,NV,89502,United States,,39.4805013,-119.7913139,,,1
Marlton Square,,"300 Route 73 S, Suite J-1",,Marlton,NJ,08053,United States,(856) 552-0050,39.890282,-74.9240566,Sun-Thu:10:30AM-9PM;Sun-Thu:10:30AM-9PM;,,0
Haddonfield Road,,"706 Haddonfield Rd, Suite 1",,Cherry Hill,NJ,08002,United States,(856) 406-1476,39.9297035,-75.0315112,Sun-Thu:10:30AM-9PM;Sun-Thu:10:30AM-9PM;,,0
Skibo Road,,1950 Skibo Rd,,Fayetteville,NC,28314,United States,(910) 354-2607,35.0637252,-78.9681966,Mon-Sun::10:30AM-10PM;Mon-Sun::10:30AM-10PM;,,0
Rogers & Main,,2815 Rogers Rd,,Wake Forest,NC,27587,United States,,35.953293,-78.525028,,,1
RiverGate,,"14318 RiverGate View, Suite 500",,Charlotte,NC,28273,United States,(980) 474-3325,35.1019053,-80.9853829,Mon-Sun::10:30AM-10PM;Mon-Sun::10:30AM-10PM;,,0
North Asheville,,873 Merrimon Ave,,Asheville,NC,28804,United States,(828) 774-5406,35.6277874,-82.5524045,Mon-Sun::10:30AM-10PM;Mon-Sun::10:30AM-10PM;,,0
Millbrook Road,,"2071 W Millbrook Rd, Suite 103",,Raleigh,NC,27612,United States,(919) 987-3668,35.8579175,-78.6803085,Mon-Sun::10:30AM-10PM;Mon-Sun::10:30AM-10PM;,,0
Berewick,,6625 Berewick Commons Pkwy,,Charlotte,NC,28278,United States,,35.1654283,-80.9823265,,,1
Wentzville Parkway,,1976 Wentzville Pkwy,,Wentzville,MO,63385,United States,(636) 856-1040,38.814312,-90.8734274,Sun-Thu:10:30AM-9PM;Sun-Thu:10:30AM-9PM;,,0
Lindenwood,,1988 1st Capitol Dr,,St. Charles,MO,63301,United States,(636) 669-0540,38.7836793,-90.5032148,Sun-Thu:10:30AM-9PM;Sun-Thu:10:30AM-9PM;,,0
Liberty Triangle,,1912 Star Dr,,Liberty,MO,64068,United States,(816) 407-9482,39.2458685,-94.4496216,Sun-Thu:10:30AM-10PM;Sun-Thu:10:30AM-10PM;,,0
Ladue Crossing Shopping Center,,8855K Ladue Rd,,Ladue,MO,63124,United States,(314) 354-8120,38.6540395,-90.3521306,Sun-Thu:10:30AM-9PM;Sun-Thu:10:30AM-9PM;,,0
Kirkwood Road,,338 S Kirkwood Rd,,Kirkwood,MO,63122,United States,(314) 238-7055,38.5774024,-90.4060916,Sun-Thu:10:30AM-9PM;Sun-Thu:10:30AM-9PM;,,0
Fountain Plaza,,15809 Fountain Plaza Dr,,Ellisville,MO,63017,United States,(636) 591-0111,38.6058673,-90.5833096,Sun-Thu:10:30AM-9PM;Sun-Thu:10:30AM-9PM;,,0
Dorsett Village,,2033 Dorsett Rd,,Maryland Heights,MO,63043,United States,,38.7157977,-90.4543469,,,1
Cottleville Landing,,6091 Mid Rivers Mall Dr,,Cottleville,MO,63376,United States,(636) 336-9000,38.7445293,-90.6346062,Sun-Thu:10:30AM-9PM;Sun-Thu:10:30AM-9PM;,,0
Antioch Crossing,,5315 N Antioch Rd,,Kansas City,MO,64119,United States,(816) 875-5090,39.1903857,-94.5487353,,,1
Adams Dairy Landing,,1112 NE Coronado Dr,,Blue Springs,MO,64014,United States,(816) 406-0963,39.0251278,-94.2471568,Sun-Thu:10:30AM-10PM;Sun-Thu:10:30AM-10PM;,,0
West Grand River,,8605 W Grand River Ave,,Brighton,MI,48116,United States,(517) 586-0345,42.5370444,-83.7843997,Sun-Thu:10:30AM-10PM;Sun-Thu:10:30AM-10PM;,,0
Rochester and Auburn Road,,3058 S Rochester Rd,,Rochester Hills,MI,48307,United States,(248) 923-3545,42.6354906,-83.1317036,Sun-Thu:10:30AM-10PM;Sun-Thu:10:30AM-10PM;,,0
Middlebelt & I-96,,13229 Middlebelt Rd,,Livonia,MI,48150,United States,(734) 245-0710,42.379666,-83.33352,Mon-Sun::10:30AM-11PM;Mon-Sun::10:30AM-11PM;,,0
Haggerty,,18821 Traditions Dr,,Northville,MI,48168,United States,(248) 277-3620,42.42379501084735,-83.43377686393887,Mon-Sun::10:30AM-10PM;Mon-Sun::10:30AM-10PM;,,0
Ford Road,,41865 Ford Rd,,Canton,MI,48187,United States,(734) 456-6100,42.3227762,-83.453831,Sun-Sat:10:30AM-11PM;Sun-Sat:10:30AM-11PM;,,0
Chesterfield Crossing,,50670 Gratiot Ave,,Chesterfield,MI,48051,United States,(586) 265-5470,42.6703305,-82.8366676,Sun-Thu:10:30AM-10PM;Sun-Thu:10:30AM-10PM;,,0
Allen and West Road,,23071 Allen Rd,,Woodhaven,MI,48183,United States,(734) 759-1055,42.1402907,-83.2250064,Sun-Thurs:10:30AM-10:00PM;Sun-Thurs:10:30AM-10:00PM;,,0
23 Mile Rd & Hayes,,15153 23 Mile Rd,,Shelby Township,MI,48315,United States,(586) 464-2380,42.6712452,-82.9756975,Sun-Thu:10:30AM-10PM;Sun-Thu:10:30AM-10PM;,,0
Westview Promenade,,5265 Buckeystown Pike,,Frederick,MD,21704,United States,(240) 877-7967,39.3755022,-77.4129897,Sun-Thu:10:30AM-9PM;Sun-Thu:10:30AM-9PM;,,0
Severna Park Marketplace,,553 Governor Ritchie Hwy,,Severna Park,MD,21146,United States,,39.0772059,-76.545435,,,1
Festival at Riva,,"2341 Forest Dr, Suite P",,Annapolis,MD,21401,United States,(443) 321-9892,38.9797951,-76.544802,Sun-Thu:10:30AM-9PM;Sun-Thu:10:30AM-9PM;,,0
Ellsworth Place,,"909 Ellsworth Dr, Suite B106",,Silver Spring,MD,20910,United States,(240) 485-1570,38.996543,-77.0261452,Sun-Thu:10:30AM-9PM;Sun-Thu:10:30AM-9PM;,,0
La Grange Road,,15139 Lagrange Rd,,Orland Park,IL,60462,United States,(708) 737-7359,41.6148386,-87.852723,Sun-Thu:10:30AM-9PM;Sun-Thu:10:30AM-9PM;,,0
Eldersburg,,"6400 Ridge Rd, Building B, Suite 10",,Sykesville,MD,21784,United States,(443) 609-1136,39.3974586,-76.9340852,Sun-Thu:10:30AM-9PM;Sun-Thu:10:30AM-9PM;,,0
Gurnee Plaza,,6447 Grand Ave,,Gurnee,IL,60031,United States,(224) 610-0766,42.3845937,-87.9625848,Sun-Thu:10:30AM-9PM;Sun-Thu:10:30AM-9PM;,,0
Downtown,,"103 S Washington St, Suite 113",,Naperville,IL,60540,United States,(630) 544-3471,41.7737266,-88.148125,Sun-Thu:10:30AM-9PM;Sun-Thu:10:30AM-9PM;,,0
Bloomingdale Court,,370 W Army Trail Rd,,Bloomingdale,IL,60108,United States,(630) 523-5296,41.9391985,-88.112453,Sun-Thu:10:30AM-9PM;Sun-Thu:10:30AM-9PM;,,0
Deerbrook Mall,,"70 S Waukegan Rd, Suite B",,Deerfield,IL,60015,United States,(847) 770-6499,42.151988,-87.835468,Sun-Thu:10:30AM-9PM;Sun-Thu:10:30AM-9PM;,,0
Ramsey Park,,"2824 N Ramsey Rd, Suite 105",,Coeur d'Alene,ID,83815,United States,(208) 277-9500,47.7034843,-116.8078884,Sun-Thu:10:30AM-9PM;Sun-Thu:10:30AM-9PM;,,0
Kennesaw Marketplace,,"1945 Cobb Pkwy NW, Building 250",,Kennesaw,GA,30152,United States,,34.0008772,-84.5925879,,,1
Westminster Promenade,,"6414 W. 104th Ave, Suite 400",,Westminster,CO,80020,United States,,39.8871275,-105.0652393,,,1
Village Center West,,3622 E Highlands Ranch Pkwy,,Highlands Ranch,CO,80126,United States,,39.5425451,-104.9474982,,,1
Park Meadows,,8225 S Chester #102,,Centennial,CO,80112,United States,(720) 214-5360,39.5678847,-104.8805753,Sun-Thu:10:30AM-9PM;Sun-Thu:10:30AM-9PM;,,0
McCaslin Market,,"994 W Dillon Rd, Suite 600",,Louisville,CO,80027,United States,(303) 736-2481,39.960721,-105.1641631,Sun-Thu:10:30AM-9PM;Sun-Thu:10:30AM-9PM;,,0
Hwy 287 & Diamond Circle,,"1137 Diamond Circle, Suite 400",,Lafayette,CO,80026,United States,,40.0038339,-105.1058146,,,1
Forest Trace,,"23890 E Smoky Hill Rd, Suite 10",,Aurora,CO,80016,United States,(720) 508-8690,39.5971077,-104.7054526,Mon-Sun:10:30AM-9PM;Mon-Sun:10:30AM-9PM;,,0
Falcon Landing,,7447 N Academy Blvd,,Colorado Springs,CO,80920,United States,(719) 219-1912,38.9385797,-104.7972884,Sun-Thu:10:30AM-9PM;Sun-Thu:10:30AM-9PM;,,0
Factory Shops Blvd,,4989 Factory Shops Blvd,,Castle Rock,CO,80108,United States,(720) 616-4500,39.4106827,-104.8731607,Sun-Thu:10:30AM-9PM;Sun-Thu:10:30AM-9PM;,,0
Dublin Commons,,5925 Dublin Blvd,,Colorado Springs,CO,80923,United States,,38.9260591,-104.7181672,,,1
Centre Avenue,,1013 Centre Ave,,Fort Collins,CO,80526,United States,(970) 484-3497,40.555137,-105.095563,Sun-Thu:10:30AM-9PM;Sun-Thu:10:30AM-9PM;,,0
Woodland Gateway,,"2051 Bronze Star Dr, Suite 100",,Woodland,CA,95776,United States,(530) 669-6639,38.6705892,-121.7257364,Sun-Thu:10:30AM-9PM;Sun-Thu:10:30AM-9PM;,,0
Westgate West,,5263 Prospect Rd,,San Jose,CA,95129,United States,(408) 610-5411,37.2921829,-121.9942781,Sun-Thu:10:30AM-10PM;Sun-Thu:10:30AM-10PM;,,0
Westpark Plaza,,"3965-A Alton Pkway, Ste A",,Irvine,CA,92606,United States,(949) 265-7770,33.6823851,-117.8133549,Sun-Thu:10:30AM-10PM;Sun-Thu:10:30AM-10PM;,,0
Vintage Park,,"1297 Chess Dr, Suite B",,Foster City,CA,94404,United States,,37.5615923,-122.2788162,,,1
Village Oaks,,"5670 Cottle Road, Ste 20",,San Jose,CA,95123,United States,(669) 400-5375,37.2486501,-121.8031539,Sun-Thu:10:30AM-10PM;Sun-Thu:10:30AM-10PM;,,0
Valencia,,"25910 The Old Road, Ste B-1",,Stevenson Ranch,CA,91381,United States,(661) 288-1590,34.3921357,-118.5730432,Sun-Thu:10:30AM-10PM;Sun-Thu:10:30AM-10PM;,,0
Towne Centre,,"26722 Portola Pkwy, Suite B",,Foothill Ranch,CA,92610,United States,(949) 215-0031,33.6799987,-117.6650866,Sun-Thu:10:30AM-10PM;Sun-Thu:10:30AM-10PM;,,0
Towne Center,,"2000 El Camino Real, Suite 15",,Santa Clara,CA,95050,United States,(669) 292-2900,37.3523015,-121.9598053,Sun-Thu:10:30AM-10PM;Sun-Thu:10:30AM-10PM;,,0
The Orchards,,2353 Oak Grove Rd,,Walnut Creek,CA,94598,United States,(925) 378-6435,37.9291213,-122.0162683,Sun-Thu:10:30AM-10PM;Sun-Thu:10:30AM-10PM;,,0
South Shore,,2308 South Shore Center Dr,,Alameda,CA,94501,United States,(510) 227-1444,37.7560692,-122.2502797,Sun-Thu:10:30AM-10PM;Sun-Thu:10:30AM-10PM;,,0
South Bascom Ave,,"2000 South Bascom Ave, Suite 102",,Campbell,CA,95008,United States,(408) 508-7371,37.2866615,-121.9312654,Sun-Thu:10:30AM-10PM;Sun-Thu:10:30AM-10PM;,,0
Sierra Lakes,,"16421 Sierra Lakes Pkwy, Suite 100",,Fontana,CA,92336,United States,(909) 302-5551,34.1379084,-117.4483331,Sun-Thu:10:30AM-10PM;Sun-Thu:10:30AM-10PM;,,0
Serramonte Center,,"127 Serramonte Center, Suite 660",,Daly City,CA,94015,United States,(650) 993-8796,37.6710529,-122.4703651,Sun-Thu:10:30AM-10PM;Sun-Thu:10:30AM-10PM;,,0
Rocklin Crossings,,5400 Crossings Dr,,Rocklin,CA,95677,United States,(916) 824-1052,38.8004337,-121.203965,Sun-Thu:10:30AM-9PM;Sun-Thu:10:30AM-9PM;,,0
Puente Hills,,"1552 S. Azusa Ave, Suite B",,City of Industry,CA,91748,United States,(626) 581-1664,33.9927779,-117.9315536,Sun-Thurs:10:30AM-10PM;Sun-Thurs:10:30AM-10PM;,,0
North Valley Plaza,,"815 East Ave, Suite 150",,Chico,CA,95926,United States,(530) 636-4862,39.7608125,-121.8458387,Sun-Thu:10:30AM-9PM;Sun-Thu:10:30AM-9PM;,,0
NoHo Commons,,5300 Lankershim Blvd #103,,North Hollywood,CA,91601,United States,(818) 255-7425,34.167399,-118.3755912,Sun-Thu:10:30AM-10PM;Sun-Thu:10:30AM-10PM;,,0
Newbury Park,,1015 Broadbeck Dr Suite G,,Thousand Oaks,CA,91320,United States,(805) 214-7010,34.1922756,-118.9378967,Sun-Thu:10:30AM-10PM;Sun-Thu:10:30AM-10PM;,,0
Nellie Gail,,26562-A Moulton Pkwy,,Laguna Hills,CA,92653,United States,(949) 238-4616,33.5770402,-117.7021746,Sun-Thu:10:30AM-10PM;Sun-Thu:10:30AM-10PM;,,0
Pinole Valley,,"2830 Pinole Valley Rd, Suite A",,Pinole,CA,94564,United States,(510) 662-3172,37.9940041,-122.2860814,Sun-Thu:10:30AM-10PM;Sun-Thu:10:30AM-10PM;,,0
Seacliff Village,,"7051 Yorktown Ave, Suite 103",,Huntington Beach,CA,92648,United States,(714) 477-6298,33.6794726,-118.0049751,Sun-Thu:10:30AM-10PM;Sun-Thu:10:30AM-10PM;,,0
Napa South,,"304 Soscol Ave, Suite A",,Napa,CA,94559,United States,(707) 346-6758,38.2858148,-122.2743536,Sun-Thu:10:30AM-10PM:;Sun-Thu:10:30AM-10PM:;,,0
Lone Tree Plaza,,"5411 Lone Tree Way, Suite 100",,Brentwood,CA,94513,United States,(925) 626-2020,37.9613133,-121.7496559,Sun-Thu:10:30AM-10PM;Sun-Thu:10:30AM-10PM;,,0
Mountain Grove,,"27511 San Bernardino Ave, Suite 150",,Redlands,CA,92374,United States,(909) 748-0200,34.077412,-117.2041291,Sun-Thu:10:30AM-10PM;Sun-Thu:10:30AM-10PM;,,0
Haven Village,,"6417 Haven Ave, Suite 2",,Rancho Cucamonga,CA,91737,United States,,34.137533,-117.5757806,,,1
Fremont Hub,,39010 Argonaut Way,,Fremont,CA,94538,United States,(510) 298-4314,37.5458265,-121.9900878,Sun-Thu:10:30AM-10PM;Sun-Thu:10:30AM-10PM;,,0
Downey Promenade,,8896 Apollo Way,,Downey,CA,90242,United States,(562) 299-0344,33.9227229,-118.1310079,Sun-Thu:10:30AM-10PM;Sun-Thu:10:30AM-10PM;,,0
Dana Drive,,913 Dana Dr,,Redding,CA,96003,United States,(530) 605-4727,40.5855491,-122.3564408,Sun-Thu:10:30AM-10PM;Sun-Thu:10:30AM-10PM;,,0
Cupertino Village,,"10815 N Wolfe Rd, Suite 106",,Cupertino,CA,95014,United States,(669) 242-8311,37.3355123,-122.0146664,Sun-Thu:10:30AM-10PM;Sun-Thu:10:30AM-10PM;,,0
Culver City,,"8985 Venice Blvd, Suite K",,Los Angeles,CA,90034,United States,(424) 345-9282,34.0276773,-118.3929623,Sun-Thu:10:30AM-10PM;Sun-Thu:10:30AM-10PM;,,0
Coleman Landings,,530 Newhall Dr,,San Jose,CA,95110,United States,(408) 418-1123,37.350993,-121.9233626,Sun-Thu:10:30AM-10PM;Sun-Thu:10:30AM-10PM;,,0
Cochrane Road,,1031 Cochrane Rd,,Morgan Hill,CA,95037,United States,(669) 258-0000,37.1548142,-121.6505894,Sun-Thu:10:30AM-10PM;Sun-Thu:10:30AM-10PM;,,0
Cochran Street,,"2941 Cochran St, Unit 1A",,Simi Valley,CA,93065,United States,(805) 842-4442,34.2798383,-118.739607,Sun-Thu:10:30AM-10PM;Sun-Thu:10:30AM-10PM;,,0
Cerritos Center,,"453 Los Cerritos Center, Suite E11",,Cerritos,CA,90703,United States,,33.8604149,-118.092912,,,1
Brokaw Plaza,,"1068 E Brokaw Rd, Suite 70",,San Jose,CA,95131,United States,(669) 242-8805,37.3827458,-121.8972094,Sun-Thu:10:30AM-10PM;Sun-Thu:10:30AM-10PM;,,0
Bixby Knolls,,4230 Long Beach Blvd,,Long Beach,CA,90807,United States,(562) 336-1787,33.835205,-118.1896019,Sun-Thurs:10:30AM-10PM;Sun-Thurs:10:30AM-10PM;,,0
Auburn Village,,2150 Grass Valley Hwy,,Auburn,CA,95603,United States,,38.9337044,-121.0911323,,,1
Arlington Plaza,,3444 Arlington Ave,,Riverside,CA,92506,United States,(951) 374-5255,33.9460722,-117.3867976,Sun-Thurs:10:30AM-10PM;Sun-Thurs:10:30AM-10PM;,,0
Arden,,"2100 Arden Way, Suite 180",,Sacramento,CA,95825,United States,(916) 515-9834,38.5957511,-121.4162368,Sun-Sat:10:30-10PM;Sun-Sat:10:30-10PM;,,0
Almaden Ranch,,5130 Cherry Ave,,San Jose,CA,95118,United States,(669) 400-5744,37.2581192,-121.8745853,Sun-Thu:10:30AM-10PM;Sun-Thu:10:30AM-10PM;,,0
Wilmot Plaza,,6351 E Broadway Blvd,,Tucson,AZ,85710,United States,(520) 908-6494,32.2212618,-110.856881,Sun-Thu:10:30AM-9PM;Sun-Thu:10:30AM-9PM;,,0
Signal Butte,,"1804 S Signal Butte Rd, Suite 105",,Mesa,AZ,85209,United States,(602) 283-9836,33.3823625,-111.6004045,Sun-Thu:10:30AM-9PM;Sun-Thu:10:30AM-9PM;,,0
Scottsdale & Shea,,"10893 N Scottsdale Rd, Suite 101",,Scottsdale,AZ,85254,United States,(602) 314-8297,33.5854588,-111.9248866,Sun-Thu:10:30AM-9PM;Sun-Thu:10:30AM-9PM;,,0
SanTan,,2904 S San Tan Village Parkway Ste. 101,,Gilbert,AZ,85295,United States,(480) 214-6305,33.2977433,-111.742993,Sun-Thu:10:30AM-9PM;Sun-Thu:10:30AM-9PM;,,0
San Dorado,,"10580 N Oracle Rd, Suite 150",,Oro Valley,AZ,85737,United States,(520) 407-6870,32.3980977,-110.9563308,Sun-Thu:10:30AM-9PM;Sun-Thu:10:30AM-9PM;,,0
QC District,,"21295 S Ellsworth Loop Rd, Suite 101",,Queen Creek,AZ,85142,United States,(602) 483-5075,33.2555064,-111.6380674,Sun-Thu:10:30AM-9PM;Sun-Thu:10:30AM-9PM;,,0
Paseo Lindo,,"3977 S Arizona Ave, Suite 4",,Chandler,AZ,85248,United States,(602) 283-2819,33.2481459,-111.8406711,Sun-Thu:10:30AM-9PM;Sun-Thu:10:30AM-9PM;,,0
Palm Valley,,"1380 N Litchfield Rd, Suite K3",,Goodyear,AZ,85395,United States,(602) 812-5777,33.4622248,-112.359517,Sun-Thu:10:30AM-9PM;Sun-Thu:10:30AM-9PM;,,0
Oracle & Wetmore,,"4386 N Oracle Rd, Suite 150",,Tucson,AZ,85705,United States,(520) 448-5838,32.2859451,-110.9746907,Sun-Thu:10:30AM-9PM;Sun-Thu:10:30AM-9PM;,,0
Metrocenter,,3121 W Peoria Ave #101,,Phoenix,AZ,85029,United States,(623) 243-9724,33.5814492,-112.1263247,Sun-Thu:10:30AM-9PM;Sun-Thu:10:30AM-9PM;,,0
Discovery Business Campus,,"2020 E Elliot Rd, Suite 101",,Tempe,AZ,85283,United States,(602) 314-8166,33.3497776,-111.9015632,Sun-Thu:10:30AM-9PM;Sun-Thu:10:30AM-9PM;,,0
Bayshore Plaza,,830 W Warner Rd,,Gilbert,AZ,85233,United States,(602) 313-5666,33.3360173,-111.8076176,Sun-Thu:10:30AM-9PM;Sun-Thu:10:30AM-9PM;,,0
Arrowhead,,"7480 W Bell Rd, Suite 110",,Glendale,AZ,85308,United States,(602) 476-5575,33.6399742,-112.2196653,Sun-Thu:10:30AM-9PM;Sun-Thu:10:30AM-9PM;,,0
Ahwatukee,,"4025 E Chandler Blvd, Suite 74",,Phoenix,AZ,85048,United States,(602) 422-8875,33.3044612,-111.9945753,Sun-Thu:10:30AM-9PM;Sun-Thu:10:30AM-9PM;,,0
